     0.02500000      -12345.00      -12345.00   2.508770e+09      -12345.00
   0.0005000000       1859.975      -691.0195      -12345.00      -12345.00
      -12345.00      -12345.00      -12345.00      -12345.00      -12345.00
      -12345.00      -12345.00      -12345.00      -12345.00      -12345.00
      -12345.00      -12345.00      -12345.00      -12345.00      -12345.00
      -12345.00      -12345.00      -12345.00      -12345.00      -12345.00
      -12345.00       22.27760       114.1415       196.3000       0.000000
      -42.72450       173.0647      -12345.00       22.00000      -12345.00
      -12345.00      -12345.00      -12345.00      -12345.00      -12345.00
      -12345.00      -12345.00      -12345.00      -12345.00      -12345.00
       9384.848       307.1452       140.6429       84.40370      -12345.00
      -12345.00      -12345.00       0.000000       0.000000      -12345.00
      -12345.00      -12345.00      -12345.00      -12345.00      -12345.00
      -12345.00      -12345.00      -12345.00      -12345.00      -12345.00
      2016       318        11        14        30
        19         6    -12345    -12345     74400
    -12345    -12345    -12345    -12345    -12345
         1    -12345    -12345    -12345    -12345
    -12345    -12345    -12345    -12345    -12345
    -12345    -12345    -12345    -12345    -12345
    -12345    -12345    -12345    -12345    -12345
         1    -12345    -12345    -12345    -12345
HKPS    South Island, Ne
-12345  -12345  -12345  
-12345  -12345  -12345  
-12345  -12345  -12345  
-12345  -12345  -12345  
-12345  -12345  -12345  
-12345  -12345  BHZ     
HK      -12345  Streckei
[...]
       149528.0       150322.0       151098.0       151869.0       152668.0
       153514.0       154325.0       155099.0       155912.0       156704.0
       157515.0       158324.0       159134.0       159945.0       160717.0
       161546.0       162319.0       163094.0       163939.0       164729.0
       165599.0       166556.0       167451.0       168245.0       168969.0
       169818.0       170737.0       171511.0       172282.0       173112.0
       173927.0       174705.0       175406.0       176113.0       176836.0
       177497.0       178189.0       179016.0       179772.0       180451.0
       181270.0       182123.0       182956.0       183747.0       184401.0
       185034.0       185808.0       186689.0       187499.0       188267.0
       189085.0       189973.0       190905.0       191732.0       192488.0
       193326.0       194217.0       194946.0       195659.0       196619.0
       197497.0       198279.0       199156.0       200053.0       200931.0
       201732.0       202603.0       203508.0       204366.0       205246.0
       206012.0       206780.0       207694.0       208570.0       209265.0
       210016.0       210870.0       211590.0       212362.0       213277.0
       214093.0       214767.0       215535.0       216479.0       217361.0
       218031.0       218760.0       219655.0       220338.0       220936.0
       221783.0       222618.0       223263.0       223993.0       224890.0
       225622.0       226217.0       226878.0       227641.0       228495.0
       229178.0       229774.0       230541.0       231228.0       231632.0
       232030.0       232693.0       233464.0       234077.0       234545.0
       235099.0       235727.0       236323.0       236839.0       237286.0
       237821.0       238373.0       238863.0       239364.0       239843.0
       240270.0       240738.0       241189.0       241633.0       242188.0
       242661.0       243003.0       243382.0       243746.0       243939.0
       244192.0       244697.0       245074.0       245270.0       245637.0
       246099.0       246379.0       246560.0       246838.0       247211.0
       247634.0       248038.0       248316.0       248572.0       248806.0
       248904.0       249133.0       249456.0       249664.0       249943.0
       250275.0       250564.0       250726.0       250734.0       250830.0
       250971.0       251071.0       251283.0       251369.0       251367.0
       251517.0       251596.0       251616.0       251669.0       251629.0
       251486.0       251513.0       251660.0       251710.0       251828.0
       251910.0       251924.0       251990.0       252065.0       252153.0
       252235.0       252383.0       252508.0       252581.0       252781.0
       253011.0       253202.0       253449.0       253632.0       253815.0
       254069.0       254237.0       254536.0       254917.0       255175.0
       255503.0       255827.0       255983.0       256100.0       256352.0
       256638.0       256819.0       256906.0       256923.0       256982.0
       257110.0       257287.0       257416.0       257495.0       257571.0
       257596.0       257689.0       257737.0       257594.0       257386.0
       257228.0       257162.0       257058.0       256990.0       257062.0
       256983.0       256790.0       256594.0       256325.0       256098.0
       255935.0       255758.0       255568.0       255403.0       255152.0
       254881.0       254733.0       254561.0       254416.0       254257.0
       253895.0       253528.0       253260.0       252994.0       252687.0
       252414.0       252178.0       251819.0       251521.0       251274.0
       250864.0       250627.0       250599.0       250361.0       249906.0
       249524.0       249276.0       248958.0       248552.0       248281.0
       248063.0       247747.0       247580.0       247493.0       247208.0
       247045.0       247091.0       246887.0       246413.0       246192.0
       246242.0       245914.0       245368.0       245310.0       245456.0
       245099.0       244611.0       244570.0       244543.0       244250.0
       244058.0       244057.0       244015.0       243909.0       243820.0
       243689.0       243495.0       243344.0       243195.0       242995.0
       242855.0       242772.0       242631.0       242378.0       242115.0
       241774.0       241414.0       241214.0       240939.0       240548.0
       240200.0       239844.0       239494.0       239108.0       238675.0
       238359.0       238038.0       237536.0       237027.0       236584.0
       236057.0       235625.0       235346.0       234880.0       234332.0
       233934.0       233459.0       232841.0       232315.0       231804.0
       231261.0       230705.0       230102.0       229623.0       229115.0
       228577.0       228196.0       227782.0       227294.0       226787.0
       226302.0       225934.0       225596.0       225199.0       224841.0
       224515.0       224162.0       223766.0       223236.0       222759.0
       222607.0       222332.0       221680.0       221247.0       220957.0
       220450.0       219932.0       219550.0       219331.0       218998.0
       218372.0       217760.0       217315.0       216965.0       216559.0
       216060.0       215584.0       215105.0       214665.0       214220.0
       213718.0       213299.0       212995.0       212644.0       212193.0
       211792.0       211433.0       211133.0       210843.0       210505.0
       210179.0       209630.0       209067.0       208699.0       208270.0
       207890.0       207380.0       206733.0       206287.0       205860.0
       205345.0       204773.0       204273.0       203846.0       203237.0
       202608.0       202173.0       201660.0       201009.0       200452.0
       199975.0       199441.0       198655.0       197881.0       197426.0
       196934.0       196244.0       195591.0       195022.0       194423.0
       193741.0       192988.0       192325.0       191719.0       190984.0
       190219.0       189558.0       188997.0       188438.0       187822.0
       187229.0       186745.0       186196.0       185561.0       185058.0
       184485.0       183803.0       183192.0       182595.0       182081.0
       181474.0       180773.0       180310.0       179822.0       179165.0
       178610.0       178147.0       177697.0       177184.0       176556.0
       176019.0       175614.0       175121.0       174530.0       173990.0
       173425.0       172816.0       172378.0       171896.0       171289.0
       170830.0       170380.0       169855.0       169296.0       168684.0
       168146.0       167636.0       167094.0       166646.0       166313.0
       165893.0       165341.0       164934.0       164596.0       164093.0
       163514.0       162959.0       162441.0       161874.0       161269.0
       160733.0       160209.0       159642.0       159152.0       158679.0
       158234.0       157825.0       157195.0       156552.0       156022.0
       155436.0       154851.0       154326.0       153899.0       153443.0
       152983.0       152501.0       151858.0       151356.0       151090.0
       150727.0       150210.0       149895.0       149739.0       149332.0
       148807.0       148527.0       148454.0       148222.0       147852.0
       147547.0       147247.0       146994.0       146759.0       146498.0
       146205.0       145847.0       145556.0       145437.0       145333.0
       145105.0       144821.0       144497.0       144178.0       143917.0
       143735.0       143550.0       143242.0       142998.0       142821.0
       142471.0       142090.0       141777.0       141438.0       141270.0
       141064.0       140675.0       140444.0       140219.0       139866.0
       139485.0       139216.0       139099.0       138877.0       138500.0
       138155.0       137921.0       137675.0       137342.0       137089.0
       136920.0       136678.0       136391.0       136136.0       135985.0
       135831.0       135603.0       135465.0       135288.0       135008.0
       134872.0       134830.0       134626.0       134367.0       134236.0
       134045.0       133815.0       133618.0       133389.0       133350.0
       133379.0       133234.0       133053.0       132953.0       132901.0
       132791.0       132663.0       132540.0       132389.0       132343.0
       132328.0       132263.0       132251.0       132149.0       131909.0
       131691.0       131543.0       131456.0       131360.0       131205.0
       131047.0       130945.0       130823.0       130587.0       130355.0
       130112.0       129848.0       129648.0       129427.0       129371.0
       129317.0       129056.0       128987.0       128971.0       128824.0
       128678.0       128552.0       128470.0       128426.0       128437.0
       128278.0       128057.0       128113.0       128149.0       127966.0
       127827.0       127795.0       127803.0       127741.0       127509.0
       127383.0       127398.0       127310.0       127089.0       126788.0
       126637.0       126554.0       126327.0       126167.0       126045.0
       125874.0       125743.0       125545.0       125266.0       125013.0
       124781.0       124595.0       124392.0       124031.0       123721.0
       123527.0       123176.0       122772.0       122419.0       122043.0
       121740.0       121442.0       121070.0       120746.0       120426.0
       119992.0       119534.0       119168.0       118808.0       118422.0
       118184.0       118059.0       117842.0       117554.0       117233.0
       116838.0       116476.0       116187.0       115975.0       115800.0
       115544.0       115315.0       115147.0       114923.0       114624.0
       114290.0       114012.0       113750.0       113404.0       113176.0
       112996.0       112747.0       112660.0       112498.0       112130.0
       111788.0       111552.0       111333.0       111039.0       110848.0
       110726.0       110535.0       110317.0       110052.0       109710.0
       109344.0       109056.0       108860.0       108699.0       108483.0
       108214.0       107930.0       107595.0       107272.0       106983.0
       106704.0       106501.0       106236.0       105829.0       105532.0
       105417.0       105198.0       104739.0       104283.0       104047.0
       103816.0       103304.0       102813.0       102486.0       102053.0
       101608.0       101231.0       100921.0       100697.0       100342.0
       99845.00       99351.00       98807.00       98231.00       97754.00
       97450.00       97171.00       96795.00       96359.00       95909.00
       95505.00       95050.00       94591.00       94264.00       93924.00
       93473.00       93017.00       92651.00       92246.00       91698.00
       91113.00       90552.00       90043.00       89578.00       89069.00
       88486.00       87897.00       87360.00       86812.00       86135.00
       85411.00       84756.00       83973.00       83204.00       82564.00
       81714.00       80881.00       80178.00       79404.00       78599.00
       77801.00       77043.00       76161.00       75204.00       74281.00
       73285.00       72337.00       71447.00       70448.00       69369.00
       68397.00       67480.00       66359.00       65228.00       64322.00
       63414.00       62324.00       61213.00       60317.00       59418.00
       58342.00       57368.00       56489.00       55535.00       54576.00
       53626.00       52668.00       51769.00       50953.00       50146.00
       49293.00       48487.00       47613.00       46662.00       45842.00
       45010.00       44133.00       43388.00       42714.00       42059.00
       41391.00       40583.00       39754.00       38868.00       37868.00
       37000.00       36164.00       35282.00       34422.00       33647.00
       32947.00       32109.00       31161.00       30153.00       29197.00
       28294.00       27161.00       25991.00       25040.00       24155.00
       23161.00       22073.00       21028.00       20026.00       19024.00
       17982.00       16753.00       15354.00       14187.00       13233.00
       12096.00       10948.00       9878.000       8755.000       7597.000
       6352.000       5092.000       3913.000       2865.000       1906.000
       848.0000      -284.0000      -1419.000      -2530.000      -3628.000
      -4883.000      -6131.000      -7224.000      -8274.000      -9316.000
      -10300.00      -11156.00      -12157.00      -13308.00      -14412.00
      -15572.00      -16592.00      -17447.00      -18405.00      -19465.00
      -20493.00      -21451.00      -22452.00      -23377.00      -24173.00
      -25115.00      -26117.00      -27021.00      -27934.00      -28849.00
      -29677.00      -30504.00      -31314.00      -32057.00      -33036.00
      -34082.00      -34853.00      -35641.00      -36541.00      -37466.00
      -38376.00      -39168.00      -39973.00      -40797.00      -41638.00
      -42479.00      -43208.00      -44051.00      -44906.00      -45566.00
      -46330.00      -47207.00      -47961.00      -48696.00      -49491.00
      -50306.00      -51163.00      -52036.00      -52907.00      -53828.00
      -54820.00      -55794.00      -56774.00      -57849.00      -58894.00
      -59749.00      -60505.00      -61379.00      -62448.00      -63592.00
      -64661.00      -65645.00      -66682.00      -67868.00      -68996.00
      -70029.00      -71058.00      -72064.00      -73206.00      -74341.00
      -75385.00      -76533.00      -77675.00      -78792.00      -79937.00
      -81061.00      -82172.00      -83187.00      -84206.00      -85392.00
      -86562.00      -87695.00      -88974.00      -90207.00      -91334.00
      -92547.00      -93791.00      -94949.00      -96085.00      -97256.00
      -98412.00      -99662.00      -100980.0      -102272.0      -103610.0
      -104936.0      -106222.0      -107416.0      -108568.0      -109955.0
      -111341.0      -112469.0      -113684.0      -115040.0      -116389.0
      -117632.0      -118748.0      -119910.0      -121131.0      -122451.0
      -123768.0      -124930.0      -126051.0      -127180.0      -128339.0
      -129516.0      -130629.0      -131689.0      -132685.0      -133699.0
      -134894.0      -136075.0      -137000.0      -137929.0      -138971.0
      -139935.0      -141009.0      -142077.0      -142990.0      -144014.0
      -144979.0      -145849.0      -146772.0      -147713.0      -148627.0
      -149512.0      -150527.0      -151615.0      -152632.0      -153562.0
      -154561.0      -155656.0      -156562.0      -157449.0      -158560.0
      -159622.0      -160477.0      -161290.0      -162233.0      -163248.0
      -164167.0      -164952.0      -165622.0      -166368.0      -167264.0
      -168085.0      -168864.0      -169659.0      -170468.0      -171377.0
      -172235.0      -172941.0      -173626.0      -174507.0      -175475.0
      -176333.0      -177128.0      -177805.0      -178543.0      -179416.0
      -180340.0      -181213.0      -182016.0      -182991.0      -183770.0
      -184415.0      -185442.0      -186420.0      -187137.0      -187887.0
      -188807.0      -189769.0      -190381.0      -190944.0      -191765.0
      -192537.0      -193289.0      -194014.0      -194741.0      -195547.0
      -196298.0      -196962.0      -197627.0      -198379.0      -199052.0
      -199667.0      -200362.0      -200976.0      -201453.0      -202067.0
      -202867.0      -203522.0      -204015.0      -204487.0      -205036.0
      -205706.0      -206241.0      -206821.0      -207655.0      -208381.0
      -208984.0      -209566.0      -210164.0      -210708.0      -211114.0
      -211710.0      -212439.0      -212980.0      -213513.0      -214319.0
      -215120.0      -215563.0      -215998.0      -216728.0      -217357.0
      -217767.0      -218355.0      -219164.0      -219909.0      -220582.0
      -221393.0      -222170.0      -222773.0      -223474.0      -224162.0
      -224686.0      -225373.0      -226158.0      -226869.0      -227613.0
      -228310.0      -228965.0      -229751.0      -230519.0      -231095.0
      -231700.0      -232410.0      -233035.0      -233463.0      -233906.0
      -234549.0      -235101.0      -235547.0      -236147.0      -236866.0
      -237566.0      -238164.0      -238731.0      -239287.0      -239798.0
      -240393.0      -240977.0      -241493.0      -242106.0      -242851.0
      -243522.0      -244045.0      -244738.0      -245369.0      -245779.0
      -246362.0      -247053.0      -247657.0      -248143.0      -248683.0
      -249370.0      -250000.0      -250610.0      -251266.0      -251806.0
      -252289.0      -252867.0      -253476.0      -254021.0      -254517.0
      -255108.0      -255754.0      -256250.0      -256711.0      -257305.0
      -257957.0      -258552.0      -259073.0      -259546.0      -259996.0
      -260607.0      -261241.0      -261657.0      -262093.0      -262717.0
      -263428.0      -264042.0      -264491.0      -264880.0      -265382.0
      -265914.0      -266423.0      -267058.0      -267695.0      -268248.0
      -268851.0      -269474.0      -269932.0      -270180.0      -270471.0
      -270999.0      -271568.0      -272083.0      -272611.0      -273035.0
      -273376.0      -273826.0      -274256.0      -274509.0      -274809.0
      -275228.0      -275578.0      -275761.0      -275995.0      -276297.0
      -276302.0      -276234.0      -276437.0      -276571.0      -276607.0
      -276785.0      -276877.0      -276872.0      -276934.0      -277005.0
      -277140.0      -277241.0      -277254.0      -277369.0      -277547.0
      -277680.0      -277853.0      -278122.0      -278242.0      -278216.0
      -278304.0      -278465.0      -278752.0      -279006.0      -279059.0
      -279213.0      -279506.0      -279840.0      -280247.0      -280682.0
      -280921.0      -281053.0      -281456.0      -281992.0      -282306.0
      -282372.0      -282617.0      -283080.0      -283408.0      -283658.0
      -283888.0      -284202.0      -284560.0      -284808.0      -285161.0
      -285510.0      -285631.0      -285820.0      -286121.0      -286352.0
      -286593.0      -286909.0      -287281.0      -287508.0      -287714.0
