     0.02500000      -12345.00      -12345.00   2.508770e+09      -12345.00
   0.0005000000       1859.975      -691.0195      -12345.00      -12345.00
      -12345.00      -12345.00      -12345.00      -12345.00      -12345.00
      -12345.00      -12345.00      -12345.00      -12345.00      -12345.00
      -12345.00      -12345.00      -12345.00      -12345.00      -12345.00
      -12345.00      -12345.00      -12345.00      -12345.00      -12345.00
      -12345.00       22.27760       114.1415       196.3000       0.000000
      -42.72450       173.0647      -12345.00       22.00000      -12345.00
      -12345.00      -12345.00      -12345.00      -12345.00      -12345.00
      -12345.00      -12345.00      -12345.00      -12345.00      -12345.00
       9384.848       307.1452       140.6429       84.40370      -12345.00
      -12345.00      -12345.00       0.000000       90.00000      -12345.00
      -12345.00      -12345.00      -12345.00      -12345.00      -12345.00
      -12345.00      -12345.00      -12345.00      -12345.00      -12345.00
      2016       318        11        14        30
        19         6    -12345    -12345     74400
    -12345    -12345    -12345    -12345    -12345
         1    -12345    -12345    -12345    -12345
    -12345    -12345    -12345    -12345    -12345
    -12345    -12345    -12345    -12345    -12345
    -12345    -12345    -12345    -12345    -12345
         1    -12345    -12345    -12345    -12345
HKPS    South Island, Ne
-12345  -12345  -12345  
-12345  -12345  -12345  
-12345  -12345  -12345  
-12345  -12345  -12345  
-12345  -12345  -12345  
-12345  -12345  BHN     
HK      -12345  Streckei
[...]
       180529.0       180708.0       180835.0       181011.0       181135.0
       181235.0       181465.0       181633.0       181738.0       181972.0
       182326.0       182572.0       182686.0       182900.0       183158.0
       183426.0       183685.0       183847.0       184053.0       184231.0
       184389.0       184559.0       184728.0       185013.0       185236.0
       185410.0       185602.0       185862.0       186162.0       186396.0
       186583.0       186730.0       187102.0       187451.0       187521.0
       187700.0       187957.0       188202.0       188418.0       188474.0
       188585.0       188825.0       189048.0       189268.0       189409.0
       189495.0       189662.0       189883.0       190002.0       190061.0
       190286.0       190430.0       190433.0       190547.0       190728.0
       190949.0       191025.0       191065.0       191227.0       191259.0
       191303.0       191362.0       191429.0       191539.0       191598.0
       191767.0       191848.0       191923.0       192149.0       192214.0
       192238.0       192423.0       192559.0       192493.0       192379.0
       192377.0       192534.0       192713.0       192735.0       192726.0
       192738.0       192784.0       192901.0       192957.0       193036.0
       193121.0       193100.0       193054.0       193043.0       193164.0
       193243.0       193198.0       193119.0       193042.0       193063.0
       193028.0       193033.0       193207.0       193237.0       193181.0
       193234.0       193247.0       193193.0       193209.0       193238.0
       193215.0       193205.0       193178.0       193095.0       193078.0
       193186.0       193201.0       193174.0       193192.0       193195.0
       193297.0       193304.0       193190.0       193153.0       193257.0
       193335.0       193243.0       193270.0       193378.0       193348.0
       193324.0       193349.0       193418.0       193547.0       193528.0
       193483.0       193589.0       193619.0       193595.0       193611.0
       193584.0       193554.0       193540.0       193527.0       193510.0
       193535.0       193639.0       193652.0       193658.0       193707.0
       193698.0       193767.0       193869.0       193947.0       193963.0
       193964.0       194033.0       194017.0       194061.0       194278.0
       194511.0       194643.0       194630.0       194679.0       194780.0
       194863.0       195014.0       195093.0       195119.0       195231.0
       195395.0       195522.0       195675.0       195815.0       195900.0
       195992.0       196015.0       196059.0       196104.0       196147.0
       196213.0       196178.0       196138.0       196126.0       196128.0
       196079.0       195988.0       195950.0       195940.0       195912.0
       195775.0       195703.0       195649.0       195418.0       195314.0
       195277.0       195136.0       195000.0       194860.0       194797.0
       194697.0       194608.0       194589.0       194465.0       194344.0
       194174.0       194048.0       193941.0       193698.0       193523.0
       193317.0       193186.0       193201.0       193006.0       192737.0
       192599.0       192410.0       192111.0       191746.0       191458.0
       191237.0       190949.0       190795.0       190602.0       190264.0
       190129.0       189932.0       189441.0       189084.0       188890.0
       188425.0       187854.0       187590.0       187261.0       186685.0
       186313.0       185906.0       185462.0       185166.0       184627.0
       184057.0       183562.0       183067.0       182618.0       182124.0
       181793.0       181482.0       180948.0       180441.0       180090.0
       179557.0       178898.0       178410.0       177860.0       177275.0
       176920.0       176592.0       175930.0       175225.0       174798.0
       174226.0       173532.0       173000.0       172459.0       171827.0
       171143.0       170502.0       169851.0       169197.0       168660.0
       168087.0       167404.0       166681.0       166091.0       165474.0
       164759.0       164187.0       163495.0       162817.0       162318.0
       161688.0       160990.0       160304.0       159692.0       159090.0
       158335.0       157642.0       156948.0       156094.0       155379.0
       154740.0       153974.0       153148.0       152339.0       151645.0
       150866.0       149945.0       149154.0       148459.0       147634.0
       146732.0       145866.0       144903.0       143957.0       143151.0
       142246.0       141276.0       140434.0       139669.0       138851.0
       137942.0       137041.0       136034.0       134936.0       134033.0
       133100.0       132008.0       130993.0       130000.0       129010.0
       127974.0       126895.0       125905.0       124943.0       123926.0
       122746.0       121588.0       120599.0       119488.0       118216.0
       117140.0       116137.0       114911.0       113908.0       112897.0
       111614.0       110580.0       109585.0       108415.0       107148.0
       105947.0       104946.0       103774.0       102567.0       101535.0
       100345.0       99102.00       97992.00       96873.00       95679.00
       94622.00       93660.00       92503.00       91345.00       90284.00
       89116.00       87826.00       86684.00       85568.00       84247.00
       83036.00       81864.00       80688.00       79511.00       78219.00
       76997.00       75804.00       74680.00       73442.00       72087.00
       70978.00       69689.00       68275.00       67052.00       65720.00
       64502.00       63238.00       61723.00       60476.00       59374.00
       58068.00       56703.00       55507.00       54314.00       52943.00
       51618.00       50522.00       49523.00       48284.00       46950.00
       45752.00       44638.00       43583.00       42421.00       41214.00
       40029.00       38949.00       37915.00       36654.00       35429.00
       34364.00       33267.00       32088.00       30974.00       29888.00
       28677.00       27520.00       26432.00       25279.00       24018.00
       22918.00       21835.00       20549.00       19492.00       18466.00
       17353.00       16257.00       15036.00       13930.00       12760.00
       11462.00       10386.00       9318.000       8164.000       7007.000
       5797.000       4582.000       3387.000       2210.000       917.0000
      -366.0000      -1517.000      -2857.000      -4273.000      -5490.000
      -6716.000      -8086.000      -9447.000      -10700.00      -12067.00
      -13453.00      -14700.00      -16050.00      -17405.00      -18597.00
      -19742.00      -21162.00      -22715.00      -24035.00      -25323.00
      -26673.00      -28097.00      -29473.00      -30681.00      -31968.00
      -33439.00      -34808.00      -36013.00      -37436.00      -38820.00
      -39992.00      -41280.00      -42530.00      -43866.00      -45303.00
      -46504.00      -47730.00      -49119.00      -50421.00      -51567.00
      -52683.00      -53895.00      -55186.00      -56526.00      -57858.00
      -59120.00      -60412.00      -61658.00      -62670.00      -63715.00
      -65003.00      -66178.00      -67224.00      -68416.00      -69546.00
      -70730.00      -72039.00      -73061.00      -74098.00      -75287.00
      -76450.00      -77685.00      -78714.00      -79737.00      -80936.00
      -82034.00      -83126.00      -84209.00      -85214.00      -86277.00
      -87494.00      -88668.00      -89702.00      -90794.00      -91981.00
      -93251.00      -94503.00      -95625.00      -96740.00      -97873.00
      -99138.00      -100504.0      -101663.0      -102908.0      -104279.0
      -105487.0      -106835.0      -108145.0      -109327.0      -110705.0
      -112078.0      -113374.0      -114638.0      -115943.0      -117369.0
      -118706.0      -119994.0      -121292.0      -122541.0      -123901.0
      -125259.0      -126507.0      -127850.0      -129208.0      -130551.0
      -131943.0      -133292.0      -134622.0      -135930.0      -137269.0
      -138716.0      -140098.0      -141386.0      -142787.0      -144186.0
      -145463.0      -146776.0      -148136.0      -149542.0      -150945.0
      -152207.0      -153482.0      -154976.0      -156418.0      -157688.0
      -159030.0      -160331.0      -161565.0      -162916.0      -164332.0
      -165694.0      -166937.0      -168287.0      -169730.0      -170975.0
      -172271.0      -173696.0      -175070.0      -176349.0      -177644.0
      -179115.0      -180554.0      -181814.0      -182931.0      -184094.0
      -185434.0      -186751.0      -188003.0      -189186.0      -190404.0
      -191778.0      -193077.0      -194328.0      -195610.0      -196906.0
      -198239.0      -199486.0      -200660.0      -201874.0      -203201.0
      -204470.0      -205658.0      -206920.0      -208124.0      -209374.0
      -210809.0      -212167.0      -213430.0      -214819.0      -216094.0
      -217186.0      -218461.0      -219782.0      -220956.0      -222166.0
      -223420.0      -224668.0      -225927.0      -227278.0      -228663.0
      -229802.0      -231070.0      -232497.0      -233587.0      -234744.0
      -236102.0      -237316.0      -238501.0      -239700.0      -240863.0
      -242001.0      -243105.0      -244215.0      -245446.0      -246725.0
      -247749.0      -248918.0      -250315.0      -251362.0      -252465.0
      -253783.0      -254814.0      -255760.0      -257026.0      -258280.0
      -259218.0      -260343.0      -261628.0      -262695.0      -263825.0
      -264977.0      -265980.0      -266982.0      -268063.0      -269135.0
      -270013.0      -270981.0      -272000.0      -272810.0      -273864.0
      -275084.0      -276099.0      -276915.0      -277729.0      -278765.0
      -279778.0      -280736.0      -281688.0      -282518.0      -283450.0
      -284438.0      -285348.0      -286279.0      -287179.0      -288140.0
      -289252.0      -290175.0      -290792.0      -291606.0      -292794.0
      -293820.0      -294574.0      -295415.0      -296325.0      -297229.0
      -298202.0      -299132.0      -299954.0      -300984.0      -302179.0
      -303145.0      -303924.0      -304803.0      -305901.0      -306980.0
      -307838.0      -308693.0      -309667.0      -310558.0      -311480.0
      -312628.0      -313665.0      -314482.0      -315488.0      -316525.0
      -317341.0      -318321.0      -319361.0      -320145.0      -321063.0
      -322220.0      -323195.0      -324033.0      -324931.0      -325899.0
      -326836.0      -327615.0      -328410.0      -329273.0      -330049.0
      -330822.0      -331725.0      -332572.0      -333305.0      -334022.0
      -334678.0      -335492.0      -336360.0      -337026.0      -337653.0
      -338363.0      -339150.0      -339923.0      -340665.0      -341401.0
      -342235.0      -342978.0      -343566.0      -344345.0      -345007.0
      -345498.0      -346156.0      -346831.0      -347508.0      -348173.0
      -348735.0      -349336.0      -349897.0      -350512.0      -351238.0
      -351809.0      -352463.0      -353156.0      -353542.0      -353894.0
      -354531.0      -355238.0      -355772.0      -356341.0      -356924.0
      -357339.0      -357754.0      -358328.0      -358850.0      -359341.0
      -360094.0      -360739.0      -361126.0      -361643.0      -362332.0
      -362939.0      -363433.0      -364026.0      -364569.0      -365040.0
      -365529.0      -366014.0      -366581.0      -367145.0      -367688.0
      -368140.0      -368558.0      -369197.0      -369924.0      -370426.0
      -370779.0      -371249.0      -371734.0      -372173.0      -372592.0
      -372908.0      -373230.0      -373709.0      -374151.0      -374443.0
      -374870.0      -375351.0      -375725.0      -376154.0      -376556.0
      -376859.0      -377282.0      -377711.0      -377862.0      -378125.0
      -378547.0      -378928.0      -379441.0      -379783.0      -380132.0
      -380643.0      -380894.0      -381121.0      -381486.0      -381877.0
      -382207.0      -382407.0      -382699.0      -382981.0      -383211.0
      -383472.0      -383731.0      -384113.0      -384410.0      -384647.0
      -384885.0      -385078.0      -385338.0      -385514.0      -385769.0
      -386021.0      -386192.0      -386437.0      -386537.0      -386682.0
      -386853.0      -387002.0      -387203.0      -387280.0      -387444.0
      -387560.0      -387572.0      -387694.0      -387724.0      -387772.0
      -388038.0      -388297.0      -388329.0      -388294.0      -388457.0
      -388572.0      -388546.0      -388644.0      -388719.0      -388694.0
      -388668.0      -388663.0      -388660.0      -388699.0      -388788.0
      -388689.0      -388597.0      -388594.0      -388454.0      -388363.0
      -388345.0      -388230.0      -388027.0      -387970.0      -388012.0
      -387843.0      -387704.0      -387713.0      -387553.0      -387266.0
      -387031.0      -386851.0      -386612.0      -386344.0      -386211.0
      -386037.0      -385772.0      -385610.0      -385386.0      -385121.0
      -384952.0      -384707.0      -384512.0      -384223.0      -383791.0
      -383492.0      -383043.0      -382601.0      -382333.0      -382003.0
      -381677.0      -381418.0      -381101.0      -380598.0      -380168.0
      -379795.0      -379410.0      -379071.0      -378550.0      -377988.0
      -377458.0      -377060.0      -376776.0      -376227.0      -375674.0
      -375217.0      -374687.0      -374310.0      -373887.0      -373285.0
      -372758.0      -372261.0      -371652.0      -371062.0      -370554.0
      -369911.0      -369367.0      -368876.0      -368244.0      -367647.0
      -366976.0      -366398.0      -365804.0      -365149.0      -364599.0
      -363965.0      -363370.0      -362730.0      -362010.0      -361419.0
      -360801.0      -360036.0      -359241.0      -358477.0      -357770.0
      -357098.0      -356300.0      -355450.0      -354723.0      -353955.0
      -353090.0      -352265.0      -351484.0      -350656.0      -349705.0
      -348767.0      -347913.0      -347092.0      -346198.0      -345144.0
      -344176.0      -343269.0      -342310.0      -341331.0      -340327.0
      -339421.0      -338399.0      -337222.0      -336239.0      -335342.0
      -334319.0      -333347.0      -332358.0      -331262.0      -330259.0
      -329161.0      -327987.0      -326972.0      -325998.0      -324925.0
      -323749.0      -322697.0      -321698.0      -320572.0      -319458.0
      -318316.0      -317140.0      -315998.0      -314818.0      -313680.0
      -312670.0      -311651.0      -310638.0      -309601.0      -308441.0
      -307295.0      -306157.0      -305070.0      -303868.0      -302608.0
      -301625.0      -300478.0      -299267.0      -298232.0      -297142.0
      -296086.0      -294967.0      -293878.0      -292760.0      -291528.0
      -290420.0      -289311.0      -288171.0      -287038.0      -285832.0
      -284761.0      -283735.0      -282504.0      -281317.0      -280239.0
      -279085.0      -277879.0      -276705.0      -275529.0      -274301.0
      -273046.0      -271792.0      -270559.0      -269288.0      -267991.0
      -266639.0      -265249.0      -263901.0      -262497.0      -261121.0
      -259813.0      -258422.0      -256965.0      -255527.0      -254145.0
      -252773.0      -251330.0      -249807.0      -248377.0      -247028.0
      -245482.0      -243953.0      -242652.0      -241304.0      -239830.0
      -238334.0      -236933.0      -235629.0      -234289.0      -232920.0
      -231512.0      -230137.0      -228814.0      -227429.0      -225961.0
      -224520.0      -223179.0      -221745.0      -220326.0      -218976.0
      -217593.0      -216154.0      -214556.0      -213145.0      -211877.0
      -210412.0      -208930.0      -207488.0      -206025.0      -204555.0
      -203128.0      -201746.0      -200253.0      -198755.0      -197356.0
      -195880.0      -194395.0      -192997.0      -191569.0      -190078.0
      -188620.0      -187057.0      -185470.0      -184120.0      -182713.0
      -181184.0      -179749.0      -178242.0      -176789.0      -175440.0
      -173812.0      -172133.0      -170609.0      -169160.0      -167647.0
      -165962.0      -164334.0      -162754.0      -161241.0      -159715.0
      -158156.0      -156675.0      -155171.0      -153667.0      -152202.0
      -150741.0      -149154.0      -147675.0      -146355.0      -144807.0
      -143249.0      -141791.0      -140338.0      -138941.0      -137413.0
      -135856.0      -134364.0      -132841.0      -131369.0      -129881.0
      -128343.0      -126946.0      -125583.0      -124102.0      -122751.0
      -121396.0      -119975.0      -118576.0      -117077.0      -115760.0
      -114513.0      -113149.0      -111782.0      -110392.0      -109078.0
      -107798.0      -106534.0      -105305.0      -103992.0      -102707.0
      -101526.0      -100264.0      -99095.00      -97964.00      -96700.00
      -95613.00      -94470.00      -93228.00      -92150.00      -91097.00
      -90025.00      -88789.00      -87632.00      -86702.00      -85540.00
      -84365.00      -83400.00      -82251.00      -81097.00      -80115.00
      -79075.00      -77987.00      -76770.00      -75579.00      -74580.00
      -73480.00      -72290.00      -71169.00      -70105.00      -69034.00
      -67822.00      -66670.00      -65700.00      -64648.00      -63589.00
      -62494.00      -61349.00      -60303.00      -59165.00      -58023.00
      -56881.00      -55646.00      -54491.00      -53418.00      -52294.00
      -51058.00      -49830.00      -48792.00      -47835.00      -46556.00
      -45270.00      -44339.00      -43270.00      -42005.00      -40840.00
      -39636.00      -38310.00      -37178.00      -36168.00      -34882.00
      -33536.00      -32387.00      -31342.00      -30129.00      -28780.00
      -27643.00      -26564.00      -25442.00      -24256.00      -22972.00
      -21839.00      -20766.00      -19621.00      -18419.00      -17144.00
      -16006.00      -14959.00      -13814.00      -12596.00      -11335.00
