     0.02500000      -12345.00      -12345.00   2.508770e+09      -12345.00
   0.0005000000       1859.975      -691.0195      -12345.00      -12345.00
      -12345.00      -12345.00      -12345.00      -12345.00      -12345.00
      -12345.00      -12345.00      -12345.00      -12345.00      -12345.00
      -12345.00      -12345.00      -12345.00      -12345.00      -12345.00
      -12345.00      -12345.00      -12345.00      -12345.00      -12345.00
      -12345.00       22.27760       114.1415       196.3000       0.000000
      -42.72450       173.0647      -12345.00       22.00000      -12345.00
      -12345.00      -12345.00      -12345.00      -12345.00      -12345.00
      -12345.00      -12345.00      -12345.00      -12345.00      -12345.00
       9384.848       307.1452       140.6429       84.40370      -12345.00
      -12345.00      -12345.00       90.00000       90.00000      -12345.00
      -12345.00      -12345.00      -12345.00      -12345.00      -12345.00
      -12345.00      -12345.00      -12345.00      -12345.00      -12345.00
      2016       318        11        14        30
        19         6    -12345    -12345     74400
    -12345    -12345    -12345    -12345    -12345
         1    -12345    -12345    -12345    -12345
    -12345    -12345    -12345    -12345    -12345
    -12345    -12345    -12345    -12345    -12345
    -12345    -12345    -12345    -12345    -12345
         1    -12345    -12345    -12345    -12345
HKPS    South Island, Ne
-12345  -12345  -12345  
-12345  -12345  -12345  
-12345  -12345  -12345  
-12345  -12345  -12345  
-12345  -12345  -12345  
-12345  -12345  BHE     
HK      -12345  Streckei
[...]
       298504.0       297911.0       297322.0       296800.0       296352.0
       295867.0       295304.0       294790.0       294276.0       293796.0
       293272.0       292692.0       292211.0       291735.0       291331.0
       290952.0       290459.0       290010.0       289594.0       289111.0
       288715.0       288284.0       287736.0       287294.0       286855.0
       286324.0       285779.0       285236.0       284647.0       284118.0
       283685.0       283195.0       282656.0       282101.0       281557.0
       281035.0       280516.0       279987.0       279456.0       278954.0
       278436.0       277814.0       277146.0       276571.0       275975.0
       275329.0       274811.0       274285.0       273593.0       272888.0
       272242.0       271514.0       270758.0       270084.0       269369.0
       268636.0       267831.0       266965.0       266226.0       265434.0
       264600.0       263835.0       263046.0       262165.0       261234.0
       260456.0       259616.0       258737.0       257992.0       257092.0
       256236.0       255481.0       254610.0       253629.0       252617.0
       251779.0       250918.0       249909.0       248975.0       248180.0
       247298.0       246236.0       245310.0       244436.0       243416.0
       242484.0       241653.0       240567.0       239400.0       238436.0
       237371.0       236379.0       235472.0       234382.0       233345.0
       232387.0       231370.0       230185.0       229124.0       228251.0
       227218.0       226196.0       225182.0       224102.0       223055.0
       222049.0       221051.0       219992.0       218980.0       217899.0
       216768.0       215762.0       214694.0       213550.0       212438.0
       211484.0       210565.0       209453.0       208349.0       207307.0
       206223.0       205170.0       204112.0       202947.0       201825.0
       200757.0       199660.0       198690.0       197614.0       196382.0
       195357.0       194293.0       193082.0       191934.0       190785.0
       189750.0       188574.0       187239.0       186118.0       184869.0
       183717.0       182808.0       181612.0       180338.0       179229.0
       178075.0       176690.0       175370.0       174287.0       173105.0
       171968.0       170784.0       169373.0       168216.0       167149.0
       165870.0       164593.0       163307.0       162128.0       161004.0
       159672.0       158431.0       157277.0       155982.0       154745.0
       153383.0       151915.0       150638.0       149360.0       148040.0
       146791.0       145582.0       144204.0       142728.0       141427.0
       140152.0       138837.0       137517.0       136262.0       135067.0
       133728.0       132329.0       130979.0       129577.0       128171.0
       126746.0       125262.0       123873.0       122475.0       121052.0
       119726.0       118329.0       116829.0       115305.0       113823.0
       112437.0       110986.0       109479.0       108155.0       106774.0
       105189.0       103673.0       102216.0       100778.0       99327.00
       97884.00       96468.00       94939.00       93457.00       92011.00
       90430.00       88916.00       87491.00       86002.00       84524.00
       83008.00       81353.00       79878.00       78488.00       76800.00
       75271.00       73995.00       72522.00       70899.00       69290.00
       67764.00       66315.00       64818.00       63236.00       61747.00
       60406.00       59079.00       57552.00       55915.00       54492.00
       53092.00       51565.00       50050.00       48573.00       47076.00
       45479.00       44040.00       42630.00       40999.00       39587.00
       38155.00       36438.00       34892.00       33429.00       31748.00
       29971.00       28400.00       26942.00       25397.00       23914.00
       22434.00       20823.00       19193.00       17616.00       16003.00
       14387.00       12915.00       11268.00       9463.000       7939.000
       6436.000       4788.000       3155.000       1561.000       39.00000
      -1506.000      -3092.000      -4733.000      -6396.000      -7955.000
      -9499.000      -11075.00      -12657.00      -14228.00      -15748.00
      -17221.00      -18730.00      -20351.00      -21977.00      -23381.00
      -24776.00      -26435.00      -27999.00      -29369.00      -30777.00
      -32245.00      -33777.00      -35253.00      -36699.00      -38128.00
      -39547.00      -41120.00      -42542.00      -43793.00      -45193.00
      -46616.00      -48056.00      -49461.00      -50748.00      -52218.00
      -53825.00      -55212.00      -56504.00      -57920.00      -59328.00
      -60638.00      -61937.00      -63367.00      -64806.00      -66124.00
      -67492.00      -68869.00      -70253.00      -71685.00      -73002.00
      -74289.00      -75635.00      -76971.00      -78390.00      -79926.00
      -81269.00      -82470.00      -83951.00      -85345.00      -86494.00
      -87824.00      -89143.00      -90367.00      -91639.00      -92986.00
      -94269.00      -95392.00      -96627.00      -97919.00      -99270.00
      -100512.0      -101572.0      -102930.0      -104221.0      -105350.0
      -106631.0      -107879.0      -109104.0      -110207.0      -111339.0
      -112645.0      -113835.0      -114954.0      -116184.0      -117330.0
      -118329.0      -119523.0      -120711.0      -121737.0      -122860.0
      -124150.0      -125415.0      -126334.0      -127482.0      -128796.0
      -129720.0      -130918.0      -132219.0      -133194.0      -134298.0
      -135571.0      -136699.0      -137717.0      -138879.0      -139902.0
      -140824.0      -141981.0      -143155.0      -144136.0      -145030.0
      -146123.0      -147130.0      -147987.0      -149152.0      -150218.0
      -150962.0      -151910.0      -152941.0      -153797.0      -154640.0
      -155469.0      -156291.0      -157159.0      -158056.0      -158917.0
      -159789.0      -160715.0      -161538.0      -162367.0      -163310.0
      -164111.0      -164789.0      -165639.0      -166571.0      -167375.0
      -168167.0      -168942.0      -169676.0      -170528.0      -171397.0
      -172197.0      -172949.0      -173649.0      -174364.0      -174986.0
      -175616.0      -176342.0      -177003.0      -177719.0      -178425.0
      -179044.0      -179704.0      -180272.0      -180885.0      -181563.0
      -182070.0      -182700.0      -183430.0      -184104.0      -184772.0
      -185332.0      -186055.0      -186858.0      -187464.0      -188088.0
      -188811.0      -189562.0      -190203.0      -190727.0      -191295.0
      -192000.0      -192746.0      -193295.0      -193786.0      -194403.0
      -195061.0      -195721.0      -196339.0      -196860.0      -197414.0
      -198078.0      -198581.0      -199118.0      -199886.0      -200421.0
      -200889.0      -201470.0      -201942.0      -202429.0      -202908.0
      -203414.0      -203931.0      -204448.0      -205090.0      -205618.0
      -206072.0      -206565.0      -206973.0      -207480.0      -208107.0
      -208650.0      -209031.0      -209430.0      -210068.0      -210646.0
      -211028.0      -211525.0      -212067.0      -212406.0      -212873.0
      -213483.0      -213890.0      -214437.0      -214987.0      -215322.0
      -215771.0      -216250.0      -216699.0      -217177.0      -217662.0
      -218078.0      -218378.0      -218784.0      -219340.0      -219754.0
      -220172.0      -220715.0      -221076.0      -221415.0      -221907.0
      -222338.0      -222670.0      -223190.0      -223746.0      -224019.0
      -224436.0      -225076.0      -225508.0      -225796.0      -226318.0
      -226948.0      -227365.0      -227635.0      -227927.0      -228367.0
      -228779.0      -229108.0      -229547.0      -229987.0      -230187.0
      -230394.0      -230826.0      -231155.0      -231393.0      -231744.0
      -232201.0      -232678.0      -232972.0      -233160.0      -233533.0
      -233938.0      -234157.0      -234463.0      -234835.0      -235103.0
      -235503.0      -235839.0      -236068.0      -236504.0      -236880.0
      -237205.0      -237577.0      -237851.0      -238169.0      -238466.0
      -238654.0      -238995.0      -239509.0      -239846.0      -240160.0
      -240657.0      -241076.0      -241349.0      -241745.0      -242242.0
      -242531.0      -242923.0      -243468.0      -243858.0      -244256.0
      -244665.0      -245096.0      -245590.0      -246029.0      -246458.0
      -246950.0      -247398.0      -247830.0      -248252.0      -248682.0
      -249234.0      -249679.0      -250032.0      -250467.0      -250958.0
      -251416.0      -251805.0      -252262.0      -252759.0      -253282.0
      -253715.0      -254057.0      -254549.0      -254972.0      -255357.0
      -255874.0      -256349.0      -256816.0      -257285.0      -257772.0
      -258300.0      -258866.0      -259353.0      -259748.0      -260130.0
      -260458.0      -260957.0      -261413.0      -261709.0      -262091.0
      -262608.0      -263253.0      -263722.0      -264035.0      -264450.0
      -265012.0      -265527.0      -265797.0      -266114.0      -266633.0
      -267119.0      -267445.0      -267796.0      -268311.0      -268813.0
      -269364.0      -269950.0      -270296.0      -270664.0      -271186.0
      -271654.0      -272122.0      -272586.0      -273104.0      -273645.0
      -274160.0      -274729.0      -275191.0      -275624.0      -276105.0
      -276601.0      -277176.0      -277664.0      -278143.0      -278607.0
      -279000.0      -279557.0      -280172.0      -280782.0      -281337.0
      -281744.0      -282320.0      -282975.0      -283366.0      -283727.0
      -284247.0      -284785.0      -285318.0      -285841.0      -286265.0
      -286665.0      -287101.0      -287520.0      -287978.0      -288435.0
      -288851.0      -289255.0      -289515.0      -289800.0      -290196.0
      -290501.0      -290864.0      -291262.0      -291559.0      -291827.0
      -292216.0      -292643.0      -292847.0      -293071.0      -293375.0
      -293649.0      -294067.0      -294533.0      -294931.0      -295252.0
      -295567.0      -295870.0      -296190.0      -296576.0      -296896.0
      -297247.0      -297601.0      -297929.0      -298275.0      -298631.0
      -299126.0      -299514.0      -299880.0      -300368.0      -300710.0
      -301034.0      -301408.0      -301833.0      -302285.0      -302740.0
      -303269.0      -303697.0      -304145.0      -304700.0      -305142.0
      -305628.0      -306129.0      -306477.0      -306887.0      -307387.0
      -307914.0      -308411.0      -308826.0      -309253.0      -309868.0
      -310559.0      -311026.0      -311467.0      -311886.0      -312319.0
      -312889.0      -313296.0      -313765.0      -314423.0      -314967.0
      -315418.0      -315930.0      -316424.0      -316882.0      -317402.0
      -317853.0      -318343.0      -318797.0      -319127.0      -319574.0
      -320019.0      -320517.0      -321078.0      -321535.0      -321960.0
      -322352.0      -322756.0      -323144.0      -323372.0      -323552.0
      -323905.0      -324301.0      -324614.0      -324953.0      -325282.0
      -325638.0      -326156.0      -326570.0      -326796.0      -327152.0
      -327526.0      -327838.0      -328208.0      -328511.0      -328727.0
      -328994.0      -329343.0      -329702.0      -330030.0      -330321.0
      -330637.0      -330903.0      -331099.0      -331375.0      -331600.0
      -331776.0      -332110.0      -332499.0      -332748.0      -332962.0
      -333215.0      -333429.0      -333657.0      -333798.0      -333914.0
      -334153.0      -334433.0      -334702.0      -334879.0      -334961.0
      -335137.0      -335333.0      -335368.0      -335559.0      -335881.0
      -336060.0      -336276.0      -336581.0      -336820.0      -336951.0
      -337162.0      -337499.0      -337679.0      -337745.0      -337994.0
      -338185.0      -338294.0      -338548.0      -338697.0      -338962.0
      -339373.0      -339543.0      -339728.0      -340016.0      -340206.0
      -340468.0      -340808.0      -340984.0      -341121.0      -341314.0
      -341505.0      -341830.0      -342154.0      -342327.0      -342525.0
      -342759.0      -342929.0      -343160.0      -343366.0      -343526.0
      -343766.0      -343939.0      -344116.0      -344321.0      -344457.0
      -344576.0      -344717.0      -344984.0      -345186.0      -345209.0
      -345348.0      -345586.0      -345765.0      -345923.0      -345948.0
      -345960.0      -346148.0      -346254.0      -346238.0      -346287.0
      -346392.0      -346475.0      -346486.0      -346377.0      -346357.0
      -346508.0      -346442.0      -346328.0      -346307.0      -346206.0
      -346181.0      -346008.0      -345877.0      -345880.0      -345665.0
      -345614.0      -345653.0      -345494.0      -345287.0      -345185.0
      -345158.0      -345000.0      -344857.0      -344674.0      -344434.0
      -344390.0      -344299.0      -344099.0      -344042.0      -343986.0
      -343847.0      -343722.0      -343602.0      -343529.0      -343508.0
      -343455.0      -343383.0      -343281.0      -343180.0      -343154.0
      -343064.0      -342868.0      -342745.0      -342692.0      -342569.0
      -342441.0      -342310.0      -342195.0      -342179.0      -342144.0
      -342076.0      -341984.0      -341847.0      -341698.0      -341605.0
      -341518.0      -341331.0      -341102.0      -340883.0      -340661.0
      -340454.0      -340277.0      -340010.0      -339757.0      -339593.0
      -339276.0      -338913.0      -338674.0      -338373.0      -337981.0
      -337536.0      -337063.0      -336714.0      -336372.0      -335952.0
      -335544.0      -335115.0      -334674.0      -334275.0      -333873.0
      -333417.0      -332985.0      -332519.0      -331987.0      -331548.0
      -331102.0      -330615.0      -330111.0      -329511.0      -328989.0
      -328509.0      -327975.0      -327480.0      -326972.0      -326475.0
      -325948.0      -325381.0      -324890.0      -324322.0      -323715.0
      -323190.0      -322606.0      -322102.0      -321588.0      -320890.0
      -320321.0      -319852.0      -319285.0      -318713.0      -318147.0
      -317488.0      -316769.0      -316239.0      -315712.0      -315028.0
      -314413.0      -313807.0      -313237.0      -312635.0      -312047.0
      -311483.0      -310821.0      -310264.0      -309602.0      -308911.0
      -308411.0      -307811.0      -307161.0      -306641.0      -306127.0
      -305491.0      -304902.0      -304354.0      -303756.0      -303263.0
      -302743.0      -302180.0      -301633.0      -300919.0      -300246.0
      -299669.0      -298965.0      -298149.0      -297447.0      -296863.0
      -296144.0      -295489.0      -294857.0      -294110.0      -293423.0
      -292803.0      -292151.0      -291364.0      -290650.0      -289899.0
      -289070.0      -288352.0      -287537.0      -286739.0      -286054.0
      -285330.0      -284514.0      -283717.0      -282975.0      -282103.0
      -281256.0      -280532.0      -279661.0      -278713.0      -277928.0
      -277092.0      -276178.0      -275361.0      -274357.0      -273262.0
      -272326.0      -271380.0      -270401.0      -269366.0      -268350.0
      -267387.0      -266356.0      -265350.0      -264398.0      -263511.0
      -262607.0      -261689.0      -260852.0      -259866.0      -258796.0
      -257893.0      -256953.0      -255943.0      -255000.0      -254020.0
      -253062.0      -252144.0      -251176.0      -250202.0      -249216.0
      -248270.0      -247383.0      -246422.0      -245464.0      -244546.0
      -243481.0      -242454.0      -241595.0      -240641.0      -239592.0
      -238612.0      -237758.0      -236859.0      -235845.0      -234907.0
      -233943.0      -232996.0      -232068.0      -231016.0      -230109.0
      -229259.0      -228345.0      -227462.0      -226529.0      -225614.0
      -224693.0      -223718.0      -222694.0      -221585.0      -220520.0
      -219459.0      -218301.0      -217247.0      -216347.0      -215424.0
      -214364.0      -213254.0      -212289.0      -211296.0      -210180.0
      -209145.0      -208102.0      -206960.0      -205907.0      -204934.0
      -203798.0      -202605.0      -201634.0      -200709.0      -199583.0
      -198372.0      -197379.0      -196522.0      -195448.0      -194323.0
      -193197.0      -192143.0      -191219.0      -190043.0      -188900.0
      -187890.0      -186846.0      -185833.0      -184698.0      -183655.0
      -182626.0      -181510.0      -180452.0      -179331.0      -178222.0
      -177173.0      -176188.0      -175102.0      -173851.0      -172756.0
      -171855.0      -170838.0      -169633.0      -168491.0      -167401.0
      -166342.0      -165284.0      -164018.0      -162741.0      -161670.0
      -160704.0      -159573.0      -158176.0      -156865.0      -155691.0
      -154405.0      -153133.0      -151913.0      -150751.0      -149642.0
      -148289.0      -146998.0      -145928.0      -144604.0      -143268.0
      -142036.0      -140642.0      -139294.0      -138070.0      -136844.0
      -135568.0      -134251.0      -133004.0      -131776.0      -130500.0
      -129261.0      -128002.0      -126755.0      -125556.0      -124294.0
      -122945.0      -121611.0      -120375.0      -119160.0      -117823.0
      -116419.0      -115231.0      -113958.0      -112563.0      -111394.0
      -110126.0      -108796.0      -107510.0      -106232.0      -105052.0
      -103723.0      -102431.0      -101214.0      -99805.00      -98479.00
      -97274.00      -95993.00      -94721.00      -93515.00      -92256.00
      -91044.00      -89743.00      -88202.00      -87003.00      -85982.00
      -84688.00      -83491.00      -82273.00      -80882.00      -79641.00
      -78521.00      -77396.00      -76186.00      -74933.00      -73763.00
      -72631.00      -71572.00      -70378.00      -68989.00      -67855.00
      -66859.00      -65674.00      -64416.00      -63172.00      -61914.00
