     0.05000000      -12345.00      -12345.00   2.508770e+09      -12345.00
   0.0005000000       1859.950      -691.0195      -12345.00      -12345.00
      -12345.00      -12345.00      -12345.00      -12345.00      -12345.00
      -12345.00      -12345.00      -12345.00      -12345.00      -12345.00
      -12345.00      -12345.00      -12345.00      -12345.00      -12345.00
      -12345.00      -12345.00      -12345.00      -12345.00      -12345.00
      -12345.00       22.27760       114.1415       196.3000       0.000000
      -42.72450       173.0647      -12345.00       22.00000      -12345.00
      -12345.00      -12345.00      -12345.00      -12345.00      -12345.00
      -12345.00      -12345.00      -12345.00      -12345.00      -12345.00
       9384.848       307.1452       140.6429       84.40370      -12345.00
      -12345.00      -12345.00       90.00000       90.00000      -12345.00
      -12345.00      -12345.00      -12345.00      -12345.00      -12345.00
      -12345.00      -12345.00      -12345.00      -12345.00      -12345.00
      2016       318        11        14        30
        19         6    -12345    -12345     37200
    -12345    -12345    -12345    -12345    -12345
         1    -12345    -12345    -12345    -12345
    -12345    -12345    -12345    -12345    -12345
    -12345    -12345    -12345    -12345    -12345
    -12345    -12345    -12345    -12345    -12345
         1    -12345    -12345    -12345    -12345
HKPS    South Island, Ne
00      -12345  -12345  
-12345  -12345  -12345  
-12345  -12345  -12345  
-12345  -12345  -12345  
-12345  -12345  -12345  
-12345  -12345  BHE     
HK      -12345  Streckei
[...]
       174973.0       176286.0       177779.0       179055.0       180473.0
       181895.0       183199.0       184436.0       185579.0       186766.0
       187948.0       189230.0       190361.0       191453.0       192457.0
       193452.0       194605.0       195654.0       196664.0       197648.0
       198494.0       199453.0       200495.0       201384.0       202292.0
       203156.0       204039.0       204871.0       205679.0       206575.0
       207333.0       208107.0       208792.0       209518.0       210289.0
       210908.0       211714.0       212376.0       213038.0       213657.0
       214060.0       214663.0       215181.0       215715.0       216187.0
       216602.0       217120.0       217566.0       217967.0       218300.0
       218615.0       218811.0       219076.0       219367.0       219469.0
       219612.0       219722.0       219873.0       219995.0       219939.0
       219970.0       219942.0       219834.0       219662.0       219571.0
       219480.0       219230.0       219061.0       218685.0       218489.0
       218257.0       217918.0       217711.0       217260.0       217022.0
       216603.0       216041.0       215707.0       215276.0       214893.0
       214686.0       214383.0       213876.0       213524.0       213140.0
       212764.0       212464.0       212187.0       211927.0       211535.0
       211170.0       210790.0       210647.0       210301.0       209784.0
       209561.0       209129.0       208565.0       207894.0       207285.0
       206727.0       206081.0       205443.0       204673.0       203936.0
       203241.0       202463.0       201602.0       200702.0       199751.0
       198965.0       198106.0       197106.0       196330.0       195382.0
       194528.0       193731.0       192759.0       192100.0       191445.0
       190797.0       190171.0       189465.0       188826.0       188034.0
       187294.0       186591.0       185870.0       185257.0       184527.0
       183756.0       182935.0       182099.0       181335.0       180413.0
       179451.0       178456.0       177438.0       176442.0       175321.0
       174235.0       173026.0       171750.0       170563.0       169307.0
       168108.0       166802.0       165434.0       164256.0       163101.0
       161930.0       160798.0       159757.0       158703.0       157505.0
       156407.0       155428.0       154481.0       153421.0       152342.0
       151434.0       150480.0       149578.0       148457.0       147428.0
       146632.0       145647.0       144799.0       143856.0       143068.0
       142383.0       141583.0       140875.0       140131.0       139490.0
       138632.0       137828.0       137114.0       136260.0       135577.0
       134798.0       133983.0       133199.0       132413.0       131729.0
       130974.0       130223.0       129551.0       128867.0       128093.0
       127326.0       126699.0       125895.0       125063.0       124311.0
       123584.0       123052.0       122557.0       122120.0       121623.0
       121193.0       120783.0       120473.0       120481.0       120272.0
       120096.0       120046.0       119951.0       120014.0       120142.0
       120280.0       120433.0       120577.0       120832.0       121232.0
       121516.0       121914.0       122461.0       122945.0       123514.0
       124135.0       124724.0       125407.0       126141.0       126697.0
       127328.0       127997.0       128650.0       129406.0       130155.0
       130980.0       131773.0       132556.0       133354.0       134204.0
       135082.0       135951.0       136894.0       137818.0       138921.0
       140014.0       141151.0       142327.0       143539.0       145032.0
       146329.0       147733.0       149249.0       150644.0       152174.0
       153650.0       155038.0       156555.0       158108.0       159532.0
       161036.0       162486.0       164023.0       165523.0       166963.0
       168617.0       170106.0       171606.0       173060.0       174496.0
       176043.0       177547.0       179125.0       180744.0       182526.0
       184320.0       186008.0       187718.0       189421.0       191142.0
       193071.0       195044.0       196730.0       198519.0       200482.0
       202409.0       204435.0       206487.0       208417.0       210400.0
       212391.0       214297.0       216268.0       218154.0       220040.0
       221860.0       223540.0       225342.0       226916.0       228296.0
       229824.0       231290.0       232774.0       234160.0       235552.0
       237074.0       238440.0       239898.0       241396.0       242921.0
       244323.0       245666.0       247168.0       248446.0       249723.0
       250973.0       252268.0       253715.0       255052.0       256371.0
       257694.0       259006.0       260375.0       261899.0       263242.0
       264572.0       266035.0       267266.0       268711.0       270249.0
       271576.0       273004.0       274226.0       275380.0       276764.0
       277943.0       279063.0       280309.0       281439.0       282663.0
       283853.0       284858.0       286009.0       287175.0       288364.0
       289524.0       290564.0       291712.0       292745.0       293687.0
       294736.0       295743.0       296662.0       297642.0       298563.0
       299375.0       300255.0       301031.0       301954.0       302937.0
       303709.0       304600.0       305477.0       306247.0       307004.0
       307823.0       308558.0       309183.0       309706.0       310197.0
       310793.0       311239.0       311739.0       312126.0       312489.0
       312933.0       313098.0       313425.0       313783.0       314079.0
       314432.0       314591.0       314746.0       314974.0       315099.0
       315285.0       315514.0       315606.0       315698.0       315707.0
       315853.0       315936.0       315803.0       315770.0       315743.0
       315744.0       315679.0       315641.0       315521.0       315256.0
       314988.0       314766.0       314544.0       314245.0       314062.0
       313730.0       313405.0       313077.0       312669.0       312374.0
       311808.0       311377.0       311081.0       310529.0       309947.0
       309361.0       308720.0       308023.0       307389.0       306575.0
       305672.0       304799.0       303928.0       303019.0       302017.0
       301197.0       300111.0       298973.0       297933.0       296819.0
       295864.0       294802.0       293793.0       292734.0       291744.0
       290948.0       290019.0       289156.0       288263.0       287304.0
       286354.0       285220.0       284155.0       283200.0       282118.0
       281045.0       280000.0       278968.0       277831.0       276559.0
       275390.0       274251.0       272941.0       271509.0       270099.0
       268632.0       267027.0       265418.0       263864.0       262163.0
       260445.0       258795.0       257111.0       255475.0       253643.0
       251771.0       249958.0       248147.0       246324.0       244367.0
       242558.0       240564.0       238400.0       236421.0       234410.0
       232379.0       230239.0       228189.0       226240.0       224105.0
       222059.0       220030.0       217884.0       215769.0       213553.0
       211495.0       209491.0       207280.0       205201.0       202961.0
       200752.0       198671.0       196459.0       194261.0       191939.0
       189730.0       187311.0       184890.0       182729.0       180428.0
       178010.0       175431.0       173138.0       170727.0       168246.0
       165889.0       163343.0       160946.0       158477.0       156007.0
       153387.0       150607.0       148092.0       145536.0       142799.0
       140124.0       137554.0       135032.0       132372.0       129575.0
       126753.0       123853.0       121104.0       118306.0       115335.0
       112400.0       109554.0       106723.0       103696.0       100772.0
       97898.00       94972.00       91968.00       88945.00       86020.00
       82968.00       79910.00       76835.00       73952.00       70915.00
       67786.00       64784.00       61793.00       59021.00       56004.00
       53024.00       50103.00       47027.00       44048.00       41085.00
       38056.00       34953.00       31708.00       28423.00       25405.00
       22424.00       19198.00       16009.00       12865.00       9546.000
       6383.000       3172.000       19.00000      -3084.000      -6394.000
      -9492.000      -12681.00      -15720.00      -18779.00      -21909.00
      -24865.00      -27949.00      -30799.00      -33764.00      -36696.00
      -39604.00      -42502.00      -45206.00      -48040.00      -50816.00
      -53744.00      -56589.00      -59273.00      -61999.00      -64764.00
      -67508.00      -70265.00      -73022.00      -75607.00      -78440.00
      -81248.00      -83915.00      -86591.00      -89083.00      -91700.00
      -94218.00      -96658.00      -99232.00      -101689.0      -104151.0
      -106660.0      -109066.0      -111400.0      -113826.0      -116167.0
      -118411.0      -120646.0      -122934.0      -125320.0      -127539.0
      -129811.0      -132125.0      -134361.0      -136690.0      -138850.0
      -140903.0      -143104.0      -145124.0      -147072.0      -149151.0
      -151045.0      -152890.0      -154673.0      -156296.0      -158059.0
      -159817.0      -161551.0      -163290.0      -164845.0      -166540.0
      -168190.0      -169702.0      -171397.0      -172961.0      -174352.0
      -175646.0      -177027.0      -178421.0      -179687.0      -180920.0
      -182097.0      -183433.0      -184736.0      -186100.0      -187463.0
      -188844.0      -190179.0      -191343.0      -192700.0      -193842.0
      -195048.0      -196346.0      -197440.0      -198608.0      -199818.0
      -200958.0      -201941.0      -202932.0      -203924.0      -205074.0
      -206109.0      -206986.0      -208105.0      -209051.0      -210035.0
      -211108.0      -211993.0      -212926.0      -213939.0      -214943.0
      -215784.0      -216716.0      -217662.0      -218417.0      -219289.0
      -220234.0      -221083.0      -221875.0      -222762.0      -223638.0
      -224541.0      -225448.0      -226370.0      -227345.0      -227981.0
      -228740.0      -229589.0      -230188.0      -230810.0      -231414.0
      -232224.0      -232959.0      -233542.0      -234196.0      -234807.0
      -235485.0      -236144.0      -236856.0      -237580.0      -238159.0
      -238708.0      -239436.0      -240245.0      -241022.0      -241789.0
      -242559.0      -243427.0      -244270.0      -245113.0      -246029.0
      -246954.0      -247819.0      -248736.0      -249648.0      -250502.0
      -251387.0      -252292.0      -253251.0      -254129.0      -254945.0
      -255873.0      -256830.0      -257767.0      -258885.0      -259738.0
      -260528.0      -261363.0      -262128.0      -263215.0      -264080.0
      -264998.0      -265837.0      -266607.0      -267485.0      -268271.0
      -269408.0      -270318.0      -271157.0      -272146.0      -273096.0
      -274197.0      -275199.0      -276104.0      -277167.0      -278161.0
      -279026.0      -280194.0      -281299.0      -282362.0      -283380.0
      -284239.0      -285340.0      -286283.0      -287092.0      -287996.0
      -288866.0      -289549.0      -290154.0      -290907.0      -291548.0
      -292238.0      -292886.0      -293342.0      -294089.0      -294934.0
      -295570.0      -296211.0      -296917.0      -297598.0      -298285.0
      -299088.0      -299942.0      -300705.0      -301426.0      -302280.0
      -303258.0      -304170.0      -305176.0      -306097.0      -306905.0
      -307930.0      -308817.0      -309894.0      -311050.0      -311902.0
      -312831.0      -313842.0      -314941.0      -315952.0      -316897.0
      -317890.0      -318781.0      -319566.0      -320554.0      -321543.0
      -322382.0      -323124.0      -323607.0      -324285.0      -324961.0
      -325687.0      -326551.0      -327157.0      -327878.0      -328509.0
      -329011.0      -329715.0      -330343.0      -330909.0      -331368.0
      -331826.0      -332476.0      -332992.0      -333455.0      -333800.0
      -334165.0      -334700.0      -335014.0      -335281.0      -335606.0
      -336076.0      -336578.0      -336988.0      -337462.0      -337822.0
      -338167.0      -338520.0      -339007.0      -339582.0      -339975.0
      -340515.0      -341000.0      -341304.0      -341841.0      -342368.0
      -342737.0      -343180.0      -343554.0      -343959.0      -344324.0
      -344583.0      -344995.0      -345248.0      -345589.0      -345905.0
      -346034.0      -346225.0      -346329.0      -346468.0      -346433.0
      -346441.0      -346405.0      -346213.0      -346072.0      -345792.0
      -345684.0      -345487.0      -345213.0      -345035.0      -344664.0
      -344380.0      -344159.0      -343971.0      -343739.0      -343544.0
      -343474.0      -343291.0      -343153.0      -342911.0      -342673.0
      -342469.0      -342213.0      -342165.0      -341988.0      -341726.0
      -341519.0      -341122.0      -340686.0      -340258.0      -339818.0
      -339273.0      -338686.0      -337992.0      -337109.0      -336361.0
      -335569.0      -334690.0      -333886.0      -332991.0      -332028.0
      -331110.0      -330106.0      -329009.0      -327998.0      -326995.0
      -325948.0      -324891.0      -323743.0      -322648.0      -321551.0
      -320350.0      -319312.0      -318132.0      -316835.0      -315675.0
      -314435.0      -313229.0      -312071.0      -310865.0      -309606.0
      -308380.0      -307222.0      -306094.0      -304935.0      -303778.0
      -302766.0      -301596.0      -300303.0      -298947.0      -297480.0
      -296185.0      -294832.0      -293458.0      -292136.0      -290656.0
      -289118.0      -287551.0      -286047.0      -284559.0      -282933.0
      -281322.0      -279654.0      -277912.0      -276248.0      -274343.0
      -272331.0      -270404.0      -268375.0      -266369.0      -264414.0
      -262616.0      -260827.0      -258858.0      -256936.0      -255004.0
      -253075.0      -251195.0      -249225.0      -247371.0      -245497.0
      -243493.0      -241577.0      -239619.0      -237747.0      -235881.0
      -233960.0      -232032.0      -230131.0      -228359.0      -226550.0
      -224693.0      -222691.0      -220536.0      -218316.0      -216351.0
      -214371.0      -212275.0      -210238.0      -208054.0      -205969.0
      -203759.0      -201678.0      -199551.0      -197425.0      -195450.0
      -193227.0      -191150.0      -188954.0      -186849.0      -184745.0
      -182603.0      -180454.0      -178229.0      -176191.0      -173882.0
      -171836.0      -169669.0      -167410.0      -165251.0      -162792.0
      -160668.0      -158249.0      -155628.0      -153173.0      -150754.0
      -148342.0      -145837.0      -143343.0      -140636.0      -138077.0
      -135566.0      -133007.0      -130521.0      -128003.0      -125556.0
      -122953.0      -120379.0      -117825.0      -115187.0      -112647.0
      -110101.0      -107520.0      -105005.0      -102471.0      -99823.00
      -97248.00      -94733.00      -92293.00      -89677.00      -87016.00
      -84755.00      -82212.00      -79659.00      -77394.00      -74928.00
      -72678.00      -70313.00      -67892.00      -65664.00      -63188.00
      -60605.00      -58140.00      -55828.00      -53465.00      -51148.00
      -48661.00      -46176.00      -43877.00      -41547.00      -39353.00
      -37030.00      -34668.00      -32363.00      -29971.00      -27602.00
      -25315.00      -23046.00      -20711.00      -18358.00      -15932.00
      -13622.00      -11486.00      -9268.000      -7087.000      -4927.000
      -2697.000      -510.0000       1595.000       3657.000       5792.000
       7982.000       10063.00       12080.00       14140.00       16061.00
       17989.00       20043.00       22123.00       24199.00       26185.00
       28295.00       30392.00       32371.00       34320.00       36255.00
       38340.00       40261.00       42169.00       44197.00       46103.00
       48086.00       49994.00       51807.00       53562.00       55326.00
       57137.00       58880.00       60636.00       62360.00       64166.00
       65862.00       67449.00       69081.00       70735.00       72533.00
       74348.00       76074.00       77594.00       79235.00       80792.00
       82183.00       83865.00       85419.00       86923.00       88473.00
       89982.00       91506.00       92939.00       94401.00       95747.00
       96930.00       98203.00       99521.00       100620.0       101598.0
       102698.0       103820.0       104834.0       105875.0       106927.0
       107867.0       108774.0       109660.0       110645.0       111512.0
       112302.0       113242.0       114157.0       115032.0       115782.0
       116581.0       117332.0       118027.0       118925.0       119884.0
       120835.0       121781.0       122748.0       123717.0       124821.0
       125964.0       126963.0       127964.0       128979.0       130060.0
       131071.0       131905.0       132728.0       133691.0       134681.0
       135648.0       136620.0       137456.0       138381.0       139275.0
       140209.0       141205.0       142061.0       143018.0       143908.0
       144837.0       145779.0       146614.0       147614.0       148426.0
       149078.0       149848.0       150436.0       151102.0       151859.0
       152427.0       153155.0       153882.0       154549.0       155329.0
       156098.0       156935.0       157659.0       158427.0       159373.0
       160239.0       161219.0       162190.0       163090.0       164117.0
       165147.0       166202.0       167234.0       168208.0       169081.0
       170073.0       171220.0       172131.0       173106.0       174236.0
       175275.0       176335.0       177374.0       178404.0       179447.0
       180438.0       181612.0       182750.0       183883.0       185027.0
       185948.0       187081.0       188167.0       189192.0       190235.0
