     0.05000000      -12345.00      -12345.00   2.508770e+09      -12345.00
   0.0005000000       1859.950      -691.0195      -12345.00      -12345.00
      -12345.00      -12345.00      -12345.00      -12345.00      -12345.00
      -12345.00      -12345.00      -12345.00      -12345.00      -12345.00
      -12345.00      -12345.00      -12345.00      -12345.00      -12345.00
      -12345.00      -12345.00      -12345.00      -12345.00      -12345.00
      -12345.00       22.27760       114.1415       196.3000       0.000000
      -42.72450       173.0647      -12345.00       22.00000      -12345.00
      -12345.00      -12345.00      -12345.00      -12345.00      -12345.00
      -12345.00      -12345.00      -12345.00      -12345.00      -12345.00
       9384.848       307.1452       140.6429       84.40370      -12345.00
      -12345.00      -12345.00       0.000000       90.00000      -12345.00
      -12345.00      -12345.00      -12345.00      -12345.00      -12345.00
      -12345.00      -12345.00      -12345.00      -12345.00      -12345.00
      2016       318        11        14        30
        19         6    -12345    -12345     37200
    -12345    -12345    -12345    -12345    -12345
         1    -12345    -12345    -12345    -12345
    -12345    -12345    -12345    -12345    -12345
    -12345    -12345    -12345    -12345    -12345
    -12345    -12345    -12345    -12345    -12345
         1    -12345    -12345    -12345    -12345
HKPS    South Island, Ne
00      -12345  -12345  
-12345  -12345  -12345  
-12345  -12345  -12345  
-12345  -12345  -12345  
-12345  -12345  -12345  
-12345  -12345  BHN     
HK      -12345  Streckei
[...]
       37373.00       39404.00       41316.00       43335.00       45356.00
       47328.00       49235.00       51243.00       53433.00       55372.00
       57270.00       59375.00       61257.00       63272.00       65271.00
       67053.00       68986.00       70748.00       72660.00       74768.00
       76694.00       78814.00       80848.00       82746.00       84825.00
       86778.00       88795.00       90823.00       92806.00       94743.00
       96578.00       98505.00       100397.0       102297.0       104089.0
       105809.0       107612.0       109569.0       111520.0       113408.0
       115191.0       116932.0       118883.0       120827.0       122868.0
       124767.0       126645.0       128437.0       130236.0       132238.0
       133992.0       135882.0       137547.0       139207.0       141001.0
       142482.0       144204.0       145752.0       147283.0       148939.0
       150286.0       151864.0       153423.0       155056.0       156747.0
       158274.0       159905.0       161295.0       162810.0       164315.0
       165805.0       167412.0       168792.0       170207.0       171431.0
       172790.0       174187.0       175533.0       177155.0       178500.0
       179983.0       181414.0       182564.0       184000.0       185267.0
       186525.0       187699.0       188712.0       189963.0       191089.0
       192290.0       193422.0       194285.0       195336.0       196468.0
       197396.0       198244.0       199243.0       200223.0       201075.0
       202004.0       203055.0       204044.0       205074.0       206125.0
       207126.0       208242.0       209397.0       210599.0       211671.0
       212794.0       214076.0       215244.0       216394.0       217542.0
       218948.0       220135.0       221103.0       222274.0       223186.0
       224359.0       225432.0       226343.0       227390.0       228027.0
       228963.0       229939.0       230838.0       231858.0       232717.0
       233715.0       234664.0       235657.0       236618.0       237464.0
       238447.0       239392.0       240367.0       241368.0       242211.0
       243120.0       244057.0       244801.0       245808.0       246773.0
       247422.0       248330.0       249199.0       250025.0       250774.0
       251455.0       252265.0       252898.0       253645.0       254367.0
       255020.0       255701.0       256237.0       256969.0       257585.0
       258021.0       258781.0       259497.0       260155.0       260842.0
       261359.0       261913.0       262416.0       262891.0       263434.0
       264069.0       264612.0       265124.0       265786.0       266239.0
       266631.0       267182.0       267608.0       267809.0       268223.0
       268719.0       268976.0       269327.0       269564.0       269729.0
       270002.0       270177.0       270351.0       270376.0       270499.0
       270606.0       270475.0       270503.0       270462.0       270517.0
       270603.0       270570.0       270548.0       270488.0       270679.0
       270710.0       270650.0       270672.0       270429.0       270380.0
       270401.0       270163.0       270054.0       269977.0       269632.0
       269432.0       269184.0       268628.0       268276.0       267816.0
       267222.0       266694.0       266087.0       265565.0       264812.0
       264039.0       263424.0       262690.0       261866.0       260989.0
       260036.0       259036.0       258220.0       257188.0       255955.0
       254741.0       253532.0       252398.0       251296.0       249919.0
       248388.0       247298.0       245972.0       244638.0       243483.0
       241967.0       240650.0       239482.0       238264.0       237094.0
       235724.0       234264.0       233058.0       231953.0       230824.0
       229735.0       228538.0       227281.0       226125.0       225207.0
       224303.0       223248.0       222279.0       221262.0       220338.0
       219390.0       218292.0       217418.0       216425.0       215424.0
       214494.0       213454.0       212393.0       211161.0       210069.0
       208993.0       207806.0       206553.0       205231.0       203928.0
       202561.0       201361.0       199959.0       198467.0       197101.0
       195685.0       194264.0       192818.0       191576.0       190044.0
       188401.0       186999.0       185490.0       184024.0       182653.0
       181353.0       179858.0       178299.0       177005.0       175705.0
       174409.0       173336.0       172290.0       171215.0       170187.0
       169206.0       168424.0       167623.0       166769.0       165993.0
       165232.0       164510.0       163809.0       163055.0       162281.0
       161545.0       160802.0       160127.0       159473.0       158986.0
       158331.0       157615.0       157204.0       156543.0       156036.0
       155488.0       154885.0       154500.0       153786.0       153321.0
       152763.0       151956.0       151461.0       150870.0       150217.0
       149679.0       149249.0       148805.0       148397.0       148041.0
       147744.0       147508.0       147236.0       147138.0       146978.0
       146935.0       146999.0       146887.0       147043.0       147220.0
       147244.0       147363.0       147509.0       147629.0       147679.0
       147885.0       148187.0       148346.0       148622.0       148927.0
       149237.0       149527.0       149753.0       150085.0       150316.0
       150571.0       150893.0       151274.0       151599.0       151695.0
       151927.0       152295.0       152633.0       152926.0       153260.0
       153576.0       153823.0       154253.0       154806.0       155273.0
       155675.0       156058.0       156568.0       157101.0       157562.0
       158186.0       158762.0       159324.0       159975.0       160679.0
       161486.0       162228.0       163002.0       163874.0       164765.0
       165584.0       166482.0       167402.0       168253.0       169050.0
       169791.0       170588.0       171305.0       172019.0       172709.0
       173257.0       173644.0       174113.0       174732.0       175118.0
       175567.0       176118.0       176433.0       176873.0       177313.0
       177738.0       178174.0       178263.0       178484.0       178774.0
       178985.0       179274.0       179450.0       179735.0       179945.0
       180040.0       180213.0       180395.0       180705.0       180989.0
       181294.0       181590.0       182021.0       182538.0       182918.0
       183420.0       183883.0       184226.0       184556.0       185011.0
       185407.0       185891.0       186375.0       186810.0       187376.0
       187735.0       188203.0       188507.0       188806.0       189272.0
       189530.0       189842.0       190148.0       190372.0       190593.0
       190897.0       191138.0       191253.0       191379.0       191530.0
       191737.0       191996.0       192186.0       192449.0       192487.0
       192411.0       192682.0       192756.0       192782.0       192992.0
       193098.0       193073.0       193150.0       193222.0       193057.0
       193042.0       193170.0       193233.0       193232.0       193210.0
       193248.0       193147.0       193126.0       193190.0       193196.0
       193277.0       193227.0       193231.0       193304.0       193330.0
       193345.0       193436.0       193534.0       193566.0       193623.0
       193588.0       193542.0       193522.0       193617.0       193681.0
       193716.0       193865.0       193982.0       194000.0       194101.0
       194499.0       194670.0       194760.0       195017.0       195143.0
       195384.0       195687.0       195919.0       196030.0       196114.0
       196200.0       196161.0       196121.0       196020.0       195933.0
       195830.0       195594.0       195353.0       195144.0       194894.0
       194698.0       194590.0       194333.0       194080.0       193722.0
       193346.0       193148.0       192811.0       192385.0       191793.0
       191209.0       190791.0       190358.0       189844.0       189177.0
       188389.0       187592.0       186752.0       185909.0       185111.0
       184115.0       183052.0       182197.0       181418.0       180514.0
       179547.0       178379.0       177360.0       176505.0       175340.0
       174180.0       173023.0       171829.0       170505.0       169232.0
       168078.0       166724.0       165460.0       164157.0       162876.0
       161688.0       160330.0       159065.0       157662.0       156138.0
       154720.0       153169.0       151629.0       150001.0       148420.0
       146787.0       144899.0       143139.0       141317.0       139649.0
       137997.0       136001.0       134046.0       132035.0       130019.0
       127958.0       125937.0       123887.0       121659.0       119447.0
       117154.0       115000.0       112809.0       110616.0       108399.0
       106002.0       103773.0       101498.0       99151.00       96844.00
       94645.00       92533.00       90243.00       87899.00       85498.00
       83060.00       80688.00       78247.00       75818.00       73429.00
       70929.00       68331.00       65766.00       63152.00       60531.00
       58031.00       55542.00       52914.00       50564.00       48263.00
       45761.00       43557.00       41225.00       38950.00       36688.00
       34323.00       32134.00       29839.00       27552.00       25252.00
       22912.00       20622.00       18426.00       16251.00       13904.00
       11526.00       9292.000       7004.000       4601.000       2165.000
      -298.0000      -2891.000      -5486.000      -8071.000      -10744.00
      -13395.00      -16085.00      -18558.00      -21192.00      -24030.00
      -26705.00      -29411.00      -32046.00      -34732.00      -37466.00
      -40003.00      -42576.00      -45214.00      -47810.00      -50376.00
      -52721.00      -55176.00      -57852.00      -60429.00      -62682.00
      -64965.00      -67279.00      -69552.00      -71977.00      -74137.00
      -76469.00      -78737.00      -80880.00      -83166.00      -85197.00
      -87494.00      -89720.00      -91976.00      -94502.00      -96720.00
      -99161.00      -101696.0      -104217.0      -106836.0      -109373.0
      -112059.0      -114649.0      -117338.0      -120016.0      -122558.0
      -125240.0      -127842.0      -130574.0      -133290.0      -135940.0
      -138691.0      -141435.0      -144152.0      -146788.0      -149553.0
      -152214.0      -154949.0      -157750.0      -160293.0      -162948.0
      -165660.0      -168329.0      -170982.0      -173703.0      -176337.0
      -179132.0      -181798.0      -184135.0      -186743.0      -189207.0
      -191749.0      -194357.0      -196919.0      -199484.0      -201904.0
      -204464.0      -206906.0      -209416.0      -212160.0      -214800.0
      -217258.0      -219738.0      -222197.0      -224665.0      -227292.0
      -229874.0      -232388.0      -234838.0      -237298.0      -239731.0
      -241983.0      -244273.0      -246650.0      -248994.0      -251409.0
      -253693.0      -255892.0      -258174.0      -260416.0      -262720.0
      -264961.0      -267021.0      -269096.0      -271022.0      -272855.0
      -275063.0      -276940.0      -278736.0      -280785.0      -282528.0
      -284457.0      -286240.0      -288234.0      -290089.0      -291709.0
      -293772.0      -295437.0      -297263.0      -299097.0      -301038.0
      -303123.0      -304860.0      -306931.0      -308765.0      -310534.0
      -312629.0      -314553.0      -316467.0      -318360.0      -320190.0
      -322173.0      -324090.0      -325888.0      -327667.0      -329243.0
      -330876.0      -332576.0      -334008.0      -335526.0      -337042.0
      -338387.0      -339922.0      -341459.0      -342945.0      -344350.0
      -345549.0      -346848.0      -348165.0      -349349.0      -350531.0
      -351878.0      -353083.0      -353993.0      -355180.0      -356391.0
      -357360.0      -358289.0      -359454.0      -360663.0      -361722.0
      -362904.0      -364051.0      -365055.0      -366036.0      -367178.0
      -368120.0      -369241.0      -370422.0      -371260.0      -372198.0
      -372925.0      -373700.0      -374508.0      -375326.0      -376166.0
      -376925.0      -377645.0      -378184.0      -378954.0      -379835.0
      -380569.0      -381200.0      -381855.0      -382477.0      -382968.0
      -383488.0      -384106.0      -384676.0      -385112.0      -385548.0
      -386024.0      -386420.0      -386704.0      -387036.0      -387323.0
      -387567.0      -387665.0      -387855.0      -388246.0      -388393.0
      -388527.0      -388679.0      -388712.0      -388675.0      -388731.0
      -388734.0      -388555.0      -388424.0      -388212.0      -388014.0
      -387879.0      -387686.0      -387324.0      -386831.0      -386411.0
      -386023.0      -385617.0      -385163.0      -384745.0      -384227.0
      -383458.0      -382674.0      -382001.0      -381443.0      -380642.0
      -379792.0      -379076.0      -377993.0      -377104.0      -376273.0
      -375185.0      -374330.0      -373338.0      -372239.0      -371111.0
      -369951.0      -368862.0      -367652.0      -366405.0      -365196.0
      -364005.0      -362716.0      -361446.0      -360050.0      -358513.0
      -357071.0      -355531.0      -353918.0      -352328.0      -350626.0
      -348822.0      -347078.0      -345213.0      -343244.0      -341365.0
      -339398.0      -337301.0      -335305.0      -333367.0      -331323.0
      -329135.0      -327010.0      -324906.0      -322728.0      -320594.0
      -318330.0      -315991.0      -313713.0      -311669.0      -309591.0
      -307318.0      -305040.0      -302705.0      -300461.0      -298228.0
      -296083.0      -293894.0      -291567.0      -289321.0      -287022.0
      -284787.0      -282541.0      -280218.0      -277918.0      -275523.0
      -273069.0      -270558.0      -268005.0      -265273.0      -262513.0
      -259811.0      -256980.0      -254166.0      -251313.0      -248424.0
      -245481.0      -242654.0      -239835.0      -236960.0      -234287.0
      -231545.0      -228791.0      -226006.0      -223132.0      -220374.0
      -217584.0      -214621.0      -211813.0      -208980.0      -206004.0
      -203164.0      -200254.0      -197344.0      -194420.0      -191572.0
      -188598.0      -185529.0      -182700.0      -179715.0      -176849.0
      -173807.0      -170621.0      -167628.0      -164340.0      -161232.0
      -158187.0      -155161.0      -152215.0      -149179.0      -146296.0
      -143279.0      -140349.0      -137419.0      -134348.0      -131357.0
      -128387.0      -125528.0      -122762.0      -119977.0      -117119.0
      -114471.0      -111789.0      -109059.0      -106553.0      -103992.0
      -101494.0      -99094.00      -96759.00      -94423.00      -92161.00
      -89978.00      -87687.00      -85546.00      -83336.00      -81147.00
      -79073.00      -76777.00      -74547.00      -72316.00      -70102.00
      -67843.00      -65658.00      -63608.00      -61360.00      -59195.00
      -56835.00      -54532.00      -52255.00      -49888.00      -47741.00
      -45374.00      -43221.00      -40840.00      -38354.00      -36099.00
      -33588.00      -31295.00      -28835.00      -26548.00      -24237.00
      -21836.00      -19628.00      -17153.00      -14951.00      -12561.00
      -10347.00      -8194.000      -5892.000      -3721.000      -1355.000
       605.0000       2742.000       4668.000       6567.000       8678.000
       10530.00       12514.00       14185.00       16006.00       17588.00
       19200.00       20931.00       22294.00       23924.00       25298.00
       26850.00       28335.00       29611.00       31201.00       32577.00
       34103.00       35582.00       36862.00       38263.00       39595.00
       40879.00       42247.00       43738.00       45107.00       46500.00
       47880.00       49198.00       50601.00       51893.00       53400.00
       54629.00       55666.00       56978.00       57967.00       59088.00
       60217.00       61232.00       62328.00       63316.00       64406.00
       65376.00       66371.00       67293.00       68220.00       69202.00
       69995.00       70879.00       71781.00       72635.00       73463.00
       74542.00       75546.00       76291.00       77133.00       77965.00
       78847.00       79698.00       80548.00       81380.00       82175.00
       83067.00       83886.00       84713.00       85566.00       86383.00
       87215.00       87974.00       88773.00       89407.00       90025.00
       90795.00       91508.00       92194.00       92736.00       93334.00
       93949.00       94436.00       94846.00       95375.00       95879.00
       96291.00       96859.00       97382.00       97971.00       98410.00
       98780.00       99394.00       100066.0       100725.0       101307.0
       101778.0       102336.0       102952.0       103568.0       104279.0
       104737.0       105353.0       106037.0       106533.0       107157.0
       107728.0       108335.0       108733.0       109184.0       109637.0
       109877.0       110338.0       110731.0       111138.0       111535.0
       111855.0       112198.0       112445.0       112733.0       112965.0
       113183.0       113429.0       113589.0       113639.0       113573.0
       113507.0       113527.0       113563.0       113657.0       113772.0
       113739.0       113789.0       113805.0       113731.0       113751.0
       113777.0       113852.0       113714.0       113544.0       113481.0
       113402.0       113416.0       113390.0       113582.0       113696.0
       113648.0       113633.0       113602.0       113818.0       113907.0
       113887.0       113959.0       113915.0       113829.0       113741.0
       113764.0       113862.0       113819.0       113629.0       113466.0
       113416.0       113245.0       113083.0       112959.0       112734.0
       112399.0       112041.0       111733.0       111394.0       111279.0
       111077.0       110866.0       110710.0       110370.0       110236.0
