     0.05000000      -12345.00      -12345.00   2.508770e+09      -12345.00
   0.0005000000       1859.950      -691.0195      -12345.00      -12345.00
      -12345.00      -12345.00      -12345.00      -12345.00      -12345.00
      -12345.00      -12345.00      -12345.00      -12345.00      -12345.00
      -12345.00      -12345.00      -12345.00      -12345.00      -12345.00
      -12345.00      -12345.00      -12345.00      -12345.00      -12345.00
      -12345.00       22.27760       114.1415       196.3000       0.000000
      -42.72450       173.0647      -12345.00       22.00000      -12345.00
      -12345.00      -12345.00      -12345.00      -12345.00      -12345.00
      -12345.00      -12345.00      -12345.00      -12345.00      -12345.00
       9384.848       307.1452       140.6429       84.40370      -12345.00
      -12345.00      -12345.00       0.000000       0.000000      -12345.00
      -12345.00      -12345.00      -12345.00      -12345.00      -12345.00
      -12345.00      -12345.00      -12345.00      -12345.00      -12345.00
      2016       318        11        14        30
        19         6    -12345    -12345     37200
    -12345    -12345    -12345    -12345    -12345
         1    -12345    -12345    -12345    -12345
    -12345    -12345    -12345    -12345    -12345
    -12345    -12345    -12345    -12345    -12345
    -12345    -12345    -12345    -12345    -12345
         1    -12345    -12345    -12345    -12345
HKPS    South Island, Ne
00      -12345  -12345  
-12345  -12345  -12345  
-12345  -12345  -12345  
-12345  -12345  -12345  
-12345  -12345  -12345  
-12345  -12345  BHZ     
HK      -12345  Streckei
[...]
       18629.00       18078.00       17588.00       17053.00       16587.00
       15925.00       15218.00       14660.00       14035.00       13492.00
       12941.00       12375.00       11894.00       11336.00       10694.00
       10172.00       9774.000       9225.000       8649.000       8125.000
       7567.000       7006.000       6296.000       5638.000       5040.000
       4340.000       3557.000       2625.000       1837.000       1205.000
       575.0000      -149.0000      -1027.000      -1814.000      -2458.000
      -3036.000      -3777.000      -4764.000      -5607.000      -6257.000
      -6995.000      -7737.000      -8316.000      -8881.000      -9766.000
      -10583.00      -11105.00      -11856.00      -12663.00      -13356.00
      -14109.00      -14863.00      -15575.00      -16293.00      -17093.00
      -17767.00      -18331.00      -19118.00      -19907.00      -20361.00
      -20807.00      -21562.00      -22192.00      -22617.00      -23225.00
      -23767.00      -24218.00      -24720.00      -25263.00      -25909.00
      -26452.00      -27101.00      -27854.00      -28608.00      -29430.00
      -30183.00      -30800.00      -31325.00      -31963.00      -32510.00
      -32953.00      -33388.00      -33895.00      -34496.00      -35104.00
      -35732.00      -36163.00      -36475.00      -36702.00      -37011.00
      -37527.00      -38042.00      -38542.00      -38810.00      -38962.00
      -39462.00      -40022.00      -40557.00      -41130.00      -41501.00
      -41847.00      -42194.00      -42715.00      -43306.00      -43766.00
      -44250.00      -44897.00      -45632.00      -46167.00      -46904.00
      -47549.00      -48052.00      -48803.00      -49426.00      -49895.00
      -50123.00      -50410.00      -50944.00      -51304.00      -51492.00
      -51733.00      -51979.00      -52152.00      -52259.00      -52367.00
      -52269.00      -52062.00      -52144.00      -52190.00      -52154.00
      -52117.00      -52017.00      -51973.00      -52131.00      -52376.00
      -52546.00      -52877.00      -53075.00      -53118.00      -53381.00
      -53821.00      -54186.00      -54431.00      -54708.00      -55047.00
      -55412.00      -55532.00      -55647.00      -56048.00      -56527.00
      -56933.00      -57363.00      -57756.00      -58147.00      -58556.00
      -58971.00      -59428.00      -59707.00      -60170.00      -60589.00
      -60845.00      -61288.00      -61903.00      -62471.00      -62803.00
      -63251.00      -63632.00      -63916.00      -64302.00      -64658.00
      -64908.00      -65206.00      -65616.00      -65822.00      -65869.00
      -65952.00      -66035.00      -66013.00      -65998.00      -65943.00
      -65810.00      -65877.00      -65933.00      -65862.00      -65670.00
      -65475.00      -65556.00      -65691.00      -65701.00      -65537.00
      -65357.00      -65541.00      -65730.00      -65595.00      -65561.00
      -65568.00      -65737.00      -66117.00      -66224.00      -66543.00
      -67008.00      -67392.00      -68033.00      -68471.00      -68867.00
      -69327.00      -69915.00      -70570.00      -70843.00      -71273.00
      -71727.00      -72119.00      -72555.00      -73025.00      -73584.00
      -73963.00      -74410.00      -74875.00      -75388.00      -75792.00
      -76099.00      -76551.00      -76999.00      -77614.00      -78294.00
      -78925.00      -79517.00      -80180.00      -80850.00      -81515.00
      -82351.00      -83038.00      -83829.00      -84816.00      -85750.00
      -86858.00      -88034.00      -89374.00      -90913.00      -92550.00
      -94288.00      -95947.00      -97902.00      -100017.0      -101982.0
      -103902.0      -105834.0      -107796.0      -109613.0      -111465.0
      -113112.0      -114693.0      -116354.0      -117870.0      -119370.0
      -120622.0      -121843.0      -123072.0      -124133.0      -125264.0
      -126416.0      -127408.0      -128305.0      -129301.0      -130505.0
      -131713.0      -132837.0      -133976.0      -135000.0      -136086.0
      -137390.0      -138865.0      -140250.0      -141448.0      -142794.0
      -144080.0      -145465.0      -147010.0      -148374.0      -149798.0
      -151384.0      -153056.0      -154438.0      -155523.0      -156620.0
      -157859.0      -159029.0      -159996.0      -161036.0      -162064.0
      -163219.0      -164247.0      -165159.0      -166059.0      -166990.0
      -168076.0      -168894.0      -169792.0      -170557.0      -171330.0
      -172462.0      -173346.0      -174108.0      -175042.0      -175992.0
      -176753.0      -177475.0      -178225.0      -178906.0      -179525.0
      -179816.0      -179957.0      -180229.0      -180559.0      -180997.0
      -181163.0      -181304.0      -181486.0      -181746.0      -182231.0
      -182587.0      -183089.0      -183602.0      -183984.0      -184241.0
      -184737.0      -185241.0      -185544.0      -186030.0      -186492.0
      -187064.0      -187380.0      -187667.0      -188091.0      -188335.0
      -188570.0      -188654.0      -188678.0      -188526.0      -188498.0
      -188516.0      -188127.0      -187632.0      -187033.0      -186424.0
      -185722.0      -184799.0      -183847.0      -182941.0      -182005.0
      -180921.0      -179651.0      -178399.0      -177250.0      -176168.0
      -175073.0      -173773.0      -172672.0      -171701.0      -170627.0
      -169546.0      -168475.0      -167378.0      -166346.0      -165475.0
      -164307.0      -163099.0      -162056.0      -160956.0      -159830.0
      -158580.0      -157384.0      -156317.0      -155216.0      -154143.0
      -153044.0      -151873.0      -150972.0      -149952.0      -148562.0
      -147526.0      -146479.0      -145242.0      -144128.0      -142857.0
      -141724.0      -140643.0      -139453.0      -138324.0      -137195.0
      -135870.0      -134395.0      -132888.0      -131312.0      -130133.0
      -128826.0      -127150.0      -125604.0      -124061.0      -122597.0
      -121210.0      -119848.0      -118432.0      -117037.0      -115664.0
      -114166.0      -112648.0      -111028.0      -109443.0      -108054.0
      -106506.0      -105136.0      -103837.0      -102407.0      -101047.0
      -99375.00      -97902.00      -96544.00      -95073.00      -93636.00
      -92188.00      -90777.00      -89300.00      -87907.00      -86243.00
      -84551.00      -83066.00      -81548.00      -80004.00      -78304.00
      -76655.00      -74976.00      -73268.00      -71713.00      -70108.00
      -68207.00      -66272.00      -64624.00      -62858.00      -61168.00
      -59439.00      -57376.00      -55501.00      -53710.00      -52047.00
      -50430.00      -48638.00      -46965.00      -45163.00      -43368.00
      -41932.00      -40360.00      -38884.00      -37762.00      -36464.00
      -35016.00      -33686.00      -32623.00      -31566.00      -30232.00
      -28848.00      -27562.00      -26391.00      -25230.00      -23885.00
      -22290.00      -20727.00      -19491.00      -18237.00      -16808.00
      -15414.00      -13831.00      -12261.00      -10975.00      -9624.000
      -8073.000      -6572.000      -5171.000      -3793.000      -2289.000
      -679.0000       813.0000       2408.000       3896.000       5319.000
       7092.000       9052.000       10909.00       12468.00       14218.00
       16126.00       17795.00       19312.00       20748.00       22320.00
       23623.00       24795.00       26198.00       27339.00       28341.00
       29456.00       30460.00       31435.00       32468.00       33232.00
       33871.00       34427.00       35064.00       35885.00       36583.00
       37113.00       37520.00       38126.00       38809.00       39498.00
       40229.00       41194.00       42247.00       43085.00       44041.00
       45051.00       46016.00       46953.00       47988.00       49049.00
       50141.00       51222.00       52420.00       53847.00       55076.00
       56253.00       57643.00       59351.00       61079.00       62766.00
       64462.00       66079.00       67846.00       69648.00       71433.00
       73090.00       74652.00       76288.00       77809.00       79340.00
       80927.00       82311.00       83661.00       85009.00       86260.00
       87521.00       88658.00       89752.00       90788.00       91852.00
       93070.00       93976.00       94881.00       96107.00       97430.00
       98640.00       99661.00       100797.0       101926.0       102987.0
       104085.0       105037.0       105997.0       107161.0       108144.0
       109014.0       109882.0       110628.0       111614.0       112660.0
       113603.0       114557.0       115601.0       116861.0       118135.0
       119499.0       120971.0       122276.0       123485.0       124782.0
       126084.0       127258.0       128533.0       129747.0       130933.0
       132217.0       133411.0       134807.0       136247.0       137479.0
       138592.0       139827.0       141371.0       142986.0       144395.0
       145716.0       147181.0       148744.0       150316.0       151879.0
       153501.0       155123.0       156701.0       158335.0       159936.0
       161534.0       163118.0       164735.0       166557.0       168235.0
       169833.0       171525.0       173110.0       174698.0       176135.0
       177491.0       179011.0       180475.0       182131.0       183728.0
       185066.0       186665.0       188290.0       189981.0       191731.0
       193346.0       194949.0       196589.0       198319.0       200053.0
       201755.0       203509.0       205221.0       206836.0       208526.0
       210065.0       211596.0       213270.0       214801.0       216456.0
       218099.0       219566.0       221064.0       222521.0       224101.0
       225567.0       226946.0       228423.0       229889.0       231149.0
       232121.0       233415.0       234614.0       235707.0       236864.0
       237818.0       238898.0       239844.0       240740.0       241684.0
       242645.0       243414.0       243960.0       244666.0       245347.0
       246054.0       246617.0       247203.0       248051.0       248581.0
       248956.0       249419.0       249975.0       250563.0       250781.0
       250952.0       251274.0       251420.0       251593.0       251669.0
       251531.0       251626.0       251841.0       251948.0       252067.0
       252267.0       252495.0       252786.0       253232.0       253645.0
       254044.0       254558.0       255216.0       255803.0       256145.0
       256627.0       256927.0       256983.0       257304.0       257504.0
       257640.0       257715.0       257429.0       257131.0       257056.0
       256981.0       256597.0       256118.0       255769.0       255402.0
       254910.0       254590.0       254227.0       253568.0       252989.0
       252426.0       251876.0       251194.0       250717.0       250309.0
       249585.0       248924.0       248299.0       247798.0       247411.0
       247154.0       246786.0       246322.0       245812.0       245403.0
       245062.0       244578.0       244280.0       244046.0       243932.0
       243693.0       243347.0       243025.0       242761.0       242421.0
       241764.0       241210.0       240582.0       239855.0       239106.0
       238366.0       237576.0       236542.0       235684.0       234878.0
       233918.0       232896.0       231787.0       230720.0       229597.0
       228634.0       227772.0       226792.0       225946.0       225200.0
       224550.0       223702.0       222888.0       222203.0       221342.0
       220405.0       219627.0       218930.0       217820.0       216930.0
       216106.0       215103.0       214216.0       213326.0       212629.0
       211814.0       211115.0       210566.0       209620.0       208691.0
       207871.0       206811.0       205816.0       204842.0       203763.0
       202720.0       201581.0       200533.0       199354.0       197999.0
       196856.0       195657.0       194386.0       193046.0       191671.0
       190266.0       188971.0       187858.0       186702.0       185637.0
       184440.0       183217.0       182038.0       180863.0       179758.0
       178645.0       177682.0       176592.0       175576.0       174578.0
       173396.0       172367.0       171341.0       170353.0       169310.0
       168130.0       167128.0       166275.0       165405.0       164540.0
       163557.0       162409.0       161306.0       160188.0       159143.0
       158267.0       157197.0       156011.0       154849.0       153896.0
       152981.0       151900.0       151027.0       150294.0       149645.0
       148893.0       148374.0       147920.0       147219.0       146778.0
       146185.0       145576.0       145324.0       144818.0       144185.0
       143731.0       143271.0       142784.0       142105.0       141488.0
       141002.0       140476.0       139836.0       139269.0       138831.0
       138205.0       137627.0       137130.0       136657.0       136165.0
       135809.0       135459.0       135048.0       134781.0       134417.0
       134038.0       133593.0       133365.0       133239.0       132957.0
       132796.0       132537.0       132327.0       132310.0       132115.0
       131716.0       131441.0       131226.0       130931.0       130619.0
       130101.0       129631.0       129378.0       129106.0       128950.0
       128673.0       128499.0       128378.0       128158.0       128075.0
       127875.0       127783.0       127555.0       127370.0       127099.0
       126637.0       126368.0       126023.0       125751.0       125277.0
       124801.0       124359.0       123764.0       123176.0       122416.0
       121734.0       121110.0       120389.0       119581.0       118774.0
       118212.0       117844.0       117229.0       116476.0       115988.0
       115552.0       115142.0       114628.0       114010.0       113445.0
       112955.0       112666.0       112152.0       111539.0       111079.0
       110694.0       110346.0       109694.0       109079.0       108681.0
       108243.0       107590.0       106990.0       106496.0       105857.0
       105401.0       104762.0       104038.0       103349.0       102444.0
       101631.0       100945.0       100334.0       99364.00       98231.00
       97464.00       96795.00       95943.00       95036.00       94283.00
       93477.00       92662.00       91715.00       90560.00       89585.00
       88500.00       87366.00       86161.00       84716.00       83267.00
       81726.00       80163.00       78617.00       77031.00       75227.00
       73313.00       71410.00       69437.00       67399.00       65325.00
       63335.00       61307.00       59341.00       57417.00       55525.00
       53632.00       51773.00       50144.00       48473.00       46704.00
       44985.00       43396.00       42057.00       40624.00       38819.00
       37032.00       35258.00       33688.00       32092.00       30187.00
       28239.00       26047.00       24126.00       22100.00       20019.00
       17974.00       15404.00       13164.00       10992.00       8747.000
       6361.000       3911.000       1893.000      -279.0000      -2524.000
      -4874.000      -7246.000      -9307.000      -11194.00      -13273.00
      -15568.00      -17487.00      -19428.00      -21513.00      -23321.00
      -25149.00      -27017.00      -28857.00      -30486.00      -32127.00
      -34003.00      -35687.00      -37448.00      -39199.00      -40786.00
      -42461.00      -44051.00      -45603.00      -47164.00      -48713.00
      -50312.00      -52014.00      -53857.00      -55759.00      -57874.00
      -59723.00      -61397.00      -63571.00      -65659.00      -67835.00
      -70048.00      -72080.00      -74316.00      -76526.00      -78795.00
      -81070.00      -83185.00      -85360.00      -87750.00      -90163.00
      -92569.00      -94945.00      -97248.00      -99666.00      -102284.0
      -104951.0      -107392.0      -109963.0      -112503.0      -115030.0
      -117635.0      -119909.0      -122454.0      -124963.0      -127164.0
      -129542.0      -131667.0      -133757.0      -136024.0      -137975.0
      -139960.0      -142062.0      -143999.0      -145898.0      -147688.0
      -149568.0      -151578.0      -153623.0      -155587.0      -157535.0
      -159581.0      -161330.0      -163241.0      -164953.0      -166394.0
      -168099.0      -169652.0      -171389.0      -172945.0      -174511.0
      -176356.0      -177828.0      -179401.0      -181248.0      -182903.0
      -184572.0      -186314.0      -187985.0      -189665.0      -191052.0
      -192507.0      -194049.0      -195520.0      -197007.0      -198332.0
      -199744.0      -200917.0      -202134.0      -203496.0      -204527.0
      -205644.0      -206910.0      -208345.0      -209620.0      -210647.0
      -211770.0      -212955.0      -214343.0      -215580.0      -216694.0
      -217830.0      -219114.0      -220652.0      -222123.0      -223494.0
      -224726.0      -226140.0      -227605.0      -229024.0      -230458.0
      -231774.0      -232970.0      -234000.0      -235046.0      -236193.0
      -237541.0      -238757.0      -239820.0      -240960.0      -242147.0
      -243490.0      -244746.0      -245828.0      -247036.0      -248178.0
      -249334.0      -250667.0      -251783.0      -252900.0      -254000.0
      -255147.0      -256248.0      -257315.0      -258572.0      -259534.0
      -260632.0      -261678.0      -262724.0      -264047.0      -264920.0
      -265896.0      -267083.0      -268261.0      -269489.0      -270198.0
      -270990.0      -272128.0      -273027.0      -273838.0      -274550.0
      -275205.0      -275830.0      -276220.0      -276343.0      -276529.0
      -276798.0      -276892.0      -277034.0      -277224.0      -277391.0
      -277691.0      -278108.0      -278257.0      -278477.0      -278993.0
      -279216.0      -279872.0      -280648.0      -281124.0      -281946.0
      -282449.0      -283018.0      -283703.0      -284185.0      -284879.0
      -285449.0      -285875.0      -286343.0      -286950.0      -287505.0
