     0.05000000      -12345.00      -12345.00   3.370540e+09      -12345.00
   0.0005380000       1859.951      -692.0195      -12345.00      -12345.00
      -12345.00      -12345.00      -12345.00      -12345.00      -12345.00
      -12345.00      -12345.00      -12345.00      -12345.00      -12345.00
      -12345.00      -12345.00      -12345.00      -12345.00      -12345.00
      -12345.00      -12345.00      -12345.00      -12345.00      -12345.00
      -12345.00       19.02910       109.8445       240.0000       0.000000
      -42.72450       173.0647      -12345.00       22.00000      -12345.00
      -12345.00      -12345.00      -12345.00      -12345.00      -12345.00
      -12345.00      -12345.00      -12345.00      -12345.00      -12345.00
       9400.950       301.9624       138.6357       84.54852      -12345.00
      -12345.00      -12345.00       0.000000       90.00000      -12345.00
      -12345.00      -12345.00      -12345.00      -12345.00      -12345.00
      -12345.00      -12345.00      -12345.00      -12345.00      -12345.00
      2016       318        11        14        31
        19         6    -12345    -12345     37200
    -12345    -12345    -12345    -12345    -12345
         1    -12345    -12345    -12345    -12345
    -12345    -12345    -12345    -12345    -12345
    -12345    -12345    -12345    -12345    -12345
    -12345    -12345    -12345    -12345    -12345
         1    -12345    -12345    -12345    -12345
QIZ     South Island, Ne
00      -12345  -12345  
-12345  -12345  -12345  
-12345  -12345  -12345  
-12345  -12345  -12345  
-12345  -12345  -12345  
-12345  -12345  BH1     
IC      -12345  Streckei
[...]
      -368859.0      -367494.0      -366005.0      -364613.0      -363019.0
      -361315.0      -359677.0      -357927.0      -356144.0      -354189.0
      -352263.0      -350307.0      -348208.0      -346063.0      -343870.0
      -341703.0      -339400.0      -337018.0      -334667.0      -332223.0
      -329677.0      -327101.0      -324543.0      -321924.0      -319246.0
      -316577.0      -313814.0      -310985.0      -308156.0      -305313.0
      -302453.0      -299569.0      -296568.0      -293528.0      -290649.0
      -287739.0      -284673.0      -281566.0      -278516.0      -275444.0
      -272332.0      -269261.0      -266070.0      -262914.0      -259829.0
      -256558.0      -253330.0      -250173.0      -246844.0      -243526.0
      -240369.0      -237086.0      -233739.0      -230511.0      -227165.0
      -223819.0      -220519.0      -217135.0      -213777.0      -210371.0
      -206907.0      -203615.0      -200253.0      -196732.0      -193341.0
      -189986.0      -186610.0      -183150.0      -179734.0      -176368.0
      -172895.0      -169528.0      -166109.0      -162591.0      -159151.0
      -155741.0      -152241.0      -148621.0      -145104.0      -141565.0
      -137967.0      -134459.0      -130844.0      -127208.0      -123747.0
      -120113.0      -116375.0      -112897.0      -109394.0      -105708.0
      -102103.0      -98543.00      -94854.00      -91242.00      -87613.00
      -83959.00      -80336.00      -76679.00      -73065.00      -69354.00
      -65727.00      -62136.00      -58452.00      -54945.00      -51369.00
      -47680.00      -44244.00      -40752.00      -37170.00      -33741.00
      -30292.00      -26843.00      -23393.00      -19979.00      -16590.00
      -13297.00      -9992.000      -6599.000      -3311.000      -17.00000
       3197.000       6512.000       9716.000       12777.00       15977.00
       18967.00       22070.00       25189.00       28121.00       31046.00
       33931.00       36807.00       39576.00       42372.00       45083.00
       47671.00       50324.00       52884.00       55370.00       57805.00
       60153.00       62434.00       64717.00       66920.00       68987.00
       71042.00       72973.00       74914.00       76766.00       78478.00
       80274.00       81893.00       83388.00       84938.00       86521.00
       87857.00       89038.00       90302.00       91394.00       92503.00
       93428.00       94229.00       95067.00       95783.00       96380.00
       96709.00       97154.00       97602.00       97816.00       97872.00
       97966.00       98117.00       98030.00       97776.00       97585.00
       97457.00       97142.00       96760.00       96250.00       95753.00
       95279.00       94651.00       94010.00       93309.00       92680.00
       91919.00       91101.00       90338.00       89498.00       88686.00
       87845.00       87050.00       86174.00       85213.00       84328.00
       83419.00       82434.00       81440.00       80538.00       79621.00
       78583.00       77620.00       76623.00       75588.00       74731.00
       73697.00       72598.00       71749.00       70905.00       69876.00
       68866.00       68047.00       67229.00       66454.00       65624.00
       64743.00       64071.00       63453.00       62704.00       62013.00
       61453.00       60801.00       60171.00       59637.00       59064.00
       58382.00       57839.00       57378.00       56758.00       56171.00
       55492.00       54880.00       54323.00       53699.00       53033.00
       52399.00       51882.00       51166.00       50468.00       49884.00
       49315.00       48592.00       47816.00       47209.00       46599.00
       45940.00       45234.00       44487.00       43783.00       43187.00
       42379.00       41659.00       41137.00       40533.00       39917.00
       39283.00       38693.00       38108.00       37542.00       37030.00
       36576.00       36047.00       35523.00       34941.00       34473.00
       34045.00       33447.00       33077.00       32593.00       32013.00
       31675.00       31339.00       30918.00       30567.00       30263.00
       29953.00       29742.00       29519.00       29307.00       29182.00
       29043.00       28981.00       28876.00       28738.00       28753.00
       28725.00       28746.00       28736.00       28730.00       28887.00
       28952.00       28971.00       29039.00       29082.00       29149.00
       29281.00       29352.00       29409.00       29483.00       29561.00
       29555.00       29580.00       29705.00       29647.00       29781.00
       29874.00       29791.00       29855.00       29808.00       29773.00
       29759.00       29766.00       29687.00       29589.00       29563.00
       29452.00       29374.00       29284.00       29098.00       28849.00
       28655.00       28458.00       28244.00       27942.00       27644.00
       27375.00       26989.00       26698.00       26307.00       25878.00
       25592.00       25129.00       24693.00       24369.00       23925.00
       23544.00       23088.00       22595.00       22297.00       21888.00
       21383.00       21037.00       20697.00       20180.00       19835.00
       19461.00       18980.00       18686.00       18294.00       17806.00
       17406.00       17131.00       16737.00       16413.00       16066.00
       15730.00       15542.00       15251.00       15087.00       14885.00
       14703.00       14536.00       14504.00       14456.00       14460.00
       14688.00       14618.00       14850.00       15118.00       15262.00
       15658.00       16020.00       16484.00       16882.00       17345.00
       17926.00       18477.00       19041.00       19723.00       20497.00
       21171.00       22084.00       23013.00       23819.00       24890.00
       25989.00       27063.00       28205.00       29428.00       30755.00
       32084.00       33565.00       35027.00       36469.00       38051.00
       39627.00       41335.00       43141.00       44899.00       46750.00
       48684.00       50666.00       52743.00       54751.00       56854.00
       59072.00       61296.00       63642.00       65881.00       68245.00
       70648.00       72908.00       75402.00       77858.00       80295.00
       82819.00       85357.00       88021.00       90626.00       93256.00
       95898.00       98609.00       101430.0       104168.0       106911.0
       109696.0       112575.0       115368.0       118160.0       121049.0
       123849.0       126790.0       129730.0       132652.0       135594.0
       138489.0       141615.0       144705.0       147744.0       150875.0
       153948.0       157126.0       160299.0       163493.0       166767.0
       169973.0       173196.0       176461.0       179750.0       183003.0
       186257.0       189561.0       192880.0       196233.0       199541.0
       202749.0       206022.0       209352.0       212637.0       215969.0
       219259.0       222509.0       225791.0       229106.0       232428.0
       235661.0       238908.0       242160.0       245363.0       248533.0
       251674.0       254841.0       257909.0       260916.0       263997.0
       267097.0       270093.0       272971.0       275940.0       278839.0
       281648.0       284468.0       287192.0       289990.0       292701.0
       295321.0       297963.0       300565.0       303181.0       305668.0
       308161.0       310688.0       313099.0       315491.0       317823.0
       320118.0       322503.0       324854.0       327020.0       329178.0
       331412.0       333579.0       335680.0       337763.0       339851.0
       341938.0       343999.0       345952.0       347846.0       349899.0
       351856.0       353544.0       355478.0       357417.0       359039.0
       360772.0       362402.0       364012.0       365629.0       367010.0
       368461.0       369883.0       371301.0       372579.0       373776.0
       374998.0       376074.0       377269.0       378290.0       379202.0
       380257.0       381224.0       382091.0       382925.0       383828.0
       384600.0       385348.0       386156.0       386802.0       387506.0
       388183.0       388747.0       389349.0       389972.0       390432.0
       390736.0       391227.0       391703.0       392032.0       392292.0
       392627.0       392992.0       393185.0       393322.0       393453.0
       393666.0       393819.0       393905.0       393932.0       394012.0
       394169.0       394122.0       393997.0       393969.0       394066.0
       394040.0       393835.0       393737.0       393778.0       393709.0
       393495.0       393332.0       393130.0       393004.0       392817.0
       392515.0       392408.0       392124.0       391752.0       391403.0
       391096.0       390728.0       390093.0       389750.0       389414.0
       388849.0       388267.0       387660.0       387218.0       386648.0
       385902.0       385243.0       384703.0       384038.0       383197.0
       382485.0       381780.0       381057.0       380229.0       379289.0
       378426.0       377601.0       376667.0       375545.0       374498.0
       373482.0       372380.0       371050.0       369695.0       368496.0
       367018.0       365567.0       364094.0       362474.0       360888.0
       359135.0       357336.0       355423.0       353640.0       351749.0
       349525.0       347468.0       345303.0       343050.0       340789.0
       338367.0       335978.0       333564.0       331003.0       328415.0
       325854.0       323087.0       320336.0       317668.0       314767.0
       311895.0       309004.0       305987.0       303008.0       299978.0
       296821.0       293658.0       290435.0       287155.0       283856.0
       280354.0       276989.0       273478.0       269929.0       266494.0
       262677.0       259022.0       255286.0       251544.0       247773.0
       243784.0       239994.0       235970.0       231975.0       227898.0
       223856.0       219789.0       215337.0       211243.0       207056.0
       202715.0       198408.0       193960.0       189630.0       185208.0
       180686.0       176159.0       171716.0       167206.0       162542.0
       157912.0       153221.0       148518.0       143763.0       138887.0
       134036.0       129234.0       124324.0       119259.0       114261.0
       109245.0       104087.0       99042.00       93900.00       88571.00
       83377.00       78082.00       72702.00       67440.00       62023.00
       56478.00       51019.00       45613.00       40054.00       34391.00
       28838.00       23195.00       17584.00       11866.00       5991.000
       445.0000      -5277.000      -11114.00      -16957.00      -22838.00
      -28660.00      -34608.00      -40387.00      -46462.00      -52408.00
      -58289.00      -64452.00      -70332.00      -76491.00      -82559.00
      -88541.00      -94715.00      -100782.0      -106929.0      -112967.0
      -119051.0      -125180.0      -131296.0      -137447.0      -143460.0
      -149621.0      -155712.0      -161744.0      -167885.0      -173770.0
      -179812.0      -185905.0      -191829.0      -197831.0      -203664.0
      -209574.0      -215614.0      -221364.0      -227147.0      -233032.0
      -238668.0      -244326.0      -250036.0      -255633.0      -261194.0
      -266782.0      -272235.0      -277657.0      -283178.0      -288416.0
      -293681.0      -298996.0      -304128.0      -309383.0      -314542.0
      -319554.0      -324551.0      -329521.0      -334534.0      -339407.0
      -344222.0      -349082.0      -353824.0      -358574.0      -363298.0
      -367794.0      -372268.0      -376809.0      -381162.0      -385506.0
      -389762.0      -393889.0      -398031.0      -402031.0      -406111.0
      -410059.0      -413848.0      -417693.0      -421528.0      -425218.0
      -428788.0      -432429.0      -435908.0      -439391.0      -442879.0
      -446253.0      -449600.0      -452897.0      -456153.0      -459294.0
      -462401.0      -465488.0      -468550.0      -471518.0      -474402.0
      -477272.0      -480071.0      -482784.0      -485467.0      -488094.0
      -490674.0      -493278.0      -495767.0      -498157.0      -500550.0
      -502909.0      -505204.0      -507340.0      -509469.0      -511638.0
      -513628.0      -515621.0      -517586.0      -519363.0      -521140.0
      -522904.0      -524581.0      -526146.0      -527626.0      -529039.0
      -530420.0      -531781.0      -533043.0      -534191.0      -535216.0
      -536343.0      -537411.0      -538256.0      -539065.0      -539803.0
      -540531.0      -541155.0      -541772.0      -542250.0      -542577.0
      -542984.0      -543182.0      -543315.0      -543390.0      -543424.0
      -543368.0      -543166.0      -543036.0      -542696.0      -542255.0
      -541823.0      -541262.0      -540643.0      -540015.0      -539363.0
      -538437.0      -537388.0      -536464.0      -535402.0      -534297.0
      -533063.0      -531708.0      -530379.0      -528875.0      -527382.0
      -525770.0      -523964.0      -522205.0      -520434.0      -518492.0
      -516449.0      -514415.0      -512329.0      -510082.0      -507849.0
      -505632.0      -503134.0      -500703.0      -498343.0      -495737.0
      -493110.0      -490518.0      -487771.0      -484869.0      -481961.0
      -479089.0      -476140.0      -472996.0      -469832.0      -466679.0
      -463350.0      -460091.0      -456750.0      -453295.0      -449812.0
      -446174.0      -442676.0      -438901.0      -435122.0      -431546.0
      -427691.0      -423883.0      -420060.0      -416089.0      -412126.0
      -408259.0      -404242.0      -400227.0      -396149.0      -391943.0
      -387954.0      -383829.0      -379685.0      -375496.0      -371270.0
      -367078.0      -362694.0      -358476.0      -354303.0      -349908.0
      -345444.0      -341196.0      -336971.0      -332438.0      -327980.0
      -323583.0      -319184.0      -314789.0      -310276.0      -305707.0
      -301173.0      -296828.0      -292322.0      -287737.0      -283257.0
      -278805.0      -274343.0      -269715.0      -265203.0      -260684.0
      -256118.0      -251634.0      -247064.0      -242496.0      -238019.0
      -233525.0      -228923.0      -224435.0      -219899.0      -215276.0
      -210832.0      -206267.0      -201695.0      -197170.0      -192603.0
      -188027.0      -183350.0      -178778.0      -174253.0      -169672.0
      -164982.0      -160376.0      -155840.0      -151220.0      -146605.0
      -141882.0      -137236.0      -132618.0      -127975.0      -123342.0
      -118647.0      -114019.0      -109290.0      -104437.0      -99721.00
      -95089.00      -90249.00      -85443.00      -80804.00      -76057.00
      -71399.00      -66737.00      -61920.00      -57180.00      -52552.00
      -47823.00      -43086.00      -38363.00      -33600.00      -28983.00
      -24283.00      -19586.00      -14899.00      -10182.00      -5552.000
      -876.0000       3786.000       8455.000       13030.00       17658.00
       22380.00       26929.00       31452.00       36034.00       40579.00
       45064.00       49569.00       54087.00       58481.00       62925.00
       67519.00       71855.00       76202.00       80706.00       84940.00
       89278.00       93756.00       97990.00       102102.0       106399.0
       110576.0       114679.0       118809.0       122655.0       126741.0
       130758.0       134635.0       138595.0       142228.0       145970.0
       149845.0       153513.0       157105.0       160720.0       164152.0
       167672.0       171310.0       174488.0       177776.0       181339.0
       184643.0       187836.0       190924.0       194130.0       197390.0
       200291.0       203278.0       206303.0       209168.0       211973.0
       214600.0       217289.0       219897.0       222330.0       224790.0
       227106.0       229423.0       231787.0       233882.0       235967.0
       238058.0       239966.0       241942.0       243959.0       245724.0
       247394.0       249218.0       250907.0       252568.0       254183.0
       255654.0       257223.0       258696.0       260079.0       261427.0
       262796.0       264062.0       265172.0       266367.0       267456.0
       268513.0       269482.0       270357.0       271338.0       272177.0
       272948.0       273750.0       274370.0       275074.0       275893.0
       276467.0       277126.0       277755.0       278369.0       279076.0
       279607.0       280233.0       280743.0       281290.0       281972.0
       282485.0       282982.0       283426.0       283921.0       284476.0
       284923.0       285302.0       285695.0       286068.0       286477.0
       286865.0       287072.0       287331.0       287657.0       287886.0
       288193.0       288488.0       288748.0       289012.0       289315.0
       289713.0       289921.0       290234.0       290597.0       290971.0
       291316.0       291567.0       292041.0       292207.0       292590.0
       292950.0       293066.0       293597.0       293693.0       293901.0
       294243.0       294465.0       294685.0       294596.0       294963.0
       295087.0       295006.0       295144.0       295137.0       295247.0
       295152.0       295026.0       295046.0       294949.0       294710.0
       294538.0       294330.0       294084.0       293878.0       293462.0
       293019.0       292626.0       292257.0       291709.0       291103.0
       290615.0       289931.0       289173.0       288601.0       287902.0
       286926.0       286227.0       285524.0       284608.0       283662.0
       282631.0       281803.0       280788.0       279669.0       278682.0
       277493.0       276345.0       275229.0       273952.0       272753.0
       271559.0       270076.0       268748.0       267488.0       266007.0
       264555.0       262995.0       261449.0       259946.0       258378.0
       256645.0       254824.0       253209.0       251525.0       249653.0
       247815.0       246039.0       244102.0       242068.0       240194.0
       238199.0       236155.0       234050.0       231913.0       229836.0
