     0.05000000      -12345.00      -12345.00   3.387320e+09      -12345.00
   0.0005390000       1859.951      -692.0195      -12345.00      -12345.00
      -12345.00      -12345.00      -12345.00      -12345.00      -12345.00
      -12345.00      -12345.00      -12345.00      -12345.00      -12345.00
      -12345.00      -12345.00      -12345.00      -12345.00      -12345.00
      -12345.00      -12345.00      -12345.00      -12345.00      -12345.00
      -12345.00       19.02910       109.8445       240.0000       0.000000
      -42.72450       173.0647      -12345.00       22.00000      -12345.00
      -12345.00      -12345.00      -12345.00      -12345.00      -12345.00
      -12345.00      -12345.00      -12345.00      -12345.00      -12345.00
       9400.950       301.9624       138.6357       84.54852      -12345.00
      -12345.00      -12345.00       90.00000       90.00000      -12345.00
      -12345.00      -12345.00      -12345.00      -12345.00      -12345.00
      -12345.00      -12345.00      -12345.00      -12345.00      -12345.00
      2016       318        11        14        31
        19         6    -12345    -12345     37200
    -12345    -12345    -12345    -12345    -12345
         1    -12345    -12345    -12345    -12345
    -12345    -12345    -12345    -12345    -12345
    -12345    -12345    -12345    -12345    -12345
    -12345    -12345    -12345    -12345    -12345
         1    -12345    -12345    -12345    -12345
QIZ     South Island, Ne
00      -12345  -12345  
-12345  -12345  -12345  
-12345  -12345  -12345  
-12345  -12345  -12345  
-12345  -12345  -12345  
-12345  -12345  BH2     
IC      -12345  Streckei
[...]
       110680.0       109693.0       108872.0       107799.0       106847.0
       105968.0       104790.0       103715.0       102657.0       101529.0
       100355.0       99305.00       98147.00       97005.00       95988.00
       94698.00       93475.00       92307.00       91166.00       89952.00
       88746.00       87638.00       86339.00       85201.00       84031.00
       82733.00       81534.00       80332.00       79149.00       77958.00
       76771.00       75505.00       74313.00       73209.00       71935.00
       70656.00       69458.00       68331.00       67243.00       66053.00
       64805.00       63641.00       62561.00       61451.00       60345.00
       59169.00       58057.00       57045.00       56015.00       54964.00
       53786.00       52693.00       51642.00       50466.00       49392.00
       48415.00       47218.00       46119.00       45153.00       43983.00
       42980.00       42033.00       40924.00       39935.00       39113.00
       38187.00       37198.00       36328.00       35453.00       34585.00
       33847.00       33110.00       32252.00       31487.00       30828.00
       30102.00       29412.00       28784.00       28032.00       27403.00
       26887.00       26266.00       25700.00       25087.00       24542.00
       23976.00       23458.00       22984.00       22392.00       21977.00
       21548.00       21114.00       20754.00       20338.00       19864.00
       19555.00       19402.00       19106.00       18795.00       18582.00
       18373.00       18280.00       18222.00       18012.00       17884.00
       17821.00       17745.00       17655.00       17634.00       17628.00
       17552.00       17583.00       17591.00       17598.00       17615.00
       17624.00       17640.00       17678.00       17758.00       17737.00
       17730.00       17760.00       17762.00       17864.00       17921.00
       17835.00       17968.00       18195.00       18358.00       18491.00
       18657.00       18936.00       19121.00       19478.00       19805.00
       20055.00       20507.00       20831.00       21069.00       21494.00
       21996.00       22344.00       22723.00       23112.00       23491.00
       23920.00       24303.00       24626.00       24932.00       25376.00
       25717.00       25973.00       26327.00       26568.00       26879.00
       27295.00       27517.00       27771.00       28068.00       28332.00
       28635.00       28890.00       29155.00       29452.00       29726.00
       29955.00       30233.00       30510.00       30783.00       31010.00
       31308.00       31644.00       31765.00       32082.00       32406.00
       32546.00       32864.00       33189.00       33412.00       33631.00
       33984.00       34298.00       34560.00       34923.00       35132.00
       35393.00       35839.00       36126.00       36324.00       36761.00
       37172.00       37414.00       37751.00       38212.00       38548.00
       38819.00       39301.00       39613.00       40044.00       40575.00
       40846.00       41289.00       41741.00       42118.00       42595.00
       43166.00       43590.00       43996.00       44539.00       44950.00
       45489.00       46012.00       46351.00       46918.00       47528.00
       47810.00       48208.00       48877.00       49317.00       49606.00
       49996.00       50440.00       50851.00       51250.00       51598.00
       51887.00       52351.00       52774.00       52968.00       53203.00
       53530.00       53870.00       54116.00       54323.00       54582.00
       54739.00       54987.00       55189.00       55182.00       55420.00
       55591.00       55632.00       55713.00       55727.00       55734.00
       55780.00       55836.00       55642.00       55638.00       55719.00
       55648.00       55490.00       55357.00       55377.00       55277.00
       55372.00       55192.00       54882.00       54919.00       54880.00
       54650.00       54489.00       54495.00       54225.00       54091.00
       54011.00       53707.00       53587.00       53460.00       53136.00
       52909.00       52870.00       52492.00       52114.00       52025.00
       51677.00       51290.00       51044.00       50792.00       50400.00
       50076.00       49857.00       49459.00       49140.00       48671.00
       48258.00       48106.00       47713.00       47312.00       47019.00
       46775.00       46482.00       46147.00       45850.00       45617.00
       45589.00       45290.00       45024.00       45017.00       44835.00
       44720.00       44643.00       44628.00       44573.00       44549.00
       44600.00       44517.00       44579.00       44700.00       44766.00
       44788.00       44848.00       44959.00       45042.00       45125.00
       45195.00       45273.00       45316.00       45421.00       45384.00
       45346.00       45428.00       45372.00       45419.00       45332.00
       45269.00       45244.00       45070.00       45078.00       44981.00
       44879.00       44778.00       44673.00       44643.00       44435.00
       44275.00       44198.00       43926.00       43722.00       43687.00
       43386.00       43096.00       42902.00       42553.00       42209.00
       41852.00       41439.00       40932.00       40531.00       39961.00
       39158.00       38686.00       37957.00       37007.00       36298.00
       35344.00       34365.00       33469.00       32366.00       31220.00
       30091.00       28852.00       27507.00       26174.00       24808.00
       23373.00       21848.00       20320.00       18639.00       16878.00
       15326.00       13455.00       11459.00       9656.000       7744.000
       5771.000       3766.000       1672.000      -605.0000      -2697.000
      -4885.000      -7271.000      -9539.000      -12001.00      -14400.00
      -16927.00      -19390.00      -21967.00      -24725.00      -27260.00
      -30085.00      -32860.00      -35655.00      -38354.00      -41230.00
      -44252.00      -46943.00      -50049.00      -53047.00      -55946.00
      -58942.00      -61903.00      -65056.00      -68108.00      -71227.00
      -74266.00      -77428.00      -80624.00      -83664.00      -86942.00
      -90038.00      -93189.00      -96396.00      -99423.00      -102620.0
      -105756.0      -108829.0      -111983.0      -115080.0      -118108.0
      -121233.0      -124373.0      -127466.0      -130477.0      -133497.0
      -136697.0      -139700.0      -142661.0      -145653.0      -148560.0
      -151513.0      -154387.0      -157328.0      -160137.0      -162884.0
      -165753.0      -168431.0      -171056.0      -173791.0      -176448.0
      -179042.0      -181737.0      -184305.0      -186834.0      -189478.0
      -191982.0      -194471.0      -196958.0      -199469.0      -201889.0
      -204256.0      -206767.0      -209019.0      -211426.0      -213786.0
      -215883.0      -218188.0      -220327.0      -222555.0      -224696.0
      -226666.0      -228830.0      -230814.0      -232781.0      -234726.0
      -236497.0      -238416.0      -240275.0      -242001.0      -243761.0
      -245500.0      -247246.0      -248914.0      -250522.0      -252065.0
      -253652.0      -255273.0      -256774.0      -258307.0      -259757.0
      -261171.0      -262604.0      -263911.0      -265237.0      -266597.0
      -267899.0      -269189.0      -270470.0      -271651.0      -272909.0
      -274175.0      -275380.0      -276605.0      -277746.0      -278923.0
      -280132.0      -281295.0      -282427.0      -283530.0      -284670.0
      -285779.0      -286826.0      -287938.0      -289029.0      -290136.0
      -291243.0      -292231.0      -293242.0      -294251.0      -295404.0
      -296482.0      -297338.0      -298332.0      -299350.0      -300423.0
      -301453.0      -302429.0      -303514.0      -304505.0      -305497.0
      -306572.0      -307727.0      -308803.0      -309690.0      -310735.0
      -311915.0      -312949.0      -313884.0      -315035.0      -316267.0
      -317316.0      -318419.0      -319561.0      -320666.0      -321690.0
      -322705.0      -323826.0      -324978.0      -325977.0      -326896.0
      -328000.0      -328994.0      -329836.0      -330698.0      -331585.0
      -332419.0      -333223.0      -334040.0      -334706.0      -335355.0
      -335981.0      -336593.0      -337075.0      -337560.0      -338150.0
      -338518.0      -338967.0      -339367.0      -339704.0      -340077.0
      -340312.0      -340621.0      -340830.0      -341043.0      -341238.0
      -341347.0      -341469.0      -341600.0      -341745.0      -341706.0
      -341694.0      -341692.0      -341686.0      -341660.0      -341601.0
      -341535.0      -341383.0      -341310.0      -341039.0      -340789.0
      -340552.0      -340231.0      -340001.0      -339562.0      -339218.0
      -338791.0      -338128.0      -337549.0      -336971.0      -336346.0
      -335645.0      -334882.0      -334023.0      -333219.0      -332301.0
      -331277.0      -330331.0      -329124.0      -327945.0      -326831.0
      -325633.0      -324313.0      -322826.0      -321467.0      -320045.0
      -318611.0      -317154.0      -315550.0      -313857.0      -312223.0
      -310693.0      -308940.0      -307096.0      -305318.0      -303546.0
      -301649.0      -299764.0      -297966.0      -295945.0      -293808.0
      -291752.0      -289786.0      -287788.0      -285534.0      -283255.0
      -281137.0      -278929.0      -276632.0      -274313.0      -271984.0
      -269565.0      -267140.0      -264739.0      -262208.0      -259542.0
      -256916.0      -254395.0      -251653.0      -248873.0      -246148.0
      -243333.0      -240444.0      -237588.0      -234620.0      -231524.0
      -228727.0      -225645.0      -222311.0      -219240.0      -216009.0
      -212679.0      -209469.0      -206037.0      -202582.0      -199328.0
      -195754.0      -192234.0      -188822.0      -185182.0      -181737.0
      -178106.0      -174350.0      -170849.0      -167112.0      -163472.0
      -159798.0      -155866.0      -152210.0      -148526.0      -144795.0
      -140922.0      -137041.0      -133249.0      -129332.0      -125479.0
      -121538.0      -117620.0      -113607.0      -109633.0      -105694.0
      -101641.0      -97680.00      -93623.00      -89569.00      -85442.00
      -81395.00      -77380.00      -73141.00      -69090.00      -64998.00
      -60757.00      -56618.00      -52373.00      -48206.00      -44016.00
      -39739.00      -35591.00      -31356.00      -27082.00      -22819.00
      -18583.00      -14341.00      -9999.000      -5654.000      -1375.000
       2895.000       7227.000       11579.00       16018.00       20500.00
       24895.00       29330.00       33763.00       38263.00       42850.00
       47332.00       51907.00       56452.00       60968.00       65575.00
       70182.00       74765.00       79281.00       83869.00       88515.00
       93221.00       97879.00       102385.0       107009.0       111721.0
       116368.0       121099.0       125767.0       130467.0       135165.0
       139862.0       144762.0       149367.0       154067.0       158920.0
       163640.0       168511.0       173225.0       177930.0       182723.0
       187464.0       192214.0       196932.0       201712.0       206479.0
       211116.0       215848.0       220556.0       225182.0       229899.0
       234490.0       239082.0       243724.0       248228.0       252754.0
       257354.0       261821.0       266353.0       270900.0       275224.0
       279727.0       284178.0       288512.0       292994.0       297194.0
       301541.0       305989.0       310077.0       314416.0       318683.0
       322735.0       326941.0       331049.0       335098.0       339185.0
       343174.0       347028.0       351034.0       354962.0       358745.0
       362581.0       366310.0       370057.0       373755.0       377391.0
       380953.0       384426.0       387999.0       391544.0       394905.0
       398172.0       401532.0       404786.0       407874.0       411030.0
       414082.0       417057.0       419983.0       422828.0       425659.0
       428379.0       431114.0       433765.0       436288.0       438844.0
       441335.0       443729.0       446064.0       448237.0       450369.0
       452549.0       454524.0       456424.0       458203.0       459983.0
       461773.0       463312.0       464855.0       466223.0       467574.0
       468949.0       470189.0       471376.0       472313.0       473316.0
       474302.0       475115.0       475918.0       476583.0       477152.0
       477720.0       478216.0       478573.0       478835.0       479066.0
       479312.0       479398.0       479492.0       479562.0       479393.0
       479204.0       479010.0       478818.0       478543.0       478128.0
       477712.0       477243.0       476735.0       476163.0       475492.0
       474851.0       474096.0       473391.0       472726.0       471733.0
       470800.0       470007.0       469029.0       467972.0       466914.0
       465831.0       464679.0       463517.0       462288.0       460810.0
       459487.0       458244.0       456703.0       455200.0       453658.0
       452093.0       450436.0       448710.0       447117.0       445291.0
       443430.0       441549.0       439613.0       437620.0       435590.0
       433687.0       431432.0       429161.0       427135.0       424815.0
       422431.0       420162.0       417691.0       415090.0       412716.0
       410265.0       407440.0       404800.0       402255.0       399280.0
       396414.0       393743.0       390741.0       387755.0       384829.0
       381740.0       378575.0       375473.0       372324.0       369002.0
       365698.0       362352.0       358952.0       355531.0       352078.0
       348519.0       344894.0       341373.0       337875.0       334195.0
       330493.0       326888.0       323213.0       319404.0       315693.0
       312107.0       308201.0       304442.0       300787.0       296852.0
       293072.0       289203.0       285298.0       281453.0       277610.0
       273723.0       269762.0       265994.0       262102.0       258100.0
       254209.0       250304.0       246334.0       242359.0       238481.0
       234627.0       230683.0       226727.0       222897.0       218901.0
       214885.0       211186.0       207309.0       203345.0       199499.0
       195617.0       191759.0       187906.0       184165.0       180192.0
       176308.0       172731.0       168826.0       164962.0       161238.0
       157380.0       153580.0       149894.0       146121.0       142217.0
       138444.0       134787.0       130971.0       127081.0       123362.0
       119602.0       115732.0       111903.0       108109.0       104331.0
       100524.0       96726.00       92833.00       88967.00       85261.00
       81382.00       77466.00       73670.00       69924.00       66081.00
       62171.00       58417.00       54461.00       50618.00       46919.00
       43028.00       39104.00       35264.00       31567.00       27563.00
       23680.00       19892.00       15898.00       12072.00       8208.000
       4304.000       342.0000      -3525.000      -7420.000      -11476.00
      -15431.00      -19362.00      -23407.00      -27442.00      -31427.00
      -35572.00      -39598.00      -43690.00      -47921.00      -52007.00
      -56203.00      -60440.00      -64605.00      -68735.00      -73035.00
      -77252.00      -81353.00      -85690.00      -89916.00      -94147.00
      -98413.00      -102561.0      -106804.0      -111005.0      -115209.0
      -119420.0      -123543.0      -127747.0      -131871.0      -135968.0
      -140164.0      -144145.0      -148228.0      -152427.0      -156292.0
      -160237.0      -164219.0      -168115.0      -172184.0      -175974.0
      -179647.0      -183627.0      -187381.0      -191021.0      -194865.0
      -198512.0      -202122.0      -205884.0      -209342.0      -212896.0
      -216584.0      -219889.0      -223455.0      -226971.0      -230252.0
      -233743.0      -237077.0      -240363.0      -243609.0      -246715.0
      -249924.0      -253209.0      -256126.0      -259040.0      -262283.0
      -265112.0      -268004.0      -270884.0      -273444.0      -276434.0
      -279158.0      -281598.0      -284329.0      -286828.0      -289268.0
      -291809.0      -294128.0      -296507.0      -298857.0      -300981.0
      -303210.0      -305247.0      -307291.0      -309360.0      -311111.0
      -313099.0      -314912.0      -316598.0      -318460.0      -319986.0
      -321608.0      -323265.0      -324618.0      -326052.0      -327493.0
      -328699.0      -329946.0      -331078.0      -332148.0      -333295.0
      -334105.0      -335051.0      -335988.0      -336663.0      -337451.0
      -338074.0      -338648.0      -339258.0      -339803.0      -340312.0
      -340661.0      -340937.0      -341294.0      -341559.0      -341631.0
      -341768.0      -341772.0      -341766.0      -341705.0      -341389.0
      -341297.0      -340975.0      -340562.0      -340248.0      -339683.0
      -339255.0      -338650.0      -337916.0      -337314.0      -336495.0
      -335709.0      -334901.0      -333866.0      -332959.0      -332020.0
      -330911.0      -329796.0      -328722.0      -327535.0      -326246.0
      -325080.0      -323802.0      -322454.0      -321135.0      -319776.0
      -318310.0      -316829.0      -315417.0      -313816.0      -312302.0
      -310756.0      -309062.0      -307473.0      -305768.0      -304098.0
      -302352.0      -300676.0      -299031.0      -297061.0      -295416.0
      -293660.0      -291699.0      -289884.0      -287952.0      -286327.0
      -284414.0      -282345.0      -280599.0      -278650.0      -276715.0
      -274705.0      -272749.0      -270813.0      -268750.0      -266853.0
      -264760.0      -262618.0      -260756.0      -258793.0      -256533.0
      -254454.0      -252487.0      -250344.0      -248222.0      -245990.0
      -243720.0      -241441.0      -239311.0      -237100.0      -234592.0
      -232315.0      -229962.0      -227563.0      -225234.0      -222786.0
