     0.05000000      -12345.00      -12345.00   4.244630e+09      -12345.00
   0.0005390000       1859.951      -692.0195      -12345.00      -12345.00
      -12345.00      -12345.00      -12345.00      -12345.00      -12345.00
      -12345.00      -12345.00      -12345.00      -12345.00      -12345.00
      -12345.00      -12345.00      -12345.00      -12345.00      -12345.00
      -12345.00      -12345.00      -12345.00      -12345.00      -12345.00
      -12345.00       19.02910       109.8445       240.0000       0.000000
      -42.72450       173.0647      -12345.00       22.00000      -12345.00
      -12345.00      -12345.00      -12345.00      -12345.00      -12345.00
      -12345.00      -12345.00      -12345.00      -12345.00      -12345.00
       9400.950       301.9624       138.6357       84.54852      -12345.00
      -12345.00      -12345.00       0.000000       0.000000      -12345.00
      -12345.00      -12345.00      -12345.00      -12345.00      -12345.00
      -12345.00      -12345.00      -12345.00      -12345.00      -12345.00
      2016       318        11        14        31
        19         6    -12345    -12345     37200
    -12345    -12345    -12345    -12345    -12345
         1    -12345    -12345    -12345    -12345
    -12345    -12345    -12345    -12345    -12345
    -12345    -12345    -12345    -12345    -12345
    -12345    -12345    -12345    -12345    -12345
         1    -12345    -12345    -12345    -12345
QIZ     South Island, Ne
00      -12345  -12345  
-12345  -12345  -12345  
-12345  -12345  -12345  
-12345  -12345  -12345  
-12345  -12345  -12345  
-12345  -12345  BHZ     
IC      -12345  Streckei
[...]
       85929.00       83702.00       81572.00       79316.00       77154.00
       74985.00       72716.00       70389.00       68087.00       65840.00
       63490.00       61222.00       58940.00       56611.00       54294.00
       51909.00       49510.00       47123.00       44646.00       42091.00
       39585.00       37181.00       34715.00       32073.00       29525.00
       27038.00       24456.00       21969.00       19410.00       16750.00
       14390.00       11842.00       9245.000       6738.000       4059.000
       1608.000      -844.0000      -3340.000      -6088.000      -8652.000
      -10935.00      -13595.00      -16221.00      -18779.00      -21291.00
      -23855.00      -26590.00      -29232.00      -31743.00      -34374.00
      -37070.00      -39603.00      -42012.00      -44485.00      -47031.00
      -49489.00      -51904.00      -54206.00      -56570.00      -58963.00
      -61106.00      -63240.00      -65536.00      -67649.00      -69626.00
      -71694.00      -73790.00      -75769.00      -77582.00      -79497.00
      -81344.00      -83227.00      -85063.00      -86664.00      -88404.00
      -90179.00      -91880.00      -93433.00      -95043.00      -96633.00
      -98028.00      -99556.00      -100991.0      -102449.0      -103824.0
      -104879.0      -106182.0      -107511.0      -108703.0      -109718.0
      -110721.0      -112033.0      -113009.0      -113892.0      -114869.0
      -115722.0      -116724.0      -117801.0      -118550.0      -119119.0
      -119972.0      -120700.0      -121441.0      -122174.0      -122725.0
      -123204.0      -123752.0      -124552.0      -124913.0      -125201.0
      -125778.0      -126167.0      -126612.0      -127090.0      -127448.0
      -127814.0      -128079.0      -128408.0      -128705.0      -128824.0
      -129012.0      -129159.0      -129305.0      -129497.0      -129547.0
      -129598.0      -129740.0      -129663.0      -129677.0      -129901.0
      -129942.0      -129915.0      -130018.0      -130181.0      -130000.0
      -130006.0      -130107.0      -129812.0      -129759.0      -129672.0
      -129466.0      -129293.0      -128990.0      -128591.0      -128261.0
      -127954.0      -127505.0      -127198.0      -126704.0      -126199.0
      -125862.0      -125369.0      -124875.0      -124327.0      -123896.0
      -123406.0      -122778.0      -122235.0      -121651.0      -121219.0
      -120729.0      -119955.0      -119368.0      -118685.0      -117854.0
      -117300.0      -116659.0      -115885.0      -115057.0      -114220.0
      -113536.0      -112728.0      -111858.0      -111059.0      -110152.0
      -109205.0      -108317.0      -107331.0      -106261.0      -105178.0
      -103996.0      -102888.0      -101623.0      -100249.0      -99027.00
      -97635.00      -96240.00      -94891.00      -93464.00      -91982.00
      -90470.00      -89062.00      -87582.00      -86094.00      -84520.00
      -82831.00      -81280.00      -79704.00      -78068.00      -76380.00
      -74697.00      -73113.00      -71453.00      -69765.00      -68124.00
      -66410.00      -64661.00      -62905.00      -61206.00      -59572.00
      -57802.00      -55971.00      -54342.00      -52629.00      -50883.00
      -49266.00      -47535.00      -45884.00      -44265.00      -42684.00
      -41019.00      -39280.00      -37791.00      -36258.00      -34628.00
      -33010.00      -31435.00      -29883.00      -28401.00      -26900.00
      -25301.00      -23899.00      -22500.00      -21076.00      -19656.00
      -18249.00      -16871.00      -15487.00      -14218.00      -12857.00
      -11518.00      -10197.00      -8813.000      -7531.000      -6247.000
      -4909.000      -3565.000      -2313.000      -975.0000       462.0000
       1642.000       2860.000       4223.000       5418.000       6574.000
       7752.000       8855.000       9969.000       11064.00       11979.00
       12862.00       13907.00       15013.00       15953.00       16818.00
       17746.00       18475.00       19253.00       20178.00       20888.00
       21663.00       22428.00       23008.00       23630.00       24200.00
       24627.00       25125.00       25700.00       26209.00       26600.00
       26961.00       27398.00       27685.00       27984.00       28252.00
       28379.00       28620.00       28698.00       28717.00       28835.00
       28871.00       28841.00       28805.00       28806.00       28688.00
       28514.00       28382.00       28288.00       28117.00       27805.00
       27623.00       27586.00       27389.00       27071.00       26749.00
       26544.00       26415.00       26072.00       25716.00       25478.00
       25375.00       25217.00       24842.00       24436.00       24371.00
       24316.00       24004.00       23671.00       23454.00       23430.00
       23134.00       22860.00       22622.00       22423.00       22338.00
       22145.00       22011.00       21732.00       21592.00       21401.00
       21154.00       21071.00       20758.00       20626.00       20464.00
       20265.00       20279.00       20056.00       19905.00       19779.00
       19548.00       19449.00       19448.00       19477.00       19367.00
       19234.00       19287.00       19322.00       19326.00       19214.00
       18991.00       19175.00       19295.00       19157.00       19063.00
       19046.00       19176.00       19138.00       19205.00       19242.00
       19287.00       19466.00       19435.00       19626.00       19806.00
       19934.00       20176.00       20352.00       20675.00       20953.00
       21285.00       21717.00       22039.00       22432.00       22873.00
       23392.00       23789.00       24233.00       24746.00       25270.00
       25786.00       25906.00       26382.00       26843.00       27339.00
       27743.00       27917.00       28549.00       28904.00       29302.00
       29572.00       29921.00       30396.00       30766.00       31228.00
       31647.00       32247.00       32509.00       32882.00       33364.00
       33662.00       34124.00       34565.00       35051.00       35513.00
       35967.00       36456.00       36773.00       37252.00       37776.00
       38019.00       38513.00       39036.00       39296.00       39769.00
       40288.00       40682.00       41238.00       41628.00       42116.00
       42714.00       43115.00       43777.00       44371.00       45044.00
       45863.00       46583.00       47399.00       48239.00       49189.00
       50165.00       51182.00       52416.00       53624.00       54715.00
       55964.00       57467.00       58895.00       60289.00       61969.00
       63543.00       65223.00       67041.00       68842.00       70777.00
       72698.00       74925.00       76914.00       79060.00       81325.00
       83447.00       85957.00       88275.00       90758.00       93220.00
       95820.00       98508.00       101104.0       103919.0       106570.0
       109429.0       112346.0       115237.0       118161.0       121055.0
       124013.0       127002.0       129942.0       132910.0       135862.0
       138707.0       141753.0       144649.0       147571.0       150636.0
       153452.0       156318.0       159297.0       162131.0       164975.0
       167872.0       170529.0       173386.0       176266.0       179020.0
       181885.0       184656.0       187409.0       190231.0       193096.0
       195853.0       198663.0       201449.0       204420.0       207244.0
       210007.0       212980.0       215654.0       218528.0       221315.0
       223894.0       226512.0       229141.0       231762.0       234414.0
       236958.0       239445.0       242019.0       244313.0       246890.0
       249349.0       251748.0       254244.0       256537.0       259118.0
       261705.0       264287.0       266562.0       268903.0       271436.0
       273816.0       276386.0       278884.0       281316.0       283698.0
       286177.0       288618.0       290963.0       293405.0       295615.0
       297976.0       300479.0       302718.0       304940.0       307283.0
       309526.0       311669.0       313955.0       316146.0       318377.0
       320557.0       322694.0       324924.0       326877.0       328952.0
       331030.0       333019.0       335028.0       336975.0       338940.0
       340791.0       342734.0       344664.0       346534.0       348210.0
       349953.0       351827.0       353375.0       355107.0       356697.0
       358086.0       359605.0       360959.0       362338.0       363600.0
       364722.0       366005.0       367293.0       368388.0       369379.0
       370379.0       371297.0       371996.0       372836.0       373744.0
       374360.0       374942.0       375483.0       376021.0       376398.0
       376682.0       377063.0       377278.0       377509.0       377745.0
       377928.0       377914.0       377810.0       377830.0       377759.0
       377599.0       377280.0       376903.0       376417.0       375971.0
       375512.0       374817.0       374083.0       373196.0       372231.0
       371275.0       370236.0       369088.0       367921.0       366609.0
       365250.0       363963.0       362444.0       360815.0       359149.0
       357471.0       355697.0       353741.0       351725.0       349736.0
       347668.0       345391.0       342964.0       340486.0       338124.0
       335611.0       333073.0       330488.0       327563.0       324751.0
       322021.0       319138.0       316286.0       313326.0       310190.0
       307123.0       304137.0       301124.0       297810.0       294488.0
       291278.0       287883.0       284531.0       281086.0       277614.0
       274215.0       270738.0       267131.0       263456.0       259918.0
       256222.0       252411.0       248736.0       245165.0       241563.0
       237696.0       233887.0       230269.0       226571.0       222684.0
       218800.0       215210.0       211538.0       207703.0       203980.0
       200127.0       196197.0       192397.0       188502.0       184561.0
       180740.0       176854.0       172882.0       168895.0       164844.0
       160716.0       156593.0       152481.0       148364.0       144276.0
       140103.0       135745.0       131424.0       127161.0       122806.0
       118409.0       113949.0       109418.0       104844.0       100305.0
       95736.00       91087.00       86301.00       81418.00       76590.00
       71769.00       66902.00       61867.00       56780.00       51903.00
       46988.00       41802.00       36569.00       31523.00       26576.00
       21469.00       16393.00       11243.00       6135.000       1162.000
      -3983.000      -9143.000      -14188.00      -19159.00      -24362.00
      -29496.00      -34442.00      -39430.00      -44542.00      -49749.00
      -54733.00      -59781.00      -64845.00      -69949.00      -75098.00
      -80043.00      -85164.00      -90110.00      -95058.00      -100287.0
      -105393.0      -110461.0      -115317.0      -120361.0      -125653.0
      -130697.0      -135677.0      -140656.0      -145788.0      -151068.0
      -156117.0      -160934.0      -165805.0      -170897.0      -175760.0
      -180460.0      -185385.0      -190222.0      -194899.0      -199432.0
      -204013.0      -208632.0      -213156.0      -217579.0      -222026.0
      -226620.0      -231221.0      -235604.0      -239722.0      -244123.0
      -248517.0      -252833.0      -257161.0      -261351.0      -265690.0
      -269896.0      -274084.0      -278208.0      -282287.0      -286330.0
      -290263.0      -294373.0      -298441.0      -302279.0      -306160.0
      -310185.0      -314029.0      -317987.0      -322016.0      -325773.0
      -329673.0      -333707.0      -337430.0      -341248.0      -345133.0
      -348845.0      -352687.0      -356301.0      -359962.0      -363648.0
      -367261.0      -370867.0      -374304.0      -377825.0      -381180.0
      -384536.0      -387870.0      -391157.0      -394529.0      -397776.0
      -400932.0      -403974.0      -407079.0      -410157.0      -413137.0
      -416065.0      -418882.0      -421811.0      -424622.0      -427231.0
      -430056.0      -432640.0      -435087.0      -437671.0      -440130.0
      -442577.0      -444839.0      -447179.0      -449346.0      -451560.0
      -453885.0      -455712.0      -457639.0      -459604.0      -461534.0
      -463361.0      -465036.0      -466649.0      -468135.0      -469627.0
      -470911.0      -472350.0      -473690.0      -474699.0      -475861.0
      -477021.0      -477951.0      -478676.0      -479535.0      -480310.0
      -480874.0      -481484.0      -481847.0      -482233.0      -482644.0
      -482743.0      -482850.0      -483011.0      -483095.0      -482978.0
      -482923.0      -482880.0      -482746.0      -482554.0      -482038.0
      -481661.0      -481480.0      -481064.0      -480495.0      -479945.0
      -479340.0      -478781.0      -478179.0      -477432.0      -476700.0
      -476020.0      -475349.0      -474544.0      -473812.0      -472948.0
      -472005.0      -471288.0      -470319.0      -469367.0      -468523.0
      -467466.0      -466557.0      -465539.0      -464324.0      -463206.0
      -462048.0      -460815.0      -459416.0      -458094.0      -456786.0
      -455363.0      -453920.0      -452338.0      -450999.0      -449567.0
      -447903.0      -446376.0      -444877.0      -443402.0      -441748.0
      -440211.0      -438726.0      -437036.0      -435449.0      -433997.0
      -432304.0      -430445.0      -428814.0      -427086.0      -425282.0
      -423498.0      -421641.0      -419716.0      -417800.0      -415790.0
      -413703.0      -411708.0      -409618.0      -407431.0      -405211.0
      -403096.0      -400851.0      -398558.0      -396308.0      -393949.0
      -391604.0      -389278.0      -386867.0      -384298.0      -381852.0
      -379328.0      -376728.0      -374185.0      -371481.0      -368627.0
      -365894.0      -363310.0      -360477.0      -357536.0      -354637.0
      -351798.0      -348949.0      -346029.0      -342994.0      -339912.0
      -336922.0      -333925.0      -330755.0      -327432.0      -324241.0
      -321060.0      -317826.0      -314569.0      -311282.0      -307888.0
      -304586.0      -301323.0      -297880.0      -294595.0      -291319.0
      -288053.0      -284734.0      -281299.0      -277974.0      -274615.0
      -271282.0      -267951.0      -264538.0      -261228.0      -257801.0
      -254378.0      -250976.0      -247382.0      -244089.0      -240763.0
      -237250.0      -233836.0      -230327.0      -226958.0      -223554.0
      -220016.0      -216584.0      -213048.0      -209419.0      -205965.0
      -202416.0      -198642.0      -194992.0      -191315.0      -187671.0
      -184026.0      -180256.0      -176489.0      -172734.0      -168971.0
      -165212.0      -161383.0      -157574.0      -153918.0      -150124.0
      -146291.0      -142356.0      -138510.0      -134674.0      -130746.0
      -126858.0      -122791.0      -118870.0      -114898.0      -110850.0
      -106770.0      -102747.0      -98684.00      -94532.00      -90443.00
      -86220.00      -82038.00      -77731.00      -73493.00      -69250.00
      -64964.00      -60731.00      -56284.00      -51742.00      -47217.00
      -42784.00      -38271.00      -33570.00      -28903.00      -24252.00
      -19476.00      -14814.00      -10173.00      -5374.000      -628.0000
       3923.000       8565.000       13297.00       17820.00       22352.00
       27080.00       31767.00       36271.00       40923.00       45433.00
       49812.00       54515.00       59166.00       63773.00       68475.00
       72968.00       77431.00       82066.00       86781.00       91499.00
       96004.00       100481.0       105060.0       109470.0       113800.0
       118278.0       122635.0       126773.0       130863.0       134896.0
       139062.0       143126.0       146937.0       150762.0       154716.0
       158525.0       162153.0       165870.0       169479.0       173063.0
       176540.0       180068.0       183699.0       187036.0       190365.0
       193685.0       197001.0       200311.0       203508.0       206641.0
       209740.0       212945.0       215948.0       218821.0       221663.0
       224547.0       227523.0       230215.0       232983.0       235627.0
       238054.0       240703.0       243166.0       245532.0       247936.0
       250179.0       252433.0       254782.0       256993.0       258886.0
       260855.0       262990.0       264992.0       266898.0       268811.0
       270768.0       272571.0       274304.0       276102.0       277795.0
       279408.0       280987.0       282519.0       284049.0       285621.0
       286939.0       288138.0       289489.0       290748.0       291819.0
       292824.0       293952.0       295008.0       295853.0       296686.0
       297668.0       298411.0       299044.0       299854.0       300380.0
       300865.0       301388.0       301847.0       302154.0       302588.0
       302952.0       302993.0       303338.0       303490.0       303594.0
       303669.0       303671.0       303689.0       303523.0       303585.0
       303453.0       303147.0       302931.0       302843.0       302722.0
       302523.0       302217.0       301973.0       301819.0       301483.0
       301378.0       301066.0       300679.0       300544.0       300464.0
       300047.0       299467.0       299306.0       298970.0       298670.0
       298356.0       297853.0       297476.0       297177.0       296896.0
       296380.0       295944.0       295587.0       295262.0       295024.0
       294724.0       294451.0       294088.0       293778.0       293474.0
       293084.0       292731.0       292503.0       292299.0       291902.0
       291601.0       291329.0       291067.0       291056.0       290749.0
       290246.0       290176.0       290298.0       290282.0       290061.0
       289857.0       289975.0       290082.0       289955.0       290134.0
       290348.0       290364.0       290549.0       290728.0       290912.0
       291028.0       291211.0       291425.0       291554.0       291695.0
