     0.05000000      -12345.00      -12345.00   4.437570e+09      -12345.00
   0.0005340000       1859.951      -707.0195      -12345.00      -12345.00
      -12345.00      -12345.00      -12345.00      -12345.00      -12345.00
      -12345.00      -12345.00      -12345.00      -12345.00      -12345.00
      -12345.00      -12345.00      -12345.00      -12345.00      -12345.00
      -12345.00      -12345.00      -12345.00      -12345.00      -12345.00
      -12345.00       31.09480       121.1908       40.00000       0.000000
      -42.72450       173.0647      -12345.00       22.00000      -12345.00
      -12345.00      -12345.00      -12345.00      -12345.00      -12345.00
      -12345.00      -12345.00      -12345.00      -12345.00      -12345.00
       9733.930       317.5113       144.5346       87.54321      -12345.00
      -12345.00      -12345.00       0.000000       90.00000      -12345.00
      -12345.00      -12345.00      -12345.00      -12345.00      -12345.00
      -12345.00      -12345.00      -12345.00      -12345.00      -12345.00
      2016       318        11        14        46
        19         6    -12345    -12345     37200
    -12345    -12345    -12345    -12345    -12345
         1    -12345    -12345    -12345    -12345
    -12345    -12345    -12345    -12345    -12345
    -12345    -12345    -12345    -12345    -12345
    -12345    -12345    -12345    -12345    -12345
         1    -12345    -12345    -12345    -12345
SSE     South Island, Ne
00      -12345  -12345  
-12345  -12345  -12345  
-12345  -12345  -12345  
-12345  -12345  -12345  
-12345  -12345  -12345  
-12345  -12345  BH1     
IC      -12345  Streckei
[...]
       103344.0       105034.0       106667.0       108381.0       110230.0
       112376.0       114565.0       116320.0       118376.0       120595.0
       122745.0       124992.0       127457.0       130408.0       132820.0
       134889.0       137087.0       138656.0       139980.0       141861.0
       144267.0       146647.0       149095.0       151793.0       154466.0
       157017.0       159307.0       161515.0       163671.0       165730.0
       167791.0       169762.0       171420.0       172936.0       174903.0
       177163.0       179664.0       182352.0       185041.0       187675.0
       189742.0       191706.0       193677.0       195225.0       196684.0
       198300.0       200368.0       202431.0       204401.0       206598.0
       208999.0       211406.0       213519.0       215483.0       217101.0
       218667.0       220221.0       221513.0       222892.0       224339.0
       225663.0       227398.0       229440.0       231386.0       233725.0
       236036.0       238243.0       240015.0       241401.0       242620.0
       243366.0       244581.0       245564.0       246259.0       247778.0
       249858.0       252042.0       254005.0       255960.0       257754.0
       259100.0       260187.0       261121.0       262260.0       263417.0
       264302.0       265422.0       266233.0       266813.0       268185.0
       269734.0       271097.0       272500.0       273690.0       274575.0
       275377.0       275947.0       276472.0       276797.0       276742.0
       277208.0       277927.0       278675.0       279325.0       280068.0
       281382.0       282264.0       283074.0       283826.0       283713.0
       283351.0       282925.0       282905.0       283188.0       283296.0
       283517.0       283766.0       284160.0       284691.0       285235.0
       285338.0       285064.0       285102.0       285087.0       284595.0
       283809.0       283414.0       283448.0       283451.0       283764.0
       284092.0       283969.0       283780.0       283593.0       283305.0
       282610.0       281802.0       281385.0       280933.0       280292.0
       279292.0       278582.0       278346.0       278013.0       277911.0
       277963.0       277751.0       277058.0       275970.0       274488.0
       272975.0       271788.0       270831.0       270131.0       269481.0
       268726.0       268092.0       267538.0       266793.0       265878.0
       264641.0       263223.0       261907.0       260499.0       259126.0
       257631.0       256211.0       255250.0       254165.0       253104.0
       252082.0       250967.0       249799.0       248440.0       247257.0
       245845.0       244370.0       242911.0       241141.0       239331.0
       237749.0       236667.0       235482.0       234074.0       232698.0
       231434.0       229994.0       228292.0       226645.0       224842.0
       222912.0       220955.0       219320.0       217775.0       216130.0
       214495.0       212962.0       211795.0       210264.0       208205.0
       205969.0       203878.0       202115.0       200256.0       198225.0
       196202.0       194551.0       192997.0       191431.0       189909.0
       188178.0       186703.0       185100.0       183088.0       180766.0
       178369.0       176284.0       174338.0       172821.0       171166.0
       169712.0       168430.0       166756.0       165517.0       163903.0
       162118.0       160397.0       158251.0       155839.0       153309.0
       151392.0       149692.0       148192.0       147059.0       145930.0
       144720.0       143227.0       141793.0       140442.0       138989.0
       137210.0       135345.0       133833.0       132078.0       130276.0
       128703.0       127413.0       126727.0       126320.0       125845.0
       125034.0       123978.0       122824.0       121513.0       119709.0
       117936.0       116641.0       115380.0       114365.0       113494.0
       112972.0       112633.0       112283.0       112032.0       111533.0
       110750.0       109534.0       108228.0       107163.0       106274.0
       105493.0       104598.0       103606.0       103321.0       103447.0
       103278.0       102903.0       102508.0       102314.0       101793.0
       101015.0       100178.0       99170.00       98002.00       97243.00
       96903.00       96682.00       96533.00       96612.00       96705.00
       96338.00       96401.00       96276.00       95873.00       95421.00
       94764.00       94439.00       93851.00       93232.00       93347.00
       93801.00       94174.00       94155.00       94316.00       94803.00
       94623.00       94585.00       94166.00       93501.00       93324.00
       92944.00       92840.00       92510.00       92585.00       93485.00
       94324.00       94960.00       95427.00       95567.00       95179.00
       94889.00       94560.00       94341.00       94381.00       94175.00
       94086.00       94345.00       94836.00       95531.00       96367.00
       97209.00       97784.00       98064.00       98347.00       98299.00
       97958.00       97918.00       98143.00       98590.00       99063.00
       99428.00       99923.00       100766.0       101753.0       102640.0
       103337.0       103568.0       103675.0       103840.0       103818.0
       103700.0       103678.0       103835.0       104224.0       104498.0
       105265.0       106720.0       108113.0       109236.0       109477.0
       109483.0       109631.0       109694.0       109401.0       108740.0
       108706.0       109284.0       110162.0       111328.0       112284.0
       112778.0       113365.0       114144.0       114672.0       115075.0
       115210.0       114863.0       114741.0       114888.0       115110.0
       115319.0       115701.0       116552.0       117582.0       118756.0
       119573.0       120121.0       120766.0       121055.0       121146.0
       121293.0       121447.0       122005.0       122465.0       122434.0
       122982.0       123975.0       124851.0       125888.0       126733.0
       127304.0       127699.0       127864.0       128050.0       128031.0
       128042.0       128518.0       129063.0       129542.0       130187.0
       131132.0       132249.0       133002.0       133358.0       133784.0
       134024.0       134193.0       134384.0       134412.0       134755.0
       135249.0       135941.0       136603.0       137118.0       137985.0
       138942.0       139678.0       140094.0       140579.0       140908.0
       140991.0       141023.0       141166.0       141690.0       142039.0
       142692.0       143474.0       144230.0       145380.0       146279.0
       147041.0       147418.0       147450.0       147468.0       147292.0
       147564.0       148251.0       148865.0       149356.0       149323.0
       149354.0       149814.0       150324.0       151232.0       152078.0
       152023.0       151485.0       151242.0       151128.0       151074.0
       151169.0       151332.0       151520.0       151432.0       151371.0
       151630.0       151642.0       151263.0       150787.0       150543.0
       150243.0       149708.0       149259.0       148681.0       148248.0
       147960.0       147933.0       147754.0       147121.0       146677.0
       146143.0       145330.0       144363.0       143833.0       143561.0
       142643.0       141695.0       141019.0       140116.0       139429.0
       138668.0       137821.0       137012.0       135773.0       134675.0
       133420.0       132229.0       131177.0       129835.0       128614.0
       127580.0       126946.0       126072.0       124689.0       123069.0
       121389.0       119983.0       118617.0       117232.0       115733.0
       114046.0       112170.0       110443.0       109025.0       107690.0
       106602.0       105169.0       102996.0       100746.0       98622.00
       96652.00       94611.00       92499.00       90558.00       88763.00
       86826.00       84634.00       82806.00       81079.00       79104.00
       76621.00       74255.00       72165.00       69624.00       66887.00
       63905.00       61359.00       59002.00       56786.00       54897.00
       52536.00       50440.00       48108.00       45292.00       42721.00
       40015.00       37357.00       34395.00       31122.00       28407.00
       25759.00       22784.00       19912.00       17074.00       14814.00
       12547.00       9631.000       6909.000       3926.000       470.0000
      -3148.000      -6680.000      -9896.000      -13056.00      -16221.00
      -19311.00      -22282.00      -25284.00      -28459.00      -31328.00
      -34391.00      -37922.00      -41113.00      -44728.00      -48560.00
      -51653.00      -54688.00      -57900.00      -61322.00      -64717.00
      -67556.00      -70594.00      -73977.00      -77435.00      -80919.00
      -84126.00      -87741.00      -91896.00      -95917.00      -99472.00
      -102489.0      -105756.0      -109370.0      -112673.0      -115976.0
      -119580.0      -123558.0      -127498.0      -131292.0      -135267.0
      -139285.0      -142957.0      -146346.0      -150028.0      -153940.0
      -157731.0      -161412.0      -165315.0      -169217.0      -173129.0
      -177011.0      -180558.0      -184384.0      -188965.0      -193764.0
      -198123.0      -202120.0      -206065.0      -210062.0      -214054.0
      -217898.0      -221452.0      -225320.0      -229917.0      -234477.0
      -238742.0      -243233.0      -247706.0      -252238.0      -257280.0
      -261995.0      -266286.0      -270400.0      -274234.0      -278455.0
      -283225.0      -287985.0      -292314.0      -296558.0      -301381.0
      -306778.0      -311970.0      -316752.0      -321382.0      -326322.0
      -331366.0      -336125.0      -340802.0      -344880.0      -349147.0
      -353633.0      -358298.0      -363514.0      -368449.0      -373574.0
      -378557.0      -383669.0      -389132.0      -394235.0      -399400.0
      -404300.0      -409180.0      -414120.0      -418959.0      -424084.0
      -429391.0      -434892.0      -440227.0      -445237.0      -450705.0
      -456707.0      -462419.0      -467901.0      -473090.0      -478250.0
      -483720.0      -489082.0      -494307.0      -499397.0      -504787.0
      -510723.0      -516872.0      -522984.0      -529085.0      -534898.0
      -540462.0      -545982.0      -551509.0      -557307.0      -562800.0
      -568109.0      -573863.0      -579906.0      -586005.0      -592107.0
      -598021.0      -603747.0      -609473.0      -615257.0      -621274.0
      -627070.0      -632490.0      -637858.0      -643656.0      -649645.0
      -655338.0      -660973.0      -666519.0      -672638.0      -679079.0
      -685289.0      -691458.0      -697466.0      -703405.0      -709219.0
      -714771.0      -720157.0      -725803.0      -731542.0      -737307.0
      -743315.0      -749411.0      -755512.0      -761761.0      -768138.0
      -774024.0      -779613.0      -785083.0      -790785.0      -796718.0
      -802056.0      -807278.0      -812573.0      -817988.0      -823534.0
      -829355.0      -835494.0      -841166.0      -846876.0      -852325.0
      -857061.0      -861944.0      -866862.0      -872000.0      -877305.0
      -882288.0      -887227.0      -892524.0      -897850.0      -902840.0
      -908019.0      -913254.0      -918347.0      -923300.0      -928088.0
      -932714.0      -937271.0      -941950.0      -946469.0      -951066.0
      -955660.0      -960235.0      -965028.0      -969817.0      -974319.0
      -978513.0      -982828.0      -987099.0      -991367.0      -995668.0
      -999682.0      -1003457.      -1007169.      -1010983.      -1014826.
      -1018886.      -1022963.      -1026413.      -1029588.      -1033118.
      -1036995.      -1040796.      -1044230.      -1047188.      -1049740.
      -1052968.      -1056772.      -1060228.      -1063456.      -1066132.
      -1068744.      -1071886.      -1074894.      -1077433.      -1079917.
      -1082651.      -1085561.      -1088413.      -1090872.      -1093226.
      -1095539.      -1097889.      -1100284.      -1102403.      -1104654.
      -1106702.      -1108572.      -1110724.      -1112764.      -1114960.
      -1117154.      -1118887.      -1120480.      -1121941.      -1123435.
      -1124940.      -1126270.      -1127685.      -1129203.      -1130661.
      -1131972.      -1133336.      -1134322.      -1135163.      -1136249.
      -1137427.      -1138657.      -1139359.      -1139938.      -1140241.
      -1140458.      -1141038.      -1141689.      -1142478.      -1142866.
      -1143147.      -1143388.      -1143236.      -1143183.      -1143396.
      -1143544.      -1143525.      -1143246.      -1142328.      -1141325.
      -1140901.      -1140760.      -1140514.      -1140141.      -1139527.
      -1138692.      -1138121.      -1137356.      -1136144.      -1134828.
      -1133277.      -1131837.      -1130507.      -1128844.      -1127025.
      -1125356.      -1124036.      -1123016.      -1121620.      -1120094.
      -1118603.      -1116338.      -1113912.      -1111643.      -1108920.
      -1106410.      -1104131.      -1101649.      -1099185.      -1096573.
      -1094374.      -1092320.      -1089796.      -1087494.      -1084816.
      -1081137.      -1077325.      -1074009.      -1070961.      -1067266.
      -1063596.      -1060467.      -1057136.      -1053989.      -1050817.
      -1047436.      -1043557.      -1039214.      -1035064.      -1031150.
      -1027462.      -1023295.      -1018660.      -1013718.      -1008478.
      -1003968.      -1000144.      -995875.0      -991201.0      -986556.0
      -981891.0      -977126.0      -971608.0      -965994.0      -960820.0
      -955447.0      -950142.0      -944556.0      -938669.0      -932802.0
      -927291.0      -922490.0      -917521.0      -911948.0      -906014.0
      -900024.0      -894004.0      -887733.0      -881605.0      -875680.0
      -869530.0      -863190.0      -856830.0      -850525.0      -844453.0
      -838674.0      -832623.0      -825932.0      -819185.0      -812638.0
      -805864.0      -798823.0      -791641.0      -784706.0      -778001.0
      -770885.0      -763796.0      -756628.0      -749127.0      -742094.0
      -735303.0      -728039.0      -720602.0      -713309.0      -705928.0
      -698510.0      -690860.0      -682985.0      -675230.0      -667711.0
      -660344.0      -652796.0      -644991.0      -637190.0      -629389.0
      -621388.0      -613420.0      -605386.0      -597432.0      -589304.0
      -580866.0      -573037.0      -565317.0      -557406.0      -549354.0
      -540909.0      -532568.0      -524251.0      -516038.0      -508034.0
      -499871.0      -491362.0      -482628.0      -474008.0      -465410.0
      -456885.0      -448589.0      -440274.0      -431821.0      -423358.0
      -414683.0      -405757.0      -396613.0      -387454.0      -378789.0
      -370300.0      -361526.0      -352627.0      -343946.0      -335372.0
      -326633.0      -317551.0      -308529.0      -299637.0      -290663.0
      -281942.0      -272848.0      -263763.0      -255062.0      -246150.0
      -237133.0      -227935.0      -219174.0      -210776.0      -202312.0
      -193690.0      -184658.0      -175762.0      -166924.0      -158047.0
      -149254.0      -140344.0      -131489.0      -122821.0      -114557.0
      -106615.0      -98366.00      -89744.00      -81087.00      -72450.00
      -64037.00      -56084.00      -47863.00      -39214.00      -30674.00
      -22119.00      -13731.00      -5747.000       1877.000       9470.000
       17045.00       24791.00       32495.00       40196.00       48318.00
       56004.00       63680.00       71336.00       78515.00       85818.00
       93137.00       100497.0       107695.0       114570.0       121254.0
       128086.0       135161.0       142099.0       149172.0       156115.0
       163035.0       169767.0       176100.0       182712.0       188929.0
       194782.0       200592.0       206484.0       212561.0       218300.0
       224166.0       230046.0       235830.0       241804.0       247491.0
       252947.0       258635.0       264446.0       269858.0       274926.0
       279995.0       284909.0       289499.0       294518.0       300243.0
       305777.0       311025.0       316132.0       321018.0       325958.0
       330691.0       335167.0       339657.0       343943.0       348295.0
       352717.0       356754.0       360644.0       364909.0       369541.0
       374191.0       378758.0       383262.0       387384.0       391214.0
       395231.0       398758.0       402123.0       405789.0       409499.0
       413546.0       417268.0       421116.0       425154.0       428998.0
       432982.0       436811.0       440372.0       443447.0       446508.0
       449667.0       452910.0       456260.0       459420.0       462617.0
       466101.0       470088.0       474023.0       477611.0       480867.0
       483887.0       486974.0       489868.0       492537.0       495097.0
       497815.0       500957.0       504313.0       507780.0       511166.0
       514432.0       517426.0       519984.0       522736.0       525444.0
       527803.0       530264.0       532831.0       535285.0       537688.0
       540454.0       543465.0       546405.0       549607.0       552812.0
       555470.0       557911.0       560396.0       562723.0       564691.0
       566591.0       568556.0       571081.0       573843.0       576121.0
       578484.0       580544.0       582979.0       586192.0       588844.0
       590760.0       592318.0       593760.0       595089.0       596489.0
       598320.0       600668.0       603070.0       605236.0       607295.0
       609424.0       611487.0       613061.0       614569.0       616088.0
       617787.0       619447.0       620618.0       621936.0       623249.0
       624994.0       626960.0       628715.0       630853.0       632700.0
       634103.0       635052.0       635635.0       636463.0       637468.0
       638170.0       638868.0       639942.0       641317.0       643061.0
       644794.0       646415.0       647840.0       649157.0       650184.0
