     0.05000000      -12345.00      -12345.00   5.663980e+09      -12345.00
   0.0005410000       1859.951      -707.0195      -12345.00      -12345.00
      -12345.00      -12345.00      -12345.00      -12345.00      -12345.00
      -12345.00      -12345.00      -12345.00      -12345.00      -12345.00
      -12345.00      -12345.00      -12345.00      -12345.00      -12345.00
      -12345.00      -12345.00      -12345.00      -12345.00      -12345.00
      -12345.00       31.09480       121.1908       40.00000       0.000000
      -42.72450       173.0647      -12345.00       22.00000      -12345.00
      -12345.00      -12345.00      -12345.00      -12345.00      -12345.00
      -12345.00      -12345.00      -12345.00      -12345.00      -12345.00
       9733.930       317.5113       144.5346       87.54321      -12345.00
      -12345.00      -12345.00       0.000000       0.000000      -12345.00
      -12345.00      -12345.00      -12345.00      -12345.00      -12345.00
      -12345.00      -12345.00      -12345.00      -12345.00      -12345.00
      2016       318        11        14        46
        19         6    -12345    -12345     37200
    -12345    -12345    -12345    -12345    -12345
         1    -12345    -12345    -12345    -12345
    -12345    -12345    -12345    -12345    -12345
    -12345    -12345    -12345    -12345    -12345
    -12345    -12345    -12345    -12345    -12345
         1    -12345    -12345    -12345    -12345
SSE     South Island, Ne
00      -12345  -12345  
-12345  -12345  -12345  
-12345  -12345  -12345  
-12345  -12345  -12345  
-12345  -12345  -12345  
-12345  -12345  BHZ     
IC      -12345  Streckei
[...]
      -110363.0      -107615.0      -104833.0      -103241.0      -102689.0
      -101477.0      -100517.0      -99325.00      -97043.00      -94476.00
      -92343.00      -89745.00      -86744.00      -83968.00      -81016.00
      -78659.00      -77094.00      -75497.00      -73407.00      -71339.00
      -69768.00      -67977.00      -65881.00      -63706.00      -60907.00
      -57770.00      -54791.00      -51816.00      -49187.00      -47298.00
      -45700.00      -44457.00      -43238.00      -41488.00      -39662.00
      -37495.00      -34861.00      -32074.00      -29244.00      -26479.00
      -23798.00      -21681.00      -20509.00      -18740.00      -16840.00
      -15530.00      -13674.00      -11793.00      -9947.000      -7738.000
      -4484.000      -1340.000       1154.000       3858.000       6004.000
       7624.000       8850.000       10081.00       11790.00       13760.00
       15397.00       17284.00       19260.00       21429.00       24599.00
       27380.00       30422.00       32870.00       34438.00       36080.00
       37187.00       38478.00       39350.00       40631.00       42949.00
       45308.00       48206.00       51130.00       53334.00       56010.00
       58662.00       60011.00       61251.00       62492.00       63519.00
       65084.00       66377.00       67556.00       68951.00       70746.00
       73433.00       75987.00       78632.00       80721.00       82063.00
       83030.00       83419.00       84038.00       84691.00       85639.00
       86922.00       88760.00       90721.00       92328.00       94111.00
       95478.00       96875.00       98754.00       100254.0       101203.0
       101549.0       101531.0       101864.0       102829.0       104383.0
       105750.0       107512.0       109472.0       110383.0       111302.0
       112330.0       113493.0       114096.0       114175.0       114668.0
       114657.0       115206.0       115908.0       116249.0       117184.0
       118335.0       119457.0       120284.0       120918.0       121340.0
       121553.0       121315.0       120885.0       120602.0       120790.0
       121575.0       121760.0       121499.0       121124.0       121368.0
       122103.0       122050.0       122064.0       121958.0       121235.0
       120560.0       120055.0       119486.0       118951.0       118482.0
       118346.0       118100.0       117105.0       116655.0       116202.0
       115227.0       114556.0       113576.0       112485.0       111429.0
       110271.0       109262.0       108193.0       106984.0       105777.0
       104154.0       102225.0       100750.0       98947.00       97274.00
       96101.00       94272.00       92182.00       90500.00       88845.00
       87205.00       85198.00       82968.00       81440.00       79424.00
       77256.00       75205.00       72672.00       70311.00       68506.00
       67105.00       65089.00       62721.00       60594.00       58825.00
       56663.00       53764.00       51175.00       48767.00       46755.00
       44764.00       42019.00       39253.00       36191.00       33066.00
       30502.00       27477.00       24748.00       22657.00       19940.00
       16756.00       13231.00       9956.000       7237.000       4984.000
       3239.000       851.0000      -1940.000      -4397.000      -6782.000
      -8521.000      -10360.00      -12314.00      -14124.00      -16151.00
      -17897.00      -19722.00      -21011.00      -22434.00      -24041.00
      -25163.00      -26461.00      -28189.00      -29994.00      -31354.00
      -32843.00      -34163.00      -35340.00      -36412.00      -37498.00
      -39124.00      -40646.00      -41658.00      -42546.00      -43369.00
      -44287.00      -45267.00      -46105.00      -47300.00      -48047.00
      -48904.00      -50232.00      -51271.00      -52755.00      -53695.00
      -53994.00      -54375.00      -54936.00      -56095.00      -56680.00
      -57292.00      -57965.00      -57770.00      -57680.00      -57522.00
      -57580.00      -57830.00      -58266.00      -58389.00      -57874.00
      -57736.00      -57065.00      -56218.00      -55517.00      -54470.00
      -53304.00      -52309.00      -51714.00      -50798.00      -49918.00
      -49525.00      -49259.00      -49285.00      -49230.00      -48636.00
      -47884.00      -47486.00      -47876.00      -48536.00      -48938.00
      -48502.00      -47891.00      -47773.00      -47708.00      -48238.00
      -48937.00      -49728.00      -49914.00      -49686.00      -49384.00
      -48139.00      -47183.00      -46377.00      -45480.00      -44375.00
      -43201.00      -42340.00      -41216.00      -40302.00      -39072.00
      -37823.00      -36046.00      -33715.00      -31990.00      -29786.00
      -27547.00      -25178.00      -22617.00      -20183.00      -17740.00
      -15651.00      -13188.00      -11127.00      -9018.000      -6454.000
      -4258.000      -1491.000       1358.000       4516.000       7510.000
       9680.000       12533.00       14728.00       16172.00       17633.00
       18440.00       19617.00       20648.00       22189.00       23998.00
       25234.00       26831.00       27760.00       29340.00       31151.00
       32292.00       33047.00       32806.00       32902.00       32712.00
       33182.00       35130.00       37158.00       39290.00       41526.00
       43657.00       45294.00       47546.00       49862.00       51556.00
       53074.00       54257.00       55889.00       57599.00       59790.00
       62507.00       65422.00       68240.00       70378.00       73355.00
       76626.00       79258.00       81277.00       82488.00       84040.00
       85856.00       88050.00       90372.00       92895.00       95421.00
       97754.00       101011.0       103445.0       105814.0       108345.0
       110076.0       112092.0       113268.0       114662.0       116176.0
       117361.0       119770.0       121806.0       124167.0       127371.0
       129844.0       132244.0       134358.0       136041.0       137438.0
       138610.0       140172.0       141985.0       143977.0       146418.0
       149044.0       152026.0       155216.0       158218.0       161015.0
       163170.0       165502.0       167237.0       168921.0       171061.0
       172515.0       174548.0       176212.0       178148.0       181159.0
       183828.0       186862.0       189463.0       191224.0       193366.0
       195156.0       196805.0       198347.0       199943.0       202059.0
       203929.0       206345.0       208524.0       210867.0       213658.0
       215986.0       219041.0       221789.0       224154.0       226237.0
       227649.0       229947.0       232182.0       234173.0       236820.0
       239582.0       242316.0       244281.0       246150.0       248090.0
       250094.0       252873.0       255133.0       256917.0       258635.0
       260417.0       262964.0       265409.0       267727.0       270715.0
       273329.0       274982.0       276027.0       276778.0       277856.0
       279279.0       281046.0       282929.0       284391.0       285681.0
       287463.0       289463.0       291038.0       292394.0       293933.0
       295851.0       297600.0       299035.0       299698.0       300111.0
       301274.0       302683.0       304552.0       306833.0       309449.0
       311216.0       312406.0       313814.0       314973.0       316358.0
       317486.0       318671.0       319879.0       321512.0       322919.0
       323674.0       325213.0       326938.0       329053.0       331090.0
       332442.0       333134.0       333628.0       334599.0       335611.0
       336852.0       337765.0       338539.0       339139.0       339777.0
       340968.0       342073.0       343011.0       343138.0       343015.0
       342798.0       342263.0       342033.0       342021.0       342254.0
       342414.0       342756.0       342936.0       342600.0       342549.0
       342532.0       342532.0       342270.0       341420.0       340429.0
       339419.0       338279.0       336797.0       335548.0       334473.0
       333640.0       332703.0       331122.0       329774.0       328083.0
       326393.0       325023.0       323086.0       320828.0       318440.0
       316134.0       313701.0       311490.0       309536.0       307644.0
       306083.0       303742.0       301142.0       299166.0       297206.0
       295012.0       292892.0       290632.0       287917.0       285357.0
       282253.0       279265.0       276815.0       274387.0       272120.0
       269246.0       266345.0       263545.0       260844.0       258259.0
       255509.0       252967.0       250356.0       247343.0       244237.0
       241411.0       238619.0       235798.0       233086.0       230405.0
       227657.0       224925.0       222200.0       219436.0       216638.0
       213715.0       210800.0       207905.0       205053.0       202067.0
       198911.0       195904.0       192853.0       189810.0       186599.0
       183130.0       180109.0       177513.0       174723.0       171162.0
       167370.0       163983.0       160944.0       158266.0       155360.0
       152129.0       148505.0       145151.0       142423.0       139322.0
       136076.0       132482.0       128921.0       125412.0       122103.0
       119540.0       116510.0       113225.0       109757.0       106489.0
       103181.0       100002.0       97372.00       93960.00       90489.00
       87174.00       83377.00       79317.00       75712.00       72692.00
       69641.00       66492.00       63694.00       60769.00       57117.00
       53396.00       49695.00       45942.00       42307.00       38300.00
       34110.00       30584.00       26875.00       22782.00       18889.00
       15447.00       12531.00       9181.000       5611.000       2214.000
      -1605.000      -5952.000      -10562.00      -15054.00      -19000.00
      -22861.00      -26384.00      -29404.00      -32770.00      -35835.00
      -39201.00      -42920.00      -46522.00      -50362.00      -53588.00
      -57727.00      -62091.00      -66069.00      -69999.00      -72660.00
      -75829.00      -79011.00      -81810.00      -84380.00      -87126.00
      -90244.00      -93123.00      -96885.00      -100453.0      -104430.0
      -108289.0      -111057.0      -113985.0      -116730.0      -119331.0
      -121246.0      -123176.0      -125344.0      -127497.0      -130720.0
      -133526.0      -136314.0      -139749.0      -142836.0      -146105.0
      -148940.0      -151427.0      -153179.0      -154399.0      -155447.0
      -156415.0      -158602.0      -161020.0      -163360.0      -165258.0
      -167402.0      -169883.0      -172163.0      -174983.0      -177158.0
      -179243.0      -180439.0      -180938.0      -181962.0      -182759.0
      -184560.0      -186591.0      -188807.0      -191594.0      -194097.0
      -196868.0      -198780.0      -200516.0      -202233.0      -203472.0
      -205062.0      -205457.0      -206623.0      -208554.0      -210384.0
      -213343.0      -215358.0      -217281.0      -219365.0      -220919.0
      -223054.0      -224569.0      -225845.0      -227257.0      -227637.0
      -228941.0      -230681.0      -232230.0      -234392.0      -235802.0
      -237315.0      -239200.0      -241197.0      -243199.0      -244670.0
      -246623.0      -248279.0      -249617.0      -251287.0      -252549.0
      -254687.0      -256965.0      -259766.0      -262456.0      -264259.0
      -266889.0      -268384.0      -270489.0      -272809.0      -274483.0
      -276650.0      -278239.0      -281039.0      -283866.0      -286245.0
      -288894.0      -290949.0      -293297.0      -295760.0      -298358.0
      -300641.0      -302809.0      -305116.0      -306061.0      -307660.0
      -309907.0      -311857.0      -314342.0      -316358.0      -318447.0
      -320052.0      -321741.0      -323863.0      -325508.0      -327199.0
      -328390.0      -330038.0      -331557.0      -332673.0      -334195.0
      -335608.0      -337790.0      -340167.0      -341996.0      -343333.0
      -344718.0      -346236.0      -347424.0      -349052.0      -350740.0
      -351895.0      -353069.0      -354727.0      -356051.0      -357078.0
      -358029.0      -358760.0      -360184.0      -361986.0      -363598.0
      -364666.0      -365449.0      -366409.0      -367575.0      -368822.0
      -369665.0      -370556.0      -371745.0      -372973.0      -374115.0
      -374997.0      -376031.0      -377135.0      -378155.0      -379153.0
      -379818.0      -381085.0      -382438.0      -383597.0      -384910.0
      -385868.0      -387290.0      -388043.0      -388226.0      -388716.0
      -389101.0      -389664.0      -389894.0      -390443.0      -391129.0
      -391852.0      -393369.0      -393806.0      -393729.0      -394119.0
      -394608.0      -395316.0      -395741.0      -396591.0      -397303.0
      -397915.0      -398357.0      -398959.0      -400079.0      -401013.0
      -402479.0      -403971.0      -405429.0      -406665.0      -407999.0
      -409201.0      -410166.0      -411584.0      -412613.0      -413665.0
      -415113.0      -416763.0      -417968.0      -418385.0      -418572.0
      -418763.0      -419166.0      -420034.0      -421038.0      -421831.0
      -422568.0      -423118.0      -422998.0      -422469.0      -422411.0
      -422935.0      -423486.0      -423689.0      -423789.0      -423908.0
      -423814.0      -423688.0      -423606.0      -424027.0      -424634.0
      -424512.0      -424522.0      -424582.0      -424173.0      -423333.0
      -423101.0      -423423.0      -423470.0      -423747.0      -423359.0
      -423028.0      -422947.0      -422760.0      -422876.0      -422902.0
      -423084.0      -423354.0      -423497.0      -423104.0      -422628.0
      -422561.0      -422455.0      -422774.0      -423463.0      -424018.0
      -424440.0      -423896.0      -423549.0      -423674.0      -423332.0
      -422641.0      -421957.0      -422038.0      -422070.0      -422406.0
      -422471.0      -422639.0      -423213.0      -423463.0      -423917.0
      -423294.0      -422196.0      -421443.0      -420710.0      -419771.0
      -418736.0      -418299.0      -418094.0      -418150.0      -418225.0
      -417885.0      -417763.0      -417599.0      -417256.0      -416332.0
      -415042.0      -413456.0      -411194.0      -409957.0      -409398.0
      -408959.0      -408514.0      -407962.0      -407457.0      -406754.0
      -406354.0      -405418.0      -404106.0      -402652.0      -400771.0
      -398794.0      -396738.0      -395101.0      -393456.0      -391898.0
      -390652.0      -389331.0      -388477.0      -387440.0      -385184.0
      -382501.0      -379944.0      -376863.0      -373459.0      -370080.0
      -367377.0      -365818.0      -364361.0      -362914.0      -361213.0
      -358697.0      -356557.0      -355040.0      -352688.0      -349781.0
      -346729.0      -343233.0      -339959.0      -336853.0      -334220.0
      -331936.0      -330126.0      -329102.0      -327607.0      -325583.0
      -323237.0      -320534.0      -317358.0      -314217.0      -310722.0
      -306847.0      -303725.0      -300619.0      -297560.0      -294548.0
      -291964.0      -290007.0      -288217.0      -286225.0      -283574.0
      -280184.0      -276220.0      -272505.0      -269064.0      -265609.0
      -262723.0      -260343.0      -257694.0      -255313.0      -252453.0
      -249707.0      -247876.0      -245961.0      -244151.0      -241677.0
      -238976.0      -235773.0      -232302.0      -229734.0      -227579.0
      -225523.0      -223273.0      -221420.0      -219631.0      -217311.0
      -214079.0      -210612.0      -207467.0      -204573.0      -202172.0
      -199071.0      -195398.0      -191858.0      -188246.0      -184628.0
      -181548.0      -178190.0      -174323.0      -170441.0      -166578.0
      -162698.0      -158141.0      -153378.0      -149115.0      -146146.0
      -143676.0      -140882.0      -137712.0      -134281.0      -131075.0
      -127767.0      -124610.0      -121102.0      -117512.0      -114494.0
      -111904.0      -109399.0      -106115.0      -102656.0      -100074.0
      -98060.00      -96413.00      -94720.00      -92348.00      -89482.00
      -86322.00      -83251.00      -80221.00      -77837.00      -76207.00
      -74345.00      -71805.00      -68806.00      -66217.00      -63897.00
      -61483.00      -59402.00      -57618.00      -55162.00      -52224.00
      -49063.00      -45889.00      -43413.00      -40771.00      -38364.00
      -36603.00      -34182.00      -31526.00      -29065.00      -26814.00
      -24745.00      -22369.00      -20008.00      -17502.00      -15021.00
      -12991.00      -11052.00      -9202.000      -7809.000      -6479.000
      -4947.000      -3060.000      -982.0000       478.0000       1680.000
       2876.000       4472.000       6644.000       8670.000       10404.00
       11643.00       12738.00       13569.00       14153.00       15369.00
       16774.00       18370.00       19983.00       21668.00       23420.00
       24713.00       25977.00       27387.00       29446.00       31216.00
       32163.00       33313.00       34817.00       36472.00       38086.00
       39727.00       41301.00       43435.00       45736.00       47633.00
       49775.00       51750.00       53471.00       55031.00       56935.00
       58813.00       59924.00       61074.00       62229.00       63368.00
       64432.00       65518.00       67096.00       68555.00       69926.00
       71191.00       71995.00       73079.00       74616.00       75992.00
       76951.00       77664.00       78106.00       78611.00       79236.00
       79990.00       81225.00       82552.00       83834.00       84780.00
       85214.00       85399.00       85779.00       86175.00       86494.00
       86872.00       87163.00       87929.00       88616.00       89091.00
       89541.00       89957.00       91118.00       92400.00       93467.00
       94128.00       94137.00       94294.00       94818.00       95445.00
       96177.00       97294.00       98463.00       99587.00       100608.0
