     0.05000000      -12345.00      -12345.00   4.467770e+09      -12345.00
   0.0005340000       1859.951      -707.0195      -12345.00      -12345.00
      -12345.00      -12345.00      -12345.00      -12345.00      -12345.00
      -12345.00      -12345.00      -12345.00      -12345.00      -12345.00
      -12345.00      -12345.00      -12345.00      -12345.00      -12345.00
      -12345.00      -12345.00      -12345.00      -12345.00      -12345.00
      -12345.00       31.09480       121.1908       40.00000       0.000000
      -42.72450       173.0647      -12345.00       22.00000      -12345.00
      -12345.00      -12345.00      -12345.00      -12345.00      -12345.00
      -12345.00      -12345.00      -12345.00      -12345.00      -12345.00
       9733.930       317.5113       144.5346       87.54321      -12345.00
      -12345.00      -12345.00       90.00000       90.00000      -12345.00
      -12345.00      -12345.00      -12345.00      -12345.00      -12345.00
      -12345.00      -12345.00      -12345.00      -12345.00      -12345.00
      2016       318        11        14        46
        19         6    -12345    -12345     37200
    -12345    -12345    -12345    -12345    -12345
         1    -12345    -12345    -12345    -12345
    -12345    -12345    -12345    -12345    -12345
    -12345    -12345    -12345    -12345    -12345
    -12345    -12345    -12345    -12345    -12345
         1    -12345    -12345    -12345    -12345
SSE     South Island, Ne
00      -12345  -12345  
-12345  -12345  -12345  
-12345  -12345  -12345  
-12345  -12345  -12345  
-12345  -12345  -12345  
-12345  -12345  BH2     
IC      -12345  Streckei
[...]
       207490.0       208323.0       209041.0       210081.0       211294.0
       212571.0       213520.0       214470.0       215604.0       216064.0
       216679.0       217800.0       218695.0       219607.0       220102.0
       220351.0       220871.0       221482.0       222189.0       222977.0
       223870.0       224539.0       225126.0       225506.0       225627.0
       226126.0       227030.0       227981.0       228475.0       228876.0
       229175.0       229154.0       229622.0       230391.0       230931.0
       231599.0       232178.0       232463.0       232799.0       233365.0
       233874.0       234252.0       235224.0       236222.0       236529.0
       236901.0       237565.0       238167.0       238666.0       239313.0
       240272.0       241064.0       241711.0       242523.0       243371.0
       244220.0       244893.0       245880.0       246822.0       246974.0
       247298.0       248227.0       249096.0       249569.0       250185.0
       251032.0       251913.0       253020.0       254253.0       255021.0
       255747.0       257084.0       257797.0       258362.0       259135.0
       259860.0       260818.0       261284.0       261929.0       262891.0
       263944.0       265227.0       266393.0       267553.0       268827.0
       269834.0       270600.0       271348.0       271878.0       272763.0
       273591.0       274225.0       275075.0       275601.0       276713.0
       278317.0       279458.0       280614.0       281523.0       282246.0
       283206.0       284128.0       284920.0       285482.0       286088.0
       286895.0       287911.0       288949.0       290101.0       291289.0
       291997.0       292968.0       293906.0       294439.0       295127.0
       295726.0       296180.0       296549.0       297373.0       298460.0
       299107.0       299996.0       301255.0       302408.0       303439.0
       304052.0       304631.0       305591.0       305764.0       305729.0
       306634.0       307605.0       308796.0       310093.0       310854.0
       311664.0       312887.0       313892.0       314626.0       315376.0
       315958.0       316671.0       317230.0       317806.0       318859.0
       319919.0       320576.0       321275.0       322171.0       323042.0
       324234.0       325233.0       326398.0       327160.0       326980.0
       326955.0       327053.0       327576.0       328079.0       328911.0
       329999.0       330631.0       331386.0       331947.0       332658.0
       333340.0       334207.0       335199.0       335425.0       335354.0
       335574.0       336175.0       336503.0       336766.0       337036.0
       337175.0       337731.0       338775.0       339637.0       340089.0
       340520.0       340593.0       340517.0       340659.0       340893.0
       341264.0       341652.0       341925.0       342153.0       342212.0
       342287.0       342327.0       342122.0       342255.0       342422.0
       342351.0       342620.0       342906.0       342780.0       342547.0
       342287.0       342111.0       341771.0       341273.0       340909.0
       340550.0       340336.0       339975.0       339788.0       339737.0
       339237.0       338799.0       338649.0       338457.0       337909.0
       337302.0       336593.0       335805.0       335334.0       334247.0
       333123.0       332949.0       332635.0       331992.0       330990.0
       329835.0       329409.0       329217.0       328746.0       328115.0
       327358.0       326390.0       325484.0       324787.0       323935.0
       323067.0       322362.0       321815.0       321165.0       320387.0
       319620.0       318969.0       318435.0       317599.0       316236.0
       315040.0       314201.0       313169.0       312392.0       311374.0
       310119.0       308953.0       307609.0       306647.0       305681.0
       304578.0       303556.0       302183.0       300624.0       299095.0
       297612.0       296508.0       295297.0       294081.0       293326.0
       292272.0       290850.0       289424.0       288020.0       286647.0
       285475.0       284121.0       282340.0       281026.0       280127.0
       278771.0       277012.0       275235.0       273821.0       273037.0
       272123.0       270800.0       269403.0       267917.0       266394.0
       264546.0       262811.0       261194.0       259404.0       258035.0
       256761.0       255378.0       254102.0       252630.0       250723.0
       248818.0       247114.0       245529.0       244215.0       242694.0
       240765.0       238763.0       236837.0       235228.0       233701.0
       232149.0       230688.0       229150.0       227428.0       225543.0
       224030.0       222269.0       220139.0       218031.0       215757.0
       214104.0       212497.0       210701.0       208870.0       206599.0
       204690.0       202861.0       200904.0       198976.0       196733.0
       194582.0       192393.0       190301.0       188415.0       186481.0
       184825.0       182894.0       180565.0       178222.0       175905.0
       174037.0       172128.0       169699.0       167060.0       164681.0
       162482.0       160098.0       157899.0       155567.0       152935.0
       150275.0       148026.0       146119.0       143987.0       141432.0
       138506.0       135923.0       133260.0       130304.0       127433.0
       124485.0       121691.0       119479.0       117529.0       115332.0
       112868.0       110406.0       107809.0       104600.0       101859.0
       99325.00       96510.00       93888.00       90769.00       87655.00
       85057.00       82547.00       80108.00       77733.00       75355.00
       72692.00       69843.00       67115.00       64126.00       61259.00
       58470.00       55624.00       52956.00       50312.00       48046.00
       45526.00       42772.00       40435.00       38137.00       35582.00
       32891.00       30251.00       27692.00       25090.00       22322.00
       19717.00       17324.00       15180.00       13266.00       11265.00
       9102.000       7029.000       5075.000       2821.000       338.0000
      -2329.000      -4723.000      -7028.000      -9254.000      -10912.00
      -12699.00      -14138.00      -15411.00      -17299.00      -19153.00
      -20828.00      -22473.00      -24073.00      -26025.00      -28051.00
      -29876.00      -31497.00      -32715.00      -33844.00      -34793.00
      -36163.00      -37502.00      -38190.00      -39280.00      -40679.00
      -42279.00      -43726.00      -45358.00      -47292.00      -48407.00
      -49311.00      -50226.00      -51064.00      -52058.00      -52724.00
      -53489.00      -54586.00      -55473.00      -56397.00      -57334.00
      -58364.00      -59551.00      -60379.00      -61377.00      -62209.00
      -62821.00      -63211.00      -62768.00      -62787.00      -63088.00
      -63808.00      -64953.00      -65224.00      -65519.00      -66185.00
      -66951.00      -67277.00      -67022.00      -66876.00      -66779.00
      -67179.00      -67609.00      -67624.00      -67813.00      -67937.00
      -68241.00      -68548.00      -68747.00      -69197.00      -69729.00
      -70073.00      -69854.00      -69599.00      -69235.00      -68861.00
      -68962.00      -69063.00      -69146.00      -69431.00      -69815.00
      -70287.00      -70911.00      -71029.00      -70693.00      -70628.00
      -70522.00      -70403.00      -70272.00      -70326.00      -70731.00
      -70682.00      -70687.00      -70909.00      -71069.00      -71437.00
      -71546.00      -71507.00      -71673.00      -71864.00      -71649.00
      -71229.00      -71129.00      -71304.00      -71601.00      -72240.00
      -72896.00      -72962.00      -72919.00      -72945.00      -73032.00
      -73408.00      -73735.00      -73887.00      -74040.00      -74148.00
      -74555.00      -75256.00      -75839.00      -76318.00      -76813.00
      -77624.00      -78474.00      -79140.00      -79636.00      -79905.00
      -80413.00      -81177.00      -82176.00      -83377.00      -84580.00
      -85753.00      -86842.00      -87773.00      -88486.00      -89692.00
      -91390.00      -92794.00      -94039.00      -95117.00      -96247.00
      -97580.00      -98724.00      -100250.0      -101979.0      -103019.0
      -104351.0      -106518.0      -108470.0      -110600.0      -112630.0
      -114250.0      -116047.0      -117479.0      -119267.0      -121617.0
      -124126.0      -126595.0      -128893.0      -131227.0      -133149.0
      -135291.0      -137964.0      -140222.0      -142542.0      -145046.0
      -147580.0      -150420.0      -152779.0      -155783.0      -159017.0
      -161584.0      -164337.0      -167066.0      -170106.0      -173074.0
      -176099.0      -179321.0      -182079.0      -184886.0      -188204.0
      -191290.0      -194653.0      -198349.0      -201675.0      -205267.0
      -208561.0      -211904.0      -215233.0      -218433.0      -221839.0
      -224810.0      -228074.0      -231378.0      -234743.0      -238697.0
      -242549.0      -246096.0      -249545.0      -253428.0      -257562.0
      -261093.0      -264274.0      -267841.0      -271533.0      -275339.0
      -279177.0      -282622.0      -286297.0      -290236.0      -294326.0
      -298349.0      -302329.0      -306561.0      -310725.0      -314765.0
      -318595.0      -322543.0      -326681.0      -330715.0      -334585.0
      -338889.0      -343316.0      -347726.0      -352428.0      -356913.0
      -361520.0      -366050.0      -370612.0      -375055.0      -379148.0
      -383364.0      -387936.0      -392802.0      -397307.0      -401680.0
      -406298.0      -410890.0      -415400.0      -420338.0      -425685.0
      -431115.0      -436246.0      -440780.0      -445217.0      -449789.0
      -454483.0      -459343.0      -464698.0      -470106.0      -475061.0
      -479996.0      -485304.0      -490947.0      -496481.0      -501667.0
      -506417.0      -511307.0      -516429.0      -521517.0      -526349.0
      -530858.0      -535836.0      -541354.0      -547169.0      -552874.0
      -558262.0      -563743.0      -569142.0      -574342.0      -579787.0
      -585190.0      -590312.0      -595555.0      -600726.0      -605915.0
      -611381.0      -616722.0      -622249.0      -628485.0      -634787.0
      -640605.0      -646394.0      -652148.0      -657709.0      -663333.0
      -668828.0      -674244.0      -679497.0      -685037.0      -691084.0
      -697057.0      -702923.0      -708736.0      -714846.0      -721042.0
      -727616.0      -734252.0      -740046.0      -745647.0      -750987.0
      -756419.0      -762175.0      -767951.0      -774285.0      -780790.0
      -787177.0      -793066.0      -798652.0      -804582.0      -810724.0
      -816951.0      -822712.0      -828342.0      -834115.0      -840027.0
      -845856.0      -851696.0      -857884.0      -863871.0      -870057.0
      -876163.0      -882126.0      -888031.0      -893593.0      -899489.0
      -905362.0      -911179.0      -917022.0      -922752.0      -928619.0
      -934724.0      -941420.0      -947736.0      -953030.0      -958294.0
      -963900.0      -969867.0      -975854.0      -981320.0      -986261.0
      -991200.0      -996956.0      -1002931.      -1008696.      -1014391.
      -1019817.      -1025604.      -1031318.      -1036583.      -1041666.
      -1046435.      -1051497.      -1056487.      -1061217.      -1066004.
      -1070766.      -1075904.      -1080954.      -1085970.      -1090887.
      -1095419.      -1100006.      -1104454.      -1108731.      -1112864.
      -1117015.      -1121154.      -1125274.      -1129446.      -1133468.
      -1137456.      -1141411.      -1145482.      -1149567.      -1153480.
      -1157301.      -1160776.      -1164102.      -1167688.      -1171202.
      -1174556.      -1177923.      -1181037.      -1184175.      -1187561.
      -1190801.      -1193776.      -1196630.      -1199571.      -1202133.
      -1204371.      -1207090.      -1209719.      -1212036.      -1214677.
      -1217050.      -1219243.      -1222022.      -1224498.      -1226202.
      -1227844.      -1229601.      -1231287.      -1232899.      -1234389.
      -1235947.      -1237527.      -1238987.      -1240539.      -1241954.
      -1243632.      -1245578.      -1246976.      -1247996.      -1249043.
      -1250050.      -1251045.      -1251681.      -1251966.      -1252736.
      -1253919.      -1255292.      -1256410.      -1256891.      -1257279.
      -1257925.      -1258614.      -1259053.      -1259326.      -1259612.
      -1260017.      -1260223.      -1260154.      -1260246.      -1260046.
      -1259782.      -1260321.      -1260760.      -1261044.      -1260925.
      -1259977.      -1259641.      -1259128.      -1258366.      -1258143.
      -1257740.      -1257407.      -1256829.      -1256225.      -1255538.
      -1254555.      -1253575.      -1252618.      -1251843.      -1250665.
      -1249476.      -1248099.      -1246496.      -1245215.      -1244137.
      -1242957.      -1241495.      -1240099.      -1238440.      -1236842.
      -1235163.      -1232945.      -1230790.      -1228916.      -1226683.
      -1224153.      -1222171.      -1220286.      -1218111.      -1215799.
      -1213413.      -1211039.      -1208628.      -1206146.      -1203419.
      -1200588.      -1197713.      -1194720.      -1192081.      -1189583.
      -1186785.      -1183873.      -1180972.      -1178037.      -1175244.
      -1172428.      -1169102.      -1165648.      -1162173.      -1158503.
      -1154889.      -1151501.      -1148204.      -1145082.      -1142051.
      -1138566.      -1134741.      -1130654.      -1126736.      -1122750.
      -1118355.      -1114275.      -1110361.      -1106253.      -1102127.
      -1097966.      -1093624.      -1089629.      -1085771.      -1081617.
      -1077025.      -1072355.      -1068144.      -1063791.      -1059214.
      -1054306.      -1049417.      -1044644.      -1039712.      -1034972.
      -1030248.      -1025520.      -1020934.      -1016415.      -1011625.
      -1006600.      -1001219.      -995646.0      -990343.0      -985168.0
      -979805.0      -974041.0      -968465.0      -963106.0      -957843.0
      -952593.0      -947185.0      -941725.0      -936081.0      -930457.0
      -924691.0      -918620.0      -912710.0      -906605.0      -900276.0
      -894405.0      -888548.0      -882858.0      -876918.0      -870544.0
      -864575.0      -858527.0      -852719.0      -847102.0      -840944.0
      -834502.0      -827951.0      -821412.0      -814896.0      -808136.0
      -801535.0      -795269.0      -788792.0      -781989.0      -775265.0
      -768847.0      -762365.0      -755692.0      -748514.0      -741150.0
      -734256.0      -727214.0      -720077.0      -713097.0      -706278.0
      -699480.0      -692209.0      -684747.0      -677190.0      -669693.0
      -662410.0      -655224.0      -647928.0      -640558.0      -633271.0
      -625694.0      -617957.0      -610406.0      -603093.0      -595789.0
      -588483.0      -580890.0      -573196.0      -565568.0      -557676.0
      -549698.0      -541384.0      -533434.0      -525869.0      -518111.0
      -510450.0      -502613.0      -494911.0      -487387.0      -479531.0
      -471626.0      -463736.0      -455495.0      -447055.0      -438621.0
      -430256.0      -421833.0      -413138.0      -404571.0      -396199.0
      -388283.0      -380671.0      -372637.0      -364657.0      -356611.0
      -348175.0      -339653.0      -331123.0      -322545.0      -314044.0
      -305559.0      -296608.0      -287753.0      -279505.0      -271415.0
      -263270.0      -255303.0      -247155.0      -239113.0      -231129.0
      -222207.0      -213282.0      -204514.0      -195826.0      -187139.0
      -178525.0      -170546.0      -162394.0      -154301.0      -146085.0
      -137665.0      -129203.0      -120924.0      -112965.0      -104507.0
      -96085.00      -87461.00      -78642.00      -70154.00      -61912.00
      -53732.00      -45556.00      -37523.00      -28967.00      -20434.00
      -11881.00      -3256.000       5328.000       14238.00       22540.00
       30877.00       39438.00       47923.00       56331.00       64412.00
       72496.00       80371.00       88384.00       96771.00       105322.0
       113831.0       122401.0       131105.0       139569.0       147978.0
       156181.0       164205.0       172590.0       180931.0       188851.0
       196719.0       204858.0       213395.0       222096.0       230527.0
       238992.0       247516.0       255785.0       263714.0       271472.0
       279691.0       287786.0       295787.0       303943.0       312142.0
       320527.0       328577.0       336795.0       344825.0       352907.0
       361499.0       369555.0       377270.0       384839.0       392553.0
       400667.0       408873.0       416951.0       425251.0       433634.0
       441516.0       449303.0       456983.0       464844.0       472845.0
       480648.0       488406.0       495907.0       503388.0       511161.0
       519208.0       527215.0       535272.0       543548.0       552020.0
       560086.0       567544.0       575199.0       582774.0       590394.0
       598061.0       605784.0       613902.0       621721.0       629272.0
       636829.0       644560.0       652569.0       660626.0       668331.0
       675779.0       683177.0       690270.0       697389.0       704442.0
       711918.0       719794.0       727390.0       734917.0       742071.0
       748999.0       755982.0       763181.0       770404.0       777253.0
       783770.0       790284.0       796997.0       803719.0       810520.0
       817601.0       825204.0       832361.0       838733.0       845023.0
       851289.0       857462.0       863653.0       869952.0       876140.0
       882198.0       888073.0       894242.0       900582.0       907080.0
       913943.0       920399.0       926480.0       932273.0       937714.0
       942875.0       947916.0       953423.0       959127.0       964415.0
       969907.0       975726.0       981430.0       987276.0       992944.0
