     0.02500000      -12345.00      -12345.00   1.996880e+09      -12345.00
   0.0005380000       1859.976      -620.0195      -12345.00      -12345.00
      -12345.00      -12345.00      -12345.00      -12345.00      -12345.00
      -12345.00      -12345.00      -12345.00      -12345.00      -12345.00
      -12345.00      -12345.00      -12345.00      -12345.00      -12345.00
      -12345.00      -12345.00      -12345.00      -12345.00      -12345.00
      -12345.00      -12.19010       96.83490       1.000000       4.800000
      -42.72450       173.0647      -12345.00       22.00000      -12345.00
      -12345.00      -12345.00      -12345.00      -12345.00      -12345.00
      -12345.00      -12345.00      -12345.00      -12345.00      -12345.00
       7976.784       270.1644       131.0914       71.74012      -12345.00
      -12345.00      -12345.00       196.5000       90.00000      -12345.00
      -12345.00      -12345.00      -12345.00      -12345.00      -12345.00
      -12345.00      -12345.00      -12345.00      -12345.00      -12345.00
      2016       318        11        13        19
        19         6    -12345    -12345     74400
    -12345    -12345    -12345    -12345    -12345
         1    -12345    -12345    -12345    -12345
    -12345    -12345    -12345    -12345    -12345
    -12345    -12345    -12345    -12345    -12345
    -12345    -12345    -12345    -12345    -12345
         1    -12345    -12345    -12345    -12345
COCO    South Island, Ne
10      -12345  -12345  
-12345  -12345  -12345  
-12345  -12345  -12345  
-12345  -12345  -12345  
-12345  -12345  -12345  
-12345  -12345  BH2     
II      -12345  Nanometr
[...]
      -162259.0      -161040.0      -159717.0      -159142.0      -157819.0
      -156965.0      -156311.0      -154918.0      -154245.0      -153195.0
      -152002.0      -151142.0      -149839.0      -148590.0      -147578.0
      -146629.0      -145547.0      -144445.0      -143377.0      -142112.0
      -140688.0      -139747.0      -138516.0      -136764.0      -135746.0
      -134604.0      -132996.0      -131403.0      -129859.0      -128335.0
      -126772.0      -125445.0      -124088.0      -122879.0      -121629.0
      -120161.0      -119018.0      -117516.0      -115933.0      -114909.0
      -113621.0      -112004.0      -110383.0      -109163.0      -108054.0
      -106354.0      -105079.0      -103936.0      -102402.0      -101257.0
      -100107.0      -98703.00      -97151.00      -95913.00      -94809.00
      -93285.00      -92071.00      -90766.00      -89091.00      -88134.00
      -86982.00      -85557.00      -84663.00      -83287.00      -82160.00
      -81196.00      -79779.00      -78838.00      -77990.00      -76919.00
      -75975.00      -75312.00      -74531.00      -73739.00      -73117.00
      -72360.00      -71553.00      -70816.00      -70496.00      -70004.00
      -69106.00      -68530.00      -68224.00      -67625.00      -67087.00
      -67127.00      -66768.00      -66383.00      -66431.00      -65999.00
      -65589.00      -65767.00      -65801.00      -65323.00      -65396.00
      -65794.00      -65318.00      -65251.00      -65700.00      -65500.00
      -65452.00      -65495.00      -65310.00      -65147.00      -64894.00
      -64481.00      -63977.00      -63704.00      -63234.00      -62590.00
      -62225.00      -61999.00      -61480.00      -60904.00      -60687.00
      -60284.00      -59845.00      -59457.00      -59072.00      -58877.00
      -58744.00      -58337.00      -58258.00      -58659.00      -58396.00
      -58228.00      -58433.00      -58335.00      -57978.00      -58046.00
      -58420.00      -58186.00      -58200.00      -58599.00      -58952.00
      -59246.00      -59577.00      -60031.00      -60355.00      -60820.00
      -61332.00      -61689.00      -61956.00      -62433.00      -62986.00
      -63404.00      -63878.00      -64427.00      -65186.00      -65601.00
      -65881.00      -66608.00      -67145.00      -67531.00      -68240.00
      -68871.00      -69455.00      -70205.00      -70738.00      -71335.00
      -71964.00      -72614.00      -73426.00      -74011.00      -74681.00
      -75564.00      -76306.00      -76783.00      -77535.00      -78389.00
      -78824.00      -79564.00      -80129.00      -80599.00      -81530.00
      -82019.00      -82732.00      -83521.00      -83854.00      -84645.00
      -85329.00      -85805.00      -86403.00      -86951.00      -87682.00
      -88278.00      -88957.00      -89809.00      -90529.00      -91295.00
      -92182.00      -93033.00      -93694.00      -94489.00      -95363.00
      -96605.00      -97573.00      -98408.00      -100007.0      -100746.0
      -101540.0      -102956.0      -103752.0      -104938.0      -106127.0
      -106775.0      -108028.0      -109170.0      -109952.0      -111410.0
      -112632.0      -113978.0      -115175.0      -115810.0      -117326.0
      -118536.0      -119438.0      -120513.0      -121326.0      -122528.0
      -123686.0      -124666.0      -125514.0      -126578.0      -127761.0
      -128559.0      -129404.0      -130239.0      -131090.0      -131764.0
      -132431.0      -133217.0      -133597.0      -133681.0      -134058.0
      -134905.0      -135297.0      -135417.0      -135999.0      -136511.0
      -136945.0      -137333.0      -137686.0      -138077.0      -138315.0
      -138921.0      -139281.0      -139399.0      -140235.0      -140579.0
      -140667.0      -141278.0      -141859.0      -142381.0      -142773.0
      -143324.0      -143629.0      -144107.0      -144919.0      -145270.0
      -145913.0      -146401.0      -146667.0      -147249.0      -147601.0
      -147704.0      -147834.0      -148129.0      -148186.0      -148168.0
      -148143.0      -147988.0      -148068.0      -148231.0      -148164.0
      -147863.0      -148119.0      -148318.0      -148079.0      -148274.0
      -148124.0      -147983.0      -148069.0      -147811.0      -147826.0
      -147670.0      -147053.0      -146950.0      -147014.0      -146461.0
      -146519.0      -146681.0      -146145.0      -146187.0      -146185.0
      -146017.0      -146023.0      -145511.0      -145120.0      -145085.0
      -144603.0      -144049.0      -143813.0      -143116.0      -142288.0
      -141613.0      -140739.0      -139872.0      -138962.0      -138143.0
      -137074.0      -136099.0      -135356.0      -134101.0      -132972.0
      -132014.0      -130709.0      -129340.0      -128402.0      -127015.0
      -125261.0      -124055.0      -122400.0      -120592.0      -118803.0
      -116949.0      -115183.0      -113119.0      -111245.0      -109063.0
      -106694.0      -104795.0      -102955.0      -101109.0      -99013.00
      -96788.00      -94745.00      -92388.00      -90228.00      -88207.00
      -85646.00      -83572.00      -81642.00      -79536.00      -77599.00
      -75257.00      -73062.00      -71020.00      -68750.00      -66510.00
      -64455.00      -62487.00      -60376.00      -58626.00      -56631.00
      -54126.00      -51908.00      -49480.00      -47013.00      -44324.00
      -41504.00      -39245.00      -36811.00      -34166.00      -31505.00
      -28682.00      -25631.00      -22892.00      -20198.00      -16823.00
      -13890.00      -10985.00      -7918.000      -5337.000      -2271.000
       826.0000       3619.000       6685.000       9784.000       12877.00
       16075.00       19217.00       22016.00       24757.00       27812.00
       30825.00       33629.00       36663.00       39951.00       42970.00
       46133.00       49709.00       53018.00       56387.00       59864.00
       62994.00       66655.00       70587.00       73873.00       77337.00
       81200.00       84811.00       88064.00       92004.00       96257.00
       99459.00       102899.0       106519.0       109970.0       113982.0
       117635.0       120951.0       124552.0       128446.0       132190.0
       135713.0       139498.0       143264.0       146805.0       150360.0
       154082.0       157804.0       161375.0       164898.0       168352.0
       172009.0       175995.0       179540.0       182948.0       186932.0
       190828.0       194699.0       198672.0       202258.0       206059.0
       209859.0       212997.0       216763.0       220999.0       224629.0
       228455.0       232340.0       236197.0       240222.0       244023.0
       247706.0       251034.0       254501.0       258082.0       261540.0
       265151.0       268446.0       272004.0       275396.0       278535.0
       282440.0       285567.0       288514.0       292103.0       294878.0
       297931.0       301351.0       304154.0       307098.0       310432.0
       313522.0       316455.0       319616.0       322601.0       325592.0
       328776.0       331746.0       334538.0       337389.0       340466.0
       343531.0       346583.0       349911.0       352953.0       355898.0
       358938.0       361734.0       364759.0       367591.0       370641.0
       373860.0       376623.0       379685.0       382379.0       385255.0
       388046.0       389963.0       392808.0       395559.0       397584.0
       400167.0       402744.0       404920.0       407343.0       409778.0
       411595.0       413756.0       416041.0       417843.0       419471.0
       421136.0       423159.0       424724.0       426428.0       428310.0
       429459.0       431043.0       432555.0       433734.0       435396.0
       436546.0       437501.0       438787.0       439954.0       441341.0
       442483.0       443349.0       444636.0       445574.0       446157.0
       447167.0       447965.0       448617.0       449666.0       450439.0
       450970.0       451532.0       451945.0       452387.0       452792.0
       453061.0       453260.0       453789.0       454130.0       453974.0
       454195.0       454291.0       454173.0       454333.0       454426.0
       454409.0       454235.0       453970.0       453759.0       453593.0
       453678.0       453597.0       453104.0       453062.0       453190.0
       452642.0       452455.0       452727.0       452232.0       452336.0
       452788.0       452286.0       452124.0       451946.0       451638.0
       451250.0       450909.0       450614.0       449621.0       449306.0
       448916.0       447778.0       446984.0       446028.0       444505.0
       443106.0       442015.0       440589.0       439399.0       438119.0
       436527.0       435163.0       433528.0       432035.0       430658.0
       428748.0       426831.0       425321.0       423740.0       421959.0
       419685.0       417462.0       415861.0       413718.0       411575.0
       409442.0       407030.0       404985.0       402483.0       400018.0
       397581.0       394851.0       392566.0       390106.0       387223.0
       384731.0       382303.0       379208.0       376457.0       373550.0
       370142.0       367376.0       364415.0       361319.0       358115.0
       354663.0       351364.0       347639.0       344054.0       340485.0
       336618.0       333174.0       329454.0       325358.0       321216.0
       316712.0       312400.0       308241.0       304009.0       299726.0
       295353.0       291145.0       286709.0       282129.0       277783.0
       273191.0       268377.0       263513.0       258159.0       253084.0
       248202.0       242853.0       238019.0       233107.0       227651.0
       222231.0       217226.0       212625.0       207422.0       202164.0
       196788.0       190843.0       185779.0       181113.0       176439.0
       171938.0       166543.0       160789.0       155053.0       149422.0
       144143.0       138681.0       133409.0       128017.0       122637.0
       117970.0       113158.0       108073.0       102290.0       95719.00
       89536.00       83778.00       78929.00       74595.00       69571.00
       64372.00       58669.00       52601.00       46776.00       41111.00
       36169.00       30906.00       25244.00       19705.00       13657.00
       7712.000       2052.000      -3179.000      -8589.000      -14190.00
      -19269.00      -24840.00      -30819.00      -36543.00      -41886.00
      -47647.00      -53588.00      -58969.00      -64733.00      -70246.00
      -75654.00      -81239.00      -86546.00      -92276.00      -97728.00
      -103049.0      -108559.0      -113723.0      -119173.0      -124787.0
      -129987.0      -135198.0      -140769.0      -146025.0      -150916.0
      -156221.0      -161242.0      -166184.0      -172165.0      -177522.0
      -182158.0      -187477.0      -192457.0      -197358.0      -202808.0
      -208111.0      -213332.0      -218495.0      -223509.0      -228480.0
      -233521.0      -238720.0      -244184.0      -249424.0      -254440.0
      -260032.0      -265204.0      -270265.0      -275792.0      -280806.0
      -285947.0      -291163.0      -296338.0      -301616.0      -306926.0
      -312265.0      -317148.0      -322342.0      -327469.0      -332040.0
      -337045.0      -341977.0      -346638.0      -351704.0      -356674.0
      -361236.0      -365772.0      -370667.0      -375563.0      -380178.0
      -384884.0      -389251.0      -393981.0      -398942.0      -403250.0
      -407732.0      -412224.0      -416852.0      -421545.0      -425665.0
      -429525.0      -433169.0      -436824.0      -440932.0      -444735.0
      -448109.0      -452063.0      -456014.0      -459640.0      -463207.0
      -466545.0      -470160.0      -473684.0      -476772.0      -479990.0
      -483111.0      -486037.0      -489009.0      -492234.0      -495116.0
      -497553.0      -500718.0      -503450.0      -505364.0      -507974.0
      -510427.0      -512481.0      -514997.0      -517091.0      -518996.0
      -521260.0      -523330.0      -525614.0      -527964.0      -530168.0
      -532214.0      -533850.0      -535671.0      -537484.0      -538792.0
      -540445.0      -542393.0      -543935.0      -545477.0      -547322.0
      -549015.0      -550311.0      -551731.0      -552947.0      -554243.0
      -555886.0      -557160.0      -558433.0      -559730.0      -560966.0
      -561913.0      -562766.0      -563828.0      -564564.0      -565442.0
      -566594.0      -567478.0      -567887.0      -568580.0      -569451.0
      -569526.0      -570169.0      -570761.0      -570673.0      -571004.0
      -571067.0      -571274.0      -571367.0      -571617.0      -571996.0
      -571409.0      -571198.0      -570859.0      -570058.0      -569996.0
      -570232.0      -570215.0      -569958.0      -569715.0      -569022.0
      -568137.0      -568006.0      -567625.0      -567012.0      -566460.0
      -565168.0      -564347.0      -563525.0      -562242.0      -561474.0
      -560515.0      -559810.0      -558636.0      -556799.0      -555735.0
      -554379.0      -552856.0      -551631.0      -549808.0      -547964.0
      -546270.0      -544157.0      -542256.0      -540424.0      -538145.0
      -535939.0      -533664.0      -531513.0      -529204.0      -526536.0
      -524349.0      -521943.0      -519385.0      -516838.0      -513970.0
      -511403.0      -508686.0      -505970.0      -503353.0      -500287.0
      -497374.0      -494416.0      -491154.0      -487848.0      -484389.0
      -480935.0      -477386.0      -473855.0      -470552.0      -466794.0
      -462663.0      -458877.0      -455052.0      -451108.0      -447090.0
      -443055.0      -439060.0      -434627.0      -430158.0      -425974.0
      -421726.0      -417600.0      -413634.0      -408882.0      -403886.0
      -399546.0      -394776.0      -390083.0      -385627.0      -380578.0
      -376145.0      -371603.0      -366490.0      -361979.0      -357505.0
      -352724.0      -347916.0      -343400.0      -338572.0      -333735.0
      -329218.0      -324445.0      -319959.0      -315203.0      -310464.0
      -305642.0      -300599.0      -296060.0      -290783.0      -285678.0
      -281095.0      -275970.0      -270989.0      -266126.0      -261410.0
      -256477.0      -251490.0      -247003.0      -242226.0      -237497.0
      -233000.0      -228282.0      -223485.0      -218613.0      -214144.0
      -209825.0      -205153.0      -200178.0      -194826.0      -190052.0
      -185289.0      -179873.0      -175201.0      -170514.0      -165176.0
      -160141.0      -155487.0      -150663.0      -145223.0      -139920.0
      -134923.0      -129507.0      -124303.0      -119556.0      -114428.0
      -109306.0      -104350.0      -99169.00      -93940.00      -88518.00
      -83283.00      -78060.00      -72570.00      -67206.00      -61787.00
      -56722.00      -51355.00      -45375.00      -40237.00      -35207.00
      -29455.00      -24189.00      -19109.00      -13528.00      -8450.000
      -3410.000       2249.000       7561.000       12404.00       17637.00
       23085.00       27985.00       33009.00       38390.00       43578.00
       48526.00       53483.00       58530.00       63455.00       68665.00
       73632.00       78383.00       83618.00       88376.00       92988.00
       97795.00       102249.0       106943.0       111724.0       116278.0
       120710.0       125131.0       129782.0       134234.0       138724.0
       143323.0       147686.0       151963.0       156094.0       160325.0
       164512.0       168621.0       172821.0       176885.0       180962.0
       185066.0       189186.0       193134.0       197028.0       201070.0
       204480.0       207964.0       212073.0       215782.0       219391.0
       222952.0       226308.0       229832.0       233192.0       236221.0
       239463.0       242733.0       245623.0       248648.0       251507.0
       254301.0       257293.0       260062.0       262745.0       265183.0
       267717.0       270388.0       272863.0       275288.0       277589.0
       280013.0       282383.0       284653.0       286943.0       289118.0
       291303.0       293326.0       295384.0       297606.0       299465.0
       301118.0       303035.0       304975.0       306680.0       308249.0
       309796.0       311621.0       313596.0       314944.0       316162.0
       317573.0       319017.0       320426.0       321420.0       322809.0
       324077.0       325023.0       326358.0       327398.0       328527.0
       329673.0       330332.0       331136.0       332266.0       333048.0
       333478.0       334279.0       334940.0       335393.0       335850.0
       336407.0       337065.0       337288.0       337702.0       337937.0
       338101.0       338533.0       338445.0       338451.0       338243.0
       338128.0       338554.0       337956.0       337361.0       337489.0
       336928.0       336282.0       335539.0       334790.0       334304.0
       333399.0       332638.0       331722.0       330803.0       329811.0
       328598.0       328009.0       327097.0       326035.0       325266.0
       324175.0       323156.0       322184.0       321083.0       320112.0
       319299.0       318487.0       317301.0       316185.0       315291.0
       313935.0       312763.0       311810.0       310730.0       309938.0
       308874.0       307445.0       306420.0       305568.0       304346.0
       303415.0       302682.0       301443.0       300211.0       299052.0
       297947.0       296884.0       295284.0       294172.0       293384.0
       291567.0       290321.0       289291.0       287136.0       285409.0
       284176.0       282644.0       280865.0       279256.0       277734.0
       275711.0       273788.0       271872.0       269819.0       268080.0
       266197.0       264203.0       262279.0       260166.0       257864.0
       255780.0       253806.0       251472.0       249578.0       248050.0
       245835.0       243998.0       242309.0       239848.0       237883.0
       236182.0       234108.0       232041.0       230103.0       228033.0
