     0.02500000      -12345.00      -12345.00   2.010540e+09      -12345.00
   0.0005390000       1859.976      -620.0195      -12345.00      -12345.00
      -12345.00      -12345.00      -12345.00      -12345.00      -12345.00
      -12345.00      -12345.00      -12345.00      -12345.00      -12345.00
      -12345.00      -12345.00      -12345.00      -12345.00      -12345.00
      -12345.00      -12345.00      -12345.00      -12345.00      -12345.00
      -12345.00      -12.19010       96.83490       1.000000       4.800000
      -42.72450       173.0647      -12345.00       22.00000      -12345.00
      -12345.00      -12345.00      -12345.00      -12345.00      -12345.00
      -12345.00      -12345.00      -12345.00      -12345.00      -12345.00
       7976.784       270.1644       131.0914       71.74012      -12345.00
      -12345.00      -12345.00       0.000000       0.000000      -12345.00
      -12345.00      -12345.00      -12345.00      -12345.00      -12345.00
      -12345.00      -12345.00      -12345.00      -12345.00      -12345.00
      2016       318        11        13        19
        19         6    -12345    -12345     74400
    -12345    -12345    -12345    -12345    -12345
         1    -12345    -12345    -12345    -12345
    -12345    -12345    -12345    -12345    -12345
    -12345    -12345    -12345    -12345    -12345
    -12345    -12345    -12345    -12345    -12345
         1    -12345    -12345    -12345    -12345
COCO    South Island, Ne
10      -12345  -12345  
-12345  -12345  -12345  
-12345  -12345  -12345  
-12345  -12345  -12345  
-12345  -12345  -12345  
-12345  -12345  BHZ     
II      -12345  Nanometr
[...]
      -386676.0      -384847.0      -383160.0      -381542.0      -379641.0
      -377695.0      -375865.0      -374368.0      -371988.0      -370569.0
      -368340.0      -365896.0      -364308.0      -361773.0      -359967.0
      -357825.0      -355550.0      -353567.0      -351306.0      -349101.0
      -346963.0      -344795.0      -342508.0      -340514.0      -338220.0
      -336358.0      -334348.0      -332238.0      -330499.0      -328063.0
      -326267.0      -324076.0      -321707.0      -319927.0      -317647.0
      -315541.0      -313181.0      -311046.0      -308861.0      -306501.0
      -304529.0      -302187.0      -299923.0      -297726.0      -295558.0
      -293075.0      -290560.0      -288481.0      -285959.0      -283567.0
      -281334.0      -278839.0      -276393.0      -274020.0      -271483.0
      -268980.0      -266581.0      -263881.0      -261491.0      -258813.0
      -256265.0      -253780.0      -251023.0      -248996.0      -246421.0
      -244144.0      -242132.0      -239513.0      -237309.0      -234844.0
      -232145.0      -229757.0      -227209.0      -224633.0      -222169.0
      -219470.0      -217032.0      -214538.0      -211794.0      -209239.0
      -206354.0      -203653.0      -201015.0      -198247.0      -195577.0
      -192484.0      -189709.0      -186571.0      -183429.0      -180811.0
      -177406.0      -174656.0      -171982.0      -168765.0      -166105.0
      -163139.0      -160092.0      -157210.0      -154117.0      -151233.0
      -148342.0      -145021.0      -142030.0      -139141.0      -135917.0
      -133087.0      -130109.0      -126984.0      -123972.0      -120570.0
      -117507.0      -114058.0      -110552.0      -107857.0      -104307.0
      -101047.0      -98130.00      -94388.00      -91269.00      -88066.00
      -84282.00      -81181.00      -78042.00      -74707.00      -71830.00
      -68459.00      -65186.00      -62224.00      -58770.00      -55810.00
      -52738.00      -49486.00      -46828.00      -43684.00      -40418.00
      -37220.00      -33750.00      -30731.00      -27671.00      -24413.00
      -21365.00      -18069.00      -14626.00      -11794.00      -8591.000
      -4940.000      -2026.000       1507.000       5088.000       8280.000
       11930.00       15260.00       18632.00       22174.00       25645.00
       29026.00       32579.00       35956.00       39128.00       42691.00
       45685.00       49021.00       52674.00       55710.00       59510.00
       63022.00       66089.00       69991.00       73574.00       76836.00
       80638.00       84050.00       87316.00       91135.00       94398.00
       97704.00       101118.0       104154.0       107692.0       110903.0
       114326.0       117951.0       120901.0       124598.0       127724.0
       130868.0       134495.0       136908.0       140475.0       143497.0
       145895.0       149722.0       152628.0       155626.0       159221.0
       162118.0       165178.0       168458.0       171193.0       174348.0
       177138.0       179975.0       183469.0       186002.0       189347.0
       192260.0       195021.0       198366.0       200832.0       204290.0
       206962.0       209647.0       212911.0       215295.0       218685.0
       221497.0       224236.0       227469.0       229734.0       232749.0
       235600.0       237889.0       241029.0       243661.0       246272.0
       249274.0       251392.0       254111.0       256995.0       258964.0
       261943.0       264516.0       266602.0       269685.0       271930.0
       274358.0       277265.0       279618.0       282389.0       285000.0
       287313.0       289647.0       291762.0       294002.0       296298.0
       298496.0       300789.0       303316.0       305374.0       307559.0
       310246.0       312381.0       314788.0       316961.0       318540.0
       320556.0       322830.0       325047.0       327269.0       329572.0
       331483.0       333697.0       336075.0       338182.0       340622.0
       342538.0       344685.0       347072.0       349229.0       351856.0
       353855.0       356098.0       358274.0       360180.0       362653.0
       364596.0       366756.0       368843.0       370815.0       373086.0
       375011.0       376970.0       379067.0       380941.0       382671.0
       384568.0       386358.0       388112.0       389861.0       391680.0
       393448.0       395180.0       397405.0       398855.0       399837.0
       401418.0       402687.0       404334.0       406096.0       407364.0
       409128.0       410526.0       412110.0       414015.0       414990.0
       416294.0       417736.0       419303.0       421003.0       422398.0
       423861.0       424860.0       426091.0       427145.0       428355.0
       429976.0       430833.0       432163.0       433425.0       434375.0
       435748.0       436952.0       438033.0       438939.0       440157.0
       441221.0       442151.0       443362.0       444142.0       445068.0
       446201.0       447070.0       448043.0       449185.0       450134.0
       451050.0       452088.0       452961.0       453833.0       454554.0
       455287.0       456181.0       456908.0       457912.0       458660.0
       459390.0       460294.0       461016.0       462098.0       462578.0
       463248.0       463972.0       464379.0       465523.0       466039.0
       466458.0       466827.0       467143.0       468147.0       468773.0
       469480.0       469991.0       469997.0       470329.0       470622.0
       470935.0       471594.0       472053.0       472400.0       472520.0
       472476.0       472961.0       473113.0       473340.0       473767.0
       473745.0       473940.0       473734.0       473474.0       473461.0
       472984.0       472689.0       472636.0       472415.0       472207.0
       472273.0       472332.0       472046.0       471998.0       471601.0
       471016.0       470832.0       470110.0       469877.0       469481.0
       468766.0       468858.0       467860.0       467525.0       467468.0
       466337.0       466634.0       466104.0       465475.0       465785.0
       465014.0       464915.0       464510.0       463876.0       463680.0
       462586.0       462179.0       461701.0       460852.0       460741.0
       460392.0       460046.0       459890.0       459076.0       458084.0
       457225.0       456095.0       455811.0       455474.0       454868.0
       454464.0       453517.0       452965.0       452081.0       451147.0
       450643.0       449812.0       449116.0       448231.0       447340.0
       446327.0       445141.0       444332.0       443105.0       442203.0
       441659.0       440265.0       439221.0       438661.0       437392.0
       436549.0       435967.0       434488.0       433641.0       432344.0
       430724.0       429757.0       428235.0       427289.0       426008.0
       424530.0       423414.0       421789.0       420575.0       419229.0
       417746.0       416389.0       414885.0       413187.0       411858.0
       410480.0       408298.0       406958.0       405200.0       403421.0
       402159.0       399916.0       398434.0       396661.0       394688.0
       393194.0       391124.0       389081.0       387192.0       385247.0
       383187.0       381811.0       379837.0       377820.0       376397.0
       374028.0       372118.0       370014.0       367789.0       366144.0
       363944.0       362042.0       360130.0       357929.0       355994.0
       353752.0       351784.0       349608.0       347440.0       345745.0
       343356.0       341515.0       339408.0       337085.0       335197.0
       332456.0       330310.0       328145.0       325595.0       323655.0
       321318.0       318897.0       316885.0       314494.0       312188.0
       310118.0       307406.0       305127.0       302978.0       300510.0
       298623.0       296192.0       293789.0       291669.0       288960.0
       286726.0       284458.0       282009.0       279919.0       277195.0
       274622.0       272359.0       269534.0       266979.0       264382.0
       261800.0       259267.0       256587.0       254221.0       251385.0
       248885.0       246394.0       243439.0       240994.0       238166.0
       235411.0       232747.0       230084.0       227749.0       224911.0
       222205.0       219659.0       216826.0       214151.0       211505.0
       208697.0       206180.0       203708.0       200927.0       198438.0
       195702.0       192884.0       190405.0       187494.0       184705.0
       181632.0       178581.0       175980.0       172833.0       169980.0
       166806.0       163633.0       160929.0       157611.0       154588.0
       151467.0       148234.0       145080.0       141891.0       138692.0
       135214.0       132019.0       128481.0       125194.0       121847.0
       118094.0       114951.0       111311.0       107835.0       104431.0
       100692.0       97354.00       93770.00       90505.00       87338.00
       84081.00       80850.00       77123.00       73501.00       70105.00
       66471.00       62857.00       59607.00       56106.00       52613.00
       49452.00       46161.00       42759.00       39169.00       35746.00
       32350.00       28796.00       25474.00       22027.00       18745.00
       15667.00       12157.00       9133.000       5872.000       2163.000
      -938.0000      -4547.000      -7868.000      -10847.00      -14332.00
      -17227.00      -20216.00      -23951.00      -26907.00      -30432.00
      -34302.00      -37081.00      -41055.00      -44074.00      -47066.00
      -51086.00      -53723.00      -57280.00      -60249.00      -63345.00
      -67261.00      -70249.00      -74149.00      -77234.00      -80322.00
      -83823.00      -86796.00      -90658.00      -93935.00      -97518.00
      -100990.0      -103797.0      -107456.0      -110668.0      -114091.0
      -117742.0      -121009.0      -124481.0      -128109.0      -131694.0
      -135013.0      -138568.0      -141973.0      -145349.0      -148553.0
      -151821.0      -155180.0      -158367.0      -161840.0      -164840.0
      -168274.0      -171644.0      -175077.0      -178454.0      -181396.0
      -185223.0      -188065.0      -191598.0      -195369.0      -198240.0
      -202094.0      -204775.0      -207752.0      -211083.0      -213764.0
      -217476.0      -220517.0      -223704.0      -227420.0      -230440.0
      -234238.0      -237317.0      -240094.0      -243707.0      -246458.0
      -250015.0      -253305.0      -256363.0      -260020.0      -262644.0
      -266140.0      -269380.0      -272411.0      -275724.0      -278616.0
      -282148.0      -285010.0      -288234.0      -291351.0      -293912.0
      -296898.0      -299555.0      -302492.0      -305486.0      -308674.0
      -311435.0      -314279.0      -317331.0      -320099.0      -323377.0
      -326023.0      -329131.0      -331821.0      -334313.0      -337434.0
      -339546.0      -342496.0      -345013.0      -347415.0      -350431.0
      -352486.0      -355376.0      -357940.0      -359994.0      -362912.0
      -365327.0      -367563.0      -370284.0      -372839.0      -375234.0
      -377747.0      -380099.0      -382458.0      -384856.0      -387108.0
      -389818.0      -392292.0      -394346.0      -396996.0      -399184.0
      -401276.0      -403692.0      -405606.0      -407925.0      -410022.0
      -412057.0      -414567.0      -416619.0      -418845.0      -421007.0
      -422989.0      -425114.0      -426831.0      -428801.0      -430825.0
      -432557.0      -434638.0      -436531.0      -438312.0      -440196.0
      -441742.0      -443342.0      -445182.0      -446961.0      -448745.0
      -450440.0      -452128.0      -453902.0      -455325.0      -456823.0
      -458408.0      -459724.0      -461166.0      -462630.0      -464008.0
      -465408.0      -466945.0      -468439.0      -469790.0      -471403.0
      -472652.0      -473851.0      -475482.0      -476616.0      -477830.0
      -479304.0      -480535.0      -481734.0      -483141.0      -484357.0
      -485305.0      -486566.0      -487308.0      -488234.0      -489320.0
      -489825.0      -491087.0      -491996.0      -492816.0      -493973.0
      -494519.0      -495768.0      -496696.0      -497376.0      -498527.0
      -499005.0      -499917.0      -500666.0      -501413.0      -502570.0
      -503050.0      -503973.0      -504528.0      -504991.0      -505819.0
      -506094.0      -506725.0      -507331.0      -507907.0      -508450.0
      -509125.0      -509817.0      -510002.0      -510658.0      -510655.0
      -510753.0      -511558.0      -511487.0      -511949.0      -512127.0
      -512027.0      -512573.0      -512406.0      -512443.0      -512277.0
      -512043.0      -512107.0      -511658.0      -511860.0      -511543.0
      -511169.0      -511412.0      -510640.0      -510673.0      -510677.0
      -510034.0      -510083.0      -509507.0      -509078.0      -508989.0
      -508604.0      -508297.0      -507961.0      -507624.0      -507143.0
      -506830.0      -506242.0      -505653.0      -505433.0      -504617.0
      -504349.0      -503893.0      -502900.0      -502734.0      -501709.0
      -501021.0      -500668.0      -499694.0      -499447.0      -498566.0
      -497722.0      -496988.0      -495995.0      -495252.0      -494212.0
      -493339.0      -491981.0      -491087.0      -489985.0      -488435.0
      -487812.0      -486236.0      -484792.0      -483813.0      -482077.0
      -480946.0      -479960.0      -478489.0      -477293.0      -475856.0
      -474381.0      -472966.0      -471015.0      -469574.0      -468002.0
      -466099.0      -464722.0      -463043.0      -461240.0      -459539.0
      -457764.0      -455995.0      -454166.0      -452582.0      -450937.0
      -449180.0      -447600.0      -445730.0      -443912.0      -442189.0
      -440240.0      -438318.0      -436491.0      -434542.0      -432486.0
      -430837.0      -428884.0      -426794.0      -425124.0      -422953.0
      -420723.0      -418846.0      -416643.0      -414418.0      -412573.0
      -410337.0      -408276.0      -406432.0      -404266.0      -402508.0
      -400025.0      -397511.0      -395377.0      -392882.0      -390813.0
      -388214.0      -385863.0      -383602.0      -380815.0      -378436.0
      -375797.0      -373043.0      -370492.0      -368076.0      -365414.0
      -362984.0      -360653.0      -357872.0      -355280.0      -352532.0
      -349897.0      -347395.0      -344616.0      -342140.0      -339425.0
      -336384.0      -334049.0      -331530.0      -328911.0      -326683.0
      -323886.0      -321193.0      -318588.0      -315599.0      -312972.0
      -310034.0      -306978.0      -304532.0      -301440.0      -298975.0
      -296320.0      -292977.0      -290979.0      -287563.0      -284453.0
      -282052.0      -278219.0      -275657.0      -272837.0      -269226.0
      -266477.0      -263304.0      -260049.0      -257187.0      -253856.0
      -250789.0      -247788.0      -244508.0      -241471.0      -238154.0
      -234803.0      -231673.0      -228675.0      -225533.0      -222550.0
      -219708.0      -216618.0      -213785.0      -210761.0      -207643.0
      -204579.0      -201573.0      -198690.0      -195569.0      -192511.0
      -189571.0      -186490.0      -183539.0      -180670.0      -177783.0
      -174985.0      -171930.0      -169281.0      -166108.0      -162924.0
      -160316.0      -156853.0      -154353.0      -151484.0      -148185.0
      -145736.0      -142422.0      -139610.0      -136661.0      -133313.0
      -130723.0      -127427.0      -124410.0      -121502.0      -117905.0
      -115202.0      -111799.0      -108368.0      -105904.0      -102311.0
      -99308.00      -96578.00      -93011.00      -90435.00      -87374.00
      -83797.00      -81073.00      -77489.00      -74237.00      -71466.00
      -67780.00      -64751.00      -61644.00      -58317.00      -55468.00
      -52148.00      -49141.00      -46021.00      -42533.00      -39505.00
      -36037.00      -32966.00      -29983.00      -26779.00      -24147.00
      -20938.00      -17938.00      -15001.00      -11687.00      -8560.000
      -5389.000      -2405.000       846.0000       3967.000       6973.000
       10084.00       13079.00       16275.00       19198.00       22278.00
       25415.00       28274.00       31640.00       34950.00       37981.00
       41267.00       44369.00       47451.00       50499.00       53653.00
       56829.00       59758.00       63028.00       65736.00       68713.00
       71798.00       74373.00       77774.00       80624.00       83570.00
       86908.00       89593.00       92571.00       95392.00       97946.00
       100653.0       103513.0       106426.0       109298.0       112275.0
       114936.0       117754.0       120604.0       122987.0       126006.0
       128647.0       131087.0       134061.0       136288.0       139086.0
       141919.0       144396.0       147495.0       149933.0       152605.0
       155491.0       157656.0       160459.0       163053.0       165051.0
       167882.0       170069.0       172436.0       175485.0       177547.0
       180360.0       183172.0       185543.0       188190.0       190631.0
       193057.0       195424.0       198182.0       200560.0       203230.0
       206051.0       208227.0       210867.0       213577.0       215971.0
       218658.0       221407.0       223768.0       226494.0       228754.0
       231104.0       233673.0       235912.0       238792.0       241074.0
       243654.0       245919.0       248019.0       250780.0       252635.0
       255403.0       257625.0       259600.0       262503.0       264182.0
       266911.0       269607.0       271236.0       273993.0       276089.0
       278132.0       281026.0       283014.0       285387.0       287995.0
       290082.0       292710.0       295143.0       297444.0       300115.0
       302660.0       305006.0       307817.0       310425.0       312580.0
       315293.0       317695.0       320097.0       322755.0       325241.0
       327715.0       330033.0       332511.0       334830.0       337244.0
