     0.02500000      -12345.00      -12345.00   1.986830e+09      -12345.00
   0.0005390000       1859.976      -620.0195      -12345.00      -12345.00
      -12345.00      -12345.00      -12345.00      -12345.00      -12345.00
      -12345.00      -12345.00      -12345.00      -12345.00      -12345.00
      -12345.00      -12345.00      -12345.00      -12345.00      -12345.00
      -12345.00      -12345.00      -12345.00      -12345.00      -12345.00
      -12345.00      -12.19010       96.83490       1.000000       4.800000
      -42.72450       173.0647      -12345.00       22.00000      -12345.00
      -12345.00      -12345.00      -12345.00      -12345.00      -12345.00
      -12345.00      -12345.00      -12345.00      -12345.00      -12345.00
       7976.784       270.1644       131.0914       71.74012      -12345.00
      -12345.00      -12345.00       105.9000       90.00000      -12345.00
      -12345.00      -12345.00      -12345.00      -12345.00      -12345.00
      -12345.00      -12345.00      -12345.00      -12345.00      -12345.00
      2016       318        11        13        19
        19         6    -12345    -12345     74400
    -12345    -12345    -12345    -12345    -12345
         1    -12345    -12345    -12345    -12345
    -12345    -12345    -12345    -12345    -12345
    -12345    -12345    -12345    -12345    -12345
    -12345    -12345    -12345    -12345    -12345
         1    -12345    -12345    -12345    -12345
COCO    South Island, Ne
10      -12345  -12345  
-12345  -12345  -12345  
-12345  -12345  -12345  
-12345  -12345  -12345  
-12345  -12345  -12345  
-12345  -12345  BH1     
II      -12345  Nanometr
[...]
       570432.0       567679.0       565456.0       562944.0       560700.0
       558444.0       555590.0       553526.0       551164.0       547937.0
       545639.0       543071.0       540376.0       538118.0       535290.0
       532954.0       530766.0       528193.0       525957.0       523525.0
       520952.0       518360.0       515437.0       512975.0       510577.0
       507770.0       505080.0       502093.0       499251.0       496468.0
       493258.0       490263.0       487233.0       484129.0       481189.0
       477642.0       473887.0       470775.0       467430.0       464159.0
       460937.0       457144.0       453801.0       450626.0       447580.0
       444305.0       440468.0       437152.0       434002.0       430829.0
       427327.0       423604.0       420169.0       416477.0       412908.0
       409452.0       405909.0       402164.0       398200.0       394342.0
       390203.0       386367.0       382504.0       378226.0       374155.0
       369944.0       365928.0       361754.0       357530.0       353708.0
       349540.0       345505.0       341262.0       336977.0       333399.0
       328954.0       324067.0       319924.0       315577.0       311197.0
       307227.0       302918.0       298197.0       294061.0       290357.0
       286143.0       281757.0       277676.0       273681.0       269339.0
       265016.0       260991.0       256525.0       251929.0       247629.0
       243570.0       239861.0       235679.0       231292.0       227463.0
       223343.0       219259.0       215559.0       211048.0       206823.0
       203272.0       199195.0       195278.0       191117.0       187276.0
       183884.0       179854.0       176198.0       172476.0       168515.0
       164842.0       161296.0       157526.0       153471.0       149640.0
       145739.0       142160.0       138457.0       134153.0       130189.0
       126571.0       122880.0       118747.0       114702.0       111131.0
       107086.0       102777.0       99053.00       95117.00       90896.00
       87091.00       83189.00       79123.00       75162.00       71160.00
       67407.00       63549.00       59396.00       55505.00       51321.00
       47337.00       43428.00       39127.00       35540.00       31656.00
       27515.00       23839.00       19734.00       15908.00       12077.00
       7946.000       4308.000       122.0000      -4217.000      -8012.000
      -12229.00      -16113.00      -19619.00      -23928.00      -28054.00
      -32109.00      -36412.00      -40180.00      -44243.00      -48355.00
      -52341.00      -56490.00      -60075.00      -63989.00      -68104.00
      -71496.00      -75514.00      -79343.00      -82729.00      -86963.00
      -90644.00      -94432.00      -98480.00      -102031.0      -106059.0
      -109696.0      -113411.0      -117272.0      -120576.0      -124351.0
      -128017.0      -131615.0      -135337.0      -139092.0      -143025.0
      -146348.0      -149891.0      -153646.0      -156698.0      -159980.0
      -163478.0      -166584.0      -169963.0      -173432.0      -176786.0
      -180025.0      -182843.0      -186115.0      -189557.0      -192489.0
      -195464.0      -198470.0      -201496.0      -204767.0      -207856.0
      -210775.0      -214035.0      -217266.0      -220353.0      -223473.0
      -226458.0      -229595.0      -232604.0      -235572.0      -238646.0
      -241348.0      -243949.0      -246567.0      -249505.0      -252407.0
      -254994.0      -257834.0      -260549.0      -263155.0      -265914.0
      -268626.0      -271361.0      -274212.0      -276971.0      -279656.0
      -282440.0      -284988.0      -287464.0      -290324.0      -293216.0
      -295949.0      -298603.0      -301516.0      -304336.0      -306570.0
      -309161.0      -311763.0      -314267.0      -316990.0      -319721.0
      -322558.0      -324849.0      -327276.0      -329791.0      -332059.0
      -334286.0      -336378.0      -338863.0      -341260.0      -343796.0
      -346094.0      -348013.0      -350310.0      -352458.0      -354605.0
      -356661.0      -358768.0      -361059.0      -363146.0      -365347.0
      -367355.0      -369333.0      -371648.0      -373460.0      -375263.0
      -377854.0      -380006.0      -381856.0      -384213.0      -386187.0
      -388380.0      -391004.0      -393129.0      -395391.0      -397667.0
      -399720.0      -401998.0      -404236.0      -406507.0      -408780.0
      -410896.0      -413043.0      -415173.0      -417393.0      -419560.0
      -421612.0      -423780.0      -425839.0      -427867.0      -430107.0
      -432133.0      -434187.0      -436488.0      -438439.0      -440591.0
      -442769.0      -444520.0      -446682.0      -449051.0      -450763.0
      -452516.0      -454913.0      -456969.0      -458932.0      -460800.0
      -462614.0      -464748.0      -466509.0      -468383.0      -470210.0
      -471752.0      -473601.0      -475648.0      -477208.0      -478871.0
      -480988.0      -482270.0      -484099.0      -486176.0      -487613.0
      -489807.0      -491426.0      -492849.0      -494726.0      -496039.0
      -497617.0      -499163.0      -500128.0      -501322.0      -502767.0
      -504103.0      -505421.0      -506674.0      -507968.0      -509194.0
      -510097.0      -511147.0      -512316.0      -513185.0      -514364.0
      -515734.0      -516489.0      -517537.0      -518589.0      -519206.0
      -520669.0      -521887.0      -522485.0      -523479.0      -524296.0
      -525138.0      -526116.0      -526962.0      -527955.0      -528644.0
      -529464.0      -530656.0      -531195.0      -531942.0      -532951.0
      -533513.0      -534284.0      -534890.0      -535549.0      -536195.0
      -536524.0      -537295.0      -537975.0      -538466.0      -539189.0
      -539868.0      -540387.0      -540981.0      -541768.0      -542344.0
      -542755.0      -543212.0      -543626.0      -544051.0      -544680.0
      -545358.0      -545735.0      -546023.0      -546513.0      -546991.0
      -547380.0      -547867.0      -548193.0      -548463.0      -548750.0
      -549084.0      -549733.0      -549794.0      -549689.0      -550366.0
      -551039.0      -551303.0      -551553.0      -552032.0      -552233.0
      -552499.0      -553069.0      -553193.0      -553477.0      -554021.0
      -554205.0      -554407.0      -554757.0      -555191.0      -555440.0
      -555703.0      -556408.0      -556535.0      -556587.0      -556990.0
      -557061.0      -557267.0      -557098.0      -557198.0      -557569.0
      -557351.0      -557444.0      -557450.0      -557437.0      -557327.0
      -557052.0      -557483.0      -557329.0      -557001.0      -557332.0
      -556919.0      -556537.0      -556270.0      -555786.0      -555569.0
      -554888.0      -554423.0      -553856.0      -553112.0      -552746.0
      -552008.0      -551347.0      -550361.0      -549588.0      -549283.0
      -548366.0      -547633.0      -546961.0      -546015.0      -545066.0
      -544143.0      -543007.0      -541662.0      -540692.0      -539618.0
      -538395.0      -537572.0      -536651.0      -535385.0      -534172.0
      -532993.0      -531689.0      -530359.0      -529215.0      -527886.0
      -526349.0      -524772.0      -522984.0      -521686.0      -520446.0
      -518627.0      -516893.0      -515099.0      -513112.0      -511436.0
      -509651.0      -507402.0      -505249.0      -503338.0      -501532.0
      -499404.0      -497030.0      -494886.0      -492895.0      -490859.0
      -488590.0      -486364.0      -484174.0      -482046.0      -479821.0
      -477465.0      -475182.0      -472732.0      -470424.0      -468097.0
      -465639.0      -463289.0      -460769.0      -458187.0      -455890.0
      -453230.0      -450147.0      -447600.0      -445037.0      -442293.0
      -439740.0      -436598.0      -433700.0      -431283.0      -428270.0
      -425406.0      -422526.0      -419654.0      -417100.0      -414220.0
      -411396.0      -408409.0      -405592.0      -403119.0      -400256.0
      -397320.0      -394180.0      -391027.0      -387937.0      -384764.0
      -381770.0      -378420.0      -375246.0      -372402.0      -369260.0
      -365993.0      -362609.0      -359396.0      -355939.0      -352556.0
      -349537.0      -345904.0      -342445.0      -339130.0      -335354.0
      -332060.0      -329144.0      -325758.0      -322169.0      -318690.0
      -315131.0      -311800.0      -308429.0      -304936.0      -301504.0
      -297755.0      -293981.0      -290308.0      -286704.0      -283183.0
      -279307.0      -275529.0      -272033.0      -268372.0      -264813.0
      -261195.0      -257671.0      -254075.0      -250471.0      -247047.0
      -243268.0      -239765.0      -236113.0      -232353.0      -228645.0
      -225089.0      -222004.0      -217922.0      -214355.0      -211098.0
      -206953.0      -203737.0      -200125.0      -196204.0      -192786.0
      -188925.0      -185104.0      -181210.0      -177392.0      -173527.0
      -169419.0      -165871.0      -162106.0      -157915.0      -154227.0
      -150293.0      -146007.0      -142175.0      -138407.0      -134331.0
      -130296.0      -126103.0      -122047.0      -118259.0      -113818.0
      -109602.0      -105485.0      -100866.0      -96699.00      -92523.00
      -88216.00      -83958.00      -79584.00      -75487.00      -71216.00
      -66560.00      -62163.00      -57674.00      -53186.00      -48968.00
      -44417.00      -39806.00      -35310.00      -30839.00      -26628.00
      -22302.00      -17797.00      -13371.00      -8849.000      -4504.000
      -141.0000       4684.000       9372.000       13734.00       18205.00
       22704.00       27347.00       32024.00       36463.00       41329.00
       46455.00       51297.00       55834.00       60325.00       65205.00
       70133.00       74842.00       79486.00       84099.00       88854.00
       93610.00       98178.00       102816.0       107406.0       112244.0
       117080.0       121591.0       126517.0       131357.0       136351.0
       141372.0       145837.0       150833.0       155804.0       160361.0
       165172.0       169861.0       174386.0       178976.0       183464.0
       188029.0       192615.0       197122.0       201697.0       206046.0
       210454.0       214864.0       219090.0       223618.0       228234.0
       232706.0       237037.0       241481.0       246144.0       250535.0
       255016.0       259392.0       263461.0       268160.0       272385.0
       276222.0       280965.0       285240.0       289412.0       294105.0
       298320.0       302593.0       306946.0       311045.0       315555.0
       320231.0       324308.0       328716.0       333189.0       337182.0
       341724.0       345914.0       350056.0       354525.0       358550.0
       362571.0       366757.0       371088.0       374951.0       378977.0
       383406.0       387108.0       391117.0       395537.0       399301.0
       403340.0       407601.0       411153.0       414746.0       418828.0
       422531.0       426419.0       431085.0       435021.0       438877.0
       442797.0       446019.0       449821.0       453668.0       457158.0
       461004.0       465098.0       468908.0       472558.0       476459.0
       480388.0       484217.0       488037.0       491982.0       495590.0
       499300.0       503085.0       506605.0       510376.0       513681.0
       517307.0       521150.0       524443.0       528191.0       531691.0
       535060.0       538400.0       541476.0       544691.0       548102.0
       551679.0       554896.0       558513.0       561839.0       564858.0
       568394.0       571376.0       574594.0       577561.0       580307.0
       583481.0       586074.0       589086.0       591817.0       594217.0
       597194.0       599477.0       601994.0       604714.0       606825.0
       609118.0       611670.0       614092.0       616163.0       618522.0
       620853.0       622879.0       625037.0       626788.0       628504.0
       630800.0       632830.0       634334.0       636107.0       638072.0
       639907.0       641829.0       643341.0       644577.0       646202.0
       647538.0       648696.0       649807.0       650717.0       651805.0
       652908.0       654037.0       655065.0       655752.0       656168.0
       657104.0       658005.0       658311.0       659041.0       659427.0
       659804.0       660602.0       660765.0       660958.0       661164.0
       661347.0       661701.0       661795.0       662021.0       661968.0
       661903.0       662296.0       662316.0       662355.0       662561.0
       662853.0       663158.0       662937.0       662716.0       662701.0
       662747.0       662653.0       662369.0       662071.0       661825.0
       661787.0       661600.0       661354.0       661103.0       660667.0
       660274.0       659858.0       659566.0       659452.0       659151.0
       658446.0       657766.0       657449.0       656908.0       656415.0
       655969.0       655228.0       654563.0       654021.0       653693.0
       652714.0       651693.0       651093.0       649898.0       648789.0
       647717.0       646652.0       645630.0       644267.0       643043.0
       641797.0       640459.0       639084.0       637617.0       636300.0
       634959.0       633594.0       632237.0       630526.0       628680.0
       627205.0       625446.0       623390.0       621666.0       619730.0
       617842.0       616247.0       614379.0       612170.0       609961.0
       608056.0       606208.0       604110.0       602144.0       600305.0
       598058.0       596052.0       594205.0       591728.0       589380.0
       587320.0       585084.0       582756.0       580275.0       577771.0
       575441.0       572996.0       570259.0       567832.0       565562.0
       563067.0       560792.0       558249.0       555580.0       553381.0
       550888.0       548232.0       545658.0       542861.0       540329.0
       537887.0       535012.0       532247.0       529664.0       526737.0
       524052.0       521507.0       518474.0       515595.0       512750.0
       509880.0       507066.0       504314.0       501704.0       498709.0
       495887.0       492839.0       489653.0       486558.0       483131.0
       480210.0       477136.0       473868.0       470664.0       467550.0
       464459.0       461081.0       457895.0       454634.0       451585.0
       448355.0       445132.0       442079.0       438760.0       435800.0
       432501.0       429191.0       426146.0       423028.0       419668.0
       416103.0       413375.0       410218.0       406836.0       404062.0
       400716.0       397817.0       395037.0       391688.0       388766.0
       385511.0       382161.0       379441.0       376289.0       373202.0
       370265.0       366898.0       364207.0       361354.0       357940.0
       354912.0       351845.0       348912.0       345951.0       342676.0
       339654.0       336622.0       333302.0       330170.0       327121.0
       323839.0       320524.0       317452.0       314546.0       311221.0
       307898.0       304795.0       301255.0       298052.0       294939.0
       291586.0       288419.0       284880.0       281456.0       278032.0
       274689.0       271342.0       267553.0       264337.0       260850.0
       257170.0       254206.0       251069.0       247699.0       244145.0
       240613.0       237524.0       234220.0       230420.0       226965.0
       223432.0       219682.0       216552.0       212833.0       208920.0
       205413.0       201388.0       197967.0       194565.0       190375.0
       186432.0       182813.0       179307.0       175468.0       171656.0
       167952.0       164095.0       160303.0       156397.0       152634.0
       148920.0       145279.0       141347.0       137394.0       133923.0
       129942.0       126148.0       122600.0       118496.0       114814.0
       111281.0       107448.0       103976.0       100353.0       96431.00
       92905.00       89494.00       85773.00       82085.00       78420.00
       74483.00       70943.00       67628.00       63895.00       60112.00
       56421.00       52772.00       49106.00       45445.00       41769.00
       38036.00       34291.00       30722.00       27069.00       23225.00
       19498.00       15706.00       11996.00       8092.000       4338.000
       729.0000      -3214.000      -6960.000      -10842.00      -14650.00
      -18393.00      -22370.00      -26154.00      -30040.00      -33930.00
      -37417.00      -41299.00      -45356.00      -48951.00      -52936.00
      -56741.00      -60515.00      -64549.00      -68276.00      -72023.00
      -75480.00      -79096.00      -82708.00      -86342.00      -90217.00
      -93638.00      -97328.00      -101004.0      -104363.0      -107905.0
      -111477.0      -115057.0      -118505.0      -122049.0      -125638.0
      -129297.0      -132702.0      -135935.0      -139794.0      -143041.0
      -146416.0      -150388.0      -153410.0      -157222.0      -160966.0
      -164012.0      -168217.0      -171950.0      -175314.0      -178986.0
      -182435.0      -186064.0      -189806.0      -193285.0      -196469.0
      -200099.0      -203422.0      -206554.0      -210240.0      -213429.0
      -216673.0      -220027.0      -223260.0      -226594.0      -230038.0
      -233560.0      -236339.0      -239683.0      -243249.0      -246054.0
      -249512.0      -252962.0      -256052.0      -259224.0      -262351.0
      -265580.0      -268968.0      -272190.0      -275312.0      -278899.0
      -282132.0      -285321.0      -288883.0      -292168.0      -295447.0
      -298643.0      -301959.0      -305224.0      -308645.0      -311949.0
      -314704.0      -318150.0      -321531.0      -324531.0      -327859.0
      -330835.0      -333689.0      -336937.0      -339906.0      -342476.0
      -345548.0      -348168.0      -350573.0      -353760.0      -355947.0
      -358054.0      -361010.0      -363364.0      -365716.0      -368303.0
      -370622.0      -373163.0      -375764.0      -378016.0      -380505.0
