     0.02500000      -12345.00      -12345.00   2.022300e+09      -12345.00
   0.0005380000       1859.976      -643.0195      -12345.00      -12345.00
      -12345.00      -12345.00      -12345.00      -12345.00      -12345.00
      -12345.00      -12345.00      -12345.00      -12345.00      -12345.00
      -12345.00      -12345.00      -12345.00      -12345.00      -12345.00
      -12345.00      -12345.00      -12345.00      -12345.00      -12345.00
      -12345.00      -51.67530      -58.06370       110.0000       3.200000
      -42.72450       173.0647      -12345.00       22.00000      -12345.00
      -12345.00      -12345.00      -12345.00      -12345.00      -12345.00
      -12345.00      -12345.00      -12345.00      -12345.00      -12345.00
       8456.483       150.0322       216.2375       76.05435      -12345.00
      -12345.00      -12345.00       336.4000       90.00000      -12345.00
      -12345.00      -12345.00      -12345.00      -12345.00      -12345.00
      -12345.00      -12345.00      -12345.00      -12345.00      -12345.00
      2016       318        11        13        42
        19         6    -12345    -12345     74400
    -12345    -12345    -12345    -12345    -12345
         1    -12345    -12345    -12345    -12345
    -12345    -12345    -12345    -12345    -12345
    -12345    -12345    -12345    -12345    -12345
    -12345    -12345    -12345    -12345    -12345
         1    -12345    -12345    -12345    -12345
EFI     South Island, Ne
10      -12345  -12345  
-12345  -12345  -12345  
-12345  -12345  -12345  
-12345  -12345  -12345  
-12345  -12345  -12345  
-12345  -12345  BH1     
II      -12345  Nanometr
[...]
      -218018.0      -217748.0      -217551.0      -217337.0      -217055.0
      -216905.0      -216679.0      -216415.0      -216180.0      -215954.0
      -215734.0      -215490.0      -215262.0      -215001.0      -214744.0
      -214482.0      -214227.0      -214008.0      -213768.0      -213510.0
      -213205.0      -213010.0      -212782.0      -212468.0      -212279.0
      -211994.0      -211756.0      -211509.0      -211227.0      -211056.0
      -210727.0      -210472.0      -210246.0      -209963.0      -209823.0
      -209510.0      -209159.0      -208903.0      -208650.0      -208447.0
      -208078.0      -207713.0      -207416.0      -207072.0      -206758.0
      -206401.0      -205997.0      -205598.0      -205222.0      -204875.0
      -204513.0      -204118.0      -203746.0      -203372.0      -203034.0
      -202662.0      -202263.0      -201950.0      -201559.0      -201160.0
      -200806.0      -200435.0      -200086.0      -199671.0      -199342.0
      -198996.0      -198576.0      -198288.0      -197883.0      -197521.0
      -197169.0      -196739.0      -196463.0      -196020.0      -195613.0
      -195233.0      -194771.0      -194460.0      -194004.0      -193578.0
      -193181.0      -192765.0      -192413.0      -191903.0      -191471.0
      -191028.0      -190544.0      -190149.0      -189654.0      -189170.0
      -188710.0      -188223.0      -187751.0      -187267.0      -186772.0
      -186270.0      -185751.0      -185239.0      -184781.0      -184302.0
      -183762.0      -183159.0      -182601.0      -182139.0      -181548.0
      -180935.0      -180347.0      -179722.0      -179136.0      -178551.0
      -177950.0      -177298.0      -176659.0      -176013.0      -175378.0
      -174732.0      -174088.0      -173457.0      -172754.0      -172128.0
      -171423.0      -170752.0      -170119.0      -169370.0      -168771.0
      -168094.0      -167355.0      -166664.0      -165960.0      -165370.0
      -164702.0      -163980.0      -163273.0      -162603.0      -161996.0
      -161326.0      -160674.0      -159952.0      -159280.0      -158666.0
      -158003.0      -157389.0      -156644.0      -155942.0      -155305.0
      -154615.0      -153964.0      -153243.0      -152515.0      -151805.0
      -151122.0      -150442.0      -149738.0      -149028.0      -148294.0
      -147631.0      -146942.0      -146234.0      -145527.0      -144752.0
      -144056.0      -143377.0      -142665.0      -141950.0      -141200.0
      -140526.0      -139816.0      -139094.0      -138423.0      -137649.0
      -136894.0      -136182.0      -135436.0      -134661.0      -133889.0
      -133076.0      -132244.0      -131542.0      -130727.0      -129880.0
      -129135.0      -128271.0      -127477.0      -126696.0      -125912.0
      -125107.0      -124226.0      -123477.0      -122629.0      -121847.0
      -121085.0      -120195.0      -119449.0      -118668.0      -117908.0
      -117154.0      -116377.0      -115587.0      -114833.0      -114136.0
      -113334.0      -112568.0      -111786.0      -111053.0      -110286.0
      -109497.0      -108752.0      -107920.0      -107206.0      -106455.0
      -105670.0      -104913.0      -104094.0      -103324.0      -102531.0
      -101705.0      -100935.0      -100120.0      -99265.00      -98459.00
      -97640.00      -96873.00      -96038.00      -95162.00      -94327.00
      -93547.00      -92794.00      -91897.00      -91093.00      -90298.00
      -89428.00      -88619.00      -87819.00      -87036.00      -86172.00
      -85331.00      -84534.00      -83752.00      -83020.00      -82155.00
      -81310.00      -80613.00      -79877.00      -79117.00      -78305.00
      -77485.00      -76730.00      -75941.00      -75212.00      -74436.00
      -73616.00      -72879.00      -72143.00      -71472.00      -70747.00
      -69993.00      -69252.00      -68572.00      -67905.00      -67200.00
      -66549.00      -65755.00      -65108.00      -64485.00      -63824.00
      -63179.00      -62343.00      -61773.00      -61105.00      -60401.00
      -59828.00      -59051.00      -58469.00      -57810.00      -57113.00
      -56549.00      -55823.00      -55128.00      -54426.00      -53727.00
      -53101.00      -52390.00      -51651.00      -50925.00      -50220.00
      -49516.00      -48783.00      -48107.00      -47366.00      -46587.00
      -45936.00      -45257.00      -44529.00      -43817.00      -43124.00
      -42479.00      -41805.00      -41072.00      -40403.00      -39787.00
      -39077.00      -38378.00      -37771.00      -37181.00      -36504.00
      -35798.00      -35155.00      -34502.00      -33867.00      -33180.00
      -32464.00      -31785.00      -31098.00      -30447.00      -29718.00
      -28999.00      -28326.00      -27562.00      -26854.00      -26125.00
      -25358.00      -24627.00      -23858.00      -23096.00      -22307.00
      -21560.00      -20784.00      -19975.00      -19168.00      -18346.00
      -17620.00      -16753.00      -15879.00      -15071.00      -14245.00
      -13475.00      -12516.00      -11671.00      -10851.00      -9948.000
      -9146.000      -8177.000      -7378.000      -6519.000      -5526.000
      -4727.000      -3790.000      -2914.000      -2061.000      -1118.000
      -261.0000       654.0000       1530.000       2364.000       3291.000
       4138.000       4938.000       5812.000       6685.000       7538.000
       8325.000       9143.000       9974.000       10761.00       11575.00
       12336.00       13146.00       13934.00       14694.00       15527.00
       16278.00       17077.00       17906.00       18612.00       19381.00
       20184.00       20975.00       21746.00       22468.00       23238.00
       23972.00       24793.00       25541.00       26254.00       27054.00
       27754.00       28542.00       29228.00       29940.00       30675.00
       31328.00       32107.00       32757.00       33498.00       34252.00
       34887.00       35622.00       36293.00       37118.00       37901.00
       38470.00       39268.00       40067.00       40845.00       41691.00
       42441.00       43255.00       44084.00       44984.00       45854.00
       46588.00       47445.00       48303.00       49093.00       49954.00
       50821.00       51635.00       52386.00       53248.00       54159.00
       54955.00       55840.00       56577.00       57299.00       58233.00
       59085.00       59921.00       60615.00       61394.00       62362.00
       63209.00       64070.00       64890.00       65762.00       66610.00
       67476.00       68560.00       69404.00       70184.00       71141.00
       72118.00       73126.00       73958.00       74821.00       75753.00
       76611.00       77621.00       78514.00       79303.00       80221.00
       81058.00       82010.00       83042.00       83793.00       84606.00
       85486.00       86346.00       87298.00       88034.00       88861.00
       89740.00       90481.00       91392.00       92202.00       92976.00
       93790.00       94520.00       95382.00       96171.00       96929.00
       97725.00       98424.00       99269.00       100081.0       100819.0
       101619.0       102382.0       103199.0       104035.0       104841.0
       105631.0       106437.0       107267.0       108104.0       108978.0
       109796.0       110615.0       111422.0       112197.0       113066.0
       113886.0       114706.0       115539.0       116229.0       117070.0
       118001.0       118737.0       119520.0       120285.0       121043.0
       121921.0       122737.0       123538.0       124328.0       125079.0
       125931.0       126800.0       127557.0       128375.0       129184.0
       129941.0       130807.0       131598.0       132386.0       133179.0
       133900.0       134704.0       135437.0       136200.0       136983.0
       137618.0       138342.0       139136.0       139825.0       140479.0
       141207.0       141902.0       142517.0       143210.0       143908.0
       144552.0       145242.0       145886.0       146580.0       147256.0
       147861.0       148537.0       149218.0       149860.0       150442.0
       151114.0       151735.0       152315.0       152957.0       153510.0
       154161.0       154765.0       155317.0       155965.0       156547.0
       157121.0       157715.0       158331.0       158890.0       159423.0
       160016.0       160607.0       161205.0       161760.0       162358.0
       162952.0       163540.0       164177.0       164723.0       165317.0
       165906.0       166468.0       167123.0       167687.0       168236.0
       168845.0       169419.0       170000.0       170605.0       171174.0
       171737.0       172353.0       172929.0       173548.0       174113.0
       174715.0       175392.0       175926.0       176645.0       177239.0
       177763.0       178547.0       179129.0       179766.0       180386.0
       180946.0       181711.0       182276.0       182890.0       183564.0
       184117.0       184756.0       185326.0       185895.0       186434.0
       187043.0       187644.0       188096.0       188699.0       189248.0
       189763.0       190408.0       190923.0       191404.0       192016.0
       192598.0       193102.0       193623.0       194174.0       194734.0
       195253.0       195767.0       196345.0       196873.0       197377.0
       197928.0       198468.0       199053.0       199579.0       200105.0
       200695.0       201256.0       201864.0       202435.0       203008.0
       203616.0       204190.0       204875.0       205544.0       206097.0
       206705.0       207311.0       207891.0       208552.0       209235.0
       209808.0       210404.0       211044.0       211774.0       212486.0
       213081.0       213750.0       214363.0       215200.0       215931.0
       216481.0       217186.0       217764.0       218549.0       219373.0
       220121.0       220793.0       221310.0       222146.0       223018.0
       223714.0       224396.0       225035.0       225817.0       226413.0
       227141.0       228040.0       228434.0       229115.0       229874.0
       230457.0       231333.0       231940.0       232593.0       233335.0
       233950.0       234799.0       235518.0       236077.0       236817.0
       237598.0       238345.0       239074.0       239711.0       240393.0
       241147.0       241843.0       242567.0       243255.0       243837.0
       244520.0       245289.0       245996.0       246578.0       247203.0
       247900.0       248493.0       249179.0       249886.0       250531.0
       251171.0       251819.0       252547.0       253315.0       254031.0
       254578.0       255346.0       256069.0       256714.0       257465.0
       257980.0       258739.0       259397.0       259934.0       260672.0
       261271.0       261845.0       262424.0       263044.0       263683.0
       264256.0       264740.0       265286.0       265854.0       266393.0
       266934.0       267453.0       267985.0       268406.0       268976.0
       269593.0       270024.0       270485.0       271003.0       271597.0
       272164.0       272580.0       273142.0       273699.0       274210.0
       274863.0       275286.0       275799.0       276346.0       276810.0
       277459.0       277925.0       278404.0       278976.0       279424.0
       279952.0       280494.0       280955.0       281446.0       281878.0
       282388.0       282930.0       283363.0       283800.0       284214.0
       284737.0       285256.0       285687.0       286086.0       286489.0
       287010.0       287429.0       287848.0       288376.0       288763.0
       289237.0       289662.0       290012.0       290670.0       291075.0
       291493.0       292086.0       292440.0       293027.0       293589.0
       294013.0       294478.0       294916.0       295523.0       296026.0
       296513.0       297066.0       297461.0       298004.0       298525.0
       299052.0       299510.0       299878.0       300540.0       300932.0
       301324.0       301806.0       302165.0       302629.0       302947.0
       303389.0       303686.0       303954.0       304386.0       304592.0
       304875.0       305116.0       305434.0       305721.0       305786.0
       306057.0       306231.0       306384.0       306554.0       306611.0
       306847.0       306870.0       306973.0       307124.0       307036.0
       307260.0       307326.0       307334.0       307459.0       307439.0
       307557.0       307653.0       307695.0       307780.0       307894.0
       307912.0       307896.0       308010.0       308066.0       308115.0
       308127.0       308111.0       308257.0       308317.0       308265.0
       308301.0       308350.0       308330.0       308350.0       308364.0
       308349.0       308352.0       308271.0       308287.0       308280.0
       308304.0       308307.0       308158.0       308157.0       308293.0
       308295.0       308089.0       308121.0       308129.0       308042.0
       308075.0       307987.0       307902.0       307770.0       307692.0
       307663.0       307557.0       307426.0       307271.0       307142.0
       307024.0       306891.0       306749.0       306554.0       306312.0
       306108.0       305919.0       305743.0       305504.0       305155.0
       304864.0       304725.0       304446.0       304101.0       303852.0
       303548.0       303342.0       303020.0       302645.0       302468.0
       302143.0       301820.0       301561.0       301189.0       300968.0
       300709.0       300336.0       300017.0       299731.0       299531.0
       299133.0       298689.0       298463.0       298106.0       297667.0
       297340.0       297021.0       296595.0       296108.0       295787.0
       295438.0       294977.0       294621.0       294191.0       293757.0
       293391.0       292955.0       292581.0       292147.0       291630.0
       291288.0       290883.0       290452.0       290043.0       289525.0
       289217.0       288815.0       288356.0       287952.0       287499.0
       287157.0       286644.0       286321.0       286010.0       285516.0
       285113.0       284579.0       284338.0       283985.0       283443.0
       283027.0       282517.0       282304.0       281844.0       281327.0
       281034.0       280512.0       280058.0       279660.0       279294.0
       278871.0       278426.0       277988.0       277526.0       277130.0
       276690.0       276272.0       275814.0       275325.0       274903.0
       274435.0       274029.0       273581.0       273020.0       272706.0
       272360.0       271848.0       271357.0       270888.0       270609.0
       270121.0       269588.0       269211.0       268691.0       268359.0
       267843.0       267307.0       266994.0       266483.0       266094.0
       265596.0       265212.0       264981.0       264390.0       263953.0
       263646.0       263238.0       262803.0       262384.0       261999.0
       261558.0       261177.0       260772.0       260393.0       260014.0
       259572.0       259205.0       258804.0       258424.0       257993.0
       257623.0       257223.0       256679.0       256433.0       256022.0
       255505.0       255154.0       254669.0       254306.0       253892.0
       253446.0       252959.0       252488.0       252139.0       251558.0
       251179.0       250798.0       250182.0       249793.0       249353.0
       248915.0       248560.0       248002.0       247541.0       247183.0
       246684.0       246282.0       245893.0       245388.0       244884.0
       244454.0       244118.0       243610.0       243122.0       242705.0
       242226.0       241901.0       241313.0       240799.0       240527.0
       240012.0       239619.0       239147.0       238722.0       238396.0
       237888.0       237603.0       237244.0       236849.0       236470.0
       236191.0       236007.0       235506.0       235328.0       235023.0
       234651.0       234465.0       234013.0       233853.0       233469.0
       233130.0       232911.0       232471.0       232312.0       231949.0
       231655.0       231369.0       230963.0       230718.0       230420.0
       230173.0       229723.0       229397.0       229135.0       228777.0
       228473.0       228077.0       227830.0       227516.0       227203.0
       226794.0       226347.0       226119.0       225777.0       225422.0
       225084.0       224614.0       224275.0       223980.0       223550.0
       223225.0       222772.0       222336.0       222031.0       221603.0
       221282.0       220852.0       220473.0       220187.0       219635.0
       219364.0       219161.0       218668.0       218219.0       217855.0
       217664.0       217270.0       216684.0       216352.0       216047.0
       215662.0       215236.0       214829.0       214385.0       213976.0
       213695.0       213223.0       212733.0       212368.0       211886.0
       211420.0       211006.0       210548.0       210177.0       209724.0
       209178.0       208805.0       208464.0       208056.0       207677.0
       207188.0       206720.0       206488.0       205993.0       205475.0
       205150.0       204729.0       204425.0       203924.0       203445.0
       203185.0       202753.0       202320.0       201864.0       201503.0
       201188.0       200693.0       200263.0       199859.0       199482.0
       199018.0       198605.0       198331.0       197780.0       197361.0
       197012.0       196560.0       196158.0       195634.0       195246.0
       194885.0       194460.0       194017.0       193590.0       193209.0
       192744.0       192368.0       192045.0       191654.0       191137.0
       190697.0       190402.0       189938.0       189512.0       189156.0
       188681.0       188286.0       187900.0       187456.0       187127.0
       186708.0       186224.0       185913.0       185456.0       185018.0
       184711.0       184181.0       183766.0       183457.0       182995.0
       182593.0       182158.0       181695.0       181339.0       180892.0
       180441.0       179993.0       179520.0       179178.0       178703.0
       178244.0       177784.0       177317.0       176987.0       176468.0
