     0.05000000      -12345.00      -12345.00   3.854600e+09      -12345.00
   0.0005360000       1859.951      -643.0195      -12345.00      -12345.00
      -12345.00      -12345.00      -12345.00      -12345.00      -12345.00
      -12345.00      -12345.00      -12345.00      -12345.00      -12345.00
      -12345.00      -12345.00      -12345.00      -12345.00      -12345.00
      -12345.00      -12345.00      -12345.00      -12345.00      -12345.00
      -12345.00      -51.67530      -58.06370       110.0000       80.00000
      -42.72450       173.0647      -12345.00       22.00000      -12345.00
      -12345.00      -12345.00      -12345.00      -12345.00      -12345.00
      -12345.00      -12345.00      -12345.00      -12345.00      -12345.00
       8456.483       150.0322       216.2375       76.05435      -12345.00
      -12345.00      -12345.00       358.0000       90.00000      -12345.00
      -12345.00      -12345.00      -12345.00      -12345.00      -12345.00
      -12345.00      -12345.00      -12345.00      -12345.00      -12345.00
      2016       318        11        13        42
        19         6    -12345    -12345     37200
    -12345    -12345    -12345    -12345    -12345
         1    -12345    -12345    -12345    -12345
    -12345    -12345    -12345    -12345    -12345
    -12345    -12345    -12345    -12345    -12345
    -12345    -12345    -12345    -12345    -12345
         1    -12345    -12345    -12345    -12345
EFI     South Island, Ne
00      -12345  -12345  
-12345  -12345  -12345  
-12345  -12345  -12345  
-12345  -12345  -12345  
-12345  -12345  -12345  
-12345  -12345  BH1     
II      -12345  Geotech 
[...]
      -381844.0      -384823.0      -387788.0      -390736.0      -393672.0
      -396616.0      -399555.0      -402473.0      -405341.0      -408143.0
      -410907.0      -413652.0      -416391.0      -419130.0      -421855.0
      -424558.0      -427212.0      -429820.0      -432403.0      -434953.0
      -437468.0      -439935.0      -442339.0      -444669.0      -446927.0
      -449140.0      -451334.0      -453531.0      -455763.0      -458047.0
      -460365.0      -462713.0      -465088.0      -467474.0      -469881.0
      -472295.0      -474692.0      -477085.0      -479476.0      -481875.0
      -484301.0      -486756.0      -489255.0      -491815.0      -494410.0
      -497022.0      -499641.0      -502266.0      -504927.0      -507617.0
      -510324.0      -513049.0      -515780.0      -518507.0      -521255.0
      -524032.0      -526834.0      -529670.0      -532503.0      -535309.0
      -538078.0      -540795.0      -543461.0      -546083.0      -548664.0
      -551223.0      -553772.0      -556297.0      -558813.0      -561322.0
      -563810.0      -566281.0      -568721.0      -571137.0      -573531.0
      -575892.0      -578220.0      -580523.0      -582809.0      -585077.0
      -587346.0      -589609.0      -591858.0      -594097.0      -596319.0
      -598524.0      -600701.0      -602836.0      -604913.0      -606924.0
      -608877.0      -610783.0      -612644.0      -614462.0      -616247.0
      -617991.0      -619691.0      -621343.0      -622934.0      -624468.0
      -625930.0      -627325.0      -628629.0      -629827.0      -630939.0
      -631961.0      -632909.0      -633802.0      -634636.0      -635387.0
      -636049.0      -636623.0      -637090.0      -637460.0      -637749.0
      -637956.0      -638082.0      -638122.0      -638076.0      -637943.0
      -637740.0      -637486.0      -637195.0      -636888.0      -636553.0
      -636182.0      -635757.0      -635273.0      -634736.0      -634139.0
      -633498.0      -632832.0      -632153.0      -631468.0      -630789.0
      -630116.0      -629419.0      -628688.0      -627921.0      -627114.0
      -626250.0      -625315.0      -624306.0      -623216.0      -622049.0
      -620811.0      -619524.0      -618198.0      -616821.0      -615408.0
      -613958.0      -612475.0      -610960.0      -609399.0      -607791.0
      -606120.0      -604367.0      -602537.0      -600639.0      -598662.0
      -596587.0      -594408.0      -592112.0      -589687.0      -587128.0
      -584441.0      -581627.0      -578681.0      -575606.0      -572376.0
      -568990.0      -565468.0      -561835.0      -558123.0      -554334.0
      -550462.0      -546512.0      -542501.0      -538440.0      -534338.0
      -530211.0      -526068.0      -521920.0      -517771.0      -513610.0
      -509437.0      -505276.0      -501135.0      -496991.0      -492824.0
      -488622.0      -484382.0      -480112.0      -475815.0      -471523.0
      -467258.0      -463018.0      -458817.0      -454658.0      -450534.0
      -446449.0      -442389.0      -438326.0      -434253.0      -430170.0
      -426083.0      -421983.0      -417833.0      -413633.0      -409390.0
      -405088.0      -400734.0      -396356.0      -391957.0      -387567.0
      -383205.0      -378862.0      -374569.0      -370336.0      -366158.0
      -362028.0      -357931.0      -353868.0      -349845.0      -345885.0
      -341978.0      -338105.0      -334257.0      -330406.0      -326544.0
      -322668.0      -318777.0      -314863.0      -310930.0      -306997.0
      -303042.0      -299076.0      -295109.0      -291123.0      -287138.0
      -283160.0      -279177.0      -275200.0      -271238.0      -267287.0
      -263342.0      -259406.0      -255448.0      -251448.0      -247436.0
      -243430.0      -239445.0      -235488.0      -231550.0      -227619.0
      -223684.0      -219751.0      -215803.0      -211821.0      -207809.0
      -203738.0      -199610.0      -195439.0      -191221.0      -186973.0
      -182722.0      -178481.0      -174246.0      -170019.0      -165802.0
      -161609.0      -157444.0      -153294.0      -149174.0      -145091.0
      -141030.0      -136986.0      -132969.0      -128972.0      -124960.0
      -120933.0      -116898.0      -112838.0      -108744.0      -104628.0
      -100507.0      -96393.00      -92276.00      -88153.00      -84031.00
      -79899.00      -75746.00      -71562.00      -67345.00      -63119.00
      -58927.00      -54798.00      -50714.00      -46686.00      -42705.00
      -38744.00      -34802.00      -30870.00      -26949.00      -23035.00
      -19129.00      -15238.00      -11355.00      -7496.000      -3684.000
       89.00000       3810.000       7473.000       11096.00       14682.00
       18224.00       21715.00       25167.00       28603.00       32038.00
       35468.00       38894.00       42319.00       45749.00       49203.00
       52675.00       56142.00       59585.00       62976.00       66319.00
       69638.00       72923.00       76160.00       79339.00       82464.00
       85529.00       88534.00       91482.00       94361.00       97185.00
       99957.00       102673.0       105339.0       107950.0       110505.0
       113001.0       115426.0       117773.0       120044.0       122230.0
       124363.0       126462.0       128520.0       130547.0       132540.0
       134507.0       136453.0       138351.0       140178.0       141905.0
       143516.0       145023.0       146454.0       147791.0       149019.0
       150162.0       151234.0       152238.0       153183.0       154079.0
       154910.0       155667.0       156353.0       156942.0       157431.0
       157858.0       158246.0       158598.0       158911.0       159175.0
       159367.0       159494.0       159565.0       159575.0       159534.0
       159443.0       159325.0       159209.0       159084.0       158951.0
       158795.0       158589.0       158332.0       158020.0       157649.0
       157211.0       156702.0       156092.0       155352.0       154482.0
       153490.0       152397.0       151197.0       149868.0       148408.0
       146827.0       145142.0       143338.0       141405.0       139359.0
       137199.0       134928.0       132553.0       130067.0       127460.0
       124741.0       121914.0       118977.0       115927.0       112758.0
       109500.0       106165.0       102733.0       99206.00       95567.00
       91820.00       87988.00       84076.00       80115.00       76115.00
       72077.00       68010.00       63930.00       59849.00       55760.00
       51672.00       47575.00       43455.00       39318.00       35163.00
       30989.00       26794.00       22578.00       18333.00       14051.00
       9728.000       5358.000       925.0000      -3599.000      -8229.000
      -12976.00      -17848.00      -22828.00      -27891.00      -33017.00
      -38190.00      -43437.00      -48781.00      -54228.00      -59794.00
      -65463.00      -71210.00      -77018.00      -82885.00      -88822.00
      -94818.00      -100883.0      -107040.0      -113262.0      -119540.0
      -125852.0      -132172.0      -138529.0      -144914.0      -151315.0
      -157734.0      -164145.0      -170551.0      -176959.0      -183384.0
      -189836.0      -196312.0      -202801.0      -209292.0      -215778.0
      -222273.0      -228766.0      -235231.0      -241678.0      -248095.0
      -254453.0      -260768.0      -267034.0      -273263.0      -279505.0
      -285774.0      -292061.0      -298348.0      -304616.0      -310858.0
      -317087.0      -323321.0      -329562.0      -335790.0      -342001.0
      -348189.0      -354350.0      -360484.0      -366600.0      -372712.0
      -378818.0      -384926.0      -391044.0      -397154.0      -403245.0
      -409324.0      -415373.0      -421392.0      -427379.0      -433307.0
      -439177.0      -444977.0      -450698.0      -456354.0      -461938.0
      -467422.0      -472809.0      -478114.0      -483338.0      -488493.0
      -493584.0      -498604.0      -503564.0      -508473.0      -513304.0
      -518049.0      -522720.0      -527310.0      -531851.0      -536370.0
      -540861.0      -545306.0      -549687.0      -554005.0      -558271.0
      -562512.0      -566730.0      -570910.0      -575054.0      -579150.0
      -583181.0      -587151.0      -591064.0      -594916.0      -598710.0
      -602451.0      -606126.0      -609724.0      -613260.0      -616750.0
      -620186.0      -623564.0      -626882.0      -630116.0      -633266.0
      -636347.0      -639370.0      -642353.0      -645268.0      -648101.0
      -650845.0      -653479.0      -656021.0      -658485.0      -660878.0
      -663206.0      -665473.0      -667678.0      -669811.0      -671859.0
      -673823.0      -675716.0      -677526.0      -679259.0      -680912.0
      -682475.0      -683950.0      -685342.0      -686663.0      -687923.0
      -689117.0      -690238.0      -691293.0      -692285.0      -693207.0
      -694058.0      -694832.0      -695536.0      -696168.0      -696729.0
      -697238.0      -697693.0      -698112.0      -698500.0      -698850.0
      -699156.0      -699403.0      -699591.0      -699710.0      -699770.0
      -699776.0      -699737.0      -699661.0      -699544.0      -699385.0
      -699181.0      -698936.0      -698650.0      -698318.0      -697939.0
      -697516.0      -697055.0      -696549.0      -696001.0      -695415.0
      -694770.0      -694063.0      -693288.0      -692421.0      -691481.0
      -690457.0      -689327.0      -688115.0      -686824.0      -685444.0
      -683968.0      -682400.0      -680736.0      -678977.0      -677124.0
      -675173.0      -673120.0      -670957.0      -668684.0      -666296.0
      -663788.0      -661158.0      -658400.0      -655509.0      -652493.0
      -649373.0      -646158.0      -642865.0      -639513.0      -636104.0
      -632642.0      -629119.0      -625530.0      -621875.0      -618149.0
      -614360.0      -610514.0      -606604.0      -602659.0      -598685.0
      -594666.0      -590608.0      -586495.0      -582322.0      -578104.0
      -573838.0      -569535.0      -565187.0      -560797.0      -556370.0
      -551901.0      -547410.0      -542895.0      -538355.0      -533784.0
      -529163.0      -524481.0      -519716.0      -514877.0      -509973.0
      -504995.0      -499944.0      -494821.0      -489626.0      -484356.0
      -479001.0      -473572.0      -468078.0      -462516.0      -456884.0
      -451183.0      -445434.0      -439627.0      -433744.0      -427811.0
      -421842.0      -415857.0      -409876.0      -403874.0      -397849.0
      -391787.0      -385659.0      -379471.0      -373237.0      -366962.0
      -360675.0      -354395.0      -348124.0      -341848.0      -335546.0
      -329203.0      -322821.0      -316414.0      -309981.0      -303497.0
      -296952.0      -290350.0      -283692.0      -277004.0      -270301.0
      -263577.0      -256830.0      -250052.0      -243250.0      -236429.0
      -229586.0      -222715.0      -215834.0      -208965.0      -202099.0
      -195227.0      -188335.0      -181427.0      -174542.0      -167683.0
      -160836.0      -153999.0      -147172.0      -140371.0      -133608.0
      -126880.0      -120195.0      -113566.0      -107007.0      -100519.0
      -94089.00      -87697.00      -81356.00      -75086.00      -68879.00
      -62736.00      -56670.00      -50678.00      -44774.00      -38953.00
      -33195.00      -27494.00      -21849.00      -16272.00      -10778.00
      -5368.000      -48.00000       5204.000       10400.00       15544.00
       20658.00       25764.00       30880.00       36000.00       41129.00
       46252.00       51339.00       56395.00       61425.00       66422.00
       71389.00       76320.00       81208.00       86044.00       90830.00
       95579.00       100280.0       104940.0       109553.0       114105.0
       118594.0       122997.0       127305.0       131522.0       135638.0
       139650.0       143562.0       147375.0       151101.0       154750.0
       158306.0       161768.0       165151.0       168442.0       171637.0
       174729.0       177722.0       180623.0       183428.0       186145.0
       188770.0       191314.0       193791.0       196183.0       198478.0
       200682.0       202780.0       204762.0       206643.0       208435.0
       210137.0       211758.0       213308.0       214774.0       216147.0
       217421.0       218597.0       219685.0       220679.0       221595.0
       222449.0       223253.0       224029.0       224786.0       225514.0
       226196.0       226817.0       227357.0       227810.0       228178.0
       228448.0       228609.0       228641.0       228540.0       228317.0
       227977.0       227513.0       226922.0       226212.0       225390.0
       224474.0       223470.0       222385.0       221230.0       220010.0
       218746.0       217435.0       216071.0       214654.0       213176.0
       211660.0       210116.0       208536.0       206925.0       205291.0
       203629.0       201926.0       200165.0       198332.0       196402.0
       194372.0       192251.0       190044.0       187763.0       185392.0
       182955.0       180482.0       177961.0       175406.0       172826.0
       170209.0       167552.0       164857.0       162122.0       159337.0
       156480.0       153545.0       150523.0       147396.0       144145.0
       140758.0       137244.0       133613.0       129884.0       126066.0
       122158.0       118172.0       114115.0       110002.0       105832.0
       101604.0       97344.00       93061.00       88759.00       84444.00
       80113.00       75756.00       71373.00       66985.00       62587.00
       58170.00       53735.00       49284.00       44814.00       40316.00
       35776.00       31177.00       26503.00       21743.00       16881.00
       11901.00       6801.000       1594.000      -3693.000      -9043.000
      -14439.00      -19878.00      -25356.00      -30856.00      -36381.00
      -41921.00      -47477.00      -53030.00      -58571.00      -64121.00
      -69672.00      -75220.00      -80761.00      -86288.00      -91788.00
      -97247.00      -102667.0      -108041.0      -113368.0      -118645.0
      -123864.0      -129036.0      -134178.0      -139310.0      -144451.0
      -149599.0      -154756.0      -159923.0      -165083.0      -170225.0
      -175373.0      -180529.0      -185687.0      -190852.0      -196006.0
      -201127.0      -206204.0      -211239.0      -216234.0      -221210.0
      -226184.0      -231160.0      -236146.0      -241127.0      -246115.0
      -251126.0      -256154.0      -261219.0      -266330.0      -271458.0
      -276597.0      -281732.0      -286863.0      -292008.0      -297161.0
      -302323.0      -307491.0      -312653.0      -317809.0      -322941.0
      -328043.0      -333123.0      -338192.0      -343289.0      -348423.0
      -353579.0      -358764.0      -363971.0      -369195.0      -374434.0
      -379687.0      -384955.0      -390211.0      -395452.0      -400699.0
      -405934.0      -411153.0      -416370.0      -421587.0      -426801.0
      -431999.0      -437177.0      -442327.0      -447449.0      -452538.0
      -457598.0      -462642.0      -467646.0      -472612.0      -477544.0
      -482425.0      -487255.0      -492039.0      -496790.0      -501516.0
      -506210.0      -510861.0      -515448.0      -519977.0      -524445.0
      -528847.0      -533207.0      -537527.0      -541790.0      -546002.0
      -550176.0      -554300.0      -558376.0      -562397.0      -566350.0
      -570238.0      -574043.0      -577754.0      -581366.0      -584880.0
      -588314.0      -591665.0      -594934.0      -598123.0      -601236.0
      -604280.0      -607255.0      -610174.0      -613042.0      -615860.0
      -618624.0      -621331.0      -623972.0      -626539.0      -629046.0
      -631512.0      -633947.0      -636355.0      -638734.0      -641085.0
      -643401.0      -645676.0      -647903.0      -650075.0      -652193.0
      -654252.0      -656247.0      -658169.0      -660002.0      -661760.0
      -663453.0      -665082.0      -666642.0      -668108.0      -669469.0
      -670738.0      -671932.0      -673048.0      -674070.0      -674972.0
      -675725.0      -676348.0      -676845.0      -677212.0      -677477.0
      -677649.0      -677713.0      -677658.0      -677486.0      -677204.0
      -676821.0      -676340.0      -675756.0      -675060.0      -674245.0
      -673310.0      -672263.0      -671119.0      -669887.0      -668572.0
      -667161.0      -665648.0      -664041.0      -662348.0      -660586.0
      -658778.0      -656931.0      -655047.0      -653117.0      -651127.0
      -649069.0      -646945.0      -644748.0      -642460.0      -640081.0
      -637619.0      -635055.0      -632380.0      -629604.0      -626739.0
      -623808.0      -620825.0      -617792.0      -614704.0      -611537.0
      -608289.0      -604951.0      -601523.0      -598045.0      -594493.0
      -590858.0      -587149.0      -583336.0      -579440.0      -575494.0
      -571508.0      -567479.0      -563388.0      -559226.0      -554987.0
      -550659.0      -546257.0      -541814.0      -537345.0      -532861.0
      -528361.0      -523817.0      -519211.0      -514546.0      -509817.0
      -505016.0      -500158.0      -495232.0      -490224.0      -485151.0
      -480029.0      -474868.0      -469690.0      -464506.0      -459301.0
      -454057.0      -448767.0      -443441.0      -438090.0      -432724.0
      -427354.0      -421988.0      -416610.0      -411204.0      -405757.0
      -400259.0      -394712.0      -389129.0      -383526.0      -377910.0
      -372276.0      -366627.0      -360974.0      -355316.0      -349669.0
      -344033.0      -338399.0      -332766.0      -327123.0      -321468.0
      -315790.0      -310089.0      -304390.0      -298708.0      -293061.0
      -287450.0      -281862.0      -276300.0      -270759.0      -265246.0
      -259771.0      -254325.0      -248889.0      -243446.0      -237991.0
      -232519.0      -227058.0      -221635.0      -216241.0      -210887.0
