     0.05000000      -12345.00      -12345.00   3.945550e+09      -12345.00
   0.0005360000       1859.951      -643.0195      -12345.00      -12345.00
      -12345.00      -12345.00      -12345.00      -12345.00      -12345.00
      -12345.00      -12345.00      -12345.00      -12345.00      -12345.00
      -12345.00      -12345.00      -12345.00      -12345.00      -12345.00
      -12345.00      -12345.00      -12345.00      -12345.00      -12345.00
      -12345.00      -51.67530      -58.06370       110.0000       80.00000
      -42.72450       173.0647      -12345.00       22.00000      -12345.00
      -12345.00      -12345.00      -12345.00      -12345.00      -12345.00
      -12345.00      -12345.00      -12345.00      -12345.00      -12345.00
       8456.483       150.0322       216.2375       76.05435      -12345.00
      -12345.00      -12345.00       88.00000       90.00000      -12345.00
      -12345.00      -12345.00      -12345.00      -12345.00      -12345.00
      -12345.00      -12345.00      -12345.00      -12345.00      -12345.00
      2016       318        11        13        42
        19         6    -12345    -12345     37200
    -12345    -12345    -12345    -12345    -12345
         1    -12345    -12345    -12345    -12345
    -12345    -12345    -12345    -12345    -12345
    -12345    -12345    -12345    -12345    -12345
    -12345    -12345    -12345    -12345    -12345
         1    -12345    -12345    -12345    -12345
EFI     South Island, Ne
00      -12345  -12345  
-12345  -12345  -12345  
-12345  -12345  -12345  
-12345  -12345  -12345  
-12345  -12345  -12345  
-12345  -12345  BH2     
II      -12345  Geotech 
[...]
      -162182.0      -163336.0      -164544.0      -165814.0      -167147.0
      -168537.0      -169984.0      -171500.0      -173090.0      -174727.0
      -176371.0      -177995.0      -179611.0      -181242.0      -182891.0
      -184541.0      -186150.0      -187699.0      -189204.0      -190684.0
      -192117.0      -193461.0      -194712.0      -195899.0      -197078.0
      -198265.0      -199442.0      -200585.0      -201690.0      -202790.0
      -203914.0      -205094.0      -206328.0      -207578.0      -208834.0
      -210100.0      -211370.0      -212654.0      -213978.0      -215373.0
      -216847.0      -218379.0      -219954.0      -221543.0      -223140.0
      -224755.0      -226397.0      -228093.0      -229844.0      -231653.0
      -233503.0      -235361.0      -237233.0      -239113.0      -241009.0
      -242936.0      -244876.0      -246803.0      -248695.0      -250565.0
      -252432.0      -254300.0      -256185.0      -258088.0      -259992.0
      -261887.0      -263761.0      -265585.0      -267339.0      -269017.0
      -270601.0      -272094.0      -273496.0      -274789.0      -275973.0
      -277061.0      -278079.0      -279052.0      -279995.0      -280886.0
      -281696.0      -282430.0      -283111.0      -283750.0      -284334.0
      -284844.0      -285279.0      -285657.0      -286027.0      -286403.0
      -286797.0      -287228.0      -287671.0      -288116.0      -288570.0
      -289036.0      -289523.0      -290043.0      -290593.0      -291148.0
      -291703.0      -292257.0      -292810.0      -293343.0      -293857.0
      -294377.0      -294891.0      -295405.0      -295919.0      -296417.0
      -296907.0      -297388.0      -297845.0      -298249.0      -298587.0
      -298895.0      -299193.0      -299473.0      -299691.0      -299799.0
      -299784.0      -299645.0      -299404.0      -299086.0      -298674.0
      -298155.0      -297523.0      -296774.0      -295908.0      -294922.0
      -293828.0      -292657.0      -291421.0      -290088.0      -288604.0
      -286964.0      -285201.0      -283372.0      -281524.0      -279642.0
      -277671.0      -275572.0      -273354.0      -271056.0      -268728.0
      -266401.0      -264050.0      -261645.0      -259166.0      -256634.0
      -254080.0      -251528.0      -248965.0      -246339.0      -243619.0
      -240801.0      -237880.0      -234889.0      -231858.0      -228799.0
      -225706.0      -222564.0      -219402.0      -216261.0      -213153.0
      -210074.0      -207002.0      -203927.0      -200875.0      -197860.0
      -194875.0      -191902.0      -188927.0      -185940.0      -182943.0
      -179957.0      -176986.0      -174000.0      -170970.0      -167892.0
      -164788.0      -161692.0      -158609.0      -155509.0      -152348.0
      -149100.0      -145790.0      -142442.0      -139054.0      -135631.0
      -132156.0      -128606.0      -124976.0      -121299.0      -117614.0
      -113947.0      -110320.0      -106736.0      -103187.0      -99651.00
      -96116.00      -92596.00      -89107.00      -85644.00      -82198.00
      -78762.00      -75316.00      -71888.00      -68515.00      -65199.00
      -61950.00      -58779.00      -55691.00      -52690.00      -49781.00
      -46967.00      -44258.00      -41658.00      -39179.00      -36853.00
      -34685.00      -32682.00      -30860.00      -29209.00      -27718.00
      -26387.00      -25199.00      -24146.00      -23246.00      -22510.00
      -21953.00      -21571.00      -21338.00      -21267.00      -21388.00
      -21726.00      -22278.00      -23013.00      -23910.00      -24981.00
      -26211.00      -27577.00      -29095.00      -30758.00      -32542.00
      -34444.00      -36452.00      -38562.00      -40783.00      -43122.00
      -45579.00      -48159.00      -50849.00      -53611.00      -56448.00
      -59392.00      -62460.00      -65643.00      -68892.00      -72174.00
      -75492.00      -78856.00      -82274.00      -85737.00      -89248.00
      -92800.00      -96383.00      -99991.00      -103618.0      -107283.0
      -111012.0      -114802.0      -118611.0      -122401.0      -126159.0
      -129884.0      -133612.0      -137372.0      -141156.0      -144923.0
      -148633.0      -152276.0      -155890.0      -159502.0      -163092.0
      -166639.0      -170114.0      -173497.0      -176795.0      -180021.0
      -183194.0      -186332.0      -189421.0      -192438.0      -195376.0
      -198229.0      -201006.0      -203669.0      -206196.0      -208624.0
      -210975.0      -213243.0      -215374.0      -217315.0      -219070.0
      -220696.0      -222239.0      -223719.0      -225147.0      -226500.0
      -227750.0      -228902.0      -229999.0      -231088.0      -232188.0
      -233282.0      -234322.0      -235295.0      -236196.0      -237051.0
      -237898.0      -238764.0      -239661.0      -240543.0      -241385.0
      -242205.0      -243048.0      -243962.0      -244932.0      -245921.0
      -246914.0      -247921.0      -248939.0      -249941.0      -250909.0
      -251855.0      -252788.0      -253709.0      -254623.0      -255519.0
      -256393.0      -257269.0      -258152.0      -259034.0      -259927.0
      -260824.0      -261688.0      -262528.0      -263342.0      -264120.0
      -264863.0      -265560.0      -266209.0      -266819.0      -267399.0
      -267932.0      -268383.0      -268737.0      -268994.0      -269163.0
      -269234.0      -269214.0      -269115.0      -268935.0      -268666.0
      -268308.0      -267873.0      -267356.0      -266751.0      -266048.0
      -265241.0      -264322.0      -263281.0      -262117.0      -260827.0
      -259437.0      -257966.0      -256411.0      -254774.0      -253048.0
      -251233.0      -249336.0      -247383.0      -245411.0      -243435.0
      -241458.0      -239474.0      -237467.0      -235424.0      -233363.0
      -231306.0      -229258.0      -227218.0      -225170.0      -223122.0
      -221084.0      -219055.0      -217044.0      -215048.0      -213081.0
      -211161.0      -209305.0      -207505.0      -205765.0      -204086.0
      -202465.0      -200917.0      -199439.0      -198029.0      -196680.0
      -195370.0      -194110.0      -192934.0      -191854.0      -190866.0
      -189961.0      -189132.0      -188391.0      -187732.0      -187152.0
      -186642.0      -186199.0      -185834.0      -185548.0      -185342.0
      -185204.0      -185119.0      -185077.0      -185078.0      -185121.0
      -185210.0      -185340.0      -185480.0      -185616.0      -185735.0
      -185818.0      -185870.0      -185892.0      -185891.0      -185850.0
      -185755.0      -185590.0      -185337.0      -185029.0      -184674.0
      -184259.0      -183775.0      -183206.0      -182554.0      -181844.0
      -181091.0      -180283.0      -179415.0      -178473.0      -177445.0
      -176350.0      -175217.0      -174067.0      -172899.0      -171702.0
      -170442.0      -169079.0      -167601.0      -166013.0      -164350.0
      -162634.0      -160877.0      -159085.0      -157244.0      -155349.0
      -153409.0      -151445.0      -149480.0      -147521.0      -145558.0
      -143590.0      -141608.0      -139614.0      -137629.0      -135671.0
      -133760.0      -131881.0      -130011.0      -128148.0      -126281.0
      -124419.0      -122573.0      -120733.0      -118910.0      -117110.0
      -115320.0      -113519.0      -111703.0      -109897.0      -108124.0
      -106402.0      -104725.0      -103092.0      -101491.0      -99907.00
      -98342.00      -96795.00      -95271.00      -93764.00      -92269.00
      -90794.00      -89332.00      -87881.00      -86465.00      -85095.00
      -83769.00      -82491.00      -81266.00      -80099.00      -78992.00
      -77942.00      -76948.00      -76006.00      -75101.00      -74220.00
      -73354.00      -72496.00      -71638.00      -70785.00      -69951.00
      -69133.00      -68325.00      -67506.00      -66661.00      -65802.00
      -64938.00      -64056.00      -63141.00      -62171.00      -61131.00
      -60012.00      -58808.00      -57532.00      -56192.00      -54790.00
      -53331.00      -51836.00      -50322.00      -48789.00      -47253.00
      -45716.00      -44143.00      -42501.00      -40783.00      -38999.00
      -37143.00      -35204.00      -33190.00      -31083.00      -28870.00
      -26563.00      -24172.00      -21692.00      -19127.00      -16476.00
      -13735.00      -10909.00      -7999.000      -5018.000      -1979.000
       1112.000       4259.000       7469.000       10730.00       14035.00
       17354.00       20661.00       23969.00       27283.00       30606.00
       33921.00       37215.00       40487.00       43720.00       46912.00
       50059.00       53156.00       56217.00       59232.00       62161.00
       64966.00       67628.00       70153.00       72564.00       74882.00
       77118.00       79267.00       81305.00       83217.00       85008.00
       86692.00       88287.00       89812.00       91254.00       92589.00
       93837.00       95016.00       96136.00       97226.00       98289.00
       99314.00       100320.0       101327.0       102345.0       103392.0
       104439.0       105445.0       106410.0       107336.0       108230.0
       109099.0       109930.0       110711.0       111428.0       112073.0
       112646.0       113153.0       113602.0       113996.0       114329.0
       114595.0       114802.0       114949.0       115015.0       114980.0
       114833.0       114574.0       114221.0       113783.0       113255.0
       112638.0       111931.0       111152.0       110313.0       109417.0
       108467.0       107460.0       106422.0       105351.0       104223.0
       103031.0       101743.0       100358.0       98882.00       97320.00
       95696.00       94030.00       92312.00       90520.00       88656.00
       86708.00       84695.00       82640.00       80531.00       78359.00
       76099.00       73750.00       71333.00       68848.00       66281.00
       63621.00       60848.00       57950.00       54934.00       51821.00
       48650.00       45436.00       42162.00       38809.00       35353.00
       31794.00       28137.00       24375.00       20489.00       16460.00
       12281.00       7972.000       3558.000      -976.0000      -5636.000
      -10428.00      -15352.00      -20390.00      -25549.00      -30831.00
      -36233.00      -41762.00      -47415.00      -53172.00      -59008.00
      -64930.00      -70943.00      -77050.00      -83254.00      -89549.00
      -95937.00      -102407.0      -108952.0      -115582.0      -122303.0
      -129127.0      -136066.0      -143115.0      -150253.0      -157451.0
      -164691.0      -171963.0      -179264.0      -186615.0      -194025.0
      -201471.0      -208943.0      -216426.0      -223910.0      -231389.0
      -238862.0      -246354.0      -253842.0      -261291.0      -268691.0
      -276018.0      -283261.0      -290444.0      -297601.0      -304755.0
      -311908.0      -319043.0      -326125.0      -333124.0      -340030.0
      -346853.0      -353623.0      -360359.0      -367054.0      -373677.0
      -380179.0      -386538.0      -392787.0      -398981.0      -405157.0
      -411298.0      -417375.0      -423366.0      -429245.0      -435020.0
      -440712.0      -446346.0      -451939.0      -457461.0      -462878.0
      -468192.0      -473431.0      -478616.0      -483755.0      -488863.0
      -493944.0      -498983.0      -503987.0      -508983.0      -514004.0
      -519076.0      -524214.0      -529432.0      -534725.0      -540094.0
      -545521.0      -550979.0      -556463.0      -561981.0      -567516.0
      -573050.0      -578578.0      -584103.0      -589612.0      -595079.0
      -600519.0      -605966.0      -611433.0      -616915.0      -622403.0
      -627894.0      -633387.0      -638870.0      -644347.0      -649820.0
      -655285.0      -660740.0      -666177.0      -671583.0      -676945.0
      -682266.0      -687536.0      -692735.0      -697862.0      -702910.0
      -707852.0      -712651.0      -717290.0      -721780.0      -726133.0
      -730336.0      -734400.0      -738332.0      -742124.0      -745800.0
      -749374.0      -752847.0      -756210.0      -759430.0      -762498.0
      -765402.0      -768156.0      -770773.0      -773265.0      -775634.0
      -777881.0      -780029.0      -782097.0      -784127.0      -786119.0
      -788056.0      -789930.0      -791712.0      -793396.0      -794983.0
      -796475.0      -797858.0      -799114.0      -800233.0      -801212.0
      -802069.0      -802792.0      -803368.0      -803796.0      -804073.0
      -804200.0      -804175.0      -804015.0      -803728.0      -803307.0
      -802755.0      -802088.0      -801307.0      -800399.0      -799350.0
      -798162.0      -796827.0      -795341.0      -793729.0      -792006.0
      -790188.0      -788267.0      -786226.0      -784067.0      -781782.0
      -779382.0      -776871.0      -774232.0      -771475.0      -768600.0
      -765626.0      -762564.0      -759417.0      -756209.0      -752946.0
      -749635.0      -746266.0      -742843.0      -739356.0      -735795.0
      -732177.0      -728509.0      -724813.0      -721092.0      -717361.0
      -713651.0      -709972.0      -706330.0      -702735.0      -699196.0
      -695709.0      -692281.0      -688919.0      -685609.0      -682341.0
      -679131.0      -675975.0      -672854.0      -669742.0      -666594.0
      -663388.0      -660121.0      -656787.0      -653377.0      -649873.0
      -646270.0      -642555.0      -638718.0      -634767.0      -630707.0
      -626540.0      -622294.0      -617996.0      -613635.0      -609196.0
      -604672.0      -600066.0      -595364.0      -590553.0      -585650.0
      -580635.0      -575512.0      -570305.0      -565012.0      -559647.0
      -554224.0      -548746.0      -543232.0      -537694.0      -532135.0
      -526563.0      -520978.0      -515377.0      -509774.0      -504184.0
      -498637.0      -493147.0      -487713.0      -482318.0      -476939.0
      -471596.0      -466310.0      -461087.0      -455924.0      -450795.0
      -445688.0      -440610.0      -435555.0      -430530.0      -425545.0
      -420603.0      -415704.0      -410837.0      -405998.0      -401210.0
      -396480.0      -391808.0      -387200.0      -382651.0      -378152.0
      -373691.0      -369262.0      -364856.0      -360474.0      -356126.0
      -351802.0      -347489.0      -343174.0      -338836.0      -334456.0
      -330036.0      -325590.0      -321121.0      -316643.0      -312175.0
      -307719.0      -303263.0      -298793.0      -294311.0      -289828.0
      -285342.0      -280871.0      -276423.0      -271991.0      -267598.0
      -263258.0      -258987.0      -254791.0      -250652.0      -246552.0
      -242481.0      -238435.0      -234418.0      -230431.0      -226461.0
      -222504.0      -218534.0      -214522.0      -210471.0      -206372.0
      -202241.0      -198092.0      -193914.0      -189698.0      -185435.0
      -181135.0      -176802.0      -172449.0      -168099.0      -163738.0
      -159353.0      -154941.0      -150499.0      -146033.0      -141552.0
      -137054.0      -132530.0      -127981.0      -123423.0      -118858.0
      -114313.0      -109802.0      -105318.0      -100872.0      -96467.00
      -92106.00      -87796.00      -83536.00      -79328.00      -75180.00
      -71095.00      -67092.00      -63189.00      -59402.00      -55746.00
      -52232.00      -48883.00      -45711.00      -42746.00      -40001.00
      -37460.00      -35132.00      -33021.00      -31133.00      -29487.00
      -28090.00      -26945.00      -26024.00      -25289.00      -24725.00
      -24336.00      -24117.00      -24047.00      -24113.00      -24297.00
      -24585.00      -24963.00      -25419.00      -25978.00      -26652.00
      -27426.00      -28294.00      -29249.00      -30300.00      -31442.00
      -32657.00      -33958.00      -35360.00      -36869.00      -38457.00
      -40088.00      -41752.00      -43461.00      -45234.00      -47070.00
      -48946.00      -50829.00      -52664.00      -54433.00      -56160.00
      -57868.00      -59568.00      -61237.00      -62833.00      -64313.00
      -65656.00      -66848.00      -67865.00      -68696.00      -69344.00
      -69808.00      -70071.00      -70101.00      -69894.00      -69450.00
      -68780.00      -67904.00      -66821.00      -65527.00      -64005.00
      -62231.00      -60194.00      -57895.00      -55370.00      -52660.00
      -49753.00      -46640.00      -43330.00      -39839.00      -36178.00
      -32343.00      -28330.00      -24138.00      -19747.00      -15128.00
      -10275.00      -5216.000      -3.000000       5344.000       10812.00
       16363.00       21991.00       27684.00       33407.00       39134.00
       44844.00       50531.00       56202.00       61862.00       67507.00
       73130.00       78728.00       84289.00       89802.00       95281.00
       100757.0       106247.0       111770.0       117338.0       122955.0
       128609.0       134287.0       139992.0       145724.0       151481.0
       157265.0       163077.0       168916.0       174782.0       180663.0
       186550.0       192435.0       198302.0       204165.0       210026.0
       215862.0       221650.0       227361.0       232989.0       238555.0
       244083.0       249545.0       254911.0       260162.0       265296.0
       270331.0       275267.0       280111.0       284869.0       289542.0
       294142.0       298666.0       303110.0       307462.0       311733.0
       315928.0       320033.0       324041.0       327953.0       331776.0
       335498.0       339096.0       342545.0       345831.0       348940.0
       351863.0       354621.0       357234.0       359693.0       361976.0
       364078.0       365985.0       367697.0       369235.0       370598.0
       371775.0       372747.0       373499.0       374050.0       374454.0
       374742.0       374888.0       374847.0       374614.0       374223.0
       373674.0       372974.0       372131.0       371130.0       369969.0
