     0.05000000      -12345.00      -12345.00   3.727730e+09      -12345.00
   0.0005360000       1859.951      -643.0195      -12345.00      -12345.00
      -12345.00      -12345.00      -12345.00      -12345.00      -12345.00
      -12345.00      -12345.00      -12345.00      -12345.00      -12345.00
      -12345.00      -12345.00      -12345.00      -12345.00      -12345.00
      -12345.00      -12345.00      -12345.00      -12345.00      -12345.00
      -12345.00      -51.67530      -58.06370       110.0000       80.00000
      -42.72450       173.0647      -12345.00       22.00000      -12345.00
      -12345.00      -12345.00      -12345.00      -12345.00      -12345.00
      -12345.00      -12345.00      -12345.00      -12345.00      -12345.00
       8456.483       150.0322       216.2375       76.05435      -12345.00
      -12345.00      -12345.00       0.000000       0.000000      -12345.00
      -12345.00      -12345.00      -12345.00      -12345.00      -12345.00
      -12345.00      -12345.00      -12345.00      -12345.00      -12345.00
      2016       318        11        13        42
        19         6    -12345    -12345     37200
    -12345    -12345    -12345    -12345    -12345
         1    -12345    -12345    -12345    -12345
    -12345    -12345    -12345    -12345    -12345
    -12345    -12345    -12345    -12345    -12345
    -12345    -12345    -12345    -12345    -12345
         1    -12345    -12345    -12345    -12345
EFI     South Island, Ne
00      -12345  -12345  
-12345  -12345  -12345  
-12345  -12345  -12345  
-12345  -12345  -12345  
-12345  -12345  -12345  
-12345  -12345  BHZ     
II      -12345  Geotech 
[...]
       169487.0       172500.0       175595.0       178767.0       182014.0
       185331.0       188710.0       192114.0       195549.0       198992.0
       202408.0       205810.0       209172.0       212495.0       215772.0
       218980.0       222145.0       225271.0       228342.0       231347.0
       234290.0       237174.0       239996.0       242764.0       245473.0
       248135.0       250755.0       253348.0       255934.0       258479.0
       260995.0       263492.0       265926.0       268274.0       270537.0
       272736.0       274893.0       277043.0       279217.0       281417.0
       283642.0       285879.0       288116.0       290361.0       292634.0
       294931.0       297243.0       299543.0       301798.0       304019.0
       306211.0       308365.0       310511.0       312665.0       314801.0
       316894.0       318952.0       320974.0       322981.0       324967.0
       326903.0       328784.0       330572.0       332267.0       333882.0
       335421.0       336895.0       338286.0       339600.0       340845.0
       342006.0       343063.0       344019.0       344891.0       345694.0
       346445.0       347166.0       347855.0       348516.0       349183.0
       349866.0       350562.0       351293.0       352057.0       352846.0
       353650.0       354452.0       355255.0       356084.0       356980.0
       357904.0       358800.0       359647.0       360431.0       361175.0
       361881.0       362542.0       363135.0       363651.0       364084.0
       364414.0       364665.0       364849.0       364992.0       365110.0
       365159.0       365121.0       364998.0       364790.0       364502.0
       364130.0       363654.0       363079.0       362418.0       361696.0
       360941.0       360134.0       359297.0       358431.0       357508.0
       356522.0       355463.0       354321.0       353100.0       351811.0
       350451.0       349027.0       347541.0       345986.0       344374.0
       342689.0       340921.0       339065.0       337137.0       335158.0
       333133.0       331086.0       329033.0       326961.0       324850.0
       322692.0       320475.0       318212.0       315909.0       313556.0
       311160.0       308714.0       306220.0       303665.0       301052.0
       298394.0       295685.0       292927.0       290109.0       287221.0
       284273.0       281278.0       278234.0       275155.0       272050.0
       268910.0       265741.0       262559.0       259368.0       256173.0
       252993.0       249826.0       246683.0       243536.0       240375.0
       237206.0       233977.0       230713.0       227399.0       223985.0
       220493.0       216904.0       213229.0       209486.0       205687.0
       201854.0       197977.0       194054.0       190091.0       186088.0
       182065.0       178050.0       174059.0       170114.0       166222.0
       162378.0       158601.0       154884.0       151214.0       147598.0
       144020.0       140457.0       136943.0       133490.0       130087.0
       126749.0       123454.0       120182.0       116912.0       113624.0
       110344.0       107062.0       103750.0       100400.0       96983.00
       93483.00       89886.00       86211.00       82471.00       78666.00
       74817.00       70917.00       66978.00       63001.00       58981.00
       54944.00       50877.00       46782.00       42651.00       38488.00
       34331.00       30181.00       26037.00       21900.00       17752.00
       13577.00       9372.000       5119.000       797.0000      -3606.000
      -8092.000      -12649.00      -17277.00      -21956.00      -26661.00
      -31390.00      -36122.00      -40837.00      -45515.00      -50140.00
      -54718.00      -59275.00      -63840.00      -68420.00      -72985.00
      -77512.00      -81999.00      -86432.00      -90839.00      -95235.00
      -99625.00      -104011.0      -108346.0      -112624.0      -116855.0
      -121066.0      -125295.0      -129537.0      -133777.0      -137973.0
      -142147.0      -146342.0      -150561.0      -154800.0      -159011.0
      -163149.0      -167198.0      -171173.0      -175080.0      -178920.0
      -182680.0      -186360.0      -189982.0      -193522.0      -196984.0
      -200400.0      -203798.0      -207208.0      -210632.0      -214045.0
      -217450.0      -220853.0      -224241.0      -227628.0      -231002.0
      -234337.0      -237623.0      -240857.0      -244027.0      -247113.0
      -250119.0      -253045.0      -255891.0      -258685.0      -261463.0
      -264238.0      -267012.0      -269796.0      -272596.0      -275415.0
      -278255.0      -281109.0      -283967.0      -286831.0      -289692.0
      -292569.0      -295500.0      -298466.0      -301484.0      -304585.0
      -307766.0      -311021.0      -314324.0      -317655.0      -320964.0
      -324225.0      -327441.0      -330584.0      -333668.0      -336724.0
      -339764.0      -342773.0      -345710.0      -348562.0      -351323.0
      -353980.0      -356539.0      -358988.0      -361291.0      -363448.0
      -365479.0      -367388.0      -369215.0      -370983.0      -372667.0
      -374265.0      -375752.0      -377112.0      -378352.0      -379512.0
      -380622.0      -381665.0      -382650.0      -383567.0      -384432.0
      -385282.0      -386133.0      -386978.0      -387806.0      -388607.0
      -389358.0      -390067.0      -390719.0      -391315.0      -391862.0
      -392336.0      -392749.0      -393087.0      -393347.0      -393592.0
      -393828.0      -394084.0      -394396.0      -394717.0      -395061.0
      -395447.0      -395881.0      -396357.0      -396847.0      -397346.0
      -397822.0      -398286.0      -398735.0      -399129.0      -399460.0
      -399711.0      -399846.0      -399872.0      -399788.0      -399576.0
      -399261.0      -398858.0      -398364.0      -397780.0      -397104.0
      -396317.0      -395414.0      -394402.0      -393263.0      -391988.0
      -390582.0      -389053.0      -387393.0      -385608.0      -383722.0
      -381745.0      -379677.0      -377529.0      -375312.0      -373013.0
      -370627.0      -368167.0      -365643.0      -363064.0      -360436.0
      -357784.0      -355116.0      -352401.0      -349629.0      -346798.0
      -343913.0      -341004.0      -338101.0      -335198.0      -332262.0
      -329277.0      -326219.0      -323097.0      -319902.0      -316594.0
      -313157.0      -309576.0      -305864.0      -302030.0      -298083.0
      -294002.0      -289772.0      -285445.0      -281031.0      -276538.0
      -271977.0      -267322.0      -262576.0      -257766.0      -252891.0
      -247962.0      -243000.0      -238006.0      -232978.0      -227896.0
      -222753.0      -217573.0      -212387.0      -207214.0      -202066.0
      -196936.0      -191827.0      -186745.0      -181693.0      -176694.0
      -171719.0      -166718.0      -161663.0      -156555.0      -151396.0
      -146197.0      -140971.0      -135704.0      -130389.0      -125023.0
      -119609.0      -114127.0      -108556.0      -102918.0      -97216.00
      -91441.00      -85595.00      -79681.00      -73726.00      -67729.00
      -61685.00      -55605.00      -49474.00      -43309.00      -37134.00
      -30937.00      -24723.00      -18517.00      -12341.00      -6194.000
      -73.00000       6010.000       12068.00       18124.00       24172.00
       30199.00       36210.00       42222.00       48227.00       54227.00
       60273.00       66380.00       72519.00       78674.00       84847.00
       91024.00       97231.00       103484.0       109732.0       115959.0
       122164.0       128329.0       134450.0       140518.0       146498.0
       152385.0       158202.0       163963.0       169687.0       175390.0
       181054.0       186668.0       192223.0       197690.0       203052.0
       208295.0       213414.0       218414.0       223313.0       228128.0
       232876.0       237568.0       242245.0       246948.0       251670.0
       256384.0       261072.0       265746.0       270407.0       275044.0
       279652.0       284202.0       288664.0       293039.0       297345.0
       301605.0       305830.0       310014.0       314163.0       318307.0
       322457.0       326602.0       330757.0       334931.0       339129.0
       343355.0       347607.0       351847.0       356019.0       360118.0
       364136.0       368086.0       371963.0       375758.0       379468.0
       383062.0       386563.0       390002.0       393386.0       396706.0
       399956.0       403113.0       406138.0       409047.0       411843.0
       414535.0       417134.0       419584.0       421847.0       423887.0
       425706.0       427372.0       428909.0       430350.0       431704.0
       432942.0       434085.0       435161.0       436197.0       437202.0
       438186.0       439150.0       440067.0       440956.0       441859.0
       442789.0       443754.0       444749.0       445742.0       446694.0
       447569.0       448369.0       449121.0       449829.0       450508.0
       451155.0       451710.0       452155.0       452515.0       452780.0
       452944.0       453030.0       453049.0       452995.0       452881.0
       452714.0       452488.0       452214.0       451890.0       451490.0
       450985.0       450373.0       449657.0       448816.0       447859.0
       446787.0       445597.0       444304.0       442861.0       441276.0
       439555.0       437691.0       435713.0       433619.0       431437.0
       429194.0       426907.0       424582.0       422194.0       419741.0
       417221.0       414651.0       412025.0       409333.0       406573.0
       403730.0       400847.0       397939.0       395016.0       392099.0
       389179.0       386241.0       383273.0       380253.0       377172.0
       374042.0       370826.0       367520.0       364127.0       360601.0
       356938.0       353157.0       349263.0       345265.0       341190.0
       337040.0       332799.0       328472.0       324063.0       319581.0
       315027.0       310420.0       305781.0       301131.0       296464.0
       291796.0       287156.0       282527.0       277938.0       273383.0
       268840.0       264320.0       259795.0       255275.0       250778.0
       246299.0       241853.0       237431.0       233026.0       228639.0
       224251.0       219864.0       215480.0       211088.0       206672.0
       202209.0       197699.0       193143.0       188532.0       183862.0
       179133.0       174350.0       169505.0       164604.0       159669.0
       154675.0       149614.0       144482.0       139276.0       134016.0
       128699.0       123331.0       117912.0       112409.0       106811.0
       101100.0       95287.00       89404.00       83461.00       77482.00
       71477.00       65453.00       59428.00       53418.00       47406.00
       41353.00       35270.00       29142.00       22960.00       16746.00
       10501.00       4236.000      -2029.000      -8283.000      -14537.00
      -20790.00      -27042.00      -33304.00      -39568.00      -45846.00
      -52141.00      -58434.00      -64726.00      -71014.00      -77294.00
      -83553.00      -89776.00      -95974.00      -102150.0      -108316.0
      -114507.0      -120734.0      -126986.0      -133245.0      -139486.0
      -145701.0      -151883.0      -158030.0      -164126.0      -170166.0
      -176148.0      -182042.0      -187852.0      -193602.0      -199287.0
      -204925.0      -210527.0      -216087.0      -221648.0      -227231.0
      -232837.0      -238490.0      -244196.0      -249945.0      -255713.0
      -261474.0      -267227.0      -272960.0      -278641.0      -284260.0
      -289822.0      -295343.0      -300841.0      -306329.0      -311823.0
      -317334.0      -322859.0      -328392.0      -333943.0      -339508.0
      -345085.0      -350649.0      -356149.0      -361564.0      -366868.0
      -372054.0      -377153.0      -382185.0      -387145.0      -392005.0
      -396746.0      -401357.0      -405836.0      -410203.0      -414472.0
      -418649.0      -422733.0      -426727.0      -430623.0      -434419.0
      -438139.0      -441770.0      -445292.0      -448705.0      -451998.0
      -455168.0      -458240.0      -461238.0      -464173.0      -467024.0
      -469742.0      -472327.0      -474788.0      -477122.0      -479357.0
      -481515.0      -483587.0      -485564.0      -487456.0      -489273.0
      -491008.0      -492685.0      -494325.0      -495903.0      -497390.0
      -498753.0      -499978.0      -501072.0      -502064.0      -502962.0
      -503761.0      -504444.0      -504996.0      -505437.0      -505769.0
      -505987.0      -506091.0      -506098.0      -506018.0      -505864.0
      -505619.0      -505245.0      -504785.0      -504265.0      -503690.0
      -503088.0      -502444.0      -501759.0      -501045.0      -500309.0
      -499552.0      -498765.0      -497965.0      -497154.0      -496317.0
      -495452.0      -494555.0      -493640.0      -492713.0      -491752.0
      -490730.0      -489621.0      -488387.0      -487020.0      -485494.0
      -483801.0      -481957.0      -479947.0      -477782.0      -475471.0
      -472989.0      -470346.0      -467564.0      -464635.0      -461558.0
      -458344.0      -455003.0      -451532.0      -447940.0      -444249.0
      -440468.0      -436616.0      -432701.0      -428736.0      -424734.0
      -420680.0      -416584.0      -412436.0      -408222.0      -403955.0
      -399635.0      -395241.0      -390776.0      -386237.0      -381617.0
      -376921.0      -372146.0      -367291.0      -362340.0      -357272.0
      -352095.0      -346778.0      -341319.0      -335749.0      -330068.0
      -324294.0      -318446.0      -312541.0      -306584.0      -300567.0
      -294504.0      -288424.0      -282323.0      -276189.0      -270002.0
      -263739.0      -257401.0      -251000.0      -244552.0      -238058.0
      -231537.0      -224993.0      -218408.0      -211801.0      -205187.0
      -198570.0      -191945.0      -185302.0      -178642.0      -171958.0
      -165235.0      -158486.0      -151743.0      -145028.0      -138361.0
      -131732.0      -125120.0      -118538.0      -111996.0      -105480.0
      -98997.00      -92548.00      -86114.00      -79705.00      -73345.00
      -67039.00      -60772.00      -54523.00      -48263.00      -41968.00
      -35618.00      -29187.00      -22685.00      -16144.00      -9568.000
      -2943.000       3716.000       10388.00       17078.00       23783.00
       30517.00       37287.00       44101.00       50964.00       57876.00
       64807.00       71740.00       78695.00       85627.00       92545.00
       99451.00       106332.0       113213.0       120071.0       126888.0
       133633.0       140300.0       146907.0       153446.0       159943.0
       166394.0       172787.0       179134.0       185418.0       191661.0
       197873.0       204037.0       210173.0       216266.0       222292.0
       228247.0       234120.0       239936.0       245701.0       251411.0
       257051.0       262625.0       268156.0       273652.0       279124.0
       284569.0       289979.0       295358.0       300699.0       306007.0
       311281.0       316526.0       321766.0       327001.0       332229.0
       337456.0       342670.0       347852.0       352995.0       358094.0
       363133.0       368090.0       372942.0       377688.0       382308.0
       386809.0       391226.0       395577.0       399909.0       404215.0
       408480.0       412700.0       416863.0       420967.0       424986.0
       428928.0       432789.0       436550.0       440206.0       443754.0
       447218.0       450591.0       453882.0       457101.0       460225.0
       463241.0       466136.0       468920.0       471598.0       474161.0
       476610.0       478946.0       481165.0       483263.0       485258.0
       487153.0       488928.0       490607.0       492198.0       493674.0
       495049.0       496323.0       497482.0       498512.0       499399.0
       500179.0       500855.0       501415.0       501853.0       502179.0
       502403.0       502525.0       502528.0       502392.0       502140.0
       501775.0       501315.0       500767.0       500152.0       499485.0
       498768.0       498026.0       497253.0       496467.0       495680.0
       494876.0       494074.0       493271.0       492429.0       491544.0
       490599.0       489567.0       488435.0       487204.0       485869.0
       484401.0       482806.0       481095.0       479249.0       477246.0
       475095.0       472821.0       470411.0       467879.0       465248.0
       462504.0       459629.0       456644.0       453555.0       450362.0
       447070.0       443670.0       440182.0       436607.0       432932.0
       429156.0       425281.0       421314.0       417252.0       413105.0
       408856.0       404487.0       400016.0       395468.0       390836.0
       386157.0       381467.0       376737.0       371991.0       367242.0
       362459.0       357643.0       352783.0       347881.0       342935.0
       337945.0       332934.0       327924.0       322951.0       318024.0
       313145.0       308306.0       303494.0       298704.0       293942.0
       289218.0       284532.0       279860.0       275183.0       270488.0
       265735.0       260914.0       256030.0       251075.0       246069.0
       241026.0       235913.0       230691.0       225352.0       219898.0
       214351.0       208732.0       203038.0       197299.0       191498.0
       185628.0       179714.0       173751.0       167763.0       161753.0
       155726.0       149659.0       143532.0       137380.0       131196.0
       125002.0       118808.0       112586.0       106365.0       100146.0
       93921.00       87730.00       81576.00       75446.00       69379.00
       63369.00       57400.00       51496.00       45664.00       39892.00
       34157.00       28465.00       22827.00       17258.00       11775.00
       6371.000       1023.000      -4286.000      -9551.000      -14768.00
      -19911.00      -24984.00      -30035.00      -35098.00      -40200.00
