     0.05000000      -12345.00      -12345.00   3.865460e+09      -12345.00
   0.0005390000       1859.951      -712.0195      -12345.00      -12345.00
      -12345.00      -12345.00      -12345.00      -12345.00      -12345.00
      -12345.00      -12345.00      -12345.00      -12345.00      -12345.00
      -12345.00      -12345.00      -12345.00      -12345.00      -12345.00
      -12345.00      -12345.00      -12345.00      -12345.00      -12345.00
      -12345.00       42.01500       143.1572       40.00000       0.000000
      -42.72450       173.0647      -12345.00       22.00000      -12345.00
      -12345.00      -12345.00      -12345.00      -12345.00      -12345.00
      -12345.00      -12345.00      -12345.00      -12345.00      -12345.00
       9846.459       338.1810       158.4365       88.55526      -12345.00
      -12345.00      -12345.00       87.80000       90.00000      -12345.00
      -12345.00      -12345.00      -12345.00      -12345.00      -12345.00
      -12345.00      -12345.00      -12345.00      -12345.00      -12345.00
      2016       318        11        14        51
        19         6    -12345    -12345     37200
    -12345    -12345    -12345    -12345    -12345
         1    -12345    -12345    -12345    -12345
    -12345    -12345    -12345    -12345    -12345
    -12345    -12345    -12345    -12345    -12345
    -12345    -12345    -12345    -12345    -12345
         1    -12345    -12345    -12345    -12345
ERM     South Island, Ne
00      -12345  -12345  
-12345  -12345  -12345  
-12345  -12345  -12345  
-12345  -12345  -12345  
-12345  -12345  -12345  
-12345  -12345  BH2     
II      -12345  Metrozet
[...]
       45587.00       41074.00       36434.00       31571.00       26740.00
       21921.00       16898.00       11704.00       6329.000       946.0000
      -4557.000      -10171.00      -15891.00      -21678.00      -27468.00
      -33407.00      -39247.00      -45153.00      -51059.00      -56952.00
      -62954.00      -68776.00      -74610.00      -80386.00      -86100.00
      -91792.00      -97313.00      -102763.0      -108088.0      -113374.0
      -118485.0      -123493.0      -128507.0      -133262.0      -138024.0
      -142712.0      -147289.0      -151921.0      -156498.0      -161091.0
      -165649.0      -170270.0      -174883.0      -179428.0      -184068.0
      -188778.0      -193516.0      -198271.0      -203164.0      -208107.0
      -212987.0      -217938.0      -222940.0      -227893.0      -232871.0
      -237957.0      -243057.0      -248243.0      -253579.0      -258972.0
      -264475.0      -270028.0      -275565.0      -281121.0      -286623.0
      -292075.0      -297590.0      -303108.0      -308609.0      -314234.0
      -319896.0      -325521.0      -331167.0      -336862.0      -342632.0
      -348233.0      -353631.0      -359149.0      -364649.0      -370038.0
      -375386.0      -380584.0      -385674.0      -390748.0      -395777.0
      -400679.0      -405528.0      -410404.0      -415347.0      -420279.0
      -425151.0      -430142.0      -435091.0      -440022.0      -444992.0
      -449914.0      -454823.0      -459590.0      -464292.0      -468954.0
      -473617.0      -478248.0      -482894.0      -487602.0      -492322.0
      -497092.0      -501794.0      -506475.0      -511192.0      -515964.0
      -520683.0      -525456.0      -530407.0      -535339.0      -540356.0
      -545485.0      -550628.0      -555826.0      -561080.0      -566353.0
      -571709.0      -577102.0      -582416.0      -587752.0      -593155.0
      -598674.0      -604189.0      -609703.0      -615221.0      -620792.0
      -626446.0      -631903.0      -637373.0      -642806.0      -648223.0
      -653530.0      -658645.0      -663741.0      -668653.0      -673529.0
      -678224.0      -682823.0      -687424.0      -691912.0      -696298.0
      -700539.0      -704773.0      -708939.0      -713035.0      -717066.0
      -721056.0      -725111.0      -729089.0      -732985.0      -736895.0
      -740819.0      -744641.0      -748332.0      -751959.0      -755409.0
      -758760.0      -762034.0      -765229.0      -768347.0      -771367.0
      -774407.0      -777409.0      -780329.0      -783348.0      -786477.0
      -789600.0      -792817.0      -796179.0      -799676.0      -803313.0
      -807046.0      -810898.0      -814903.0      -818805.0      -822686.0
      -826640.0      -830523.0      -834446.0      -838243.0      -841948.0
      -845682.0      -849434.0      -853159.0      -856786.0      -860385.0
      -863870.0      -867248.0      -870569.0      -873780.0      -876708.0
      -879605.0      -882544.0      -885256.0      -887999.0      -890625.0
      -893122.0      -895577.0      -897868.0      -900010.0      -901951.0
      -903901.0      -905763.0      -907536.0      -909281.0      -911065.0
      -912925.0      -914666.0      -916491.0      -918417.0      -920455.0
      -922586.0      -924751.0      -927109.0      -929617.0      -932293.0
      -935037.0      -937763.0      -940638.0      -943592.0      -946386.0
      -949131.0      -951830.0      -954445.0      -957062.0      -959386.0
      -961511.0      -963643.0      -965663.0      -967677.0      -969669.0
      -971654.0      -973802.0      -975917.0      -978059.0      -980404.0
      -982700.0      -984994.0      -987400.0      -989848.0      -992268.0
      -994686.0      -997107.0      -999502.0      -1001872.      -1004247.
      -1006698.      -1009140.      -1011543.      -1013966.      -1016309.
      -1018474.      -1020627.      -1022677.      -1024517.      -1026254.
      -1027881.      -1029462.      -1030914.      -1032232.      -1033573.
      -1034946.      -1036303.      -1037639.      -1039050.      -1040510.
      -1042081.      -1043777.      -1045590.      -1047560.      -1049539.
      -1051652.      -1053796.      -1055939.      -1058072.      -1060135.
      -1062396.      -1064633.      -1066934.      -1069349.      -1071730.
      -1074194.      -1076639.      -1079065.      -1081330.      -1083503.
      -1085524.      -1087290.      -1088825.      -1089996.      -1090923.
      -1091647.      -1092219.      -1092561.      -1092811.      -1093015.
      -1093123.      -1093255.      -1093315.      -1093530.      -1093768.
      -1093975.      -1094358.      -1094729.      -1095245.      -1095872.
      -1096514.      -1097331.      -1098219.      -1099162.      -1100137.
      -1101191.      -1102306.      -1103417.      -1104556.      -1105702.
      -1106985.      -1108129.      -1109127.      -1110094.      -1110889.
      -1111466.      -1111874.      -1112198.      -1112254.      -1112247.
      -1112056.      -1111741.      -1111467.      -1111042.      -1110592.
      -1110051.      -1109514.      -1108843.      -1108103.      -1107289.
      -1106410.      -1105619.      -1104559.      -1103408.      -1102227.
      -1100968.      -1099666.      -1098249.      -1096779.      -1095224.
      -1093702.      -1092075.      -1090337.      -1088572.      -1086748.
      -1084866.      -1082814.      -1080751.      -1078665.      -1076506.
      -1074274.      -1071927.      -1069615.      -1067296.      -1064909.
      -1062506.      -1060054.      -1057590.      -1055034.      -1052302.
      -1049512.      -1046663.      -1043654.      -1040456.      -1037269.
      -1034014.      -1030586.      -1027222.      -1023900.      -1020540.
      -1017162.      -1013823.      -1010586.      -1007356.      -1004116.
      -1001043.      -997976.0      -994877.0      -991861.0      -988879.0
      -985931.0      -982951.0      -979997.0      -976971.0      -973956.0
      -970951.0      -967877.0      -964881.0      -961876.0      -959002.0
      -956158.0      -953314.0      -950591.0      -947811.0      -945016.0
      -942269.0      -939508.0      -936589.0      -933504.0      -930260.0
      -926829.0      -923242.0      -919344.0      -915247.0      -911080.0
      -906637.0      -902075.0      -897431.0      -892585.0      -887660.0
      -882729.0      -877766.0      -872617.0      -867407.0      -862232.0
      -857106.0      -851840.0      -846460.0      -841152.0      -835761.0
      -830339.0      -824830.0      -819400.0      -813998.0      -808578.0
      -803321.0      -798136.0      -793133.0      -788146.0      -783261.0
      -778547.0      -773880.0      -769365.0      -764858.0      -760435.0
      -756072.0      -751713.0      -747373.0      -742975.0      -738618.0
      -734286.0      -730066.0      -725869.0      -721545.0      -717267.0
      -713009.0      -708627.0      -704167.0      -699641.0      -695062.0
      -690384.0      -685614.0      -680800.0      -675797.0      -670752.0
      -665704.0      -660593.0      -655559.0      -650405.0      -645222.0
      -640160.0      -635059.0      -629965.0      -624877.0      -619847.0
      -614847.0      -609836.0      -604848.0      -599837.0      -594866.0
      -589814.0      -584703.0      -579634.0      -574493.0      -569302.0
      -564103.0      -558786.0      -553379.0      -547986.0      -542403.0
      -536781.0      -531279.0      -525773.0      -520228.0      -514625.0
      -509145.0      -503683.0      -498197.0      -492710.0      -487188.0
      -481751.0      -476276.0      -470780.0      -465225.0      -459536.0
      -453803.0      -448058.0      -442299.0      -436520.0      -430721.0
      -424946.0      -419344.0      -413804.0      -408414.0      -403152.0
      -397778.0      -392532.0      -387369.0      -382164.0      -376876.0
      -371502.0      -366160.0      -360896.0      -355722.0      -350534.0
      -345330.0      -340161.0      -335039.0      -329884.0      -324623.0
      -319308.0      -313955.0      -308583.0      -303204.0      -297776.0
      -292400.0      -287051.0      -281661.0      -276332.0      -271047.0
      -265839.0      -260616.0      -255315.0      -249935.0      -244506.0
      -239079.0      -233526.0      -227840.0      -221918.0      -215928.0
      -209874.0      -203749.0      -197691.0      -191603.0      -185546.0
      -179503.0      -173652.0      -167751.0      -161674.0      -155626.0
      -149463.0      -143188.0      -136896.0      -130636.0      -124321.0
      -118091.0      -111917.0      -105843.0      -99909.00      -94132.00
      -88620.00      -83094.00      -77781.00      -72733.00      -67791.00
      -63064.00      -58496.00      -54076.00      -49659.00      -45245.00
      -40943.00      -36659.00      -32339.00      -27926.00      -23465.00
      -18949.00      -14260.00      -9431.000      -4420.000       724.0000
       5924.000       11112.00       16340.00       21588.00       26721.00
       31867.00       36942.00       42065.00       47181.00       52155.00
       57179.00       62121.00       67029.00       72012.00       76873.00
       81653.00       86636.00       91570.00       96453.00       101518.0
       106542.0       111527.0       116556.0       121666.0       126779.0
       131867.0       136924.0       142053.0       147321.0       152547.0
       157857.0       163196.0       168586.0       174091.0       179589.0
       185173.0       190758.0       196381.0       201896.0       207394.0
       212967.0       218350.0       223791.0       229168.0       234422.0
       239756.0       245088.0       250420.0       255786.0       261064.0
       266392.0       271780.0       277027.0       282413.0       287695.0
       292945.0       298399.0       303751.0       309206.0       314791.0
       320378.0       326047.0       331824.0       337640.0       343454.0
       349351.0       355330.0       361411.0       367495.0       373630.0
       379934.0       386154.0       392388.0       398681.0       404849.0
       410960.0       416987.0       423020.0       429004.0       434919.0
       440877.0       446830.0       452836.0       458810.0       464860.0
       470914.0       476968.0       483120.0       489235.0       495435.0
       501655.0       507939.0       514195.0       520599.0       527204.0
       533854.0       540739.0       547612.0       554542.0       561598.0
       568630.0       575659.0       582693.0       589638.0       596416.0
       603309.0       610161.0       616868.0       623689.0       630504.0
       637294.0       644015.0       650794.0       657597.0       664239.0
       670877.0       677423.0       683962.0       690517.0       697092.0
       703684.0       710223.0       716893.0       723415.0       729973.0
       736572.0       742927.0       749378.0       755708.0       762015.0
       768287.0       774352.0       780401.0       786360.0       792306.0
       798185.0       804089.0       810010.0       815846.0       821681.0
       827557.0       833481.0       839373.0       845311.0       851178.0
       857124.0       863199.0       869138.0       875165.0       881169.0
       887142.0       893220.0       899299.0       905411.0       911530.0
       917703.0       923937.0       930280.0       936584.0       942880.0
       949315.0       955722.0       962225.0       968855.0       975513.0
       982307.0       989229.0       996168.0       1003156.       1010159.
       1017117.       1023885.       1030477.       1036969.       1043176.
       1049212.       1055023.       1060612.       1066011.       1071205.
       1076320.       1081173.       1085899.       1090482.       1094953.
       1099349.       1103659.       1107993.       1112166.       1116394.
       1120613.       1124766.       1128881.       1132995.       1137268.
       1141411.       1145563.       1149779.       1153955.       1158059.
       1162084.       1166186.       1170260.       1174250.       1178161.
       1182135.       1186107.       1189930.       1193768.       1197594.
       1201392.       1205187.       1208969.       1212773.       1216588.
       1220429.       1224344.       1228288.       1232263.       1236288.
       1240402.       1244594.       1248890.       1253303.       1257615.
       1261948.       1266381.       1270591.       1274545.       1278468.
       1282202.       1285618.       1288835.       1291736.       1294391.
       1296823.       1298905.       1300890.       1302770.       1304364.
       1305755.       1306973.       1308055.       1308986.       1309828.
       1310587.       1311224.       1311768.       1312228.       1312621.
       1312877.       1313084.       1313113.       1313007.       1312781.
       1312384.       1312014.       1311546.       1311100.       1310646.
       1310137.       1309692.       1309234.       1308698.       1308063.
       1307471.       1306744.       1305916.       1305153.       1304292.
       1303418.       1302488.       1301475.       1300445.       1299344.
       1298251.       1297111.       1295935.       1294779.       1293573.
       1292301.       1290875.       1289354.       1287757.       1285972.
       1284007.       1281895.       1279597.       1277029.       1274312.
       1271428.       1268127.       1264530.       1260755.       1256674.
       1252364.       1247963.       1243504.       1239065.       1234656.
       1230174.       1225673.       1221181.       1216566.       1211749.
       1206785.       1201799.       1196662.       1191292.       1185833.
       1180263.       1174546.       1168785.       1163013.       1157081.
       1151037.       1144988.       1138920.       1132926.       1126834.
       1120550.       1114230.       1107798.       1101350.       1094848.
       1088097.       1081328.       1074585.       1067740.       1060794.
       1053739.       1046653.       1039548.       1032321.       1024936.
       1017556.       1010056.       1002287.       994388.0       986304.0
       978060.0       969653.0       961076.0       952333.0       943419.0
       934478.0       925428.0       916193.0       906828.0       897373.0
       887739.0       878026.0       868335.0       858510.0       848652.0
       838776.0       828907.0       819027.0       809066.0       799145.0
       789315.0       779439.0       769508.0       759693.0       749776.0
       739750.0       729736.0       719589.0       709262.0       698745.0
       688110.0       677239.0       666322.0       655382.0       644236.0
       633063.0       621792.0       610524.0       599215.0       587728.0
       576070.0       564250.0       552339.0       540311.0       528295.0
       516212.0       504141.0       492104.0       479901.0       467858.0
       455842.0       443780.0       431837.0       419825.0       407793.0
       395782.0       383860.0       371894.0       360025.0       348327.0
       336641.0       325063.0       313460.0       301922.0       290402.0
       278841.0       267290.0       255774.0       244441.0       233090.0
       221828.0       210667.0       199536.0       188538.0       177542.0
       166728.0       156008.0       145261.0       134551.0       123854.0
       113220.0       102552.0       91919.00       81306.00       70756.00
       60220.00       49602.00       39211.00       28803.00       18400.00
       8167.000      -2039.000      -12198.00      -22401.00      -32588.00
      -42765.00      -52903.00      -63081.00      -73207.00      -83212.00
      -93239.00      -103219.0      -113135.0      -123041.0      -132925.0
      -142719.0      -152499.0      -162268.0      -172031.0      -181652.0
      -191164.0      -200617.0      -209929.0      -219318.0      -228571.0
      -237576.0      -246486.0      -255219.0      -263842.0      -272358.0
      -280682.0      -288875.0      -296972.0      -304915.0      -312814.0
      -320657.0      -328350.0      -336010.0      -343583.0      -351151.0
      -358597.0      -365834.0      -373067.0      -380001.0      -386711.0
      -393378.0      -399933.0      -406506.0      -413021.0      -419561.0
      -426113.0      -432726.0      -439472.0      -446149.0      -452690.0
      -459086.0      -465397.0      -471607.0      -477760.0      -483758.0
      -489705.0      -495617.0      -501450.0      -507376.0      -513118.0
      -518761.0      -524482.0      -530165.0      -535808.0      -541474.0
      -547146.0      -552803.0      -558452.0      -564131.0      -569879.0
      -575608.0      -581285.0      -586975.0      -592727.0      -598316.0
      -603862.0      -609383.0      -614778.0      -620101.0      -625355.0
      -630652.0      -635777.0      -640844.0      -645864.0      -650767.0
      -655657.0      -660415.0      -665233.0      -670110.0      -674930.0
      -679724.0      -684535.0      -689259.0      -693794.0      -698357.0
      -702770.0      -707004.0      -711283.0      -715474.0      -719579.0
      -723595.0      -727547.0      -731465.0      -735272.0      -739014.0
      -742659.0      -746219.0      -749709.0      -753077.0      -756391.0
      -759697.0      -762960.0      -766285.0      -769651.0      -772985.0
      -776401.0      -779839.0      -783219.0      -786661.0      -790107.0
      -793443.0      -796822.0      -800087.0      -803366.0      -806729.0
      -809875.0      -813083.0      -816344.0      -819501.0      -822635.0
      -825780.0      -828876.0      -831854.0      -834786.0      -837655.0
      -840453.0      -843211.0      -845950.0      -848716.0      -851444.0
      -854177.0      -856919.0      -859613.0      -862324.0      -865063.0
      -867785.0      -870235.0      -872644.0      -875083.0      -877353.0
      -879547.0      -881648.0      -883787.0      -885888.0      -887887.0
      -889729.0      -891607.0      -893408.0      -894938.0      -896477.0
      -897831.0      -899078.0      -900214.0      -901226.0      -902245.0
      -903099.0      -904004.0      -905010.0      -906126.0      -907321.0
      -908585.0      -909957.0      -911305.0      -912828.0      -914288.0
      -915767.0      -917315.0      -918678.0      -920117.0      -921468.0
