     0.02500000      -12345.00      -12345.00   1.999030e+09      -12345.00
   0.0005380000       1859.976      -643.0195      -12345.00      -12345.00
      -12345.00      -12345.00      -12345.00      -12345.00      -12345.00
      -12345.00      -12345.00      -12345.00      -12345.00      -12345.00
      -12345.00      -12345.00      -12345.00      -12345.00      -12345.00
      -12345.00      -12345.00      -12345.00      -12345.00      -12345.00
      -12345.00      -51.67530      -58.06370       110.0000       3.200000
      -42.72450       173.0647      -12345.00       22.00000      -12345.00
      -12345.00      -12345.00      -12345.00      -12345.00      -12345.00
      -12345.00      -12345.00      -12345.00      -12345.00      -12345.00
       8456.483       150.0322       216.2375       76.05435      -12345.00
      -12345.00      -12345.00       0.000000       0.000000      -12345.00
      -12345.00      -12345.00      -12345.00      -12345.00      -12345.00
      -12345.00      -12345.00      -12345.00      -12345.00      -12345.00
      2016       318        11        13        42
        19         6    -12345    -12345     74400
    -12345    -12345    -12345    -12345    -12345
         1    -12345    -12345    -12345    -12345
    -12345    -12345    -12345    -12345    -12345
    -12345    -12345    -12345    -12345    -12345
    -12345    -12345    -12345    -12345    -12345
         1    -12345    -12345    -12345    -12345
EFI     South Island, Ne
10      -12345  -12345  
-12345  -12345  -12345  
-12345  -12345  -12345  
-12345  -12345  -12345  
-12345  -12345  -12345  
-12345  -12345  BHZ     
II      -12345  Nanometr
[...]
      -200253.0      -199378.0      -198540.0      -197671.0      -196791.0
      -195837.0      -194828.0      -193964.0      -193020.0      -192031.0
      -191029.0      -189988.0      -188996.0      -187958.0      -186937.0
      -185839.0      -184756.0      -183610.0      -182374.0      -181288.0
      -180099.0      -178975.0      -177814.0      -176535.0      -175370.0
      -174122.0      -172927.0      -171712.0      -170459.0      -169213.0
      -167887.0      -166612.0      -165322.0      -163973.0      -162624.0
      -161318.0      -159990.0      -158654.0      -157345.0      -155989.0
      -154615.0      -153239.0      -151870.0      -150539.0      -149196.0
      -147826.0      -146432.0      -144994.0      -143599.0      -142215.0
      -140789.0      -139412.0      -138007.0      -136534.0      -135024.0
      -133581.0      -132237.0      -130827.0      -129410.0      -127992.0
      -126600.0      -125250.0      -123866.0      -122542.0      -121183.0
      -119746.0      -118332.0      -116987.0      -115695.0      -114325.0
      -112949.0      -111582.0      -110188.0      -108815.0      -107449.0
      -106036.0      -104572.0      -103184.0      -101752.0      -100289.0
      -98858.00      -97434.00      -96010.00      -94509.00      -93008.00
      -91518.00      -90074.00      -88518.00      -86994.00      -85518.00
      -83936.00      -82523.00      -80969.00      -79396.00      -77866.00
      -76237.00      -74763.00      -73182.00      -71522.00      -69923.00
      -68326.00      -66741.00      -65124.00      -63427.00      -61805.00
      -60246.00      -58591.00      -56929.00      -55233.00      -53548.00
      -51894.00      -50288.00      -48584.00      -46778.00      -45077.00
      -43363.00      -41721.00      -40111.00      -38383.00      -36662.00
      -34971.00      -33249.00      -31569.00      -29987.00      -28268.00
      -26501.00      -24902.00      -23264.00      -21578.00      -19899.00
      -18151.00      -16470.00      -14833.00      -13173.00      -11539.00
      -9742.000      -8101.000      -6579.000      -4755.000      -3284.000
      -1769.000       116.0000       1665.000       3318.000       4977.000
       6523.000       8278.000       9876.000       11586.00       13301.00
       14795.00       16547.00       18338.00       20050.00       21725.00
       23284.00       25032.00       26869.00       28556.00       30185.00
       31914.00       33693.00       35282.00       36971.00       38756.00
       40402.00       42176.00       43938.00       45509.00       47165.00
       48978.00       50651.00       52257.00       53936.00       55600.00
       57295.00       58959.00       60551.00       62141.00       63774.00
       65350.00       66885.00       68483.00       70043.00       71621.00
       73219.00       74702.00       76310.00       77981.00       79365.00
       80902.00       82593.00       84023.00       85458.00       87034.00
       88591.00       89923.00       91392.00       92892.00       94165.00
       95619.00       96995.00       98387.00       99778.00       101019.0
       102353.0       103686.0       105081.0       106318.0       107621.0
       109119.0       110320.0       111517.0       112799.0       114104.0
       115440.0       116709.0       118077.0       119353.0       120672.0
       122050.0       123274.0       124563.0       125851.0       127195.0
       128467.0       129657.0       130968.0       132272.0       133688.0
       134949.0       136081.0       137321.0       138385.0       139544.0
       140911.0       142053.0       143212.0       144485.0       145517.0
       146714.0       148023.0       149070.0       150227.0       151423.0
       152519.0       153884.0       154912.0       155747.0       157118.0
       158279.0       159423.0       160646.0       161712.0       162955.0
       164076.0       165179.0       166305.0       167398.0       168633.0
       169832.0       170998.0       172216.0       173327.0       174448.0
       175612.0       176670.0       177887.0       179004.0       180006.0
       181093.0       182128.0       183270.0       184254.0       185259.0
       186469.0       187505.0       188457.0       189432.0       190412.0
       191360.0       192227.0       193183.0       194149.0       195074.0
       196058.0       196905.0       197759.0       198649.0       199523.0
       200380.0       201251.0       202119.0       202829.0       203750.0
       204493.0       205170.0       206110.0       206764.0       207413.0
       208145.0       208907.0       209590.0       210108.0       210711.0
       211240.0       211875.0       212516.0       212973.0       213461.0
       213891.0       214393.0       214848.0       215230.0       215601.0
       215968.0       216447.0       216772.0       217090.0       217466.0
       217842.0       218144.0       218381.0       218769.0       219062.0
       219372.0       219677.0       219859.0       220227.0       220623.0
       220854.0       221072.0       221398.0       221653.0       221873.0
       222164.0       222474.0       222786.0       222927.0       223226.0
       223651.0       223838.0       224159.0       224508.0       224762.0
       225009.0       225242.0       225616.0       225735.0       225854.0
       226210.0       226375.0       226644.0       226896.0       227060.0
       227300.0       227422.0       227606.0       227859.0       228095.0
       228271.0       228332.0       228361.0       228502.0       228717.0
       228733.0       228693.0       228845.0       228892.0       228881.0
       229033.0       228989.0       228921.0       228997.0       229037.0
       229002.0       228906.0       228915.0       228813.0       228670.0
       228676.0       228734.0       228697.0       228425.0       228294.0
       228339.0       228274.0       228139.0       227847.0       227699.0
       227764.0       227509.0       227206.0       226988.0       226704.0
       226522.0       226308.0       226034.0       225720.0       225389.0
       225094.0       224669.0       224268.0       224025.0       223636.0
       223098.0       222648.0       222261.0       221787.0       221288.0
       220747.0       220188.0       219745.0       219234.0       218637.0
       218057.0       217487.0       216917.0       216294.0       215665.0
       215081.0       214499.0       213824.0       213132.0       212520.0
       211908.0       211246.0       210548.0       209907.0       209235.0
       208504.0       207836.0       207109.0       206355.0       205646.0
       204927.0       204178.0       203390.0       202671.0       201937.0
       201129.0       200380.0       199624.0       198832.0       198037.0
       197253.0       196462.0       195563.0       194767.0       194131.0
       193268.0       192364.0       191578.0       190789.0       189958.0
       189033.0       188280.0       187507.0       186642.0       185800.0
       184885.0       184021.0       183088.0       182151.0       181267.0
       180287.0       179303.0       178349.0       177356.0       176344.0
       175312.0       174237.0       173131.0       172080.0       171028.0
       169936.0       168855.0       167694.0       166576.0       165399.0
       164245.0       163168.0       161941.0       160754.0       159537.0
       158326.0       157188.0       155946.0       154683.0       153436.0
       152198.0       150957.0       149736.0       148495.0       147197.0
       145941.0       144651.0       143364.0       142148.0       140871.0
       139598.0       138354.0       137123.0       135908.0       134625.0
       133373.0       132127.0       130913.0       129710.0       128393.0
       127177.0       126017.0       124755.0       123436.0       122234.0
       121099.0       119786.0       118525.0       117357.0       116134.0
       114871.0       113650.0       112470.0       111201.0       110046.0
       108898.0       107606.0       106474.0       105401.0       104078.0
       102803.0       101717.0       100461.0       99263.00       98105.00
       96806.00       95644.00       94446.00       93180.00       91969.00
       90697.00       89387.00       88288.00       87181.00       85652.00
       84305.00       83101.00       81810.00       80625.00       79262.00
       77934.00       76610.00       75269.00       74045.00       72775.00
       71328.00       69763.00       68463.00       67218.00       65809.00
       64340.00       62886.00       61467.00       60119.00       58803.00
       57275.00       55825.00       54458.00       52983.00       51406.00
       49922.00       48548.00       47123.00       45646.00       43848.00
       42399.00       41009.00       39230.00       37874.00       36317.00
       34537.00       33016.00       31409.00       29908.00       28260.00
       26526.00       25009.00       23262.00       21584.00       19974.00
       18333.00       16819.00       15130.00       13511.00       11925.00
       10258.00       8654.000       7014.000       5402.000       3709.000
       2004.000       340.0000      -1369.000      -2977.000      -4559.000
      -6270.000      -8000.000      -9679.000      -11392.00      -13049.00
      -14777.00      -16587.00      -18231.00      -19901.00      -21579.00
      -23144.00      -24933.00      -26787.00      -28439.00      -30128.00
      -31812.00      -33515.00      -35261.00      -36888.00      -38534.00
      -40312.00      -42085.00      -43830.00      -45459.00      -47037.00
      -48777.00      -50545.00      -52383.00      -54110.00      -55716.00
      -57431.00      -59159.00      -60838.00      -62429.00      -64111.00
      -65821.00      -67499.00      -69137.00      -70807.00      -72557.00
      -74183.00      -75871.00      -77565.00      -79209.00      -80932.00
      -82634.00      -84357.00      -86041.00      -87701.00      -89420.00
      -91055.00      -92687.00      -94478.00      -96204.00      -97806.00
      -99506.00      -101206.0      -102883.0      -104560.0      -106168.0
      -107854.0      -109483.0      -111058.0      -112715.0      -114264.0
      -115840.0      -117461.0      -118997.0      -120582.0      -122140.0
      -123631.0      -125178.0      -126724.0      -128341.0      -129931.0
      -131351.0      -132855.0      -134364.0      -135887.0      -137471.0
      -138921.0      -140432.0      -141981.0      -143456.0      -144978.0
      -146539.0      -148081.0      -149576.0      -151185.0      -152753.0
      -154248.0      -155892.0      -157408.0      -158908.0      -160517.0
      -162065.0      -163653.0      -165131.0      -166622.0      -168232.0
      -169758.0      -171336.0      -172792.0      -174191.0      -175742.0
      -177223.0      -178668.0      -180125.0      -181611.0      -183183.0
      -184701.0      -186127.0      -187645.0      -189167.0      -190603.0
      -192033.0      -193534.0      -195170.0      -196640.0      -198086.0
      -199668.0      -201078.0      -202593.0      -204139.0      -205601.0
      -207129.0      -208545.0      -210054.0      -211519.0      -212943.0
      -214412.0      -215700.0      -217174.0      -218613.0      -219927.0
      -221380.0      -222631.0      -224037.0      -225443.0      -226653.0
      -227962.0      -229285.0      -230732.0      -231844.0      -233008.0
      -234378.0      -235509.0      -236836.0      -237976.0      -239061.0
      -240264.0      -241333.0      -242521.0      -243615.0      -244651.0
      -245724.0      -246853.0      -247938.0      -248917.0      -250022.0
      -251068.0      -252029.0      -253034.0      -254073.0      -255054.0
      -255952.0      -256880.0      -257797.0      -258759.0      -259671.0
      -260509.0      -261420.0      -262299.0      -263092.0      -263857.0
      -264770.0      -265649.0      -266402.0      -267216.0      -267941.0
      -268748.0      -269599.0      -270227.0      -270880.0      -271632.0
      -272286.0      -273018.0      -273633.0      -274143.0      -274906.0
      -275465.0      -275962.0      -276647.0      -277173.0      -277700.0
      -278353.0      -278903.0      -279423.0      -279870.0      -280288.0
      -280899.0      -281316.0      -281687.0      -282214.0      -282704.0
      -283205.0      -283635.0      -284070.0      -284459.0      -284837.0
      -285202.0      -285551.0      -286025.0      -286355.0      -286654.0
      -286963.0      -287260.0      -287560.0      -287771.0      -288008.0
      -288174.0      -288448.0      -288703.0      -288864.0      -289028.0
      -289154.0      -289460.0      -289573.0      -289600.0      -289828.0
      -289785.0      -289710.0      -289849.0      -289982.0      -290045.0
      -289991.0      -290048.0      -290056.0      -290016.0      -290008.0
      -289889.0      -289907.0      -289748.0      -289604.0      -289659.0
      -289477.0      -289340.0      -289224.0      -289051.0      -288940.0
      -288747.0      -288538.0      -288367.0      -288209.0      -288067.0
      -287955.0      -287753.0      -287459.0      -287216.0      -286974.0
      -286792.0      -286703.0      -286401.0      -286048.0      -285907.0
      -285785.0      -285648.0      -285397.0      -285009.0      -284662.0
      -284516.0      -284403.0      -284102.0      -283682.0      -283336.0
      -283295.0      -283086.0      -282727.0      -282496.0      -282184.0
      -281936.0      -281679.0      -281391.0      -281009.0      -280652.0
      -280332.0      -279947.0      -279674.0      -279292.0      -278819.0
      -278409.0      -278000.0      -277472.0      -276942.0      -276449.0
      -275852.0      -275342.0      -274832.0      -274176.0      -273517.0
      -272865.0      -272220.0      -271501.0      -270777.0      -270144.0
      -269356.0      -268545.0      -267777.0      -266963.0      -266179.0
      -265338.0      -264442.0      -263476.0      -262650.0      -261823.0
      -260873.0      -259965.0      -258886.0      -257927.0      -257049.0
      -255972.0      -254894.0      -253841.0      -252804.0      -251752.0
      -250707.0      -249610.0      -248444.0      -247410.0      -246421.0
      -245309.0      -244149.0      -243007.0      -241896.0      -240782.0
      -239692.0      -238534.0      -237281.0      -236221.0      -235131.0
      -233867.0      -232752.0      -231611.0      -230326.0      -229119.0
      -227937.0      -226699.0      -225453.0      -224194.0      -222914.0
      -221657.0      -220388.0      -219095.0      -217763.0      -216454.0
      -215143.0      -213792.0      -212503.0      -211131.0      -209768.0
      -208383.0      -206963.0      -205595.0      -204147.0      -202702.0
      -201193.0      -199727.0      -198220.0      -196639.0      -195150.0
      -193561.0      -191997.0      -190458.0      -188901.0      -187270.0
      -185667.0      -184069.0      -182362.0      -180832.0      -179192.0
      -177485.0      -175882.0      -174263.0      -172572.0      -170782.0
      -169207.0      -167617.0      -165904.0      -164201.0      -162535.0
      -160877.0      -159061.0      -157442.0      -155771.0      -153917.0
      -152221.0      -150479.0      -148685.0      -146866.0      -145159.0
      -143439.0      -141554.0      -139784.0      -138034.0      -136222.0
      -134417.0      -132665.0      -130835.0      -128978.0      -127218.0
      -125377.0      -123638.0      -121774.0      -119824.0      -118114.0
      -116302.0      -114467.0      -112629.0      -110820.0      -109060.0
      -107195.0      -105447.0      -103539.0      -101525.0      -99768.00
      -97985.00      -96174.00      -94280.00      -92315.00      -90530.00
      -88796.00      -87017.00      -85220.00      -83254.00      -81342.00
      -79690.00      -77853.00      -76054.00      -74277.00      -72388.00
      -70715.00      -68883.00      -67133.00      -65400.00      -63491.00
      -61737.00      -59945.00      -58224.00      -56424.00      -54623.00
      -52973.00      -51127.00      -49368.00      -47742.00      -45966.00
      -44162.00      -42527.00      -40859.00      -39009.00      -37307.00
      -35650.00      -33813.00      -32058.00      -30315.00      -28466.00
      -26711.00      -24939.00      -23136.00      -21373.00      -19529.00
      -17727.00      -15905.00      -14026.00      -12244.00      -10432.00
      -8529.000      -6673.000      -4904.000      -3076.000      -1220.000
       659.0000       2461.000       4263.000       6199.000       8044.000
       9921.000       11807.00       13715.00       15672.00       17542.00
       19421.00       21265.00       23164.00       25100.00       26954.00
       28853.00       30778.00       32707.00       34624.00       36450.00
       38381.00       40374.00       42205.00       44075.00       46054.00
       47957.00       49778.00       51648.00       53541.00       55423.00
       57362.00       59259.00       61031.00       62897.00       64767.00
       66525.00       68410.00       70183.00       71894.00       73736.00
       75526.00       77378.00       79166.00       80877.00       82621.00
       84338.00       86135.00       87900.00       89650.00       91371.00
       93014.00       94857.00       96605.00       98271.00       99989.00
       101528.0       103266.0       105046.0       106724.0       108386.0
       110017.0       111694.0       113244.0       114929.0       116566.0
       118082.0       119747.0       121328.0       122927.0       124594.0
       126228.0       127876.0       129396.0       130814.0       132403.0
       133913.0       135396.0       137024.0       138405.0       139900.0
       141546.0       143038.0       144524.0       146001.0       147556.0
       149091.0       150557.0       152062.0       153509.0       154947.0
       156478.0       157975.0       159445.0       160881.0       162307.0
       163802.0       165198.0       166615.0       168096.0       169556.0
       170989.0       172402.0       173884.0       175338.0       176816.0
       178230.0       179606.0       181057.0       182449.0       183934.0
       185381.0       186701.0       188117.0       189473.0       190783.0
       192191.0       193525.0       194824.0       196220.0       197506.0
