     0.02500000      -12345.00      -12345.00   2.445140e+09      -12345.00
   0.0005380000       1859.976      -712.0195      -12345.00      -12345.00
      -12345.00      -12345.00      -12345.00      -12345.00      -12345.00
      -12345.00      -12345.00      -12345.00      -12345.00      -12345.00
      -12345.00      -12345.00      -12345.00      -12345.00      -12345.00
      -12345.00      -12345.00      -12345.00      -12345.00      -12345.00
      -12345.00       42.01500       143.1572       40.00000       0.000000
      -42.72450       173.0647      -12345.00       22.00000      -12345.00
      -12345.00      -12345.00      -12345.00      -12345.00      -12345.00
      -12345.00      -12345.00      -12345.00      -12345.00      -12345.00
       9846.459       338.1810       158.4365       88.55526      -12345.00
      -12345.00      -12345.00       226.6000       90.00000      -12345.00
      -12345.00      -12345.00      -12345.00      -12345.00      -12345.00
      -12345.00      -12345.00      -12345.00      -12345.00      -12345.00
      2016       318        11        14        51
        19         6    -12345    -12345     74400
    -12345    -12345    -12345    -12345    -12345
         1    -12345    -12345    -12345    -12345
    -12345    -12345    -12345    -12345    -12345
    -12345    -12345    -12345    -12345    -12345
    -12345    -12345    -12345    -12345    -12345
         1    -12345    -12345    -12345    -12345
ERM     South Island, Ne
10      -12345  -12345  
-12345  -12345  -12345  
-12345  -12345  -12345  
-12345  -12345  -12345  
-12345  -12345  -12345  
-12345  -12345  BH1     
II      -12345  Streckei
[...]
       250238.0       248570.0       246904.0       245258.0       243535.0
       241838.0       240157.0       238428.0       236754.0       235070.0
       233367.0       231632.0       229896.0       228148.0       226316.0
       224554.0       222718.0       220846.0       219011.0       217080.0
       215241.0       213393.0       211436.0       209489.0       207532.0
       205574.0       203619.0       201666.0       199674.0       197683.0
       195659.0       193599.0       191650.0       189586.0       187463.0
       185439.0       183279.0       181114.0       178996.0       176805.0
       174622.0       172451.0       170229.0       167930.0       165637.0
       163318.0       160947.0       158670.0       156333.0       153946.0
       151674.0       149313.0       146892.0       144454.0       142068.0
       139742.0       137275.0       134901.0       132503.0       129987.0
       127576.0       125099.0       122662.0       120288.0       117904.0
       115560.0       113204.0       110910.0       108610.0       106313.0
       104062.0       101816.0       99641.00       97507.00       95415.00
       93355.00       91232.00       89115.00       87123.00       85120.00
       83113.00       81205.00       79289.00       77402.00       75568.00
       73757.00       71940.00       70107.00       68346.00       66608.00
       64873.00       63116.00       61367.00       59650.00       57852.00
       56065.00       54332.00       52587.00       50863.00       49127.00
       47363.00       45680.00       43949.00       42178.00       40512.00
       38728.00       36933.00       35235.00       33458.00       31733.00
       30002.00       28139.00       26353.00       24613.00       22778.00
       20945.00       19154.00       17379.00       15517.00       13634.00
       11818.00       9954.000       8130.000       6270.000       4378.000
       2524.000       599.0000      -1299.000      -3216.000      -5093.000
      -7021.000      -9004.000      -10780.00      -12716.00      -14678.00
      -16508.00      -18549.00      -20515.00      -22394.00      -24356.00
      -26249.00      -28102.00      -30065.00      -32014.00      -33819.00
      -35753.00      -37709.00      -39506.00      -41422.00      -43347.00
      -45154.00      -47103.00      -49109.00      -50924.00      -52817.00
      -54878.00      -56702.00      -58608.00      -60740.00      -62634.00
      -64633.00      -66772.00      -68707.00      -70747.00      -72853.00
      -74837.00      -76885.00      -78985.00      -80985.00      -83025.00
      -85140.00      -87160.00      -89221.00      -91320.00      -93372.00
      -95456.00      -97558.00      -99614.00      -101675.0      -103822.0
      -105900.0      -107924.0      -109986.0      -112041.0      -114013.0
      -115989.0      -118032.0      -119992.0      -121965.0      -123932.0
      -125789.0      -127648.0      -129537.0      -131343.0      -133136.0
      -134991.0      -136791.0      -138633.0      -140492.0      -142201.0
      -143906.0      -145706.0      -147418.0      -149116.0      -150939.0
      -152675.0      -154430.0      -156275.0      -158013.0      -159756.0
      -161531.0      -163298.0      -165057.0      -166844.0      -168677.0
      -170404.0      -172151.0      -173936.0      -175659.0      -177464.0
      -179226.0      -180965.0      -182768.0      -184424.0      -186134.0
      -187868.0      -189469.0      -191124.0      -192791.0      -194525.0
      -196257.0      -197895.0      -199506.0      -201098.0      -202755.0
      -204377.0      -205969.0      -207620.0      -209261.0      -210902.0
      -212552.0      -214182.0      -215839.0      -217461.0      -219055.0
      -220635.0      -222218.0      -223843.0      -225402.0      -227037.0
      -228657.0      -230229.0      -231888.0      -233519.0      -235106.0
      -236692.0      -238368.0      -240041.0      -241715.0      -243435.0
      -245107.0      -246807.0      -248550.0      -250255.0      -251919.0
      -253627.0      -255334.0      -257004.0      -258754.0      -260405.0
      -262000.0      -263716.0      -265313.0      -266943.0      -268599.0
      -270103.0      -271669.0      -273265.0      -274836.0      -276346.0
      -277846.0      -279346.0      -280810.0      -282356.0      -283888.0
      -285376.0      -286908.0      -288433.0      -289877.0      -291367.0
      -292885.0      -294368.0      -295908.0      -297383.0      -298895.0
      -300463.0      -301984.0      -303534.0      -305032.0      -306527.0
      -308007.0      -309479.0      -310979.0      -312332.0      -313713.0
      -315146.0      -316446.0      -317817.0      -319174.0      -320427.0
      -321767.0      -323055.0      -324231.0      -325522.0      -326846.0
      -328126.0      -329462.0      -330733.0      -332035.0      -333407.0
      -334685.0      -336027.0      -337416.0      -338745.0      -340050.0
      -341362.0      -342667.0      -343925.0      -345268.0      -346616.0
      -347835.0      -349038.0      -350298.0      -351538.0      -352678.0
      -353862.0      -354998.0      -356062.0      -357184.0      -358146.0
      -359128.0      -360233.0      -361183.0      -362094.0      -363047.0
      -363980.0      -364872.0      -365791.0      -366648.0      -367477.0
      -368405.0      -369171.0      -370025.0      -370938.0      -371681.0
      -372609.0      -373498.0      -374298.0      -375193.0      -376046.0
      -376914.0      -377761.0      -378656.0      -379581.0      -380421.0
      -381328.0      -382239.0      -383139.0      -384100.0      -385059.0
      -386048.0      -387050.0      -388058.0      -389082.0      -390105.0
      -391161.0      -392258.0      -393397.0      -394492.0      -395598.0
      -396735.0      -397795.0      -398920.0      -400011.0      -401071.0
      -402225.0      -403294.0      -404341.0      -405370.0      -406402.0
      -407453.0      -408388.0      -409416.0      -410453.0      -411375.0
      -412373.0      -413303.0      -414155.0      -415058.0      -415946.0
      -416812.0      -417701.0      -418530.0      -419329.0      -420220.0
      -421064.0      -421831.0      -422623.0      -423423.0      -424171.0
      -424918.0      -425777.0      -426640.0      -427395.0      -428149.0
      -428956.0      -429712.0      -430510.0      -431409.0      -432155.0
      -432896.0      -433748.0      -434480.0      -435262.0      -436089.0
      -436885.0      -437698.0      -438438.0      -439269.0      -440074.0
      -440787.0      -441608.0      -442372.0      -443069.0      -443881.0
      -444706.0      -445517.0      -446348.0      -447068.0      -447871.0
      -448720.0      -449456.0      -450284.0      -451106.0      -451918.0
      -452719.0      -453549.0      -454398.0      -455189.0      -456122.0
      -456988.0      -457823.0      -458700.0      -459490.0      -460369.0
      -461242.0      -462048.0      -462837.0      -463675.0      -464626.0
      -465450.0      -466184.0      -467002.0      -467802.0      -468646.0
      -469467.0      -470176.0      -470910.0      -471653.0      -472406.0
      -473166.0      -473885.0      -474646.0      -475452.0      -476222.0
      -476998.0      -477769.0      -478520.0      -479276.0      -480035.0
      -480861.0      -481686.0      -482473.0      -483271.0      -484069.0
      -484872.0      -485716.0      -486534.0      -487287.0      -488119.0
      -488978.0      -489844.0      -490732.0      -491523.0      -492326.0
      -493229.0      -494161.0      -495026.0      -495921.0      -496869.0
      -497679.0      -498612.0      -499617.0      -500461.0      -501413.0
      -502331.0      -503222.0      -504169.0      -505050.0      -505990.0
      -506894.0      -507822.0      -508725.0      -509591.0      -510609.0
      -511560.0      -512465.0      -513437.0      -514378.0      -515353.0
      -516374.0      -517381.0      -518352.0      -519341.0      -520370.0
      -521347.0      -522379.0      -523407.0      -524366.0      -525364.0
      -526346.0      -527328.0      -528282.0      -529272.0      -530284.0
      -531249.0      -532272.0      -533263.0      -534284.0      -535305.0
      -536252.0      -537266.0      -538249.0      -539238.0      -540270.0
      -541288.0      -542317.0      -543323.0      -544331.0      -545336.0
      -546359.0      -547379.0      -548368.0      -549447.0      -550519.0
      -551480.0      -552485.0      -553542.0      -554572.0      -555611.0
      -556620.0      -557660.0      -558775.0      -559783.0      -560724.0
      -561753.0      -562871.0      -564019.0      -565110.0      -566240.0
      -567477.0      -568651.0      -569795.0      -571044.0      -572221.0
      -573396.0      -574684.0      -575900.0      -577160.0      -578465.0
      -579709.0      -580977.0      -582245.0      -583567.0      -584896.0
      -586139.0      -587402.0      -588699.0      -589965.0      -591244.0
      -592628.0      -593956.0      -595156.0      -596406.0      -597643.0
      -598899.0      -600195.0      -601439.0      -602657.0      -603852.0
      -605106.0      -606231.0      -607306.0      -608556.0      -609680.0
      -610834.0      -612084.0      -613163.0      -614273.0      -615467.0
      -616647.0      -617795.0      -618918.0      -620090.0      -621269.0
      -622420.0      -623569.0      -624754.0      -625971.0      -627155.0
      -628298.0      -629481.0      -630665.0      -631801.0      -632992.0
      -634175.0      -635272.0      -636443.0      -637653.0      -638830.0
      -640022.0      -641129.0      -642242.0      -643458.0      -644635.0
      -645730.0      -646915.0      -648143.0      -649320.0      -650565.0
      -651722.0      -652829.0      -654005.0      -655143.0      -656287.0
      -657413.0      -658544.0      -659704.0      -660833.0      -661966.0
      -663101.0      -664196.0      -665344.0      -666479.0      -667568.0
      -668736.0      -669843.0      -670971.0      -672127.0      -673169.0
      -674311.0      -675498.0      -676604.0      -677751.0      -678935.0
      -680061.0      -681172.0      -682333.0      -683492.0      -684634.0
      -685822.0      -687030.0      -688228.0      -689420.0      -690544.0
      -691757.0      -692998.0      -694144.0      -695330.0      -696485.0
      -697677.0      -698890.0      -700081.0      -701259.0      -702386.0
      -703654.0      -704850.0      -705945.0      -707207.0      -708430.0
      -709641.0      -710904.0      -712131.0      -713421.0      -714722.0
      -715966.0      -717201.0      -718449.0      -719705.0      -720968.0
      -722232.0      -723503.0      -724768.0      -726030.0      -727316.0
      -728610.0      -729887.0      -731161.0      -732443.0      -733753.0
      -735114.0      -736471.0      -737779.0      -739122.0      -740477.0
      -741757.0      -743072.0      -744427.0      -745770.0      -747104.0
      -748390.0      -749659.0      -750928.0      -752125.0      -753301.0
      -754551.0      -755674.0      -756743.0      -757899.0      -758920.0
      -759934.0      -760958.0      -761879.0      -762802.0      -763708.0
      -764581.0      -765363.0      -766140.0      -766967.0      -767729.0
      -768505.0      -769243.0      -769874.0      -770556.0      -771249.0
      -771910.0      -772550.0      -773175.0      -773833.0      -774440.0
      -775023.0      -775621.0      -776224.0      -776856.0      -777407.0
      -777918.0      -778463.0      -779020.0      -779586.0      -780098.0
      -780629.0      -781168.0      -781652.0      -782190.0      -782702.0
      -783183.0      -783742.0      -784339.0      -784908.0      -785422.0
      -785953.0      -786524.0      -787136.0      -787740.0      -788360.0
      -789011.0      -789609.0      -790258.0      -790889.0      -791478.0
      -792156.0      -792809.0      -793474.0      -794182.0      -794816.0
      -795432.0      -796070.0      -796728.0      -797395.0      -798039.0
      -798710.0      -799411.0      -800053.0      -800633.0      -801250.0
      -801890.0      -802517.0      -803133.0      -803716.0      -804330.0
      -804905.0      -805383.0      -805915.0      -806451.0      -806974.0
      -807512.0      -807977.0      -808445.0      -808897.0      -809357.0
      -809835.0      -810280.0      -810735.0      -811137.0      -811557.0
      -811991.0      -812383.0      -812803.0      -813204.0      -813557.0
      -813969.0      -814389.0      -814699.0      -815122.0      -815577.0
      -815891.0      -816293.0      -816630.0      -816843.0      -817195.0
      -817531.0      -817837.0      -818203.0      -818453.0      -818668.0
      -818863.0      -819029.0      -819224.0      -819392.0      -819559.0
      -819676.0      -819759.0      -819821.0      -819846.0      -819847.0
      -819793.0      -819688.0      -819569.0      -819473.0      -819335.0
      -819128.0      -818854.0      -818593.0      -818341.0      -818012.0
      -817731.0      -817363.0      -816963.0      -816598.0      -816063.0
      -815580.0      -815067.0      -814459.0      -813902.0      -813250.0
      -812618.0      -811958.0      -811256.0      -810629.0      -809923.0
      -809203.0      -808445.0      -807694.0      -806967.0      -806180.0
      -805485.0      -804748.0      -803976.0      -803223.0      -802457.0
      -801666.0      -800826.0      -800071.0      -799272.0      -798415.0
      -797617.0      -796753.0      -795836.0      -794955.0      -793986.0
      -793031.0      -792162.0      -791261.0      -790375.0      -789408.0
      -788565.0      -787707.0      -786670.0      -785818.0      -784902.0
      -784019.0      -783181.0      -782201.0      -781336.0      -780403.0
      -779440.0      -778478.0      -777487.0      -776520.0      -775524.0
      -774605.0      -773581.0      -772554.0      -771534.0      -770431.0
      -769421.0      -768340.0      -767205.0      -766136.0      -765063.0
      -763946.0      -762802.0      -761616.0      -760402.0      -759253.0
      -758088.0      -756871.0      -755704.0      -754551.0      -753342.0
      -752159.0      -750977.0      -749749.0      -748547.0      -747380.0
      -746178.0      -744945.0      -743800.0      -742583.0      -741334.0
      -740194.0      -738917.0      -737658.0      -736442.0      -735122.0
      -733829.0      -732526.0      -731220.0      -729795.0      -728346.0
      -726935.0      -725449.0      -723977.0      -722425.0      -720860.0
      -719280.0      -717606.0      -715922.0      -714238.0      -712505.0
      -710655.0      -708773.0      -706862.0      -704894.0      -702889.0
      -700844.0      -698796.0      -696658.0      -694463.0      -692226.0
      -689990.0      -687759.0      -685460.0      -683174.0      -680801.0
      -678474.0      -676186.0      -673837.0      -671523.0      -669122.0
      -666710.0      -664326.0      -661920.0      -659574.0      -657268.0
      -654856.0      -652403.0      -649973.0      -647526.0      -645096.0
      -642637.0      -640202.0      -637788.0      -635319.0      -632775.0
      -630237.0      -627827.0      -625305.0      -622692.0      -620156.0
      -617543.0      -614934.0      -612340.0      -609745.0      -607093.0
      -604409.0      -601816.0      -599166.0      -596510.0      -593824.0
      -591133.0      -588500.0      -585786.0      -583116.0      -580493.0
      -577848.0      -575252.0      -572586.0      -569890.0      -567253.0
      -564541.0      -561822.0      -559154.0      -556433.0      -553680.0
      -550981.0      -548278.0      -545579.0      -542831.0      -539989.0
      -537222.0      -534452.0      -531617.0      -528882.0      -526109.0
      -523225.0      -520437.0      -517625.0      -514765.0      -511939.0
      -509059.0      -506201.0      -503389.0      -500598.0      -497717.0
      -494804.0      -492005.0      -489101.0      -486193.0      -483378.0
      -480453.0      -477484.0      -474514.0      -471574.0      -468608.0
      -465569.0      -462595.0      -459530.0      -456442.0      -453380.0
      -450175.0      -447047.0      -443912.0      -440727.0      -437543.0
      -434277.0      -431000.0      -427638.0      -424296.0      -420930.0
      -417522.0      -414158.0      -410689.0      -407224.0      -403711.0
      -400134.0      -396557.0      -392922.0      -389348.0      -385684.0
      -382012.0      -378404.0      -374673.0      -371047.0      -367445.0
      -363708.0      -360038.0      -356422.0      -352730.0      -349101.0
      -345531.0      -341802.0      -338145.0      -334556.0      -330826.0
      -327168.0      -323561.0      -319869.0      -316133.0      -312465.0
      -308811.0      -305093.0      -301464.0      -297814.0      -294108.0
      -290463.0      -286791.0      -283128.0      -279465.0      -275781.0
      -272116.0      -268449.0      -264826.0      -261099.0      -257371.0
      -253743.0      -249992.0      -246252.0      -242518.0      -238752.0
      -234970.0      -231196.0      -227408.0      -223569.0      -219863.0
      -216107.0      -212310.0      -208521.0      -204684.0      -200895.0
      -197079.0      -193280.0      -189428.0      -185587.0      -181810.0
      -177972.0      -174144.0      -170261.0      -166391.0      -162482.0
      -158488.0      -154609.0      -150664.0      -146694.0      -142773.0
      -138793.0      -134837.0      -130889.0      -126949.0      -122984.0
      -118997.0      -115066.0      -111145.0      -107168.0      -103235.0
      -99286.00      -95222.00      -91250.00      -87350.00      -83408.00
      -79486.00      -75546.00      -71583.00      -67654.00      -63735.00
      -59794.00      -55849.00      -51899.00      -47931.00      -43974.00
      -40023.00      -36072.00      -32188.00      -28277.00      -24284.00
      -20399.00      -16524.00      -12613.00      -8775.000      -4885.000
      -1005.000       2822.000       6653.000       10517.00       14359.00
       18172.00       22069.00       25935.00       29802.00       33676.00
       37509.00       41365.00       45206.00       49052.00       52898.00
       56739.00       60554.00       64315.00       68114.00       71912.00
       75644.00       79326.00       83047.00       86819.00       90483.00
