     0.05000000      -12345.00      -12345.00   3.990240e+09      -12345.00
   0.0005390000       1859.951      -712.0195      -12345.00      -12345.00
      -12345.00      -12345.00      -12345.00      -12345.00      -12345.00
      -12345.00      -12345.00      -12345.00      -12345.00      -12345.00
      -12345.00      -12345.00      -12345.00      -12345.00      -12345.00
      -12345.00      -12345.00      -12345.00      -12345.00      -12345.00
      -12345.00       42.01500       143.1572       40.00000       0.000000
      -42.72450       173.0647      -12345.00       22.00000      -12345.00
      -12345.00      -12345.00      -12345.00      -12345.00      -12345.00
      -12345.00      -12345.00      -12345.00      -12345.00      -12345.00
       9846.459       338.1810       158.4365       88.55526      -12345.00
      -12345.00      -12345.00       0.000000       0.000000      -12345.00
      -12345.00      -12345.00      -12345.00      -12345.00      -12345.00
      -12345.00      -12345.00      -12345.00      -12345.00      -12345.00
      2016       318        11        14        51
        19         6    -12345    -12345     37200
    -12345    -12345    -12345    -12345    -12345
         1    -12345    -12345    -12345    -12345
    -12345    -12345    -12345    -12345    -12345
    -12345    -12345    -12345    -12345    -12345
    -12345    -12345    -12345    -12345    -12345
         1    -12345    -12345    -12345    -12345
ERM     South Island, Ne
00      -12345  -12345  
-12345  -12345  -12345  
-12345  -12345  -12345  
-12345  -12345  -12345  
-12345  -12345  -12345  
-12345  -12345  BHZ     
II      -12345  Metrozet
[...]
       16019.00       15566.00       15028.00       14540.00       14064.00
       13534.00       13076.00       12557.00       12059.00       11582.00
       11141.00       10842.00       10492.00       10170.00       9861.000
       9537.000       9345.000       9161.000       8993.000       8867.000
       8788.000       8655.000       8559.000       8581.000       8519.000
       8553.000       8572.000       8536.000       8638.000       8762.000
       8949.000       9104.000       9339.000       9682.000       9958.000
       10379.00       10822.00       11203.00       11708.00       12207.00
       12637.00       13165.00       13662.00       14072.00       14550.00
       15066.00       15570.00       16089.00       16703.00       17488.00
       18336.00       19303.00       20465.00       21631.00       22849.00
       23984.00       25081.00       26074.00       26946.00       27790.00
       28415.00       28968.00       29464.00       30009.00       30468.00
       30941.00       31505.00       31859.00       32336.00       32861.00
       33233.00       33617.00       33965.00       34234.00       34485.00
       34732.00       34855.00       34988.00       35075.00       35175.00
       35446.00       35654.00       35967.00       36364.00       36800.00
       37284.00       37818.00       38516.00       39169.00       39800.00
       40319.00       40750.00       41218.00       41417.00       41534.00
       41665.00       41614.00       41598.00       41483.00       41386.00
       41475.00       41505.00       41696.00       42034.00       42408.00
       42850.00       43431.00       44044.00       44534.00       45072.00
       45437.00       45641.00       45815.00       45884.00       45850.00
       45874.00       45851.00       45765.00       45936.00       45932.00
       45905.00       45867.00       45612.00       45479.00       45012.00
       44408.00       43919.00       43309.00       42691.00       41929.00
       41302.00       40672.00       39902.00       39314.00       38687.00
       38120.00       37627.00       37168.00       36850.00       36622.00
       36475.00       36359.00       36359.00       36421.00       36404.00
       36399.00       36281.00       36018.00       35784.00       35453.00
       35135.00       34771.00       34338.00       34083.00       33761.00
       33312.00       32959.00       32626.00       32226.00       31817.00
       31452.00       31166.00       30758.00       30377.00       30146.00
       29840.00       29519.00       29114.00       28720.00       28532.00
       28308.00       28038.00       28045.00       28114.00       28103.00
       28371.00       28705.00       29002.00       29509.00       29945.00
       30505.00       31159.00       31574.00       32039.00       32384.00
       32678.00       32933.00       32998.00       33068.00       33033.00
       32943.00       32680.00       32383.00       32021.00       31286.00
       30609.00       29918.00       29084.00       28341.00       27682.00
       27203.00       26840.00       26570.00       26497.00       26523.00
       26637.00       26867.00       27134.00       27424.00       27740.00
       28086.00       28469.00       28754.00       28848.00       29059.00
       29225.00       29132.00       29185.00       29120.00       28854.00
       28670.00       28385.00       28149.00       27930.00       27553.00
       27222.00       26874.00       26525.00       26172.00       25767.00
       25444.00       25122.00       24851.00       24662.00       24459.00
       24172.00       23844.00       23644.00       23365.00       22893.00
       22464.00       21941.00       21204.00       20495.00       19666.00
       18664.00       17707.00       16639.00       15596.00       14639.00
       13502.00       12402.00       11413.00       10384.00       9324.000
       8111.000       6897.000       5732.000       4476.000       3203.000
       1968.000       759.0000      -567.0000      -1829.000      -3030.000
      -4352.000      -5575.000      -6777.000      -8113.000      -9393.000
      -10606.00      -11886.00      -13129.00      -14256.00      -15413.00
      -16527.00      -17634.00      -18837.00      -19972.00      -21245.00
      -22579.00      -23900.00      -25269.00      -26693.00      -28140.00
      -29423.00      -30700.00      -31919.00      -33034.00      -34062.00
      -35097.00      -35985.00      -36822.00      -37611.00      -38218.00
      -38997.00      -39508.00      -39957.00      -40533.00      -40946.00
      -41450.00      -41853.00      -42206.00      -42834.00      -43415.00
      -43850.00      -44530.00      -45251.00      -46011.00      -46794.00
      -47549.00      -48669.00      -49789.00      -50845.00      -52227.00
      -53762.00      -55295.00      -56960.00      -58742.00      -60540.00
      -62371.00      -64124.00      -65788.00      -67383.00      -68813.00
      -70252.00      -71705.00      -72963.00      -74278.00      -75603.00
      -76909.00      -78262.00      -79483.00      -80849.00      -82246.00
      -83514.00      -84934.00      -86358.00      -87675.00      -89143.00
      -90765.00      -92515.00      -94331.00      -96224.00      -98271.00
      -100274.0      -102379.0      -104575.0      -106828.0      -109163.0
      -111488.0      -113951.0      -116389.0      -118725.0      -120946.0
      -123116.0      -125128.0      -126918.0      -128671.0      -130223.0
      -131594.0      -132814.0      -133915.0      -134846.0      -135701.0
      -136551.0      -137280.0      -137971.0      -138705.0      -139383.0
      -139809.0      -140114.0      -140339.0      -140488.0      -140579.0
      -140666.0      -140728.0      -140715.0      -140788.0      -140866.0
      -140919.0      -141006.0      -141027.0      -141118.0      -141380.0
      -141516.0      -141677.0      -142099.0      -142726.0      -143457.0
      -144292.0      -145372.0      -146549.0      -147860.0      -149271.0
      -150740.0      -152352.0      -153975.0      -155582.0      -157247.0
      -158997.0      -160597.0      -162112.0      -163662.0      -165171.0
      -166736.0      -168265.0      -169731.0      -171121.0      -172424.0
      -173639.0      -174782.0      -175828.0      -176718.0      -177582.0
      -178310.0      -178889.0      -179431.0      -179937.0      -180397.0
      -180761.0      -181179.0      -181591.0      -181970.0      -182439.0
      -182959.0      -183425.0      -183892.0      -184500.0      -185051.0
      -185596.0      -186041.0      -186327.0      -186632.0      -186731.0
      -186719.0      -186624.0      -186488.0      -186476.0      -186337.0
      -186193.0      -186114.0      -186029.0      -185972.0      -185858.0
      -185867.0      -185795.0      -185702.0      -185656.0      -185496.0
      -185415.0      -185249.0      -185116.0      -185032.0      -185008.0
      -185043.0      -185123.0      -185437.0      -185701.0      -186025.0
      -186512.0      -187003.0      -187571.0      -188176.0      -188652.0
      -189023.0      -189292.0      -189519.0      -189784.0      -189848.0
      -189933.0      -189979.0      -189866.0      -189737.0      -189493.0
      -189266.0      -189019.0      -188733.0      -188297.0      -187913.0
      -187530.0      -186934.0      -186289.0      -185463.0      -184658.0
      -183722.0      -182537.0      -181282.0      -180090.0      -178856.0
      -177358.0      -175939.0      -174456.0      -172887.0      -171367.0
      -169678.0      -168017.0      -166549.0      -165290.0      -164141.0
      -163027.0      -162109.0      -161451.0      -160958.0      -160502.0
      -160190.0      -160068.0      -159917.0      -159818.0      -159735.0
      -159647.0      -159630.0      -159608.0      -159655.0      -159547.0
      -159408.0      -159213.0      -158801.0      -158343.0      -157663.0
      -156845.0      -155949.0      -154998.0      -153946.0      -152889.0
      -152039.0      -151125.0      -150314.0      -149614.0      -148906.0
      -148331.0      -147732.0      -147241.0      -146850.0      -146477.0
      -146264.0      -146115.0      -145928.0      -145839.0      -145843.0
      -145800.0      -145777.0      -145790.0      -145766.0      -145830.0
      -146022.0      -146252.0      -146578.0      -146939.0      -147324.0
      -147761.0      -148279.0      -148856.0      -149360.0      -149952.0
      -150764.0      -151575.0      -152350.0      -153300.0      -154234.0
      -155115.0      -156132.0      -157131.0      -158210.0      -159493.0
      -160709.0      -161922.0      -163273.0      -164622.0      -165832.0
      -166988.0      -168076.0      -169077.0      -170053.0      -170708.0
      -171387.0      -172106.0      -172494.0      -173000.0      -173308.0
      -173376.0      -173563.0      -173427.0      -173115.0      -172729.0
      -172127.0      -171366.0      -170563.0      -169674.0      -168662.0
      -167741.0      -166759.0      -165685.0      -164504.0      -163343.0
      -162138.0      -160789.0      -159464.0      -158077.0      -156743.0
      -155439.0      -154115.0      -152814.0      -151534.0      -150198.0
      -148878.0      -147685.0      -146392.0      -145090.0      -143830.0
      -142576.0      -141413.0      -140251.0      -139031.0      -137725.0
      -136441.0      -135176.0      -133822.0      -132329.0      -130796.0
      -129300.0      -127723.0      -126115.0      -124342.0      -122385.0
      -120221.0      -117995.0      -115969.0      -113623.0      -111311.0
      -109352.0      -107201.0      -105189.0      -103369.0      -101455.0
      -99770.00      -98265.00      -96672.00      -95348.00      -94169.00
      -92921.00      -91865.00      -90638.00      -89337.00      -88192.00
      -86832.00      -85298.00      -83722.00      -81925.00      -79953.00
      -77901.00      -75633.00      -73339.00      -70971.00      -68389.00
      -65873.00      -63366.00      -60785.00      -58248.00      -55722.00
      -53190.00      -50714.00      -48183.00      -45579.00      -43016.00
      -40469.00      -37879.00      -35326.00      -32818.00      -30332.00
      -28046.00      -25787.00      -23537.00      -21448.00      -19392.00
      -17428.00      -15469.00      -13442.00      -11496.00      -9571.000
      -7591.000      -5699.000      -3840.000      -1914.000       7.000000
       1889.000       3788.000       5771.000       7702.000       9594.000
       11550.00       13530.00       15454.00       17492.00       19555.00
       21469.00       23529.00       25461.00       27365.00       29478.00
       31463.00       33589.00       35872.00       38220.00       40689.00
       43226.00       45971.00       48795.00       51692.00       54744.00
       57930.00       61167.00       64439.00       67802.00       71149.00
       74512.00       77843.00       81128.00       84338.00       87497.00
       90762.00       94001.00       97282.00       100701.0       104095.0
       107441.0       110796.0       114130.0       117420.0       120548.0
       123542.0       126475.0       129198.0       131770.0       134232.0
       136615.0       138962.0       141257.0       143565.0       145900.0
       148204.0       150524.0       152968.0       155397.0       158012.0
       160782.0       163453.0       166350.0       169306.0       172159.0
       175160.0       178130.0       180890.0       183681.0       186381.0
       188926.0       191696.0       194331.0       196910.0       199610.0
       202230.0       205035.0       207779.0       210455.0       213278.0
       216281.0       219235.0       222186.0       225332.0       228298.0
       231400.0       234606.0       237708.0       240973.0       244275.0
       247622.0       250990.0       254394.0       257831.0       261212.0
       264644.0       267995.0       271303.0       274566.0       277705.0
       280833.0       283634.0       286322.0       288949.0       291380.0
       293759.0       295867.0       297914.0       299757.0       301420.0
       303076.0       304635.0       306017.0       307297.0       308681.0
       309868.0       310958.0       311886.0       312814.0       313788.0
       314633.0       315528.0       316206.0       317074.0       318098.0
       318996.0       320033.0       321134.0       322323.0       323520.0
       324832.0       326162.0       327493.0       329015.0       330418.0
       331761.0       333112.0       334372.0       335443.0       336320.0
       337150.0       337708.0       338252.0       338899.0       339404.0
       340006.0       340635.0       341366.0       342122.0       342790.0
       343643.0       344365.0       344991.0       345666.0       346141.0
       346530.0       346892.0       347058.0       347230.0       347443.0
       347342.0       347097.0       346653.0       345883.0       344907.0
       343508.0       341788.0       339958.0       337876.0       335737.0
       333568.0       331097.0       328751.0       326437.0       323956.0
       321659.0       319390.0       317182.0       315243.0       313358.0
       311609.0       310145.0       308731.0       307350.0       305872.0
       304469.0       303199.0       301732.0       300149.0       298544.0
       296815.0       294862.0       292809.0       290688.0       288380.0
       285829.0       283238.0       280674.0       278047.0       275364.0
       272734.0       270297.0       267784.0       265304.0       262955.0
       260452.0       257911.0       255421.0       252736.0       249933.0
       247246.0       244428.0       241582.0       238679.0       235565.0
       232527.0       229471.0       226249.0       223010.0       219859.0
       216571.0       213322.0       210088.0       206745.0       203552.0
       200286.0       197048.0       193832.0       190664.0       187600.0
       184423.0       181355.0       178357.0       175404.0       172426.0
       169374.0       166343.0       163149.0       159949.0       156717.0
       153432.0       150259.0       147114.0       144102.0       141142.0
       138378.0       135724.0       133028.0       130577.0       128023.0
       125491.0       123139.0       120618.0       118102.0       115598.0
       113024.0       110439.0       107817.0       105123.0       102445.0
       99765.00       97096.00       94469.00       91738.00       89075.00
       86338.00       83479.00       80628.00       77702.00       74761.00
       71732.00       68796.00       65850.00       62779.00       59752.00
       56687.00       53525.00       50360.00       47255.00       44064.00
       41021.00       38140.00       35254.00       32455.00       29750.00
       27132.00       24502.00       21762.00       18977.00       16274.00
       13455.00       10561.00       7731.000       4933.000       2154.000
      -600.0000      -3220.000      -5844.000      -8484.000      -11082.00
      -13709.00      -16324.00      -18973.00      -21667.00      -24277.00
      -26900.00      -29688.00      -32543.00      -35487.00      -38516.00
      -41621.00      -44841.00      -48133.00      -51538.00      -54979.00
      -58690.00      -62600.00      -66376.00      -70303.00      -74259.00
      -78146.00      -82069.00      -85847.00      -89517.00      -93084.00
      -96535.00      -99867.00      -103013.0      -106067.0      -108996.0
      -111807.0      -114522.0      -117133.0      -119710.0      -122118.0
      -124481.0      -126811.0      -129036.0      -131327.0      -133599.0
      -135806.0      -137982.0      -140122.0      -142143.0      -144118.0
      -146001.0      -147684.0      -149488.0      -151224.0      -152834.0
      -154620.0      -156385.0      -158170.0      -160073.0      -161916.0
      -163892.0      -165910.0      -167689.0      -169558.0      -171454.0
      -173173.0      -174879.0      -176556.0      -178183.0      -179762.0
      -181236.0      -182611.0      -183959.0      -185289.0      -186572.0
      -187838.0      -188956.0      -189960.0      -191169.0      -192202.0
      -193147.0      -194230.0      -195080.0      -196052.0      -197055.0
      -198053.0      -199209.0      -200286.0      -201376.0      -202566.0
      -203804.0      -204933.0      -206151.0      -207245.0      -208323.0
      -209739.0      -210880.0      -212125.0      -213516.0      -214538.0
      -215667.0      -216764.0      -217509.0      -218227.0      -218800.0
      -219101.0      -219554.0      -219846.0      -219963.0      -220219.0
      -220297.0      -220278.0      -220102.0      -219870.0      -219576.0
      -218932.0      -218271.0      -217595.0      -216762.0      -215884.0
      -214900.0      -213975.0      -213058.0      -211996.0      -211017.0
      -209964.0      -209055.0      -208228.0      -207195.0      -206395.0
      -205576.0      -204806.0      -204251.0      -203649.0      -203183.0
      -202768.0      -202341.0      -201976.0      -201655.0      -201451.0
      -201266.0      -201230.0      -201319.0      -201385.0      -201486.0
      -201476.0      -201440.0      -201194.0      -200897.0      -200530.0
      -199794.0      -199109.0      -198205.0      -197154.0      -196027.0
      -194679.0      -193436.0      -192115.0      -190881.0      -189792.0
      -188652.0      -187534.0      -186426.0      -185269.0      -184058.0
      -182800.0      -181271.0      -179732.0      -178273.0      -176592.0
      -174983.0      -173426.0      -171763.0      -170085.0      -168324.0
      -166488.0      -164580.0      -162611.0      -160547.0      -158476.0
      -156413.0      -154293.0      -152178.0      -149924.0      -147730.0
      -145589.0      -143360.0      -141213.0      -138986.0      -136823.0
      -134832.0      -132701.0      -130514.0      -128345.0      -126191.0
      -124127.0      -121966.0      -119922.0      -118045.0      -116144.0
      -114233.0      -112301.0      -110553.0      -108789.0      -107055.0
      -105535.0      -104082.0      -102678.0      -101374.0      -100232.0
      -99052.00      -97946.00      -96697.00      -95181.00      -93781.00
      -92163.00      -90418.00      -88760.00      -86909.00      -85121.00
      -83308.00      -81512.00      -79868.00      -78143.00      -76635.00
