     0.05000000      -12345.00      -12345.00   3.896300e+09      -12345.00
   0.0005390000       1859.951      -712.0195      -12345.00      -12345.00
      -12345.00      -12345.00      -12345.00      -12345.00      -12345.00
      -12345.00      -12345.00      -12345.00      -12345.00      -12345.00
      -12345.00      -12345.00      -12345.00      -12345.00      -12345.00
      -12345.00      -12345.00      -12345.00      -12345.00      -12345.00
      -12345.00       42.01500       143.1572       40.00000       0.000000
      -42.72450       173.0647      -12345.00       22.00000      -12345.00
      -12345.00      -12345.00      -12345.00      -12345.00      -12345.00
      -12345.00      -12345.00      -12345.00      -12345.00      -12345.00
       9846.459       338.1810       158.4365       88.55526      -12345.00
      -12345.00      -12345.00       359.9000       90.00000      -12345.00
      -12345.00      -12345.00      -12345.00      -12345.00      -12345.00
      -12345.00      -12345.00      -12345.00      -12345.00      -12345.00
      2016       318        11        14        51
        19         6    -12345    -12345     37200
    -12345    -12345    -12345    -12345    -12345
         1    -12345    -12345    -12345    -12345
    -12345    -12345    -12345    -12345    -12345
    -12345    -12345    -12345    -12345    -12345
    -12345    -12345    -12345    -12345    -12345
         1    -12345    -12345    -12345    -12345
ERM     South Island, Ne
00      -12345  -12345  
-12345  -12345  -12345  
-12345  -12345  -12345  
-12345  -12345  -12345  
-12345  -12345  -12345  
-12345  -12345  BH1     
II      -12345  Metrozet
[...]
       41737.00       40165.00       38541.00       36889.00       35267.00
       33698.00       32093.00       30674.00       29357.00       28055.00
       26847.00       25768.00       24771.00       23746.00       22876.00
       21964.00       21041.00       20164.00       19207.00       18215.00
       17103.00       16095.00       14991.00       13754.00       12541.00
       11245.00       9933.000       8494.000       7073.000       5613.000
       4048.000       2510.000       860.0000      -935.0000      -2961.000
      -5084.000      -7353.000      -9917.000      -12636.00      -15540.00
      -18534.00      -21646.00      -24875.00      -28225.00      -31764.00
      -35241.00      -38623.00      -41958.00      -45294.00      -48740.00
      -52179.00      -55588.00      -59178.00      -62905.00      -66616.00
      -70490.00      -74434.00      -78458.00      -82674.00      -86765.00
      -90845.00      -95022.00      -99264.00      -103511.0      -107634.0
      -111807.0      -115920.0      -119868.0      -123860.0      -127784.0
      -131461.0      -135046.0      -138586.0      -142026.0      -145376.0
      -148677.0      -152046.0      -155456.0      -158841.0      -162299.0
      -165922.0      -169624.0      -173369.0      -177230.0      -181101.0
      -185025.0      -189213.0      -193413.0      -197561.0      -201905.0
      -206227.0      -210556.0      -215005.0      -219469.0      -223939.0
      -228323.0      -232668.0      -236902.0      -241197.0      -245547.0
      -249750.0      -254052.0      -258358.0      -262747.0      -267196.0
      -271625.0      -276362.0      -281189.0      -285990.0      -290918.0
      -295912.0      -300924.0      -305946.0      -310967.0      -315964.0
      -321015.0      -326086.0      -331290.0      -336452.0      -341538.0
      -346791.0      -351930.0      -357010.0      -362120.0      -367233.0
      -372224.0      -377089.0      -382004.0      -386891.0      -391714.0
      -396289.0      -400837.0      -405324.0      -409569.0      -413843.0
      -417880.0      -421759.0      -425543.0      -429102.0      -432663.0
      -436179.0      -439605.0      -442927.0      -446337.0      -449733.0
      -452933.0      -456260.0      -459652.0      -462954.0      -466197.0
      -469423.0      -472604.0      -475764.0      -478995.0      -482119.0
      -485198.0      -488220.0      -491238.0      -494410.0      -497525.0
      -500756.0      -504055.0      -507367.0      -510696.0      -513970.0
      -517471.0      -521038.0      -524642.0      -528228.0      -531893.0
      -535804.0      -539625.0      -543388.0      -547121.0      -550979.0
      -554834.0      -558444.0      -562144.0      -565838.0      -569364.0
      -572738.0      -576060.0      -579296.0      -582390.0      -585414.0
      -588155.0      -590636.0      -592972.0      -595272.0      -597365.0
      -599156.0      -601039.0      -602802.0      -604223.0      -605490.0
      -606682.0      -607752.0      -608538.0      -609162.0      -609765.0
      -610245.0      -610491.0      -610603.0      -610731.0      -610687.0
      -610537.0      -610412.0      -610171.0      -609871.0      -609441.0
      -608935.0      -608490.0      -607880.0      -607292.0      -606938.0
      -606608.0      -606342.0      -606280.0      -606447.0      -606642.0
      -606996.0      -607627.0      -608268.0      -608996.0      -609755.0
      -610507.0      -611283.0      -612054.0      -612703.0      -613279.0
      -614055.0      -614754.0      -615351.0      -616073.0      -616677.0
      -617113.0      -617638.0      -618089.0      -618356.0      -618622.0
      -618690.0      -618711.0      -618778.0      -618548.0      -618200.0
      -617837.0      -617355.0      -616735.0      -616004.0      -615208.0
      -614392.0      -613565.0      -612507.0      -611358.0      -610192.0
      -608795.0      -607302.0      -605741.0      -604054.0      -602315.0
      -600509.0      -598586.0      -596722.0      -594950.0      -593121.0
      -591408.0      -589779.0      -588202.0      -586881.0      -585584.0
      -584251.0      -582946.0      -581576.0      -580210.0      -578827.0
      -577408.0      -575962.0      -574506.0      -573022.0      -571549.0
      -570242.0      -568981.0      -567771.0      -566710.0      -565804.0
      -565003.0      -564182.0      -563535.0      -562863.0      -562159.0
      -561437.0      -560571.0      -559717.0      -558750.0      -557857.0
      -556934.0      -555944.0      -554910.0      -553814.0      -552816.0
      -551671.0      -550505.0      -549265.0      -547927.0      -546636.0
      -545232.0      -543797.0      -542307.0      -540682.0      -539023.0
      -537341.0      -535546.0      -533776.0      -531907.0      -529912.0
      -527973.0      -525830.0      -523582.0      -521265.0      -518876.0
      -516459.0      -513823.0      -511114.0      -508401.0      -505669.0
      -502811.0      -499745.0      -496781.0      -493781.0      -490525.0
      -487331.0      -484221.0      -481070.0      -477970.0      -475101.0
      -472237.0      -469401.0      -466821.0      -464315.0      -461905.0
      -459511.0      -457192.0      -454957.0      -452756.0      -450562.0
      -448306.0      -446206.0      -444217.0      -442157.0      -440171.0
      -438355.0      -436522.0      -434708.0      -432960.0      -431171.0
      -429350.0      -427418.0      -425339.0      -423202.0      -420963.0
      -418529.0      -416037.0      -413452.0      -410735.0      -408064.0
      -405333.0      -402422.0      -399459.0      -396488.0      -393404.0
      -390448.0      -387584.0      -384682.0      -382004.0      -379331.0
      -376707.0      -374179.0      -371543.0      -368863.0      -366011.0
      -363045.0      -359947.0      -356619.0      -353131.0      -349529.0
      -345891.0      -342135.0      -338301.0      -334504.0      -330608.0
      -326535.0      -322552.0      -318726.0      -315044.0      -311535.0
      -307990.0      -304581.0      -301488.0      -298442.0      -295362.0
      -292473.0      -289756.0      -287210.0      -284820.0      -282449.0
      -280231.0      -278018.0      -275663.0      -273307.0      -271024.0
      -268714.0      -266279.0      -263812.0      -261286.0      -258768.0
      -256167.0      -253479.0      -250818.0      -248180.0      -245509.0
      -242747.0      -240115.0      -237452.0      -234779.0      -232116.0
      -229338.0      -226664.0      -223963.0      -221081.0      -218161.0
      -215342.0      -212502.0      -209654.0      -206820.0      -203948.0
      -201040.0      -197947.0      -194802.0      -191640.0      -188227.0
      -184632.0      -180994.0      -177243.0      -173477.0      -169757.0
      -165961.0      -162258.0      -158553.0      -154790.0      -151187.0
      -147570.0      -143925.0      -140466.0      -137143.0      -133874.0
      -130786.0      -127909.0      -125246.0      -122578.0      -119862.0
      -117412.0      -115072.0      -112678.0      -110202.0      -107783.0
      -105533.0      -103204.0      -100760.0      -98430.00      -96171.00
      -93721.00      -91193.00      -88702.00      -86280.00      -83776.00
      -81049.00      -78496.00      -76010.00      -73460.00      -70983.00
      -68491.00      -65952.00      -63418.00      -60938.00      -58370.00
      -55772.00      -53041.00      -50253.00      -47466.00      -44464.00
      -41466.00      -38368.00      -35305.00      -32313.00      -29225.00
      -26329.00      -23424.00      -20649.00      -18083.00      -15392.00
      -12855.00      -10460.00      -7997.000      -5578.000      -3328.000
      -1088.000       1154.000       3234.000       5270.000       7157.000
       8843.000       10370.00       11665.00       12800.00       13833.00
       14765.00       15654.00       16589.00       17528.00       18475.00
       19413.00       20368.00       21302.00       22049.00       22866.00
       23679.00       24295.00       24937.00       25491.00       25881.00
       26300.00       26625.00       26907.00       27380.00       27855.00
       28400.00       29111.00       29970.00       30971.00       31979.00
       33086.00       34345.00       35623.00       36846.00       38174.00
       39688.00       41198.00       42626.00       44129.00       45703.00
       47236.00       48719.00       50168.00       51631.00       53007.00
       54243.00       55472.00       56643.00       57601.00       58437.00
       59233.00       59972.00       60686.00       61302.00       61803.00
       62368.00       63001.00       63518.00       64008.00       64568.00
       65041.00       65491.00       66000.00       66470.00       66889.00
       67349.00       67732.00       68034.00       68492.00       68867.00
       69150.00       69487.00       69820.00       70086.00       70408.00
       70927.00       71256.00       71616.00       72012.00       72415.00
       72960.00       73293.00       73769.00       74173.00       74411.00
       74730.00       75009.00       75485.00       75914.00       76316.00
       76875.00       77488.00       78173.00       78872.00       79591.00
       80478.00       81388.00       82165.00       83153.00       84128.00
       85003.00       86000.00       86888.00       87707.00       88526.00
       89320.00       89953.00       90607.00       91401.00       92074.00
       92829.00       93727.00       94596.00       95529.00       96550.00
       97569.00       98647.00       99792.00       101049.0       102475.0
       103828.0       105102.0       106480.0       107948.0       109350.0
       110688.0       112155.0       113596.0       114980.0       116347.0
       117714.0       119163.0       120431.0       121693.0       123188.0
       124751.0       126292.0       127834.0       129453.0       131164.0
       132959.0       134820.0       136822.0       138869.0       140992.0
       143358.0       145606.0       147722.0       149941.0       152055.0
       154055.0       155862.0       157641.0       159534.0       161392.0
       163414.0       165533.0       167671.0       169865.0       172132.0
       174430.0       176668.0       178886.0       181109.0       183458.0
       185829.0       188252.0       190745.0       193323.0       196201.0
       199093.0       201954.0       204907.0       207887.0       210968.0
       214066.0       217132.0       220209.0       223408.0       226624.0
       229719.0       232971.0       236283.0       239536.0       242871.0
       246281.0       249726.0       253191.0       256721.0       260201.0
       263723.0       267237.0       270687.0       274179.0       277674.0
       281295.0       284966.0       288691.0       292413.0       296055.0
       299727.0       303380.0       307040.0       310615.0       314142.0
       317764.0       321382.0       324918.0       328356.0       331892.0
       335453.0       338921.0       342419.0       345830.0       349241.0
       352609.0       355853.0       359118.0       362210.0       365284.0
       368476.0       371553.0       374633.0       377835.0       381066.0
       384243.0       387507.0       390713.0       393820.0       396986.0
       400073.0       403201.0       406316.0       409502.0       412807.0
       416045.0       419473.0       423089.0       426788.0       430599.0
       434489.0       438547.0       442597.0       446614.0       450792.0
       455043.0       459249.0       463409.0       467596.0       471802.0
       475858.0       479656.0       483504.0       487269.0       490744.0
       494272.0       497646.0       500844.0       504018.0       507048.0
       509960.0       512739.0       515497.0       518077.0       520383.0
       522701.0       525048.0       527289.0       529441.0       531644.0
       533878.0       536147.0       538401.0       540530.0       542776.0
       545012.0       547166.0       549331.0       551386.0       553424.0
       555304.0       557034.0       558660.0       560168.0       561735.0
       563234.0       564618.0       566115.0       567752.0       569402.0
       571031.0       572662.0       574420.0       576196.0       577783.0
       579387.0       581106.0       582949.0       584777.0       586492.0
       588402.0       590264.0       591977.0       593647.0       595211.0
       596867.0       598456.0       599941.0       601268.0       602535.0
       603850.0       604867.0       605843.0       606884.0       607948.0
       609015.0       610017.0       611066.0       612106.0       613160.0
       614251.0       615370.0       616403.0       617406.0       618303.0
       619005.0       619690.0       620232.0       620665.0       620969.0
       620990.0       620876.0       620667.0       620326.0       619770.0
       619062.0       618297.0       617271.0       616136.0       615010.0
       613588.0       612140.0       610895.0       609520.0       608107.0
       606865.0       605683.0       604352.0       603198.0       602051.0
       600613.0       599329.0       597894.0       596366.0       594985.0
       593541.0       592074.0       590668.0       589332.0       587943.0
       586572.0       585190.0       583738.0       582368.0       580954.0
       579411.0       577940.0       576405.0       574771.0       573207.0
       571560.0       570001.0       568493.0       566855.0       565407.0
       563813.0       562028.0       560424.0       558767.0       557029.0
       555110.0       553177.0       551302.0       549136.0       546753.0
       544191.0       541518.0       538664.0       535492.0       532214.0
       528911.0       525553.0       522195.0       518826.0       515542.0
       512351.0       509009.0       505597.0       502265.0       498729.0
       494985.0       491399.0       487799.0       484049.0       480340.0
       476721.0       473074.0       469386.0       465808.0       462212.0
       458599.0       455039.0       451569.0       448171.0       444692.0
       441244.0       437757.0       434208.0       430701.0       427061.0
       423341.0       419677.0       416030.0       412384.0       408728.0
       405048.0       401349.0       397643.0       393780.0       389840.0
       386029.0       382103.0       378053.0       374031.0       369878.0
       365623.0       361406.0       357160.0       352835.0       348470.0
       344025.0       339564.0       335100.0       330463.0       325651.0
       320886.0       316175.0       311296.0       306349.0       301443.0
       296617.0       291778.0       286958.0       282310.0       277679.0
       273139.0       268678.0       264278.0       259932.0       255639.0
       251269.0       246768.0       242394.0       237888.0       233402.0
       228882.0       224253.0       219749.0       215045.0       210298.0
       205481.0       200620.0       195682.0       190620.0       185571.0
       180287.0       175101.0       169971.0       164741.0       159499.0
       154242.0       149146.0       144020.0       138845.0       133762.0
       128755.0       123661.0       118435.0       113281.0       107976.0
       102486.0       96983.00       91363.00       85719.00       79858.00
       73944.00       68268.00       62552.00       56781.00       51025.00
       45383.00       39818.00       34360.00       28850.00       23210.00
       17832.00       12369.00       6800.000       1468.000      -3825.000
      -9116.000      -14364.00      -19387.00      -24252.00      -29172.00
      -34046.00      -38882.00      -43744.00      -48706.00      -53675.00
      -58595.00      -63691.00      -68893.00      -74098.00      -79260.00
      -84414.00      -89621.00      -94790.00      -100025.0      -105244.0
      -110440.0      -115637.0      -120932.0      -126219.0      -131241.0
      -136369.0      -141449.0      -146415.0      -151504.0      -156683.0
      -161915.0      -167110.0      -172513.0      -178031.0      -183549.0
      -189060.0      -194553.0      -200117.0      -205615.0      -211066.0
      -216505.0      -221970.0      -227296.0      -232504.0      -237877.0
      -243161.0      -248286.0      -253518.0      -258618.0      -263614.0
      -268703.0      -273525.0      -278282.0      -283082.0      -287586.0
      -291985.0      -296397.0      -300625.0      -304678.0      -308652.0
      -312476.0      -316162.0      -319619.0      -322904.0      -326238.0
      -329460.0      -332579.0      -335662.0      -338773.0      -341905.0
      -344852.0      -347844.0      -351009.0      -354235.0      -357442.0
      -360811.0      -364425.0      -367940.0      -371554.0      -375342.0
      -379150.0      -382925.0      -386640.0      -390492.0      -394366.0
      -398233.0      -402154.0      -406120.0      -410128.0      -414144.0
      -418199.0      -422218.0      -426203.0      -430067.0      -433890.0
      -437747.0      -441463.0      -445146.0      -448791.0      -452396.0
      -455878.0      -459174.0      -462463.0      -465577.0      -468506.0
      -471347.0      -474038.0      -476535.0      -478914.0      -481298.0
      -483575.0      -485757.0      -487945.0      -490109.0      -492204.0
      -494257.0      -496253.0      -498222.0      -500189.0      -502060.0
      -503984.0      -505909.0      -507775.0      -509759.0      -511668.0
      -513442.0      -515262.0      -517006.0      -518566.0      -520172.0
      -521767.0      -523157.0      -524562.0      -526033.0      -527638.0
      -529313.0      -530791.0      -532401.0      -534145.0      -535915.0
      -537882.0      -539779.0      -541677.0      -543876.0      -546248.0
      -548485.0      -550783.0      -553299.0      -555552.0      -557715.0
      -559841.0      -561744.0      -563636.0      -565194.0      -566609.0
      -567967.0      -568972.0      -569901.0      -570626.0      -571251.0
      -571814.0      -572049.0      -572114.0      -572146.0      -572024.0
      -571757.0      -571558.0      -571210.0      -570832.0      -570618.0
      -570350.0      -570089.0      -569790.0      -569428.0      -569033.0
      -568583.0      -568066.0      -567579.0      -567062.0      -566275.0
      -565502.0      -564777.0      -564008.0      -563286.0      -562492.0
