     0.02500000      -12345.00      -12345.00   2.469520e+09      -12345.00
   0.0005380000       1859.976      -712.0195      -12345.00      -12345.00
      -12345.00      -12345.00      -12345.00      -12345.00      -12345.00
      -12345.00      -12345.00      -12345.00      -12345.00      -12345.00
      -12345.00      -12345.00      -12345.00      -12345.00      -12345.00
      -12345.00      -12345.00      -12345.00      -12345.00      -12345.00
      -12345.00       42.01500       143.1572       40.00000       0.000000
      -42.72450       173.0647      -12345.00       22.00000      -12345.00
      -12345.00      -12345.00      -12345.00      -12345.00      -12345.00
      -12345.00      -12345.00      -12345.00      -12345.00      -12345.00
       9846.459       338.1810       158.4365       88.55526      -12345.00
      -12345.00      -12345.00       0.000000       0.000000      -12345.00
      -12345.00      -12345.00      -12345.00      -12345.00      -12345.00
      -12345.00      -12345.00      -12345.00      -12345.00      -12345.00
      2016       318        11        14        51
        19         6    -12345    -12345     74400
    -12345    -12345    -12345    -12345    -12345
         1    -12345    -12345    -12345    -12345
    -12345    -12345    -12345    -12345    -12345
    -12345    -12345    -12345    -12345    -12345
    -12345    -12345    -12345    -12345    -12345
         1    -12345    -12345    -12345    -12345
ERM     South Island, Ne
10      -12345  -12345  
-12345  -12345  -12345  
-12345  -12345  -12345  
-12345  -12345  -12345  
-12345  -12345  -12345  
-12345  -12345  BHZ     
II      -12345  Streckei
[...]
      -104356.0      -104684.0      -104975.0      -105360.0      -105667.0
      -106001.0      -106368.0      -106669.0      -106959.0      -107267.0
      -107600.0      -107827.0      -108049.0      -108376.0      -108590.0
      -108739.0      -109016.0      -109216.0      -109331.0      -109552.0
      -109671.0      -109735.0      -109917.0      -110042.0      -110064.0
      -110108.0      -110209.0      -110204.0      -110184.0      -110249.0
      -110241.0      -110263.0      -110250.0      -110203.0      -110223.0
      -110155.0      -110121.0      -110129.0      -110120.0      -110093.0
      -110011.0      -110020.0      -110029.0      -110030.0      -110035.0
      -110009.0      -110065.0      -110031.0      -109982.0      -110037.0
      -110053.0      -110103.0      -110134.0      -110114.0      -110139.0
      -110164.0      -110157.0      -110085.0      -110006.0      -110006.0
      -109913.0      -109796.0      -109740.0      -109572.0      -109393.0
      -109253.0      -109084.0      -108860.0      -108663.0      -108527.0
      -108345.0      -108190.0      -108002.0      -107780.0      -107605.0
      -107400.0      -107243.0      -107071.0      -106876.0      -106718.0
      -106531.0      -106383.0      -106183.0      -105977.0      -105885.0
      -105716.0      -105537.0      -105374.0      -105143.0      -105013.0
      -104854.0      -104648.0      -104496.0      -104234.0      -104086.0
      -103961.0      -103693.0      -103503.0      -103304.0      -103149.0
      -102998.0      -102764.0      -102614.0      -102511.0      -102374.0
      -102200.0      -102064.0      -102011.0      -101966.0      -101896.0
      -101818.0      -101761.0      -101708.0      -101670.0      -101693.0
      -101693.0      -101684.0      -101705.0      -101708.0      -101762.0
      -101826.0      -101791.0      -101818.0      -101821.0      -101726.0
      -101715.0      -101651.0      -101565.0      -101485.0      -101393.0
      -101378.0      -101259.0      -101113.0      -101012.0      -100872.0
      -100751.0      -100629.0      -100490.0      -100291.0      -100085.0
      -99921.00      -99736.00      -99501.00      -99250.00      -99050.00
      -98882.00      -98642.00      -98368.00      -98174.00      -97945.00
      -97645.00      -97349.00      -97079.00      -96873.00      -96612.00
      -96297.00      -95967.00      -95617.00      -95327.00      -94955.00
      -94505.00      -94139.00      -93775.00      -93364.00      -92928.00
      -92462.00      -91972.00      -91457.00      -90910.00      -90390.00
      -89922.00      -89412.00      -88872.00      -88351.00      -87765.00
      -87119.00      -86561.00      -86038.00      -85435.00      -84799.00
      -84173.00      -83613.00      -83031.00      -82367.00      -81705.00
      -81103.00      -80449.00      -79767.00      -79252.00      -78708.00
      -78160.00      -77690.00      -77208.00      -76731.00      -76234.00
      -75819.00      -75403.00      -74999.00      -74706.00      -74415.00
      -74112.00      -73840.00      -73603.00      -73324.00      -73091.00
      -72935.00      -72775.00      -72596.00      -72412.00      -72274.00
      -72113.00      -71938.00      -71812.00      -71676.00      -71519.00
      -71353.00      -71222.00      -71169.00      -71008.00      -70813.00
      -70799.00      -70698.00      -70471.00      -70311.00      -70199.00
      -70038.00      -69812.00      -69646.00      -69399.00      -69106.00
      -68912.00      -68618.00      -68263.00      -67939.00      -67570.00
      -67189.00      -66819.00      -66408.00      -66005.00      -65610.00
      -65172.00      -64710.00      -64267.00      -63907.00      -63524.00
      -63137.00      -62759.00      -62368.00      -62042.00      -61665.00
      -61338.00      -61091.00      -60717.00      -60362.00      -60135.00
      -59892.00      -59545.00      -59220.00      -59045.00      -58828.00
      -58512.00      -58323.00      -58161.00      -57902.00      -57723.00
      -57617.00      -57444.00      -57292.00      -57137.00      -56958.00
      -56858.00      -56741.00      -56629.00      -56532.00      -56422.00
      -56294.00      -56165.00      -56128.00      -56004.00      -55849.00
      -55794.00      -55706.00      -55597.00      -55518.00      -55519.00
      -55492.00      -55420.00      -55418.00      -55433.00      -55446.00
      -55436.00      -55457.00      -55489.00      -55488.00      -55541.00
      -55602.00      -55625.00      -55696.00      -55836.00      -55876.00
      -55884.00      -55983.00      -56071.00      -56170.00      -56317.00
      -56490.00      -56639.00      -56794.00      -56908.00      -57016.00
      -57293.00      -57510.00      -57600.00      -57809.00      -58039.00
      -58167.00      -58359.00      -58621.00      -58825.00      -59003.00
      -59231.00      -59509.00      -59810.00      -60088.00      -60348.00
      -60643.00      -60886.00      -61139.00      -61510.00      -61836.00
      -62096.00      -62385.00      -62709.00      -62950.00      -63127.00
      -63426.00      -63698.00      -63856.00      -64041.00      -64264.00
      -64506.00      -64629.00      -64682.00      -64815.00      -64899.00
      -64999.00      -65171.00      -65208.00      -65204.00      -65243.00
      -65286.00      -65331.00      -65312.00      -65269.00      -65168.00
      -65080.00      -65064.00      -64993.00      -64835.00      -64623.00
      -64433.00      -64237.00      -64023.00      -63770.00      -63432.00
      -63144.00      -62849.00      -62449.00      -62072.00      -61766.00
      -61413.00      -60976.00      -60529.00      -60146.00      -59808.00
      -59383.00      -58952.00      -58575.00      -58135.00      -57672.00
      -57218.00      -56735.00      -56275.00      -55843.00      -55384.00
      -54858.00      -54319.00      -53860.00      -53342.00      -52780.00
      -52309.00      -51766.00      -51243.00      -50782.00      -50248.00
      -49752.00      -49262.00      -48758.00      -48247.00      -47747.00
      -47304.00      -46789.00      -46255.00      -45774.00      -45277.00
      -44793.00      -44320.00      -43867.00      -43420.00      -42853.00
      -42351.00      -41970.00      -41434.00      -40899.00      -40497.00
      -40052.00      -39546.00      -39115.00      -38728.00      -38243.00
      -37755.00      -37317.00      -36843.00      -36322.00      -35835.00
      -35406.00      -34932.00      -34431.00      -33939.00      -33435.00
      -32918.00      -32316.00      -31769.00      -31292.00      -30717.00
      -30154.00      -29622.00      -29071.00      -28476.00      -27882.00
      -27307.00      -26648.00      -25965.00      -25271.00      -24528.00
      -23801.00      -23031.00      -22279.00      -21657.00      -20948.00
      -20113.00      -19303.00      -18551.00      -17853.00      -17162.00
      -16523.00      -15810.00      -15015.00      -14393.00      -13785.00
      -13116.00      -12509.00      -11881.00      -11242.00      -10641.00
      -10128.00      -9661.000      -9095.000      -8514.000      -8062.000
      -7584.000      -7123.000      -6778.000      -6333.000      -5870.000
      -5469.000      -5116.000      -4762.000      -4280.000      -3862.000
      -3428.000      -2959.000      -2631.000      -2200.000      -1711.000
      -1259.000      -716.0000      -202.0000       293.0000       863.0000
       1439.000       2051.000       2704.000       3349.000       4019.000
       4684.000       5415.000       6188.000       6891.000       7618.000
       8360.000       9168.000       10002.00       10773.00       11608.00
       12388.00       13131.00       13985.00       14785.00       15584.00
       16377.00       17157.00       17996.00       18738.00       19538.00
       20364.00       21082.00       21883.00       22658.00       23447.00
       24312.00       25073.00       25853.00       26667.00       27466.00
       28247.00       29002.00       29869.00       30651.00       31354.00
       32181.00       32957.00       33704.00       34445.00       35125.00
       35835.00       36519.00       37174.00       37897.00       38595.00
       39162.00       39770.00       40466.00       41054.00       41596.00
       42217.00       42830.00       43386.00       43989.00       44640.00
       45199.00       45741.00       46335.00       46919.00       47510.00
       48077.00       48655.00       49193.00       49714.00       50301.00
       50848.00       51432.00       52003.00       52528.00       53091.00
       53644.00       54207.00       54737.00       55323.00       55946.00
       56467.00       57001.00       57560.00       58134.00       58674.00
       59217.00       59854.00       60379.00       60902.00       61514.00
       62055.00       62655.00       63283.00       63827.00       64344.00
       64904.00       65532.00       66082.00       66614.00       67162.00
       67665.00       68262.00       68845.00       69417.00       70018.00
       70534.00       71109.00       71789.00       72434.00       73052.00
       73700.00       74414.00       75123.00       75780.00       76518.00
       77264.00       78026.00       78847.00       79625.00       80417.00
       81269.00       82113.00       82930.00       83847.00       84772.00
       85653.00       86581.00       87501.00       88438.00       89367.00
       90295.00       91294.00       92244.00       93124.00       94108.00
       95100.00       95975.00       96900.00       97876.00       98764.00
       99625.00       100541.0       101434.0       102284.0       103195.0
       104155.0       105027.0       105889.0       106833.0       107758.0
       108710.0       109668.0       110580.0       111543.0       112457.0
       113347.0       114301.0       115222.0       116121.0       117031.0
       117935.0       118820.0       119657.0       120475.0       121294.0
       122080.0       122846.0       123620.0       124363.0       125011.0
       125670.0       126371.0       126979.0       127565.0       128187.0
       128826.0       129398.0       129934.0       130569.0       131148.0
       131673.0       132274.0       132881.0       133448.0       134008.0
       134570.0       135162.0       135762.0       136327.0       136972.0
       137608.0       138154.0       138812.0       139563.0       140259.0
       140911.0       141578.0       142292.0       143026.0       143782.0
       144542.0       145274.0       145994.0       146714.0       147472.0
       148262.0       149037.0       149711.0       150381.0       151126.0
       151781.0       152450.0       153165.0       153777.0       154363.0
       155004.0       155723.0       156385.0       157010.0       157654.0
       158232.0       158885.0       159563.0       160193.0       160822.0
       161437.0       162152.0       162853.0       163481.0       164144.0
       164761.0       165420.0       166124.0       166821.0       167545.0
       168284.0       169051.0       169711.0       170379.0       171200.0
       171981.0       172685.0       173416.0       174127.0       174886.0
       175691.0       176433.0       177234.0       177983.0       178714.0
       179542.0       180352.0       181157.0       181957.0       182788.0
       183610.0       184424.0       185252.0       186090.0       186934.0
       187742.0       188608.0       189437.0       190214.0       191081.0
       191917.0       192720.0       193498.0       194275.0       195124.0
       195874.0       196578.0       197376.0       198124.0       198800.0
       199499.0       200193.0       200754.0       201289.0       201940.0
       202533.0       203040.0       203545.0       204064.0       204561.0
       205017.0       205444.0       205788.0       206189.0       206605.0
       206903.0       207186.0       207430.0       207725.0       208017.0
       208215.0       208470.0       208679.0       208876.0       209033.0
       209112.0       209323.0       209527.0       209647.0       209764.0
       209847.0       209957.0       210013.0       210024.0       210060.0
       210070.0       210147.0       210198.0       210182.0       210196.0
       210218.0       210244.0       210228.0       210161.0       210129.0
       210122.0       210171.0       210272.0       210264.0       210265.0
       210315.0       210381.0       210433.0       210484.0       210634.0
       210693.0       210783.0       210927.0       211005.0       211145.0
       211306.0       211466.0       211569.0       211704.0       211896.0
       212085.0       212306.0       212431.0       212566.0       212765.0
       212884.0       212991.0       213174.0       213309.0       213345.0
       213427.0       213480.0       213450.0       213433.0       213446.0
       213404.0       213273.0       213167.0       213055.0       212978.0
       212932.0       212820.0       212694.0       212592.0       212516.0
       212421.0       212358.0       212284.0       212226.0       212208.0
       212157.0       212116.0       212025.0       211974.0       211989.0
       211962.0       211921.0       211834.0       211741.0       211689.0
       211624.0       211539.0       211390.0       211239.0       211118.0
       210939.0       210763.0       210607.0       210387.0       210130.0
       209904.0       209717.0       209529.0       209272.0       208950.0
       208627.0       208293.0       207902.0       207522.0       207075.0
       206520.0       206002.0       205472.0       204834.0       204106.0
       203372.0       202583.0       201751.0       200947.0       200079.0
       199162.0       198268.0       197337.0       196390.0       195512.0
       194544.0       193499.0       192481.0       191489.0       190556.0
       189611.0       188584.0       187527.0       186565.0       185646.0
       184648.0       183680.0       182778.0       181819.0       180920.0
       180085.0       179247.0       178447.0       177589.0       176802.0
       176069.0       175345.0       174723.0       174010.0       173298.0
       172662.0       171986.0       171295.0       170553.0       169880.0
       169276.0       168626.0       167980.0       167273.0       166568.0
       165861.0       165093.0       164398.0       163657.0       162872.0
       162117.0       161242.0       160389.0       159568.0       158664.0
       157826.0       156905.0       155935.0       155040.0       154006.0
       152942.0       151948.0       150976.0       149954.0       148905.0
       147917.0       146894.0       145836.0       144796.0       143784.0
       142792.0       141824.0       140893.0       139899.0       138884.0
       137952.0       136998.0       136057.0       135150.0       134163.0
       133166.0       132184.0       131221.0       130291.0       129277.0
       128239.0       127240.0       126147.0       125091.0       124129.0
       123064.0       122033.0       120978.0       119862.0       118850.0
       117785.0       116661.0       115504.0       114380.0       113299.0
       112157.0       111065.0       109923.0       108754.0       107604.0
       106402.0       105278.0       104140.0       102986.0       101831.0
       100612.0       99478.00       98324.00       97163.00       96027.00
       94779.00       93632.00       92534.00       91371.00       90224.00
       89051.00       87910.00       86787.00       85642.00       84500.00
       83384.00       82298.00       81226.00       80130.00       78975.00
       77881.00       76837.00       75731.00       74679.00       73656.00
       72606.00       71573.00       70518.00       69466.00       68409.00
       67332.00       66289.00       65222.00       64102.00       63003.00
       61890.00       60792.00       59709.00       58576.00       57428.00
       56324.00       55274.00       54186.00       53098.00       52038.00
       51014.00       50011.00       48960.00       47990.00       47064.00
       46114.00       45193.00       44295.00       43368.00       42439.00
       41617.00       40800.00       39903.00       38978.00       38141.00
       37336.00       36467.00       35695.00       34838.00       33910.00
       33105.00       32248.00       31404.00       30532.00       29663.00
       28837.00       27908.00       27062.00       26210.00       25278.00
       24407.00       23506.00       22608.00       21735.00       20840.00
       19950.00       19067.00       18193.00       17336.00       16456.00
       15551.00       14668.00       13785.00       12907.00       12051.00
       11118.00       10147.00       9263.000       8348.000       7379.000
       6453.000       5502.000       4557.000       3610.000       2624.000
       1657.000       711.0000      -193.0000      -1133.000      -2116.000
      -3093.000      -4059.000      -5010.000      -6003.000      -6947.000
      -7916.000      -8970.000      -9936.000      -10905.00      -11950.00
      -12924.00      -13831.00      -14875.00      -15933.00      -16818.00
      -17720.00      -18656.00      -19554.00      -20453.00      -21328.00
      -22198.00      -23081.00      -23912.00      -24717.00      -25557.00
      -26341.00      -27142.00      -28014.00      -28828.00      -29668.00
      -30566.00      -31408.00      -32192.00      -33043.00      -33931.00
      -34781.00      -35687.00      -36554.00      -37396.00      -38276.00
      -39112.00      -39948.00      -40790.00      -41626.00      -42478.00
      -43280.00      -44033.00      -44851.00      -45640.00      -46399.00
      -47205.00      -47989.00      -48765.00      -49516.00      -50320.00
      -51115.00      -51858.00      -52638.00      -53429.00      -54228.00
      -54997.00      -55803.00      -56577.00      -57309.00      -58096.00
      -58862.00      -59692.00      -60528.00      -61354.00      -62206.00
      -63047.00      -63941.00      -64814.00      -65691.00      -66609.00
      -67537.00      -68450.00      -69397.00      -70385.00      -71315.00
      -72325.00      -73326.00      -74278.00      -75343.00      -76407.00
      -77503.00      -78679.00      -79810.00      -80859.00      -81933.00
      -83120.00      -84287.00      -85382.00      -86510.00      -87652.00
