     0.02500000      -12345.00      -12345.00   2.435390e+09      -12345.00
   0.0005380000       1859.976      -712.0195      -12345.00      -12345.00
      -12345.00      -12345.00      -12345.00      -12345.00      -12345.00
      -12345.00      -12345.00      -12345.00      -12345.00      -12345.00
      -12345.00      -12345.00      -12345.00      -12345.00      -12345.00
      -12345.00      -12345.00      -12345.00      -12345.00      -12345.00
      -12345.00       42.01500       143.1572       40.00000       0.000000
      -42.72450       173.0647      -12345.00       22.00000      -12345.00
      -12345.00      -12345.00      -12345.00      -12345.00      -12345.00
      -12345.00      -12345.00      -12345.00      -12345.00      -12345.00
       9846.459       338.1810       158.4365       88.55526      -12345.00
      -12345.00      -12345.00       316.8000       90.00000      -12345.00
      -12345.00      -12345.00      -12345.00      -12345.00      -12345.00
      -12345.00      -12345.00      -12345.00      -12345.00      -12345.00
      2016       318        11        14        51
        19         6    -12345    -12345     74400
    -12345    -12345    -12345    -12345    -12345
         1    -12345    -12345    -12345    -12345
    -12345    -12345    -12345    -12345    -12345
    -12345    -12345    -12345    -12345    -12345
    -12345    -12345    -12345    -12345    -12345
         1    -12345    -12345    -12345    -12345
ERM     South Island, Ne
10      -12345  -12345  
-12345  -12345  -12345  
-12345  -12345  -12345  
-12345  -12345  -12345  
-12345  -12345  -12345  
-12345  -12345  BH2     
II      -12345  Streckei
[...]
       128401.0       128247.0       128074.0       127879.0       127742.0
       127663.0       127439.0       127282.0       127167.0       126954.0
       126775.0       126639.0       126513.0       126382.0       126172.0
       126003.0       125896.0       125714.0       125572.0       125458.0
       125343.0       125217.0       125087.0       124986.0       124835.0
       124724.0       124616.0       124505.0       124469.0       124372.0
       124280.0       124222.0       124128.0       124040.0       123958.0
       123936.0       123911.0       123879.0       123854.0       123749.0
       123718.0       123677.0       123589.0       123590.0       123525.0
       123448.0       123321.0       123221.0       123159.0       122948.0
       122823.0       122602.0       122385.0       122192.0       121850.0
       121694.0       121412.0       121048.0       120771.0       120390.0
       120096.0       119744.0       119351.0       119015.0       118612.0
       118254.0       117863.0       117481.0       117117.0       116697.0
       116368.0       115953.0       115538.0       115204.0       114838.0
       114538.0       114152.0       113740.0       113364.0       112958.0
       112579.0       112215.0       111881.0       111453.0       111032.0
       110664.0       110216.0       109811.0       109428.0       108989.0
       108542.0       108130.0       107689.0       107237.0       106872.0
       106450.0       106004.0       105639.0       105292.0       104963.0
       104598.0       104261.0       103985.0       103732.0       103496.0
       103238.0       103050.0       102843.0       102628.0       102516.0
       102354.0       102190.0       102041.0       101851.0       101707.0
       101598.0       101502.0       101386.0       101265.0       101165.0
       100970.0       100790.0       100701.0       100481.0       100233.0
       100004.0       99712.00       99415.00       99059.00       98701.00
       98274.00       97782.00       97356.00       96894.00       96366.00
       95826.00       95239.00       94664.00       94140.00       93550.00
       92956.00       92382.00       91788.00       91235.00       90715.00
       90177.00       89611.00       89144.00       88681.00       88119.00
       87651.00       87207.00       86765.00       86352.00       85869.00
       85487.00       85106.00       84627.00       84200.00       83776.00
       83375.00       82956.00       82527.00       82106.00       81748.00
       81424.00       80920.00       80501.00       80138.00       79622.00
       79194.00       78726.00       78189.00       77707.00       77224.00
       76819.00       76321.00       75801.00       75348.00       74795.00
       74276.00       73782.00       73299.00       72811.00       72327.00
       71854.00       71276.00       70779.00       70288.00       69696.00
       69171.00       68613.00       68043.00       67526.00       66959.00
       66363.00       65803.00       65258.00       64734.00       64217.00
       63667.00       63141.00       62575.00       62046.00       61539.00
       60957.00       60504.00       60095.00       59586.00       59091.00
       58675.00       58192.00       57676.00       57271.00       56797.00
       56370.00       55955.00       55448.00       55027.00       54535.00
       54046.00       53556.00       53055.00       52607.00       52089.00
       51606.00       51077.00       50513.00       49982.00       49434.00
       48905.00       48288.00       47654.00       47154.00       46596.00
       45982.00       45442.00       44814.00       44227.00       43751.00
       43138.00       42552.00       42106.00       41528.00       40913.00
       40446.00       39927.00       39299.00       38796.00       38306.00
       37683.00       37182.00       36700.00       36130.00       35643.00
       35200.00       34687.00       34226.00       33866.00       33366.00
       32895.00       32531.00       32130.00       31794.00       31415.00
       31098.00       30757.00       30362.00       30117.00       29774.00
       29489.00       29132.00       28740.00       28520.00       28081.00
       27792.00       27484.00       26975.00       26687.00       26267.00
       25862.00       25555.00       25069.00       24600.00       24119.00
       23727.00       23331.00       22813.00       22446.00       21963.00
       21377.00       20985.00       20397.00       19822.00       19423.00
       18754.00       18208.00       17649.00       16929.00       16361.00
       15693.00       15064.00       14451.00       13814.00       13161.00
       12415.00       11776.00       11069.00       10318.00       9679.000
       9004.000       8294.000       7577.000       6841.000       6046.000
       5278.000       4539.000       3767.000       3060.000       2340.000
       1566.000       799.0000       31.00000      -771.0000      -1469.000
      -2151.000      -2896.000      -3472.000      -4148.000      -4856.000
      -5461.000      -6117.000      -6679.000      -7288.000      -7843.000
      -8396.000      -9016.000      -9539.000      -10151.00      -10729.00
      -11252.00      -11845.00      -12455.00      -13052.00      -13681.00
      -14285.00      -14841.00      -15498.00      -16055.00      -16556.00
      -17198.00      -17779.00      -18257.00      -18831.00      -19413.00
      -19882.00      -20433.00      -20934.00      -21342.00      -21876.00
      -22374.00      -22813.00      -23296.00      -23728.00      -24192.00
      -24694.00      -25105.00      -25557.00      -26041.00      -26499.00
      -26966.00      -27442.00      -27933.00      -28367.00      -28852.00
      -29403.00      -29868.00      -30320.00      -30881.00      -31428.00
      -31959.00      -32554.00      -33045.00      -33529.00      -34111.00
      -34648.00      -35196.00      -35800.00      -36358.00      -36920.00
      -37534.00      -38121.00      -38769.00      -39456.00      -40076.00
      -40703.00      -41376.00      -42086.00      -42801.00      -43556.00
      -44342.00      -45158.00      -46013.00      -46842.00      -47736.00
      -48692.00      -49612.00      -50567.00      -51571.00      -52567.00
      -53577.00      -54626.00      -55683.00      -56700.00      -57770.00
      -58850.00      -59862.00      -60874.00      -61874.00      -62930.00
      -64006.00      -65045.00      -66089.00      -67137.00      -68221.00
      -69297.00      -70377.00      -71476.00      -72560.00      -73673.00
      -74810.00      -75923.00      -77053.00      -78193.00      -79258.00
      -80362.00      -81518.00      -82649.00      -83750.00      -84826.00
      -85936.00      -87011.00      -88130.00      -89209.00      -90189.00
      -91258.00      -92282.00      -93314.00      -94388.00      -95327.00
      -96222.00      -97124.00      -98000.00      -98873.00      -99694.00
      -100462.0      -101223.0      -101932.0      -102608.0      -103253.0
      -103880.0      -104536.0      -105154.0      -105775.0      -106379.0
      -106906.0      -107465.0      -108009.0      -108526.0      -109084.0
      -109661.0      -110253.0      -110787.0      -111321.0      -111883.0
      -112365.0      -112923.0      -113531.0      -114091.0      -114754.0
      -115363.0      -115950.0      -116649.0      -117260.0      -117896.0
      -118578.0      -119227.0      -119914.0      -120562.0      -121236.0
      -121931.0      -122611.0      -123260.0      -123906.0      -124675.0
      -125347.0      -125998.0      -126732.0      -127407.0      -128152.0
      -128886.0      -129641.0      -130444.0      -131122.0      -131907.0
      -132736.0      -133432.0      -134202.0      -134964.0      -135740.0
      -136536.0      -137292.0      -138139.0      -138912.0      -139648.0
      -140428.0      -141175.0      -141993.0      -142816.0      -143576.0
      -144359.0      -145181.0      -145991.0      -146788.0      -147619.0
      -148451.0      -149253.0      -150074.0      -150876.0      -151677.0
      -152525.0      -153357.0      -154216.0      -155046.0      -155856.0
      -156716.0      -157512.0      -158365.0      -159246.0      -160103.0
      -160981.0      -161807.0      -162684.0      -163565.0      -164456.0
      -165375.0      -166258.0      -167164.0      -168039.0      -168962.0
      -169936.0      -170835.0      -171769.0      -172717.0      -173583.0
      -174450.0      -175412.0      -176395.0      -177279.0      -178205.0
      -179139.0      -180012.0      -180906.0      -181770.0      -182685.0
      -183542.0      -184386.0      -185321.0      -186140.0      -186990.0
      -187853.0      -188700.0      -189601.0      -190420.0      -191297.0
      -192198.0      -193015.0      -193881.0      -194748.0      -195520.0
      -196323.0      -197218.0      -198042.0      -198821.0      -199613.0
      -200395.0      -201230.0      -201987.0      -202683.0      -203461.0
      -204215.0      -204989.0      -205734.0      -206415.0      -207137.0
      -207799.0      -208518.0      -209283.0      -209975.0      -210716.0
      -211430.0      -212108.0      -212822.0      -213578.0      -214358.0
      -215070.0      -215792.0      -216569.0      -217331.0      -218124.0
      -218941.0      -219739.0      -220544.0      -221345.0      -222163.0
      -223018.0      -223864.0      -224756.0      -225688.0      -226541.0
      -227374.0      -228255.0      -229146.0      -230038.0      -230966.0
      -231854.0      -232692.0      -233557.0      -234404.0      -235249.0
      -236137.0      -236996.0      -237740.0      -238550.0      -239407.0
      -240129.0      -240884.0      -241656.0      -242389.0      -243123.0
      -243819.0      -244510.0      -245151.0      -245784.0      -246440.0
      -247136.0      -247840.0      -248494.0      -249156.0      -249825.0
      -250496.0      -251086.0      -251744.0      -252476.0      -253133.0
      -253814.0      -254443.0      -255096.0      -255789.0      -256445.0
      -257140.0      -257814.0      -258493.0      -259211.0      -259931.0
      -260598.0      -261270.0      -262000.0      -262721.0      -263444.0
      -264192.0      -264986.0      -265717.0      -266418.0      -267184.0
      -267911.0      -268702.0      -269511.0      -270269.0      -271076.0
      -271814.0      -272585.0      -273422.0      -274134.0      -274881.0
      -275673.0      -276372.0      -277088.0      -277804.0      -278476.0
      -279148.0      -279794.0      -280425.0      -280987.0      -281551.0
      -282172.0      -282729.0      -283331.0      -283934.0      -284497.0
      -285104.0      -285689.0      -286293.0      -286917.0      -287548.0
      -288180.0      -288813.0      -289517.0      -290186.0      -290814.0
      -291513.0      -292129.0      -292743.0      -293381.0      -293918.0
      -294529.0      -295047.0      -295527.0      -296118.0      -296620.0
      -297128.0      -297637.0      -298138.0      -298666.0      -299134.0
      -299605.0      -300134.0      -300649.0      -301137.0      -301681.0
      -302191.0      -302657.0      -303127.0      -303558.0      -304083.0
      -304549.0      -304893.0      -305321.0      -305727.0      -306138.0
      -306501.0      -306798.0      -307121.0      -307369.0      -307631.0
      -307923.0      -308149.0      -308355.0      -308566.0      -308769.0
      -308963.0      -309100.0      -309252.0      -309433.0      -309540.0
      -309664.0      -309808.0      -309956.0      -310138.0      -310244.0
      -310307.0      -310421.0      -310542.0      -310597.0      -310701.0
      -310904.0      -310982.0      -311012.0      -311139.0      -311201.0
      -311307.0      -311434.0      -311442.0      -311532.0      -311599.0
      -311630.0      -311760.0      -311818.0      -311851.0      -311911.0
      -311950.0      -312010.0      -312059.0      -312111.0      -312165.0
      -312183.0      -312233.0      -312334.0      -312411.0      -312471.0
      -312541.0      -312608.0      -312722.0      -312770.0      -312771.0
      -312890.0      -312941.0      -312954.0      -313033.0      -313116.0
      -313183.0      -313194.0      -313288.0      -313395.0      -313447.0
      -313570.0      -313663.0      -313736.0      -313855.0      -313989.0
      -314137.0      -314291.0      -314491.0      -314662.0      -314808.0
      -315032.0      -315222.0      -315420.0      -315672.0      -315906.0
      -316161.0      -316412.0      -316677.0      -316919.0      -317095.0
      -317335.0      -317572.0      -317732.0      -317882.0      -318040.0
      -318215.0      -318343.0      -318456.0      -318525.0      -318555.0
      -318672.0      -318714.0      -318709.0      -318732.0      -318716.0
      -318708.0      -318690.0      -318657.0      -318580.0      -318495.0
      -318388.0      -318261.0      -318153.0      -317987.0      -317809.0
      -317616.0      -317405.0      -317143.0      -316864.0      -316686.0
      -316420.0      -316082.0      -315846.0      -315587.0      -315285.0
      -315049.0      -314761.0      -314442.0      -314207.0      -313950.0
      -313677.0      -313379.0      -313100.0      -312828.0      -312504.0
      -312216.0      -311888.0      -311591.0      -311316.0      -310984.0
      -310670.0      -310302.0      -309942.0      -309573.0      -309144.0
      -308760.0      -308333.0      -307866.0      -307431.0      -306899.0
      -306419.0      -305940.0      -305356.0      -304900.0      -304380.0
      -303823.0      -303327.0      -302732.0      -302141.0      -301543.0
      -300993.0      -300433.0      -299827.0      -299250.0      -298651.0
      -298105.0      -297449.0      -296840.0      -296328.0      -295676.0
      -295136.0      -294657.0      -294161.0      -293619.0      -293072.0
      -292618.0      -292101.0      -291679.0      -291285.0      -290835.0
      -290419.0      -289988.0      -289683.0      -289343.0      -288997.0
      -288693.0      -288339.0      -288129.0      -287831.0      -287570.0
      -287429.0      -287183.0      -287057.0      -286893.0      -286721.0
      -286676.0      -286598.0      -286555.0      -286509.0      -286472.0
      -286423.0      -286408.0      -286387.0      -286309.0      -286273.0
      -286179.0      -286094.0      -285971.0      -285859.0      -285760.0
      -285542.0      -285300.0      -285085.0      -284840.0      -284510.0
      -284249.0      -283913.0      -283530.0      -283152.0      -282657.0
      -282281.0      -281790.0      -281246.0      -280788.0      -280253.0
      -279786.0      -279243.0      -278698.0      -278147.0      -277518.0
      -277015.0      -276466.0      -275835.0      -275283.0      -274734.0
      -274176.0      -273566.0      -272932.0      -272378.0      -271752.0
      -271131.0      -270540.0      -269921.0      -269300.0      -268591.0
      -267902.0      -267202.0      -266475.0      -265768.0      -265010.0
      -264271.0      -263535.0      -262760.0      -261946.0      -261122.0
      -260267.0      -259399.0      -258605.0      -257779.0      -256882.0
      -256008.0      -255153.0      -254228.0      -253300.0      -252346.0
      -251405.0      -250548.0      -249602.0      -248702.0      -247781.0
      -246765.0      -245868.0      -244950.0      -244053.0      -243189.0
      -242248.0      -241370.0      -240487.0      -239574.0      -238674.0
      -237765.0      -236879.0      -235926.0      -234992.0      -234149.0
      -233259.0      -232401.0      -231575.0      -230684.0      -229795.0
      -228936.0      -228122.0      -227322.0      -226507.0      -225659.0
      -224823.0      -223976.0      -223131.0      -222282.0      -221356.0
      -220565.0      -219723.0      -218826.0      -218017.0      -217079.0
      -216265.0      -215458.0      -214496.0      -213644.0      -212800.0
      -211876.0      -210931.0      -209996.0      -209092.0      -208182.0
      -207208.0      -206276.0      -205364.0      -204394.0      -203450.0
      -202510.0      -201591.0      -200580.0      -199600.0      -198685.0
      -197643.0      -196649.0      -195635.0      -194670.0      -193724.0
      -192695.0      -191745.0      -190681.0      -189586.0      -188560.0
      -187498.0      -186414.0      -185329.0      -184277.0      -183171.0
      -182070.0      -180993.0      -179900.0      -178845.0      -177844.0
      -176835.0      -175813.0      -174818.0      -173802.0      -172895.0
      -171956.0      -170969.0      -170082.0      -169047.0      -168055.0
      -167117.0      -166081.0      -165125.0      -164072.0      -162973.0
      -161893.0      -160782.0      -159728.0      -158592.0      -157483.0
      -156351.0      -155121.0      -153901.0      -152691.0      -151624.0
      -150447.0      -149177.0      -147982.0      -146770.0      -145643.0
      -144470.0      -143255.0      -142046.0      -140823.0      -139562.0
      -138284.0      -137123.0      -135890.0      -134582.0      -133366.0
      -132137.0      -130864.0      -129620.0      -128395.0      -127086.0
      -125743.0      -124505.0      -123195.0      -121877.0      -120612.0
      -119238.0      -117967.0      -116638.0      -115273.0      -114038.0
      -112610.0      -111253.0      -109975.0      -108564.0      -107265.0
      -105990.0      -104600.0      -103231.0      -101915.0      -100533.0
      -99154.00      -97780.00      -96384.00      -95003.00      -93578.00
      -92187.00      -90833.00      -89353.00      -87810.00      -86429.00
      -85060.00      -83611.00      -82216.00      -80702.00      -79173.00
      -77688.00      -76138.00      -74643.00      -73100.00      -71563.00
      -70067.00      -68531.00      -66957.00      -65349.00      -63785.00
      -62193.00      -60675.00      -59167.00      -57561.00      -56093.00
      -54655.00      -53104.00      -51608.00      -50170.00      -48661.00
      -47212.00      -45837.00      -44369.00      -42929.00      -41512.00
      -40042.00      -38552.00      -37097.00      -35713.00      -34208.00
      -32729.00      -31293.00      -29762.00      -28292.00      -26761.00
      -25226.00      -23773.00      -22322.00      -20873.00      -19379.00
      -17891.00      -16427.00      -14981.00      -13571.00      -12229.00
