     0.02500000      -12345.00      -12345.00   2.022300e+09      -12345.00
   0.0005380000       1859.976      -643.0195      -12345.00      -12345.00
      -12345.00      -12345.00      -12345.00      -12345.00      -12345.00
      -12345.00      -12345.00      -12345.00      -12345.00      -12345.00
      -12345.00      -12345.00      -12345.00      -12345.00      -12345.00
      -12345.00      -12345.00      -12345.00      -12345.00      -12345.00
      -12345.00      -51.67530      -58.06370       110.0000       3.200000
      -42.72450       173.0647      -12345.00       22.00000      -12345.00
      -12345.00      -12345.00      -12345.00      -12345.00      -12345.00
      -12345.00      -12345.00      -12345.00      -12345.00      -12345.00
       8456.483       150.0322       216.2375       76.05435      -12345.00
      -12345.00      -12345.00       67.80000       90.00000      -12345.00
      -12345.00      -12345.00      -12345.00      -12345.00      -12345.00
      -12345.00      -12345.00      -12345.00      -12345.00      -12345.00
      2016       318        11        13        42
        19         6    -12345    -12345     74400
    -12345    -12345    -12345    -12345    -12345
         1    -12345    -12345    -12345    -12345
    -12345    -12345    -12345    -12345    -12345
    -12345    -12345    -12345    -12345    -12345
    -12345    -12345    -12345    -12345    -12345
         1    -12345    -12345    -12345    -12345
EFI     South Island, Ne
10      -12345  -12345  
-12345  -12345  -12345  
-12345  -12345  -12345  
-12345  -12345  -12345  
-12345  -12345  -12345  
-12345  -12345  BH2     
II      -12345  Nanometr
[...]
      -30274.00      -29830.00      -29380.00      -28925.00      -28525.00
      -28067.00      -27625.00      -27244.00      -26764.00      -26317.00
      -25978.00      -25546.00      -25098.00      -24770.00      -24378.00
      -23968.00      -23689.00      -23325.00      -22932.00      -22641.00
      -22283.00      -21990.00      -21717.00      -21408.00      -21129.00
      -20864.00      -20665.00      -20364.00      -20105.00      -19922.00
      -19652.00      -19454.00      -19271.00      -19051.00      -18890.00
      -18678.00      -18494.00      -18404.00      -18203.00      -18044.00
      -17938.00      -17725.00      -17612.00      -17508.00      -17312.00
      -17174.00      -17055.00      -16886.00      -16761.00      -16695.00
      -16498.00      -16399.00      -16290.00      -16063.00      -16008.00
      -15837.00      -15660.00      -15525.00      -15317.00      -15160.00
      -14954.00      -14778.00      -14581.00      -14375.00      -14190.00
      -13975.00      -13760.00      -13496.00      -13304.00      -13110.00
      -12772.00      -12492.00      -12253.00      -11909.00      -11627.00
      -11377.00      -11021.00      -10704.00      -10388.00      -10037.00
      -9692.000      -9324.000      -8978.000      -8568.000      -8141.000
      -7817.000      -7422.000      -6953.000      -6616.000      -6223.000
      -5777.000      -5414.000      -4986.000      -4558.000      -4126.000
      -3729.000      -3295.000      -2790.000      -2373.000      -1928.000
      -1496.000      -1056.000      -587.0000      -198.0000       225.0000
       663.0000       1112.000       1542.000       1968.000       2442.000
       2887.000       3415.000       3910.000       4377.000       4902.000
       5392.000       5933.000       6414.000       6917.000       7450.000
       7955.000       8491.000       8955.000       9518.000       10054.00
       10546.00       11091.00       11615.00       12190.00       12715.00
       13258.00       13752.00       14320.00       14895.00       15322.00
       15948.00       16473.00       16929.00       17544.00       18084.00
       18617.00       19146.00       19733.00       20283.00       20778.00
       21359.00       21853.00       22351.00       22871.00       23341.00
       23857.00       24389.00       24872.00       25272.00       25794.00
       26353.00       26770.00       27212.00       27698.00       28163.00
       28614.00       29102.00       29518.00       29901.00       30387.00
       30870.00       31265.00       31674.00       32117.00       32539.00
       32991.00       33396.00       33797.00       34244.00       34633.00
       35026.00       35429.00       35824.00       36186.00       36525.00
       36911.00       37277.00       37591.00       37888.00       38254.00
       38610.00       38899.00       39210.00       39539.00       39858.00
       40162.00       40482.00       40763.00       41024.00       41345.00
       41661.00       41916.00       42144.00       42446.00       42769.00
       42990.00       43265.00       43561.00       43748.00       44040.00
       44368.00       44572.00       44757.00       44990.00       45280.00
       45511.00       45734.00       45955.00       46112.00       46391.00
       46633.00       46800.00       47026.00       47243.00       47458.00
       47656.00       47916.00       48092.00       48289.00       48582.00
       48728.00       48962.00       49203.00       49408.00       49683.00
       49849.00       50064.00       50348.00       50601.00       50831.00
       51019.00       51327.00       51643.00       51792.00       52042.00
       52364.00       52594.00       52904.00       53172.00       53395.00
       53755.00       54025.00       54273.00       54567.00       54767.00
       55105.00       55420.00       55604.00       55942.00       56292.00
       56593.00       56932.00       57219.00       57486.00       57841.00
       58269.00       58615.00       58862.00       59266.00       59675.00
       59967.00       60352.00       60753.00       61101.00       61422.00
       61836.00       62215.00       62553.00       62887.00       63218.00
       63664.00       63967.00       64280.00       64666.00       65014.00
       65386.00       65752.00       66140.00       66512.00       66942.00
       67338.00       67704.00       68121.00       68552.00       68985.00
       69363.00       69766.00       70232.00       70681.00       71090.00
       71549.00       72034.00       72504.00       72959.00       73436.00
       73907.00       74318.00       74831.00       75342.00       75783.00
       76264.00       76751.00       77262.00       77746.00       78209.00
       78725.00       79223.00       79692.00       80179.00       80677.00
       81167.00       81637.00       82126.00       82569.00       83017.00
       83579.00       84017.00       84447.00       85003.00       85468.00
       85941.00       86445.00       86917.00       87402.00       87855.00
       88323.00       88773.00       89195.00       89654.00       90081.00
       90506.00       90939.00       91421.00       91855.00       92176.00
       92602.00       92997.00       93393.00       93823.00       94117.00
       94473.00       94863.00       95217.00       95565.00       95876.00
       96226.00       96586.00       96898.00       97228.00       97583.00
       97851.00       98145.00       98512.00       98705.00       98915.00
       99174.00       99365.00       99595.00       99710.00       99862.00
       100047.0       100198.0       100376.0       100452.0       100596.0
       100695.0       100789.0       100936.0       100944.0       101027.0
       101111.0       101141.0       101198.0       101259.0       101280.0
       101288.0       101369.0       101410.0       101449.0       101378.0
       101426.0       101556.0       101472.0       101493.0       101491.0
       101488.0       101524.0       101523.0       101518.0       101462.0
       101561.0       101586.0       101526.0       101574.0       101555.0
       101568.0       101661.0       101657.0       101630.0       101701.0
       101746.0       101794.0       101864.0       101940.0       102051.0
       102122.0       102178.0       102247.0       102344.0       102441.0
       102516.0       102586.0       102634.0       102739.0       102882.0
       102911.0       102959.0       103062.0       103124.0       103231.0
       103267.0       103297.0       103407.0       103465.0       103496.0
       103539.0       103571.0       103610.0       103718.0       103665.0
       103615.0       103715.0       103648.0       103598.0       103617.0
       103591.0       103567.0       103503.0       103446.0       103438.0
       103337.0       103255.0       103229.0       103025.0       102918.0
       102818.0       102607.0       102482.0       102322.0       102160.0
       101955.0       101727.0       101579.0       101361.0       101078.0
       100875.0       100675.0       100414.0       100167.0       99901.00
       99615.00       99370.00       99097.00       98753.00       98441.00
       98179.00       97862.00       97528.00       97235.00       96942.00
       96630.00       96266.00       95906.00       95566.00       95183.00
       94772.00       94382.00       93961.00       93500.00       93103.00
       92656.00       92167.00       91732.00       91238.00       90781.00
       90357.00       89797.00       89292.00       88843.00       88249.00
       87722.00       87221.00       86620.00       86101.00       85535.00
       84925.00       84403.00       83847.00       83260.00       82662.00
       82087.00       81546.00       80908.00       80273.00       79697.00
       79050.00       78443.00       77832.00       77199.00       76571.00
       75870.00       75268.00       74666.00       73916.00       73208.00
       72574.00       71866.00       71093.00       70358.00       69642.00
       68840.00       68070.00       67361.00       66515.00       65727.00
       65031.00       64230.00       63416.00       62603.00       61825.00
       61085.00       60251.00       59380.00       58538.00       57710.00
       56873.00       56017.00       55109.00       54161.00       53300.00
       52389.00       51391.00       50443.00       49462.00       48463.00
       47455.00       46420.00       45412.00       44339.00       43272.00
       42213.00       41128.00       40035.00       38859.00       37764.00
       36654.00       35498.00       34327.00       33129.00       32019.00
       30819.00       29619.00       28419.00       27167.00       25978.00
       24719.00       23465.00       22201.00       20859.00       19610.00
       18324.00       16984.00       15697.00       14336.00       13000.00
       11662.00       10274.00       8907.000       7534.000       6109.000
       4666.000       3238.000       1778.000       386.0000      -1081.000
      -2607.000      -4059.000      -5511.000      -6979.000      -8530.000
      -10056.00      -11610.00      -13130.00      -14618.00      -16306.00
      -17921.00      -19450.00      -21066.00      -22696.00      -24360.00
      -26056.00      -27708.00      -29318.00      -31011.00      -32762.00
      -34478.00      -36107.00      -37751.00      -39554.00      -41279.00
      -42965.00      -44759.00      -46423.00      -48159.00      -49993.00
      -51713.00      -53501.00      -55271.00      -57010.00      -58803.00
      -60613.00      -62385.00      -64139.00      -65983.00      -67790.00
      -69592.00      -71413.00      -73224.00      -75046.00      -76862.00
      -78683.00      -80469.00      -82266.00      -84098.00      -85868.00
      -87603.00      -89419.00      -91179.00      -92935.00      -94725.00
      -96448.00      -98223.00      -100003.0      -101803.0      -103561.0
      -105252.0      -107009.0      -108768.0      -110483.0      -112156.0
      -113851.0      -115531.0      -117188.0      -118858.0      -120457.0
      -122095.0      -123764.0      -125327.0      -126939.0      -128591.0
      -130132.0      -131664.0      -133262.0      -134778.0      -136179.0
      -137660.0      -139153.0      -140550.0      -141967.0      -143373.0
      -144776.0      -146165.0      -147528.0      -148943.0      -150271.0
      -151538.0      -152921.0      -154246.0      -155484.0      -156777.0
      -157997.0      -159232.0      -160516.0      -161687.0      -162860.0
      -164068.0      -165197.0      -166388.0      -167583.0      -168631.0
      -169739.0      -170866.0      -171909.0      -172955.0      -174035.0
      -175071.0      -176064.0      -177100.0      -178081.0      -179051.0
      -180059.0      -181044.0      -182018.0      -182951.0      -183877.0
      -184851.0      -185810.0      -186699.0      -187603.0      -188592.0
      -189534.0      -190494.0      -191492.0      -192405.0      -193369.0
      -194436.0      -195427.0      -196386.0      -197453.0      -198483.0
      -199508.0      -200593.0      -201642.0      -202722.0      -203826.0
      -204869.0      -205950.0      -207080.0      -208155.0      -209247.0
      -210336.0      -211411.0      -212535.0      -213562.0      -214600.0
      -215707.0      -216737.0      -217811.0      -218852.0      -219879.0
      -220930.0      -221944.0      -223029.0      -223989.0      -224952.0
      -226069.0      -227068.0      -228032.0      -229066.0      -230056.0
      -231061.0      -232136.0      -233168.0      -234146.0      -235164.0
      -236224.0      -237204.0      -238200.0      -239237.0      -240182.0
      -241178.0      -242189.0      -243148.0      -244112.0      -245038.0
      -246032.0      -247038.0      -247938.0      -248887.0      -249829.0
      -250747.0      -251669.0      -252580.0      -253533.0      -254388.0
      -255295.0      -256242.0      -257045.0      -257916.0      -258787.0
      -259593.0      -260438.0      -261236.0      -261989.0      -262767.0
      -263534.0      -264217.0      -264902.0      -265607.0      -266263.0
      -266926.0      -267556.0      -268097.0      -268734.0      -269328.0
      -269830.0      -270428.0      -270848.0      -271341.0      -271902.0
      -272283.0      -272749.0      -273154.0      -273585.0      -274065.0
      -274365.0      -274797.0      -275208.0      -275429.0      -275802.0
      -276146.0      -276377.0      -276609.0      -276852.0      -277075.0
      -277270.0      -277502.0      -277600.0      -277741.0      -277946.0
      -278027.0      -278156.0      -278220.0      -278253.0      -278378.0
      -278444.0      -278451.0      -278520.0      -278576.0      -278593.0
      -278750.0      -278812.0      -278733.0      -278766.0      -278918.0
      -278957.0      -278860.0      -278900.0      -278834.0      -278745.0
      -278854.0      -278768.0      -278587.0      -278585.0      -278568.0
      -278436.0      -278294.0      -278199.0      -278043.0      -277832.0
      -277701.0      -277538.0      -277275.0      -277014.0      -276821.0
      -276551.0      -276206.0      -275947.0      -275569.0      -275181.0
      -274881.0      -274447.0      -273972.0      -273570.0      -273178.0
      -272677.0      -272123.0      -271627.0      -271133.0      -270573.0
      -270030.0      -269457.0      -268812.0      -268209.0      -267612.0
      -267005.0      -266294.0      -265615.0      -265034.0      -264245.0
      -263547.0      -262926.0      -262048.0      -261289.0      -260605.0
      -259755.0      -258929.0      -258105.0      -257257.0      -256399.0
      -255481.0      -254572.0      -253689.0      -252803.0      -251855.0
      -250893.0      -249968.0      -248988.0      -248033.0      -247069.0
      -246030.0      -245031.0      -243986.0      -242940.0      -241925.0
      -240833.0      -239789.0      -238695.0      -237576.0      -236522.0
      -235412.0      -234277.0      -233130.0      -232023.0      -230911.0
      -229743.0      -228575.0      -227431.0      -226354.0      -225195.0
      -223952.0      -222821.0      -221711.0      -220574.0      -219385.0
      -218182.0      -217080.0      -215904.0      -214692.0      -213530.0
      -212364.0      -211161.0      -209951.0      -208813.0      -207600.0
      -206445.0      -205277.0      -204039.0      -202920.0      -201745.0
      -200601.0      -199435.0      -198298.0      -197242.0      -196075.0
      -194950.0      -193911.0      -192820.0      -191694.0      -190678.0
      -189658.0      -188595.0      -187576.0      -186540.0      -185587.0
      -184650.0      -183625.0      -182690.0      -181712.0      -180718.0
      -179868.0      -178941.0      -177927.0      -176992.0      -176136.0
      -175283.0      -174351.0      -173437.0      -172605.0      -171721.0
      -170830.0      -169980.0      -169090.0      -168132.0      -167265.0
      -166401.0      -165435.0      -164543.0      -163615.0      -162712.0
      -161818.0      -160857.0      -159939.0      -158942.0      -158004.0
      -157046.0      -156038.0      -155091.0      -154039.0      -153095.0
      -152109.0      -151048.0      -150082.0      -148997.0      -147977.0
      -146993.0      -145889.0      -144830.0      -143830.0      -142808.0
      -141697.0      -140581.0      -139553.0      -138496.0      -137373.0
      -136305.0      -135215.0      -134039.0      -132981.0      -131832.0
      -130576.0      -129482.0      -128301.0      -127092.0      -125908.0
      -124558.0      -123311.0      -122176.0      -120874.0      -119490.0
      -118224.0      -116970.0      -115624.0      -114334.0      -112957.0
      -111561.0      -110274.0      -108916.0      -107528.0      -106120.0
      -104763.0      -103446.0      -102032.0      -100655.0      -99277.00
      -97802.00      -96410.00      -95040.00      -93567.00      -92064.00
      -90655.00      -89267.00      -87740.00      -86302.00      -84901.00
      -83377.00      -81944.00      -80544.00      -79055.00      -77573.00
      -76138.00      -74678.00      -73153.00      -71731.00      -70308.00
      -68759.00      -67343.00      -65901.00      -64431.00      -63069.00
      -61569.00      -60083.00      -58686.00      -57240.00      -55812.00
      -54375.00      -52912.00      -51496.00      -50027.00      -48573.00
      -47196.00      -45723.00      -44292.00      -42901.00      -41443.00
      -40045.00      -38671.00      -37237.00      -35780.00      -34397.00
      -33058.00      -31647.00      -30251.00      -28938.00      -27546.00
      -26191.00      -24943.00      -23577.00      -22290.00      -21042.00
      -19704.00      -18457.00      -17205.00      -15985.00      -14740.00
      -13460.00      -12251.00      -10989.00      -9790.000      -8621.000
      -7355.000      -6157.000      -4966.000      -3788.000      -2663.000
      -1448.000      -249.0000       891.0000       2028.000       3226.000
       4439.000       5582.000       6749.000       7942.000       9112.000
       10310.00       11551.00       12659.00       13843.00       15140.00
       16290.00       17501.00       18678.00       19828.00       21063.00
       22220.00       23448.00       24648.00       25784.00       27029.00
       28224.00       29426.00       30658.00       31803.00       33014.00
       34265.00       35415.00       36562.00       37779.00       38962.00
       40135.00       41273.00       42452.00       43621.00       44655.00
       45870.00       46979.00       47991.00       49181.00       50249.00
       51352.00       52385.00       53452.00       54625.00       55608.00
       56686.00       57760.00       58785.00       59839.00       60863.00
       61946.00       62922.00       63913.00       64935.00       65968.00
       67034.00       67961.00       68953.00       70032.00       71060.00
       72007.00       73055.00       74121.00       75041.00       76113.00
       77122.00       78037.00       79071.00       80094.00       81085.00
       82003.00       82963.00       84034.00       85035.00       85984.00
       86926.00       87879.00       88858.00       89867.00       90799.00
       91642.00       92627.00       93558.00       94458.00       95353.00
       96189.00       97121.00       97973.00       98842.00       99708.00
