     0.02500000      -12345.00      -12345.00   1.968280e+09      -12345.00
   0.0005380000       1859.976      -666.0195      -12345.00      -12345.00
      -12345.00      -12345.00      -12345.00      -12345.00      -12345.00
      -12345.00      -12345.00      -12345.00      -12345.00      -12345.00
      -12345.00      -12345.00      -12345.00      -12345.00      -12345.00
      -12345.00      -12345.00      -12345.00      -12345.00      -12345.00
      -12345.00      -54.28360      -36.48790       20.00000       0.000000
      -42.72450       173.0647      -12345.00       22.00000      -12345.00
      -12345.00      -12345.00      -12345.00      -12345.00      -12345.00
      -12345.00      -12345.00      -12345.00      -12345.00      -12345.00
       8907.578       162.9284       201.6498       80.11132      -12345.00
      -12345.00      -12345.00       0.000000       0.000000      -12345.00
      -12345.00      -12345.00      -12345.00      -12345.00      -12345.00
      -12345.00      -12345.00      -12345.00      -12345.00      -12345.00
      2016       318        11        14         5
        19         6    -12345    -12345     74400
    -12345    -12345    -12345    -12345    -12345
         1    -12345    -12345    -12345    -12345
    -12345    -12345    -12345    -12345    -12345
    -12345    -12345    -12345    -12345    -12345
    -12345    -12345    -12345    -12345    -12345
         1    -12345    -12345    -12345    -12345
HOPE    South Island, Ne
10      -12345  -12345  
-12345  -12345  -12345  
-12345  -12345  -12345  
-12345  -12345  -12345  
-12345  -12345  -12345  
-12345  -12345  BHZ     
II      -12345  Nanometr
[...]
       63244.00       62740.00       62221.00       61741.00       61285.00
       60833.00       60372.00       59912.00       59446.00       58970.00
       58515.00       58056.00       57590.00       57094.00       56547.00
       56009.00       55466.00       54869.00       54281.00       53686.00
       53056.00       52475.00       51852.00       51207.00       50620.00
       49944.00       49259.00       48633.00       47957.00       47276.00
       46631.00       45988.00       45339.00       44751.00       44189.00
       43563.00       42953.00       42392.00       41843.00       41323.00
       40799.00       40270.00       39818.00       39368.00       38901.00
       38457.00       37993.00       37603.00       37223.00       36783.00
       36330.00       35857.00       35428.00       34988.00       34555.00
       34181.00       33809.00       33403.00       32992.00       32640.00
       32251.00       31858.00       31518.00       31157.00       30828.00
       30495.00       30177.00       29848.00       29415.00       29062.00
       28746.00       28395.00       28065.00       27649.00       27248.00
       26874.00       26456.00       26026.00       25562.00       25116.00
       24650.00       24179.00       23744.00       23286.00       22817.00
       22313.00       21771.00       21256.00       20794.00       20334.00
       19874.00       19360.00       18793.00       18309.00       17783.00
       17190.00       16663.00       16082.00       15475.00       14897.00
       14278.00       13722.00       13161.00       12575.00       11988.00
       11339.00       10706.00       10058.00       9396.000       8745.000
       8107.000       7476.000       6787.000       6103.000       5370.000
       4568.000       3856.000       3138.000       2400.000       1684.000
       915.0000       169.0000      -597.0000      -1382.000      -2140.000
      -2952.000      -3760.000      -4539.000      -5294.000      -6023.000
      -6774.000      -7481.000      -8188.000      -8980.000      -9758.000
      -10485.00      -11193.00      -11902.00      -12627.00      -13365.00
      -14087.00      -14801.00      -15564.00      -16305.00      -17000.00
      -17730.00      -18426.00      -19079.00      -19734.00      -20346.00
      -20998.00      -21682.00      -22336.00      -22983.00      -23554.00
      -24098.00      -24663.00      -25201.00      -25743.00      -26244.00
      -26709.00      -27215.00      -27722.00      -28207.00      -28720.00
      -29173.00      -29578.00      -30075.00      -30515.00      -30887.00
      -31306.00      -31717.00      -32151.00      -32576.00      -32898.00
      -33202.00      -33558.00      -33896.00      -34224.00      -34516.00
      -34768.00      -35093.00      -35425.00      -35733.00      -36040.00
      -36353.00      -36691.00      -36963.00      -37258.00      -37611.00
      -37895.00      -38186.00      -38444.00      -38724.00      -39080.00
      -39387.00      -39729.00      -40091.00      -40446.00      -40828.00
      -41180.00      -41560.00      -41951.00      -42343.00      -42753.00
      -43135.00      -43576.00      -44021.00      -44449.00      -44951.00
      -45413.00      -45869.00      -46397.00      -46894.00      -47414.00
      -47955.00      -48458.00      -48996.00      -49528.00      -50085.00
      -50657.00      -51189.00      -51739.00      -52296.00      -52873.00
      -53460.00      -53995.00      -54522.00      -55100.00      -55639.00
      -56168.00      -56738.00      -57250.00      -57727.00      -58192.00
      -58649.00      -59069.00      -59482.00      -59923.00      -60320.00
      -60728.00      -61128.00      -61457.00      -61784.00      -62109.00
      -62406.00      -62712.00      -63044.00      -63375.00      -63667.00
      -63921.00      -64172.00      -64396.00      -64637.00      -64873.00
      -65064.00      -65276.00      -65475.00      -65705.00      -65965.00
      -66202.00      -66456.00      -66685.00      -66893.00      -67088.00
      -67270.00      -67495.00      -67728.00      -67919.00      -68134.00
      -68421.00      -68731.00      -69017.00      -69275.00      -69513.00
      -69776.00      -70055.00      -70326.00      -70656.00      -70965.00
      -71238.00      -71588.00      -71915.00      -72188.00      -72492.00
      -72799.00      -73108.00      -73404.00      -73708.00      -74037.00
      -74330.00      -74588.00      -74844.00      -75142.00      -75429.00
      -75694.00      -75984.00      -76251.00      -76506.00      -76743.00
      -76978.00      -77180.00      -77376.00      -77583.00      -77700.00
      -77828.00      -77993.00      -78128.00      -78242.00      -78320.00
      -78397.00      -78477.00      -78566.00      -78632.00      -78675.00
      -78736.00      -78760.00      -78767.00      -78774.00      -78721.00
      -78663.00      -78628.00      -78561.00      -78463.00      -78379.00
      -78281.00      -78155.00      -78070.00      -77985.00      -77861.00
      -77731.00      -77580.00      -77437.00      -77302.00      -77127.00
      -76926.00      -76737.00      -76566.00      -76382.00      -76181.00
      -76000.00      -75810.00      -75625.00      -75449.00      -75224.00
      -75002.00      -74786.00      -74555.00      -74349.00      -74135.00
      -73899.00      -73681.00      -73477.00      -73242.00      -72968.00
      -72697.00      -72432.00      -72168.00      -71900.00      -71631.00
      -71379.00      -71108.00      -70853.00      -70616.00      -70354.00
      -70074.00      -69791.00      -69534.00      -69302.00      -69050.00
      -68790.00      -68554.00      -68337.00      -68143.00      -67928.00
      -67713.00      -67543.00      -67366.00      -67168.00      -66973.00
      -66794.00      -66629.00      -66468.00      -66276.00      -66073.00
      -65910.00      -65734.00      -65563.00      -65398.00      -65203.00
      -65056.00      -64900.00      -64716.00      -64556.00      -64386.00
      -64246.00      -64133.00      -63995.00      -63861.00      -63750.00
      -63613.00      -63473.00      -63334.00      -63161.00      -63007.00
      -62868.00      -62710.00      -62552.00      -62377.00      -62198.00
      -62016.00      -61804.00      -61585.00      -61333.00      -61077.00
      -60818.00      -60520.00      -60213.00      -59882.00      -59563.00
      -59232.00      -58862.00      -58475.00      -58062.00      -57651.00
      -57212.00      -56736.00      -56270.00      -55778.00      -55261.00
      -54759.00      -54235.00      -53706.00      -53176.00      -52619.00
      -52074.00      -51519.00      -50969.00      -50428.00      -49874.00
      -49329.00      -48789.00      -48255.00      -47716.00      -47175.00
      -46633.00      -46107.00      -45594.00      -45060.00      -44545.00
      -44044.00      -43527.00      -43004.00      -42476.00      -41942.00
      -41425.00      -40906.00      -40386.00      -39890.00      -39384.00
      -38862.00      -38353.00      -37852.00      -37347.00      -36855.00
      -36340.00      -35818.00      -35331.00      -34833.00      -34317.00
      -33796.00      -33277.00      -32747.00      -32187.00      -31652.00
      -31127.00      -30587.00      -30048.00      -29503.00      -28980.00
      -28432.00      -27880.00      -27364.00      -26820.00      -26276.00
      -25746.00      -25217.00      -24692.00      -24167.00      -23668.00
      -23177.00      -22682.00      -22191.00      -21677.00      -21162.00
      -20664.00      -20158.00      -19662.00      -19147.00      -18627.00
      -18111.00      -17578.00      -17063.00      -16530.00      -15996.00
      -15487.00      -14960.00      -14442.00      -13937.00      -13434.00
      -12946.00      -12452.00      -11978.00      -11519.00      -11053.00
      -10601.00      -10146.00      -9699.000      -9260.000      -8826.000
      -8401.000      -7987.000      -7577.000      -7142.000      -6707.000
      -6266.000      -5816.000      -5358.000      -4870.000      -4370.000
      -3846.000      -3321.000      -2818.000      -2290.000      -1759.000
      -1257.000      -748.0000      -196.0000       368.0000       894.0000
       1431.000       1975.000       2516.000       3075.000       3627.000
       4155.000       4674.000       5232.000       5781.000       6335.000
       6921.000       7491.000       8068.000       8647.000       9258.000
       9859.000       10469.00       11127.00       11760.00       12414.00
       13095.00       13781.00       14497.00       15210.00       15932.00
       16688.00       17457.00       18252.00       19030.00       19819.00
       20664.00       21523.00       22408.00       23319.00       24256.00
       25211.00       26189.00       27205.00       28229.00       29257.00
       30335.00       31425.00       32515.00       33655.00       34768.00
       35896.00       37078.00       38234.00       39424.00       40649.00
       41852.00       43078.00       44310.00       45517.00       46742.00
       47965.00       49197.00       50430.00       51662.00       52928.00
       54187.00       55467.00       56756.00       58044.00       59346.00
       60655.00       61972.00       63290.00       64626.00       65963.00
       67313.00       68659.00       69995.00       71340.00       72689.00
       74034.00       75368.00       76725.00       78090.00       79452.00
       80808.00       82175.00       83553.00       84945.00       86368.00
       87790.00       89217.00       90620.00       92039.00       93481.00
       94890.00       96285.00       97671.00       99051.00       100401.0
       101731.0       103066.0       104368.0       105657.0       106946.0
       108209.0       109468.0       110707.0       111938.0       113157.0
       114339.0       115524.0       116686.0       117849.0       119004.0
       120109.0       121220.0       122339.0       123421.0       124457.0
       125496.0       126497.0       127461.0       128436.0       129367.0
       130291.0       131222.0       132115.0       132965.0       133797.0
       134623.0       135433.0       136181.0       136900.0       137665.0
       138387.0       139065.0       139733.0       140360.0       141001.0
       141629.0       142202.0       142778.0       143346.0       143876.0
       144428.0       144941.0       145398.0       145894.0       146361.0
       146778.0       147192.0       147592.0       148017.0       148422.0
       148790.0       149176.0       149544.0       149913.0       150276.0
       150616.0       150965.0       151312.0       151669.0       152032.0
       152392.0       152761.0       153120.0       153500.0       153882.0
       154253.0       154641.0       155009.0       155370.0       155746.0
       156133.0       156528.0       156935.0       157326.0       157698.0
       158077.0       158450.0       158857.0       159277.0       159676.0
       160113.0       160565.0       161028.0       161501.0       161963.0
       162472.0       162982.0       163476.0       163977.0       164487.0
       165049.0       165609.0       166192.0       166805.0       167407.0
       168043.0       168698.0       169364.0       170044.0       170719.0
       171413.0       172145.0       172880.0       173612.0       174395.0
       175199.0       176006.0       176833.0       177649.0       178466.0
       179311.0       180168.0       181023.0       181891.0       182775.0
       183667.0       184585.0       185536.0       186476.0       187424.0
       188420.0       189440.0       190484.0       191542.0       192589.0
       193630.0       194669.0       195709.0       196746.0       197787.0
       198831.0       199869.0       200889.0       201906.0       202919.0
       203914.0       204920.0       205892.0       206818.0       207745.0
       208649.0       209541.0       210414.0       211257.0       212084.0
       212874.0       213646.0       214428.0       215189.0       215941.0
       216695.0       217410.0       218129.0       218843.0       219532.0
       220226.0       220887.0       221561.0       222227.0       222866.0
       223504.0       224122.0       224735.0       225322.0       225903.0
       226442.0       226955.0       227486.0       227963.0       228417.0
       228850.0       229255.0       229659.0       230029.0       230362.0
       230662.0       230958.0       231250.0       231514.0       231762.0
       231966.0       232153.0       232351.0       232532.0       232693.0
       232825.0       232952.0       233079.0       233187.0       233283.0
       233380.0       233515.0       233657.0       233767.0       233854.0
       233906.0       233958.0       234017.0       234052.0       234084.0
       234115.0       234114.0       234079.0       234023.0       233932.0
       233816.0       233677.0       233514.0       233328.0       233116.0
       232885.0       232631.0       232356.0       232046.0       231722.0
       231389.0       231021.0       230666.0       230307.0       229917.0
       229543.0       229177.0       228783.0       228392.0       227990.0
       227579.0       227198.0       226826.0       226451.0       226063.0
       225685.0       225326.0       224977.0       224623.0       224252.0
       223908.0       223558.0       223223.0       222916.0       222585.0
       222263.0       221942.0       221590.0       221247.0       220907.0
       220566.0       220236.0       219871.0       219494.0       219131.0
       218772.0       218392.0       217993.0       217603.0       217224.0
       216869.0       216509.0       216119.0       215741.0       215375.0
       214967.0       214535.0       214109.0       213704.0       213295.0
       212862.0       212417.0       211940.0       211477.0       210981.0
       210449.0       209944.0       209364.0       208791.0       208228.0
       207567.0       206926.0       206279.0       205559.0       204835.0
       204076.0       203295.0       202530.0       201703.0       200841.0
       199980.0       199059.0       198114.0       197140.0       196131.0
       195140.0       194105.0       193033.0       191951.0       190821.0
       189720.0       188619.0       187484.0       186356.0       185191.0
       184033.0       182874.0       181662.0       180457.0       179249.0
       178038.0       176828.0       175590.0       174348.0       173112.0
       171901.0       170684.0       169494.0       168333.0       167118.0
       165923.0       164738.0       163518.0       162307.0       161070.0
       159826.0       158609.0       157383.0       156152.0       154930.0
       153714.0       152520.0       151340.0       150157.0       149008.0
       147871.0       146731.0       145627.0       144535.0       143420.0
       142333.0       141282.0       140242.0       139223.0       138222.0
       137246.0       136292.0       135352.0       134439.0       133536.0
       132647.0       131797.0       130957.0       130122.0       129305.0
       128492.0       127689.0       126906.0       126129.0       125354.0
       124606.0       123885.0       123162.0       122435.0       121700.0
       120944.0       120192.0       119473.0       118737.0       117983.0
       117261.0       116534.0       115807.0       115069.0       114312.0
       113553.0       112761.0       111973.0       111187.0       110383.0
       109581.0       108773.0       108001.0       107237.0       106416.0
       105592.0       104772.0       103939.0       103123.0       102308.0
       101485.0       100654.0       99800.00       98935.00       98052.00
       97161.00       96260.00       95319.00       94396.00       93477.00
       92515.00       91539.00       90533.00       89523.00       88522.00
       87529.00       86537.00       85516.00       84500.00       83488.00
       82464.00       81420.00       80383.00       79359.00       78275.00
       77220.00       76190.00       75109.00       74053.00       72994.00
       71894.00       70811.00       69717.00       68602.00       67478.00
       66302.00       65155.00       64011.00       62800.00       61612.00
       60430.00       59218.00       57991.00       56791.00       55579.00
       54353.00       53145.00       51884.00       50669.00       49467.00
       48227.00       47000.00       45720.00       44490.00       43311.00
       42081.00       40856.00       39650.00       38443.00       37217.00
       35946.00       34670.00       33422.00       32152.00       30855.00
       29566.00       28230.00       26895.00       25550.00       24201.00
       22916.00       21536.00       20178.00       18876.00       17484.00
       16142.00       14795.00       13454.00       12166.00       10837.00
       9573.000       8289.000       6980.000       5748.000       4472.000
       3225.000       2042.000       802.0000      -428.0000      -1626.000
      -2824.000      -3979.000      -5182.000      -6398.000      -7544.000
      -8731.000      -9925.000      -11119.00      -12343.00      -13513.00
      -14695.00      -15879.00      -17020.00      -18238.00      -19431.00
      -20553.00      -21745.00      -22947.00      -24128.00      -25313.00
      -26449.00      -27581.00      -28735.00      -29786.00      -30817.00
      -31958.00      -33035.00      -34034.00      -35059.00      -36109.00
      -37198.00      -38262.00      -39298.00      -40353.00      -41362.00
      -42328.00      -43334.00      -44366.00      -45329.00      -46281.00
      -47306.00      -48342.00      -49337.00      -50277.00      -51250.00
      -52250.00      -53192.00      -54164.00      -55172.00      -56164.00
      -57164.00      -58176.00      -59242.00      -60295.00      -61255.00
      -62215.00      -63137.00      -64022.00      -64914.00      -65735.00
      -66547.00      -67393.00      -68234.00      -69054.00      -69848.00
      -70618.00      -71390.00      -72169.00      -72895.00      -73611.00
      -74338.00      -74994.00      -75610.00      -76255.00      -76868.00
      -77424.00      -77971.00      -78489.00      -79019.00      -79538.00
      -80037.00      -80599.00      -81142.00      -81627.00      -82122.00
      -82637.00      -83112.00      -83529.00      -83934.00      -84316.00
