     0.05000000      -12345.00      -12345.00   2.470160e+09      -12345.00
   0.0005380000       1859.951      -666.0195      -12345.00      -12345.00
      -12345.00      -12345.00      -12345.00      -12345.00      -12345.00
      -12345.00      -12345.00      -12345.00      -12345.00      -12345.00
      -12345.00      -12345.00      -12345.00      -12345.00      -12345.00
      -12345.00      -12345.00      -12345.00      -12345.00      -12345.00
      -12345.00      -54.28360      -36.48790       20.00000       0.000000
      -42.72450       173.0647      -12345.00       22.00000      -12345.00
      -12345.00      -12345.00      -12345.00      -12345.00      -12345.00
      -12345.00      -12345.00      -12345.00      -12345.00      -12345.00
       8907.578       162.9284       201.6498       80.11132      -12345.00
      -12345.00      -12345.00       90.70000       90.00000      -12345.00
      -12345.00      -12345.00      -12345.00      -12345.00      -12345.00
      -12345.00      -12345.00      -12345.00      -12345.00      -12345.00
      2016       318        11        14         5
        19         6    -12345    -12345     37200
    -12345    -12345    -12345    -12345    -12345
         1    -12345    -12345    -12345    -12345
    -12345    -12345    -12345    -12345    -12345
    -12345    -12345    -12345    -12345    -12345
    -12345    -12345    -12345    -12345    -12345
         1    -12345    -12345    -12345    -12345
HOPE    South Island, Ne
00      -12345  -12345  
-12345  -12345  -12345  
-12345  -12345  -12345  
-12345  -12345  -12345  
-12345  -12345  -12345  
-12345  -12345  BH2     
II      -12345  Streckei
[...]
       88304.00       84946.00       81678.00       78513.00       75323.00
       72302.00       69273.00       66274.00       63225.00       60224.00
       57362.00       54461.00       51538.00       48675.00       45888.00
       42955.00       40062.00       37278.00       34487.00       31799.00
       29202.00       26707.00       24139.00       21601.00       19203.00
       16694.00       14198.00       11713.00       9248.000       6828.000
       4350.000       1931.000      -515.0000      -2965.000      -5428.000
      -7909.000      -10425.00      -12968.00      -15349.00      -17833.00
      -20404.00      -22976.00      -25609.00      -28207.00      -30827.00
      -33479.00      -36197.00      -38952.00      -41753.00      -44567.00
      -47341.00      -50095.00      -52770.00      -55451.00      -58077.00
      -60658.00      -63274.00      -65738.00      -68156.00      -70641.00
      -73013.00      -75428.00      -77856.00      -80172.00      -82526.00
      -84845.00      -87180.00      -89458.00      -91758.00      -94160.00
      -96507.00      -98877.00      -101252.0      -103603.0      -105892.0
      -108241.0      -110561.0      -112861.0      -115281.0      -117605.0
      -119959.0      -122310.0      -124629.0      -127032.0      -129393.0
      -131751.0      -134129.0      -136488.0      -138849.0      -141215.0
      -143571.0      -145975.0      -148442.0      -150937.0      -153471.0
      -156020.0      -158603.0      -161186.0      -163775.0      -166437.0
      -169013.0      -171559.0      -174165.0      -176765.0      -179393.0
      -182020.0      -184661.0      -187299.0      -189937.0      -192598.0
      -195306.0      -198018.0      -200691.0      -203450.0      -206228.0
      -208974.0      -211725.0      -214475.0      -217222.0      -219935.0
      -222620.0      -225264.0      -227830.0      -230327.0      -232795.0
      -235202.0      -237538.0      -239781.0      -241963.0      -244136.0
      -246248.0      -248323.0      -250338.0      -252321.0      -254274.0
      -256195.0      -258096.0      -259957.0      -261752.0      -263466.0
      -265219.0      -266904.0      -268560.0      -270250.0      -271855.0
      -273513.0      -275160.0      -276790.0      -278436.0      -280072.0
      -281848.0      -283611.0      -285336.0      -287113.0      -288935.0
      -290849.0      -292693.0      -294532.0      -296472.0      -298440.0
      -300385.0      -302300.0      -304329.0      -306420.0      -308498.0
      -310664.0      -312884.0      -315097.0      -317380.0      -319734.0
      -322085.0      -324429.0      -326865.0      -329340.0      -331803.0
      -334368.0      -336942.0      -339514.0      -342156.0      -344833.0
      -347486.0      -350140.0      -352767.0      -355297.0      -357808.0
      -360302.0      -362788.0      -365212.0      -367626.0      -370052.0
      -372457.0      -374873.0      -377268.0      -379675.0      -382134.0
      -384738.0      -387304.0      -389876.0      -392531.0      -395159.0
      -397876.0      -400597.0      -403410.0      -406234.0      -409052.0
      -411942.0      -414724.0      -417628.0      -420520.0      -423336.0
      -426203.0      -428984.0      -431814.0      -434594.0      -437286.0
      -439956.0      -442494.0      -445017.0      -447541.0      -450009.0
      -452410.0      -454730.0      -457067.0      -459311.0      -461517.0
      -463753.0      -465910.0      -468078.0      -470165.0      -472233.0
      -474346.0      -476450.0      -478582.0      -480691.0      -482819.0
      -484999.0      -487280.0      -489592.0      -491911.0      -494303.0
      -496739.0      -499187.0      -501639.0      -504140.0      -506632.0
      -509127.0      -511596.0      -514004.0      -516502.0      -518897.0
      -521127.0      -523417.0      -525753.0      -528038.0      -530232.0
      -532434.0      -534566.0      -536613.0      -538699.0      -540732.0
      -542784.0      -544898.0      -546969.0      -549058.0      -551238.0
      -553403.0      -555521.0      -557652.0      -559771.0      -561862.0
      -563992.0      -566150.0      -568289.0      -570480.0      -572746.0
      -575073.0      -577345.0      -579581.0      -581848.0      -584097.0
      -586399.0      -588708.0      -591015.0      -593347.0      -595712.0
      -598163.0      -600604.0      -603006.0      -605464.0      -607880.0
      -610214.0      -612571.0      -614925.0      -617313.0      -619713.0
      -622089.0      -624543.0      -627010.0      -629470.0      -631958.0
      -634429.0      -636978.0      -639656.0      -642366.0      -645094.0
      -647788.0      -650536.0      -653369.0      -656149.0      -658993.0
      -661857.0      -664703.0      -667581.0      -670489.0      -673457.0
      -676387.0      -679293.0      -682152.0      -685024.0      -687888.0
      -690674.0      -693403.0      -695988.0      -698534.0      -701046.0
      -703502.0      -705948.0      -708285.0      -710594.0      -712888.0
      -715105.0      -717264.0      -719317.0      -721304.0      -723240.0
      -725112.0      -726879.0      -728571.0      -730199.0      -731696.0
      -733087.0      -734303.0      -735394.0      -736396.0      -737314.0
      -738167.0      -738928.0      -739642.0      -740275.0      -740816.0
      -741254.0      -741633.0      -741967.0      -742238.0      -742458.0
      -742627.0      -742768.0      -742862.0      -742990.0      -743077.0
      -743089.0      -743106.0      -743086.0      -743056.0      -742976.0
      -742899.0      -742822.0      -742726.0      -742663.0      -742570.0
      -742553.0      -742561.0      -742605.0      -742745.0      -742861.0
      -743014.0      -743199.0      -743466.0      -743746.0      -743993.0
      -744285.0      -744517.0      -744727.0      -744821.0      -744936.0
      -745200.0      -745404.0      -745612.0      -745803.0      -746012.0
      -746295.0      -746557.0      -746813.0      -747088.0      -747337.0
      -747589.0      -747821.0      -747929.0      -748026.0      -748096.0
      -748078.0      -748012.0      -747920.0      -747739.0      -747465.0
      -747227.0      -746935.0      -746616.0      -746256.0      -745801.0
      -745335.0      -744797.0      -744181.0      -743554.0      -742929.0
      -742219.0      -741475.0      -740713.0      -739874.0      -739065.0
      -738206.0      -737275.0      -736419.0      -735556.0      -734666.0
      -733851.0      -733017.0      -732162.0      -731253.0      -730257.0
      -729341.0      -728428.0      -727502.0      -726564.0      -725689.0
      -724823.0      -723822.0      -722803.0      -721676.0      -720538.0
      -719386.0      -718206.0      -717018.0      -715730.0      -714447.0
      -713182.0      -711865.0      -710444.0      -709053.0      -707591.0
      -706047.0      -704517.0      -702879.0      -701247.0      -699563.0
      -697808.0      -696030.0      -694186.0      -692315.0      -690374.0
      -688437.0      -686458.0      -684451.0      -682414.0      -680231.0
      -678079.0      -675863.0      -673548.0      -671235.0      -668970.0
      -666713.0      -664304.0      -661933.0      -659543.0      -657134.0
      -654757.0      -652284.0      -649858.0      -647510.0      -645241.0
      -642998.0      -640736.0      -638443.0      -636098.0      -633773.0
      -631378.0      -628931.0      -626429.0      -623897.0      -621376.0
      -618784.0      -616119.0      -613352.0      -610575.0      -607756.0
      -604847.0      -601878.0      -598826.0      -595759.0      -592620.0
      -589388.0      -586127.0      -582830.0      -579456.0      -576075.0
      -572725.0      -569336.0      -565926.0      -562514.0      -559131.0
      -555793.0      -552471.0      -549198.0      -545971.0      -542710.0
      -539372.0      -536077.0      -532818.0      -529487.0      -526144.0
      -522752.0      -519303.0      -515862.0      -512356.0      -508801.0
      -505310.0      -501832.0      -498361.0      -494806.0      -491218.0
      -487688.0      -483993.0      -480276.0      -476565.0      -472779.0
      -468940.0      -465031.0      -461103.0      -457045.0      -452977.0
      -448929.0      -444865.0      -440767.0      -436537.0      -432330.0
      -428093.0      -423796.0      -419555.0      -415275.0      -410942.0
      -406549.0      -402063.0      -397526.0      -392948.0      -388306.0
      -383662.0      -378989.0      -374252.0      -369527.0      -364805.0
      -360094.0      -355393.0      -350664.0      -345853.0      -341002.0
      -336156.0      -331323.0      -326441.0      -321472.0      -316554.0
      -311550.0      -306512.0      -301408.0      -296197.0      -291108.0
      -285934.0      -280656.0      -275368.0      -270039.0      -264620.0
      -259184.0      -253812.0      -248314.0      -242713.0      -237085.0
      -231441.0      -225713.0      -219940.0      -214151.0      -208265.0
      -202354.0      -196435.0      -190497.0      -184535.0      -178598.0
      -172637.0      -166644.0      -160625.0      -154498.0      -148389.0
      -142312.0      -136162.0      -129970.0      -123751.0      -117546.0
      -111352.0      -105181.0      -99065.00      -92924.00      -86838.00
      -80797.00      -74763.00      -68756.00      -62779.00      -56878.00
      -51014.00      -45233.00      -39477.00      -33679.00      -27930.00
      -22277.00      -16678.00      -11098.00      -5580.000      -135.0000
       5241.000       10567.00       15883.00       21168.00       26398.00
       31568.00       36713.00       41858.00       46995.00       52171.00
       57365.00       62550.00       67788.00       73146.00       78529.00
       83936.00       89385.00       94832.00       100394.0       105939.0
       111497.0       117164.0       122876.0       128667.0       134512.0
       140414.0       146361.0       152374.0       158379.0       164396.0
       170524.0       176642.0       182720.0       188844.0       195047.0
       201291.0       207554.0       213843.0       220157.0       226538.0
       232972.0       239376.0       245768.0       252247.0       258788.0
       265357.0       271966.0       278584.0       285184.0       291815.0
       298481.0       305193.0       311999.0       318849.0       325718.0
       332643.0       339565.0       346454.0       353378.0       360269.0
       367084.0       373850.0       380587.0       387345.0       394098.0
       400815.0       407541.0       414263.0       420905.0       427506.0
       434076.0       440615.0       447175.0       453645.0       460073.0
       466522.0       472904.0       479289.0       485626.0       491887.0
       498107.0       504306.0       510454.0       516501.0       522524.0
       528464.0       534355.0       540289.0       546178.0       552031.0
       557868.0       563647.0       569407.0       575129.0       580783.0
       586483.0       592148.0       597747.0       603431.0       609097.0
       614665.0       620221.0       625750.0       631241.0       636730.0
       642183.0       647621.0       653059.0       658496.0       663992.0
       669537.0       675037.0       680480.0       685942.0       691333.0
       696662.0       701997.0       707257.0       712521.0       717795.0
       723036.0       728326.0       733635.0       738933.0       744266.0
       749612.0       754933.0       760254.0       765567.0       770870.0
       776219.0       781554.0       786829.0       792109.0       797377.0
       802597.0       807784.0       812951.0       818071.0       823135.0
       828143.0       833145.0       838079.0       842982.0       847859.0
       852623.0       857408.0       862185.0       866920.0       871647.0
       876362.0       881038.0       885647.0       890254.0       894846.0
       899351.0       903735.0       908014.0       912189.0       916308.0
       920438.0       924517.0       928530.0       932563.0       936518.0
       940373.0       944168.0       947882.0       951498.0       954980.0
       958313.0       961489.0       964602.0       967569.0       970473.0
       973302.0       975951.0       978574.0       981062.0       983481.0
       985856.0       988117.0       990326.0       992483.0       994554.0
       996560.0       998533.0       1000334.       1002080.       1003813.
       1005413.       1006899.       1008274.       1009576.       1010766.
       1011861.       1012840.       1013610.       1014298.       1014962.
       1015637.       1016299.       1016875.       1017470.       1018101.
       1018730.       1019325.       1019836.       1020297.       1020682.
       1021022.       1021378.       1021617.       1021790.       1022006.
       1022178.       1022270.       1022325.       1022366.       1022350.
       1022346.       1022355.       1022270.       1022153.       1022016.
       1021800.       1021531.       1021241.       1020932.       1020615.
       1020212.       1019681.       1019095.       1018462.       1017759.
       1016978.       1016117.       1015167.       1014135.       1012982.
       1011749.       1010530.       1009286.       1008014.       1006693.
       1005298.       1003803.       1002232.       1000618.       998933.0
       997207.0       995436.0       993604.0       991767.0       989904.0
       987955.0       985979.0       983959.0       981919.0       979930.0
       977935.0       975950.0       973980.0       972039.0       970075.0
       968105.0       966156.0       964143.0       962187.0       960216.0
       958232.0       956320.0       954376.0       952437.0       950445.0
       948389.0       946256.0       944020.0       941735.0       939351.0
       936862.0       934272.0       931597.0       928873.0       926020.0
       923057.0       920059.0       916963.0       913841.0       910699.0
       907517.0       904345.0       901169.0       897990.0       894761.0
       891546.0       888253.0       884898.0       881588.0       878184.0
       874740.0       871235.0       867637.0       864022.0       860334.0
       856563.0       852719.0       848823.0       844871.0       840830.0
       836698.0       832484.0       828169.0       823764.0       819318.0
       814825.0       810281.0       805698.0       801105.0       796468.0
       791784.0       787133.0       782488.0       777884.0       773362.0
       768853.0       764329.0       759832.0       755372.0       750860.0
       746356.0       741845.0       737219.0       732557.0       727914.0
       723296.0       718659.0       713990.0       709331.0       704739.0
       700207.0       695610.0       691042.0       686583.0       682131.0
       677699.0       673292.0       668920.0       664481.0       659971.0
       655510.0       650961.0       646236.0       641386.0       636465.0
       631438.0       626239.0       620944.0       615588.0       610114.0
       604516.0       598881.0       593221.0       587526.0       581822.0
       576096.0       570399.0       564704.0       558983.0       553270.0
       547481.0       541698.0       535997.0       530305.0       524680.0
       518979.0       513245.0       507609.0       501961.0       496340.0
       490717.0       485117.0       479540.0       474008.0       468479.0
       462973.0       457538.0       451980.0       446446.0       440883.0
       435249.0       429651.0       423997.0       418348.0       412664.0
       406941.0       401220.0       395476.0       389729.0       383978.0
       378235.0       372487.0       366681.0       360830.0       355043.0
       349272.0       343406.0       337576.0       331739.0       325841.0
       319927.0       313919.0       307908.0       301840.0       295693.0
       289521.0       283306.0       277069.0       270718.0       264351.0
       257912.0       251397.0       244903.0       238280.0       231614.0
       224934.0       218243.0       211579.0       204948.0       198389.0
       191842.0       185299.0       178772.0       172317.0       165910.0
       159539.0       153236.0       146956.0       140725.0       134526.0
       128375.0       122253.0       116125.0       109997.0       103891.0
       97822.00       91738.00       85726.00       79737.00       73725.00
       67673.00       61551.00       55481.00       49364.00       43199.00
       37026.00       30818.00       24610.00       18388.00       12196.00
       5964.000      -300.0000      -6548.000      -12839.00      -19106.00
      -25337.00      -31557.00      -37760.00      -43911.00      -50014.00
      -56117.00      -62136.00      -68132.00      -74119.00      -80054.00
      -86044.00      -92084.00      -98127.00      -104093.0      -110067.0
      -116087.0      -122011.0      -127906.0      -133783.0      -139556.0
      -145317.0      -151038.0      -156658.0      -162287.0      -167871.0
      -173354.0      -178817.0      -184247.0      -189567.0      -194834.0
      -200020.0      -205116.0      -210166.0      -215106.0      -220046.0
      -224981.0      -229897.0      -234767.0      -239593.0      -244501.0
      -249373.0      -254190.0      -259008.0      -263809.0      -268538.0
      -273292.0      -278086.0      -282806.0      -287568.0      -292334.0
      -297087.0      -301896.0      -306686.0      -311458.0      -316292.0
      -321126.0      -325929.0      -330788.0      -335629.0      -340459.0
      -345297.0      -350081.0      -354877.0      -359699.0      -364491.0
      -369260.0      -374020.0      -378745.0      -383458.0      -388186.0
      -392916.0      -397678.0      -402507.0      -407328.0      -412154.0
      -416966.0      -421694.0      -426422.0      -431088.0      -435653.0
      -440192.0      -444713.0      -449198.0      -453593.0      -457849.0
      -461974.0      -465985.0      -469891.0      -473685.0      -477364.0
      -480985.0      -484521.0      -487978.0      -491396.0      -494657.0
      -497763.0      -500793.0      -503700.0      -506488.0      -509214.0
      -511847.0      -514371.0      -516796.0      -519152.0      -521426.0
      -523614.0      -525800.0      -527929.0      -530004.0      -532083.0
      -534095.0      -536005.0      -537878.0      -539738.0      -541504.0
