     0.05000000      -12345.00      -12345.00   2.483310e+09      -12345.00
   0.0005380000       1859.951      -666.0195      -12345.00      -12345.00
      -12345.00      -12345.00      -12345.00      -12345.00      -12345.00
      -12345.00      -12345.00      -12345.00      -12345.00      -12345.00
      -12345.00      -12345.00      -12345.00      -12345.00      -12345.00
      -12345.00      -12345.00      -12345.00      -12345.00      -12345.00
      -12345.00      -54.28360      -36.48790       20.00000       0.000000
      -42.72450       173.0647      -12345.00       22.00000      -12345.00
      -12345.00      -12345.00      -12345.00      -12345.00      -12345.00
      -12345.00      -12345.00      -12345.00      -12345.00      -12345.00
       8907.578       162.9284       201.6498       80.11132      -12345.00
      -12345.00      -12345.00       359.8000       90.00000      -12345.00
      -12345.00      -12345.00      -12345.00      -12345.00      -12345.00
      -12345.00      -12345.00      -12345.00      -12345.00      -12345.00
      2016       318        11        14         5
        19         6    -12345    -12345     37200
    -12345    -12345    -12345    -12345    -12345
         1    -12345    -12345    -12345    -12345
    -12345    -12345    -12345    -12345    -12345
    -12345    -12345    -12345    -12345    -12345
    -12345    -12345    -12345    -12345    -12345
         1    -12345    -12345    -12345    -12345
HOPE    South Island, Ne
00      -12345  -12345  
-12345  -12345  -12345  
-12345  -12345  -12345  
-12345  -12345  -12345  
-12345  -12345  -12345  
-12345  -12345  BH1     
II      -12345  Streckei
[...]
      -94399.00      -93699.00      -92898.00      -92077.00      -91247.00
      -90351.00      -89507.00      -88589.00      -87693.00      -86809.00
      -85780.00      -84853.00      -83971.00      -82938.00      -81934.00
      -80898.00      -79844.00      -78801.00      -77750.00      -76782.00
      -75747.00      -74735.00      -73733.00      -72701.00      -71645.00
      -70616.00      -69719.00      -68736.00      -67789.00      -66941.00
      -66059.00      -65211.00      -64365.00      -63485.00      -62702.00
      -61953.00      -61180.00      -60501.00      -59887.00      -59302.00
      -58713.00      -58113.00      -57476.00      -56831.00      -56193.00
      -55556.00      -54817.00      -53958.00      -53187.00      -52324.00
      -51395.00      -50517.00      -49488.00      -48441.00      -47385.00
      -46272.00      -45188.00      -44115.00      -43038.00      -41873.00
      -40710.00      -39571.00      -38388.00      -37179.00      -35934.00
      -34720.00      -33499.00      -32261.00      -31044.00      -29843.00
      -28652.00      -27386.00      -26086.00      -24745.00      -23404.00
      -22088.00      -20666.00      -19231.00      -17766.00      -16249.00
      -14768.00      -13268.00      -11753.00      -10217.00      -8631.000
      -6988.000      -5325.000      -3635.000      -1907.000      -191.0000
       1545.000       3325.000       5118.000       6910.000       8794.000
       10759.00       12662.00       14571.00       16511.00       18468.00
       20489.00       22456.00       24437.00       26470.00       28413.00
       30365.00       32329.00       34282.00       36276.00       38220.00
       40081.00       41911.00       43711.00       45524.00       47343.00
       49086.00       50793.00       52451.00       54062.00       55661.00
       57268.00       58852.00       60397.00       62036.00       63669.00
       65247.00       66806.00       68300.00       69770.00       71168.00
       72558.00       73960.00       75310.00       76587.00       77795.00
       79024.00       80213.00       81308.00       82352.00       83404.00
       84438.00       85386.00       86285.00       87125.00       87951.00
       88782.00       89603.00       90457.00       91323.00       92207.00
       93115.00       94012.00       94890.00       95838.00       96809.00
       97760.00       98813.00       99892.00       100894.0       102045.0
       103311.0       104582.0       106053.0       107580.0       109213.0
       110985.0       112753.0       114700.0       116706.0       118644.0
       120672.0       122790.0       124918.0       127055.0       129206.0
       131252.0       133183.0       135065.0       136886.0       138765.0
       140588.0       142219.0       143852.0       145611.0       147332.0
       148917.0       150564.0       152233.0       153877.0       155532.0
       157073.0       158692.0       160347.0       161918.0       163491.0
       165023.0       166673.0       168290.0       169872.0       171581.0
       173207.0       174753.0       176295.0       177931.0       179516.0
       181005.0       182488.0       183953.0       185515.0       187088.0
       188680.0       190304.0       191844.0       193368.0       194952.0
       196449.0       197933.0       199535.0       200999.0       202475.0
       203997.0       205393.0       206828.0       208202.0       209565.0
       210938.0       212288.0       213661.0       214991.0       216311.0
       217563.0       218786.0       220015.0       221263.0       222472.0
       223619.0       224769.0       225803.0       226834.0       227942.0
       229044.0       230172.0       231325.0       232509.0       233728.0
       234947.0       236164.0       237378.0       238606.0       239828.0
       240967.0       242090.0       243218.0       244312.0       245423.0
       246534.0       247632.0       248686.0       249755.0       250897.0
       252033.0       253239.0       254453.0       255566.0       256717.0
       257898.0       259050.0       260152.0       261294.0       262492.0
       263619.0       264754.0       265876.0       266962.0       268074.0
       269240.0       270374.0       271369.0       272478.0       273629.0
       274644.0       275607.0       276454.0       277282.0       278098.0
       278840.0       279542.0       280180.0       280836.0       281536.0
       282227.0       282922.0       283688.0       284471.0       285209.0
       285974.0       286736.0       287506.0       288339.0       289202.0
       290123.0       291052.0       291922.0       292795.0       293662.0
       294536.0       295379.0       296193.0       297065.0       297893.0
       298671.0       299501.0       300318.0       301090.0       301876.0
       302599.0       303368.0       304100.0       304701.0       305314.0
       305878.0       306441.0       306926.0       307328.0       307721.0
       308066.0       308387.0       308661.0       308874.0       309007.0
       309140.0       309253.0       309337.0       309380.0       309374.0
       309389.0       309388.0       309360.0       309257.0       309174.0
       309101.0       309046.0       309054.0       308951.0       308896.0
       308914.0       308950.0       309082.0       309234.0       309417.0
       309567.0       309745.0       309950.0       310119.0       310331.0
       310616.0       311017.0       311373.0       311817.0       312344.0
       312829.0       313384.0       313905.0       314334.0       314638.0
       314901.0       315107.0       315248.0       315412.0       315492.0
       315425.0       315274.0       315066.0       314805.0       314496.0
       314162.0       313829.0       313340.0       312751.0       312136.0
       311450.0       310756.0       310003.0       309153.0       308222.0
       307202.0       306200.0       305225.0       304117.0       302932.0
       301783.0       300655.0       299471.0       298336.0       297274.0
       296097.0       294837.0       293575.0       292467.0       291356.0
       290129.0       289050.0       287997.0       286923.0       285970.0
       285041.0       284029.0       282927.0       281861.0       280857.0
       279881.0       278930.0       277996.0       277179.0       276368.0
       275566.0       274719.0       273859.0       273115.0       272274.0
       271459.0       270623.0       269748.0       268849.0       267922.0
       267010.0       265972.0       265013.0       264001.0       262946.0
       261895.0       260811.0       259879.0       258937.0       258052.0
       257234.0       256356.0       255403.0       254548.0       253734.0
       252755.0       251937.0       251156.0       250210.0       249290.0
       248350.0       247401.0       246465.0       245436.0       244368.0
       243318.0       242247.0       241169.0       240096.0       239017.0
       237890.0       236755.0       235673.0       234644.0       233632.0
       232578.0       231620.0       230760.0       229859.0       229003.0
       228203.0       227424.0       226721.0       226035.0       225374.0
       224770.0       224180.0       223689.0       223206.0       222728.0
       222316.0       221863.0       221414.0       220993.0       220611.0
       220119.0       219582.0       219060.0       218457.0       217870.0
       217286.0       216750.0       216150.0       215606.0       215193.0
       214658.0       214112.0       213681.0       213177.0       212580.0
       212101.0       211642.0       211097.0       210551.0       209985.0
       209305.0       208617.0       207948.0       207253.0       206551.0
       205742.0       204927.0       204165.0       203359.0       202483.0
       201597.0       200740.0       199816.0       198850.0       197848.0
       196773.0       195698.0       194623.0       193502.0       192420.0
       191275.0       190074.0       188974.0       187757.0       186586.0
       185549.0       184489.0       183467.0       182524.0       181596.0
       180611.0       179690.0       178759.0       177846.0       176927.0
       175984.0       175121.0       174244.0       173383.0       172544.0
       171786.0       171009.0       170112.0       169359.0       168653.0
       167911.0       167179.0       166381.0       165594.0       164721.0
       163880.0       163053.0       162100.0       161186.0       160250.0
       159361.0       158471.0       157471.0       156514.0       155519.0
       154474.0       153416.0       152302.0       151260.0       150217.0
       149168.0       148176.0       147140.0       146082.0       145036.0
       144025.0       142986.0       141973.0       141010.0       140053.0
       139196.0       138272.0       137288.0       136351.0       135373.0
       134403.0       133372.0       132237.0       131104.0       129899.0
       128644.0       127383.0       125999.0       124530.0       122995.0
       121404.0       119731.0       117984.0       116253.0       114463.0
       112578.0       110635.0       108654.0       106535.0       104303.0
       102047.0       99716.00       97379.00       94949.00       92426.00
       89868.00       87219.00       84549.00       81817.00       79074.00
       76285.00       73374.00       70460.00       67571.00       64750.00
       61993.00       59223.00       56482.00       53868.00       51272.00
       48728.00       46238.00       43677.00       41206.00       38781.00
       36319.00       33902.00       31529.00       29206.00       26931.00
       24679.00       22537.00       20466.00       18388.00       16353.00
       14323.00       12322.00       10281.00       8217.000       6218.000
       4238.000       2320.000       481.0000      -1279.000      -3027.000
      -4777.000      -6531.000      -8297.000      -10020.00      -11724.00
      -13440.00      -15207.00      -16972.00      -18762.00      -20580.00
      -22374.00      -24288.00      -26223.00      -28136.00      -30174.00
      -32192.00      -34227.00      -36458.00      -38762.00      -41124.00
      -43581.00      -46001.00      -48453.00      -51023.00      -53635.00
      -56324.00      -59101.00      -61941.00      -64844.00      -67725.00
      -70587.00      -73450.00      -76263.00      -79048.00      -81857.00
      -84784.00      -87750.00      -90645.00      -93558.00      -96581.00
      -99644.00      -102660.0      -105759.0      -108924.0      -112073.0
      -115313.0      -118547.0      -121690.0      -124868.0      -128039.0
      -131242.0      -134443.0      -137619.0      -140834.0      -143997.0
      -147191.0      -150324.0      -153411.0      -156490.0      -159500.0
      -162543.0      -165573.0      -168547.0      -171489.0      -174424.0
      -177274.0      -180093.0      -182888.0      -185595.0      -188331.0
      -191021.0      -193675.0      -196392.0      -199011.0      -201578.0
      -204179.0      -206628.0      -209051.0      -211470.0      -213814.0
      -216197.0      -218537.0      -220880.0      -223190.0      -225458.0
      -227718.0      -229930.0      -232176.0      -234344.0      -236460.0
      -238607.0      -240732.0      -242843.0      -244958.0      -247114.0
      -249262.0      -251450.0      -253702.0      -255865.0      -258051.0
      -260359.0      -262683.0      -264990.0      -267270.0      -269551.0
      -271789.0      -273967.0      -276148.0      -278310.0      -280325.0
      -282258.0      -284300.0      -286311.0      -288285.0      -290276.0
      -292161.0      -294062.0      -295905.0      -297639.0      -299487.0
      -301223.0      -302995.0      -304871.0      -306587.0      -308333.0
      -310083.0      -311791.0      -313443.0      -315128.0      -316742.0
      -318196.0      -319713.0      -321209.0      -322698.0      -324266.0
      -325858.0      -327395.0      -328901.0      -330485.0      -332124.0
      -333721.0      -335425.0      -337204.0      -338885.0      -340645.0
      -342467.0      -344341.0      -346248.0      -348099.0      -349982.0
      -351898.0      -353894.0      -355930.0      -357918.0      -359943.0
      -361973.0      -363946.0      -365953.0      -367998.0      -369964.0
      -371933.0      -373936.0      -375822.0      -377680.0      -379445.0
      -381078.0      -382665.0      -384055.0      -385369.0      -386670.0
      -387879.0      -389015.0      -390117.0      -391231.0      -392293.0
      -393330.0      -394323.0      -395295.0      -396227.0      -397079.0
      -397993.0      -398945.0      -399806.0      -400613.0      -401363.0
      -402031.0      -402701.0      -403343.0      -403903.0      -404390.0
      -404878.0      -405309.0      -405700.0      -406097.0      -406361.0
      -406546.0      -406706.0      -406834.0      -406917.0      -406928.0
      -406836.0      -406703.0      -406574.0      -406377.0      -406171.0
      -405930.0      -405637.0      -405363.0      -405111.0      -404843.0
      -404631.0      -404496.0      -404287.0      -404038.0      -403774.0
      -403481.0      -403140.0      -402843.0      -402621.0      -402263.0
      -401942.0      -401674.0      -401272.0      -400947.0      -400626.0
      -400213.0      -399896.0      -399587.0      -399232.0      -398878.0
      -398462.0      -398033.0      -397544.0      -397035.0      -396589.0
      -396114.0      -395663.0      -395230.0      -394757.0      -394324.0
      -393857.0      -393230.0      -392542.0      -391819.0      -391087.0
      -390334.0      -389489.0      -388675.0      -387810.0      -386832.0
      -385788.0      -384667.0      -383546.0      -382383.0      -381152.0
      -379959.0      -378799.0      -377591.0      -376341.0      -375102.0
      -373917.0      -372716.0      -371505.0      -370302.0      -369029.0
      -367737.0      -366429.0      -365077.0      -363662.0      -362217.0
      -360783.0      -359274.0      -357723.0      -356171.0      -354562.0
      -352898.0      -351239.0      -349531.0      -347758.0      -345981.0
      -344105.0      -342221.0      -340305.0      -338323.0      -336359.0
      -334336.0      -332370.0      -330413.0      -328437.0      -326517.0
      -324572.0      -322601.0      -320634.0      -318558.0      -316411.0
      -314332.0      -312185.0      -310017.0      -307836.0      -305628.0
      -303363.0      -300964.0      -298618.0      -296214.0      -293800.0
      -291497.0      -289211.0      -286930.0      -284596.0      -282341.0
      -280200.0      -278073.0      -275942.0      -273842.0      -271798.0
      -269728.0      -267749.0      -265771.0      -263699.0      -261755.0
      -259834.0      -257885.0      -256012.0      -254167.0      -252340.0
      -250567.0      -248811.0      -247038.0      -245262.0      -243482.0
      -241770.0      -240098.0      -238391.0      -236666.0      -234928.0
      -233186.0      -231403.0      -229593.0      -227807.0      -226018.0
      -224141.0      -222214.0      -220293.0      -218274.0      -216240.0
      -214248.0      -212139.0      -209991.0      -207826.0      -205536.0
      -203151.0      -200671.0      -198097.0      -195451.0      -192759.0
      -189976.0      -187185.0      -184416.0      -181613.0      -178857.0
      -176032.0      -173237.0      -170452.0      -167595.0      -164717.0
      -161690.0      -158684.0      -155705.0      -152669.0      -149602.0
      -146584.0      -143649.0      -140645.0      -137615.0      -134603.0
      -131623.0      -128674.0      -125671.0      -122685.0      -119751.0
      -116788.0      -113758.0      -110693.0      -107649.0      -104581.0
      -101556.0      -98591.00      -95602.00      -92650.00      -89689.00
      -86738.00      -83858.00      -80976.00      -78050.00      -75072.00
      -72081.00      -69087.00      -66043.00      -62999.00      -60026.00
      -57042.00      -54048.00      -51121.00      -48211.00      -45279.00
      -42378.00      -39563.00      -36798.00      -34007.00      -31198.00
      -28446.00      -25742.00      -23058.00      -20439.00      -17828.00
      -15233.00      -12683.00      -10051.00      -7450.000      -4885.000
      -2292.000       197.0000       2628.000       5025.000       7418.000
       9796.000       12060.00       14248.00       16365.00       18418.00
       20473.00       22495.00       24425.00       26311.00       28182.00
       29997.00       31750.00       33469.00       35134.00       36775.00
       38459.00       40141.00       41718.00       43365.00       45117.00
       46773.00       48496.00       50283.00       52099.00       53990.00
       55912.00       57950.00       60093.00       62345.00       64622.00
       66868.00       69215.00       71615.00       73977.00       76322.00
       78653.00       80974.00       83272.00       85530.00       87748.00
       89883.00       91963.00       94027.00       96097.00       98169.00
       100217.0       102267.0       104269.0       106229.0       108177.0
       110131.0       112090.0       113944.0       115738.0       117506.0
       119256.0       120945.0       122600.0       124309.0       125871.0
       127392.0       129012.0       130609.0       132201.0       133751.0
       135320.0       136905.0       138438.0       140067.0       141728.0
       143362.0       145059.0       146794.0       148591.0       150402.0
       152193.0       154038.0       155957.0       157922.0       159904.0
       161912.0       163954.0       166012.0       168050.0       170091.0
       172165.0       174254.0       176366.0       178478.0       180607.0
       182766.0       184918.0       187141.0       189362.0       191528.0
       193672.0       195715.0       197719.0       199620.0       201381.0
       203109.0       204779.0       206325.0       207757.0       209119.0
       210366.0       211535.0       212606.0       213539.0       214355.0
       215035.0       215605.0       216077.0       216462.0       216726.0
       216908.0       216995.0       216932.0       216867.0       216793.0
       216661.0       216517.0       216365.0       216185.0       215973.0
       215767.0       215618.0       215562.0       215477.0       215427.0
       215466.0       215542.0       215680.0       215796.0       216009.0
