     0.02500000      -12345.00      -12345.00   1.946320e+09      -12345.00
   0.0005380000       1859.976      -666.0195      -12345.00      -12345.00
      -12345.00      -12345.00      -12345.00      -12345.00      -12345.00
      -12345.00      -12345.00      -12345.00      -12345.00      -12345.00
      -12345.00      -12345.00      -12345.00      -12345.00      -12345.00
      -12345.00      -12345.00      -12345.00      -12345.00      -12345.00
      -12345.00      -54.28360      -36.48790       20.00000       0.000000
      -42.72450       173.0647      -12345.00       22.00000      -12345.00
      -12345.00      -12345.00      -12345.00      -12345.00      -12345.00
      -12345.00      -12345.00      -12345.00      -12345.00      -12345.00
       8907.578       162.9284       201.6498       80.11132      -12345.00
      -12345.00      -12345.00      0.3000000       90.00000      -12345.00
      -12345.00      -12345.00      -12345.00      -12345.00      -12345.00
      -12345.00      -12345.00      -12345.00      -12345.00      -12345.00
      2016       318        11        14         5
        19         6    -12345    -12345     74400
    -12345    -12345    -12345    -12345    -12345
         1    -12345    -12345    -12345    -12345
    -12345    -12345    -12345    -12345    -12345
    -12345    -12345    -12345    -12345    -12345
    -12345    -12345    -12345    -12345    -12345
         1    -12345    -12345    -12345    -12345
HOPE    South Island, Ne
10      -12345  -12345  
-12345  -12345  -12345  
-12345  -12345  -12345  
-12345  -12345  -12345  
-12345  -12345  -12345  
-12345  -12345  BH1     
II      -12345  Nanometr
[...]
       236110.0       236137.0       236132.0       236179.0       236282.0
       236312.0       236324.0       236408.0       236421.0       236481.0
       236543.0       236580.0       236686.0       236714.0       236761.0
       236800.0       236750.0       236784.0       236843.0       236826.0
       236792.0       236765.0       236772.0       236779.0       236722.0
       236712.0       236754.0       236747.0       236742.0       236689.0
       236652.0       236757.0       236833.0       236803.0       236806.0
       236864.0       236828.0       236822.0       236905.0       236944.0
       237000.0       236967.0       236895.0       236955.0       236981.0
       236981.0       237049.0       237062.0       237065.0       237051.0
       237044.0       237066.0       237025.0       237035.0       236973.0
       236881.0       236857.0       236786.0       236754.0       236695.0
       236620.0       236587.0       236520.0       236436.0       236328.0
       236211.0       236114.0       235997.0       235913.0       235853.0
       235723.0       235598.0       235483.0       235337.0       235197.0
       235073.0       234937.0       234822.0       234676.0       234490.0
       234329.0       234153.0       233999.0       233779.0       233534.0
       233364.0       233140.0       232907.0       232707.0       232484.0
       232252.0       232024.0       231792.0       231572.0       231357.0
       231071.0       230792.0       230565.0       230308.0       230106.0
       229847.0       229497.0       229258.0       229064.0       228857.0
       228634.0       228422.0       228206.0       228012.0       227844.0
       227625.0       227474.0       227362.0       227154.0       226927.0
       226780.0       226639.0       226438.0       226281.0       226138.0
       225942.0       225797.0       225659.0       225456.0       225271.0
       225116.0       224997.0       224861.0       224670.0       224539.0
       224417.0       224259.0       224114.0       223982.0       223909.0
       223807.0       223682.0       223552.0       223378.0       223263.0
       223119.0       223015.0       223000.0       222887.0       222734.0
       222655.0       222602.0       222480.0       222322.0       222204.0
       222119.0       221996.0       221808.0       221653.0       221537.0
       221404.0       221277.0       221120.0       220915.0       220749.0
       220586.0       220381.0       220219.0       220051.0       219862.0
       219720.0       219582.0       219384.0       219161.0       218975.0
       218779.0       218583.0       218399.0       218166.0       217936.0
       217727.0       217497.0       217240.0       217001.0       216759.0
       216508.0       216306.0       216079.0       215840.0       215600.0
       215382.0       215198.0       214963.0       214742.0       214512.0
       214266.0       214043.0       213813.0       213583.0       213359.0
       213171.0       212932.0       212665.0       212477.0       212256.0
       212042.0       211875.0       211645.0       211453.0       211325.0
       211149.0       210965.0       210753.0       210524.0       210346.0
       210144.0       209930.0       209733.0       209528.0       209304.0
       209093.0       208888.0       208618.0       208336.0       208069.0
       207791.0       207522.0       207216.0       206884.0       206580.0
       206245.0       205925.0       205588.0       205198.0       204812.0
       204393.0       203974.0       203539.0       203088.0       202627.0
       202150.0       201672.0       201151.0       200611.0       200097.0
       199582.0       199049.0       198522.0       197942.0       197359.0
       196778.0       196152.0       195542.0       194912.0       194275.0
       193614.0       192870.0       192147.0       191447.0       190687.0
       189936.0       189167.0       188379.0       187632.0       186834.0
       186016.0       185199.0       184345.0       183467.0       182610.0
       181749.0       180821.0       179900.0       178997.0       178078.0
       177135.0       176170.0       175229.0       174286.0       173318.0
       172323.0       171301.0       170273.0       169256.0       168241.0
       167210.0       166209.0       165219.0       164243.0       163291.0
       162299.0       161333.0       160368.0       159380.0       158433.0
       157516.0       156629.0       155707.0       154775.0       153895.0
       153019.0       152138.0       151256.0       150356.0       149432.0
       148569.0       147749.0       146871.0       146000.0       145137.0
       144271.0       143426.0       142562.0       141722.0       140911.0
       140080.0       139257.0       138454.0       137664.0       136873.0
       136056.0       135298.0       134585.0       133851.0       133116.0
       132367.0       131667.0       130949.0       130194.0       129513.0
       128798.0       128053.0       127380.0       126666.0       125900.0
       125165.0       124447.0       123749.0       123014.0       122312.0
       121643.0       120914.0       120263.0       119633.0       118961.0
       118349.0       117739.0       117118.0       116493.0       115857.0
       115258.0       114626.0       113987.0       113360.0       112720.0
       112142.0       111510.0       110879.0       110302.0       109682.0
       109053.0       108404.0       107783.0       107151.0       106494.0
       105869.0       105200.0       104544.0       103896.0       103221.0
       102591.0       101901.0       101126.0       100441.0       99785.00
       99034.00       98320.00       97601.00       96795.00       96059.00
       95336.00       94573.00       93794.00       92948.00       92106.00
       91231.00       90364.00       89511.00       88547.00       87641.00
       86744.00       85774.00       84896.00       83986.00       83002.00
       82039.00       81049.00       80042.00       79052.00       78026.00
       76955.00       75904.00       74842.00       73740.00       72618.00
       71513.00       70399.00       69255.00       68156.00       67059.00
       65935.00       64814.00       63711.00       62619.00       61522.00
       60455.00       59351.00       58234.00       57160.00       56011.00
       54807.00       53658.00       52516.00       51373.00       50231.00
       49073.00       47933.00       46724.00       45498.00       44300.00
       43081.00       41897.00       40698.00       39458.00       38196.00
       36933.00       35686.00       34425.00       33149.00       31850.00
       30554.00       29252.00       27949.00       26711.00       25449.00
       24145.00       22876.00       21585.00       20289.00       19024.00
       17707.00       16391.00       15114.00       13826.00       12534.00
       11210.00       9893.000       8621.000       7332.000       6011.000
       4699.000       3413.000       2161.000       894.0000      -409.0000
      -1681.000      -2915.000      -4158.000      -5427.000      -6680.000
      -7939.000      -9210.000      -10445.00      -11698.00      -12942.00
      -14157.00      -15389.00      -16625.00      -17857.00      -19037.00
      -20224.00      -21414.00      -22601.00      -23812.00      -24950.00
      -26092.00      -27264.00      -28425.00      -29584.00      -30733.00
      -31881.00      -33003.00      -34143.00      -35327.00      -36486.00
      -37602.00      -38714.00      -39823.00      -40942.00      -42075.00
      -43181.00      -44251.00      -45293.00      -46354.00      -47420.00
      -48486.00      -49545.00      -50549.00      -51582.00      -52662.00
      -53697.00      -54722.00      -55767.00      -56794.00      -57842.00
      -58878.00      -59880.00      -60891.00      -61910.00      -62936.00
      -63930.00      -64902.00      -65912.00      -66944.00      -67933.00
      -68906.00      -69886.00      -70839.00      -71799.00      -72780.00
      -73757.00      -74726.00      -75686.00      -76657.00      -77627.00
      -78588.00      -79576.00      -80549.00      -81543.00      -82552.00
      -83500.00      -84507.00      -85566.00      -86578.00      -87588.00
      -88610.00      -89597.00      -90582.00      -91630.00      -92688.00
      -93761.00      -94835.00      -95870.00      -96952.00      -98027.00
      -99055.00      -100116.0      -101180.0      -102234.0      -103268.0
      -104316.0      -105333.0      -106316.0      -107380.0      -108404.0
      -109398.0      -110419.0      -111392.0      -112333.0      -113236.0
      -114184.0      -115199.0      -116166.0      -117127.0      -118101.0
      -119031.0      -120001.0      -121007.0      -121910.0      -122820.0
      -123792.0      -124712.0      -125613.0      -126537.0      -127460.0
      -128304.0      -129159.0      -130112.0      -131039.0      -131897.0
      -132746.0      -133633.0      -134565.0      -135531.0      -136441.0
      -137277.0      -138161.0      -139075.0      -139943.0      -140837.0
      -141737.0      -142585.0      -143487.0      -144347.0      -145161.0
      -146055.0      -146946.0      -147805.0      -148586.0      -149367.0
      -150186.0      -150973.0      -151810.0      -152619.0      -153390.0
      -154210.0      -155050.0      -155870.0      -156694.0      -157577.0
      -158439.0      -159226.0      -160042.0      -160896.0      -161701.0
      -162543.0      -163426.0      -164290.0      -165173.0      -166028.0
      -166878.0      -167784.0      -168722.0      -169663.0      -170575.0
      -171477.0      -172379.0      -173289.0      -174273.0      -175230.0
      -176138.0      -177171.0      -178171.0      -179124.0      -180156.0
      -181111.0      -182092.0      -183092.0      -184063.0      -185105.0
      -186092.0      -187126.0      -188222.0      -189243.0      -190301.0
      -191356.0      -192381.0      -193459.0      -194517.0      -195577.0
      -196640.0      -197671.0      -198720.0      -199776.0      -200847.0
      -201925.0      -203005.0      -204032.0      -205064.0      -206148.0
      -207187.0      -208248.0      -209301.0      -210342.0      -211332.0
      -212314.0      -213384.0      -214334.0      -215273.0      -216218.0
      -217125.0      -218069.0      -218914.0      -219787.0      -220601.0
      -221353.0      -222220.0      -223022.0      -223800.0      -224569.0
      -225308.0      -226098.0      -226790.0      -227500.0      -228291.0
      -228994.0      -229712.0      -230459.0      -231156.0      -231856.0
      -232575.0      -233265.0      -233938.0      -234628.0      -235321.0
      -236014.0      -236658.0      -237271.0      -237953.0      -238615.0
      -239267.0      -239984.0      -240632.0      -241287.0      -241933.0
      -242530.0      -243180.0      -243770.0      -244368.0      -244957.0
      -245481.0      -246098.0      -246692.0      -247228.0      -247798.0
      -248334.0      -248857.0      -249377.0      -249860.0      -250375.0
      -250907.0      -251381.0      -251850.0      -252326.0      -252808.0
      -253297.0      -253752.0      -254178.0      -254569.0      -254988.0
      -255383.0      -255741.0      -256153.0      -256518.0      -256887.0
      -257259.0      -257580.0      -257932.0      -258251.0      -258528.0
      -258818.0      -259086.0      -259357.0      -259647.0      -259911.0
      -260165.0      -260406.0      -260641.0      -260913.0      -261148.0
      -261348.0      -261573.0      -261793.0      -262012.0      -262240.0
      -262460.0      -262695.0      -262935.0      -263140.0      -263376.0
      -263668.0      -263936.0      -264200.0      -264464.0      -264686.0
      -264919.0      -265163.0      -265377.0      -265600.0      -265822.0
      -266036.0      -266223.0      -266411.0      -266639.0      -266866.0
      -267119.0      -267347.0      -267531.0      -267705.0      -267902.0
      -268152.0      -268366.0      -268577.0      -268745.0      -268903.0
      -269128.0      -269335.0      -269552.0      -269727.0      -269887.0
      -270083.0      -270272.0      -270493.0      -270720.0      -270910.0
      -271087.0      -271294.0      -271491.0      -271665.0      -271834.0
      -272001.0      -272166.0      -272312.0      -272480.0      -272599.0
      -272700.0      -272875.0      -273044.0      -273179.0      -273324.0
      -273488.0      -273628.0      -273790.0      -273977.0      -274116.0
      -274261.0      -274425.0      -274587.0      -274752.0      -274914.0
      -275045.0      -275122.0      -275199.0      -275267.0      -275331.0
      -275392.0      -275430.0      -275479.0      -275533.0      -275578.0
      -275605.0      -275598.0      -275591.0      -275628.0      -275638.0
      -275641.0      -275624.0      -275548.0      -275520.0      -275450.0
      -275327.0      -275251.0      -275137.0      -275014.0      -274934.0
      -274800.0      -274650.0      -274522.0      -274368.0      -274220.0
      -274094.0      -273992.0      -273863.0      -273708.0      -273559.0
      -273400.0      -273253.0      -273080.0      -272932.0      -272821.0
      -272679.0      -272538.0      -272391.0      -272242.0      -272111.0
      -271965.0      -271803.0      -271650.0      -271462.0      -271269.0
      -271117.0      -270931.0      -270727.0      -270538.0      -270330.0
      -270105.0      -269869.0      -269621.0      -269390.0      -269162.0
      -268918.0      -268653.0      -268371.0      -268099.0      -267813.0
      -267523.0      -267248.0      -266947.0      -266615.0      -266279.0
      -265972.0      -265641.0      -265288.0      -264958.0      -264597.0
      -264220.0      -263836.0      -263464.0      -263084.0      -262659.0
      -262223.0      -261797.0      -261395.0      -260957.0      -260503.0
      -260032.0      -259556.0      -259137.0      -258659.0      -258155.0
      -257686.0      -257224.0      -256798.0      -256312.0      -255833.0
      -255398.0      -254918.0      -254473.0      -254035.0      -253573.0
      -253111.0      -252638.0      -252174.0      -251703.0      -251229.0
      -250712.0      -250170.0      -249633.0      -249086.0      -248586.0
      -248061.0      -247518.0      -246970.0      -246395.0      -245845.0
      -245313.0      -244739.0      -244126.0      -243570.0      -243005.0
      -242355.0      -241676.0      -241043.0      -240434.0      -239785.0
      -239114.0      -238450.0      -237794.0      -237128.0      -236525.0
      -235922.0      -235275.0      -234683.0      -234079.0      -233435.0
      -232792.0      -232168.0      -231569.0      -230962.0      -230402.0
      -229879.0      -229290.0      -228724.0      -228189.0      -227612.0
      -227063.0      -226522.0      -225992.0      -225463.0      -224913.0
      -224390.0      -223859.0      -223384.0      -222902.0      -222334.0
      -221800.0      -221264.0      -220768.0      -220293.0      -219797.0
      -219314.0      -218788.0      -218307.0      -217849.0      -217366.0
      -216911.0      -216449.0      -215990.0      -215532.0      -215103.0
      -214680.0      -214233.0      -213810.0      -213366.0      -212913.0
      -212494.0      -212049.0      -211582.0      -211152.0      -210742.0
      -210336.0      -209923.0      -209514.0      -209117.0      -208672.0
      -208226.0      -207837.0      -207385.0      -206929.0      -206529.0
      -206069.0      -205617.0      -205170.0      -204676.0      -204217.0
      -203786.0      -203306.0      -202833.0      -202391.0      -201889.0
      -201360.0      -200835.0      -200345.0      -199838.0      -199281.0
      -198743.0      -198180.0      -197597.0      -197056.0      -196515.0
      -195954.0      -195371.0      -194745.0      -194130.0      -193527.0
      -192925.0      -192274.0      -191587.0      -190933.0      -190217.0
      -189473.0      -188740.0      -187982.0      -187198.0      -186381.0
      -185583.0      -184756.0      -183916.0      -183073.0      -182192.0
      -181330.0      -180439.0      -179547.0      -178708.0      -177832.0
      -176919.0      -176025.0      -175185.0      -174312.0      -173388.0
      -172498.0      -171593.0      -170715.0      -169858.0      -168922.0
      -167994.0      -167105.0      -166174.0      -165213.0      -164231.0
      -163219.0      -162242.0      -161280.0      -160302.0      -159317.0
      -158310.0      -157310.0      -156309.0      -155287.0      -154273.0
      -153316.0      -152364.0      -151376.0      -150381.0      -149365.0
      -148378.0      -147376.0      -146344.0      -145358.0      -144387.0
      -143391.0      -142398.0      -141433.0      -140421.0      -139401.0
      -138414.0      -137413.0      -136437.0      -135475.0      -134466.0
      -133443.0      -132446.0      -131410.0      -130356.0      -129317.0
      -128299.0      -127268.0      -126195.0      -125165.0      -124139.0
      -123103.0      -122100.0      -121106.0      -120069.0      -119028.0
      -118053.0      -117042.0      -116003.0      -114990.0      -113979.0
      -112982.0      -111973.0      -111000.0      -110021.0      -108995.0
      -107999.0      -106977.0      -105944.0      -104901.0      -103853.0
      -102834.0      -101768.0      -100724.0      -99662.00      -98570.00
      -97515.00      -96441.00      -95406.00      -94373.00      -93304.00
      -92266.00      -91202.00      -90134.00      -89120.00      -88088.00
      -87055.00      -86021.00      -84970.00      -83959.00      -82896.00
      -81868.00      -80912.00      -79888.00      -78915.00      -77943.00
      -76921.00      -75953.00      -74935.00      -73924.00      -72954.00
      -71977.00      -71024.00      -70035.00      -69078.00      -68140.00
      -67191.00      -66268.00      -65313.00      -64391.00      -63464.00
      -62507.00      -61614.00      -60703.00      -59735.00      -58767.00
      -57834.00      -56924.00      -55994.00      -55045.00      -54103.00
      -53178.00      -52278.00      -51388.00      -50495.00      -49628.00
      -48754.00      -47877.00      -47023.00      -46140.00      -45264.00
      -44411.00      -43583.00      -42783.00      -41969.00      -41186.00
      -40416.00      -39652.00      -38912.00      -38163.00      -37409.00
