     0.05000000      -12345.00      -12345.00   2.511530e+09      -12345.00
   0.0005380000       1859.951      -666.0195      -12345.00      -12345.00
      -12345.00      -12345.00      -12345.00      -12345.00      -12345.00
      -12345.00      -12345.00      -12345.00      -12345.00      -12345.00
      -12345.00      -12345.00      -12345.00      -12345.00      -12345.00
      -12345.00      -12345.00      -12345.00      -12345.00      -12345.00
      -12345.00      -54.28360      -36.48790       20.00000       0.000000
      -42.72450       173.0647      -12345.00       22.00000      -12345.00
      -12345.00      -12345.00      -12345.00      -12345.00      -12345.00
      -12345.00      -12345.00      -12345.00      -12345.00      -12345.00
       8907.578       162.9284       201.6498       80.11132      -12345.00
      -12345.00      -12345.00       0.000000       0.000000      -12345.00
      -12345.00      -12345.00      -12345.00      -12345.00      -12345.00
      -12345.00      -12345.00      -12345.00      -12345.00      -12345.00
      2016       318        11        14         5
        19         6    -12345    -12345     37200
    -12345    -12345    -12345    -12345    -12345
         1    -12345    -12345    -12345    -12345
    -12345    -12345    -12345    -12345    -12345
    -12345    -12345    -12345    -12345    -12345
    -12345    -12345    -12345    -12345    -12345
         1    -12345    -12345    -12345    -12345
HOPE    South Island, Ne
00      -12345  -12345  
-12345  -12345  -12345  
-12345  -12345  -12345  
-12345  -12345  -12345  
-12345  -12345  -12345  
-12345  -12345  BHZ     
II      -12345  Streckei
[...]
      -94106.00      -95019.00      -95922.00      -96880.00      -97796.00
      -98730.00      -99684.00      -100653.0      -101655.0      -102650.0
      -103694.0      -104708.0      -105732.0      -106733.0      -107690.0
      -108694.0      -109615.0      -110491.0      -111346.0      -112153.0
      -112870.0      -113476.0      -114113.0      -114746.0      -115363.0
      -116000.0      -116680.0      -117397.0      -118087.0      -118798.0
      -119550.0      -120357.0      -121191.0      -122036.0      -122922.0
      -123823.0      -124729.0      -125617.0      -126512.0      -127377.0
      -128223.0      -129038.0      -129781.0      -130497.0      -131210.0
      -131932.0      -132570.0      -133180.0      -133811.0      -134436.0
      -135050.0      -135639.0      -136277.0      -136872.0      -137470.0
      -138129.0      -138803.0      -139482.0      -140033.0      -140545.0
      -141020.0      -141357.0      -141587.0      -141692.0      -141707.0
      -141595.0      -141366.0      -141064.0      -140663.0      -140196.0
      -139622.0      -138893.0      -138026.0      -137036.0      -136001.0
      -134917.0      -133722.0      -132461.0      -131167.0      -129835.0
      -128483.0      -127116.0      -125716.0      -124269.0      -122800.0
      -121340.0      -119905.0      -118499.0      -117078.0      -115686.0
      -114297.0      -112888.0      -111594.0      -110356.0      -109120.0
      -107975.0      -106913.0      -105884.0      -104876.0      -103918.0
      -102963.0      -101944.0      -101036.0      -100175.0      -99264.00
      -98435.00      -97588.00      -96800.00      -96079.00      -95427.00
      -94900.00      -94372.00      -93969.00      -93609.00      -93283.00
      -93060.00      -92807.00      -92525.00      -92167.00      -91807.00
      -91422.00      -90996.00      -90489.00      -89842.00      -89261.00
      -88649.00      -88068.00      -87522.00      -86947.00      -86448.00
      -85795.00      -85044.00      -84247.00      -83434.00      -82585.00
      -81646.00      -80749.00      -79774.00      -78855.00      -77943.00
      -76957.00      -76043.00      -75097.00      -74201.00      -73303.00
      -72401.00      -71541.00      -70636.00      -69741.00      -68880.00
      -68084.00      -67294.00      -66524.00      -65794.00      -65073.00
      -64398.00      -63727.00      -63073.00      -62446.00      -61866.00
      -61359.00      -60807.00      -60169.00      -59551.00      -58881.00
      -58082.00      -57229.00      -56314.00      -55376.00      -54390.00
      -53381.00      -52363.00      -51213.00      -50032.00      -48830.00
      -47547.00      -46185.00      -44742.00      -43270.00      -41693.00
      -40093.00      -38472.00      -36744.00      -34954.00      -33139.00
      -31352.00      -29484.00      -27613.00      -25771.00      -23916.00
      -22034.00      -20077.00      -18099.00      -15999.00      -13834.00
      -11624.00      -9393.000      -7178.000      -4905.000      -2666.000
      -464.0000       1687.000       3858.000       6008.000       8057.000
       10119.00       12134.00       14184.00       16354.00       18493.00
       20604.00       22741.00       24922.00       27083.00       29218.00
       31404.00       33581.00       35758.00       37976.00       40192.00
       42384.00       44581.00       46738.00       48839.00       50903.00
       52891.00       54822.00       56710.00       58583.00       60422.00
       62167.00       63888.00       65548.00       67076.00       68569.00
       69968.00       71244.00       72487.00       73664.00       74795.00
       75847.00       76834.00       77827.00       78808.00       79831.00
       80853.00       81881.00       82912.00       83864.00       84796.00
       85719.00       86617.00       87480.00       88278.00       89012.00
       89640.00       90250.00       90915.00       91579.00       92242.00
       92912.00       93589.00       94309.00       95088.00       95896.00
       96749.00       97676.00       98689.00       99739.00       100796.0
       101835.0       102866.0       103912.0       104889.0       105845.0
       106777.0       107696.0       108652.0       109563.0       110490.0
       111375.0       112182.0       112992.0       113801.0       114583.0
       115288.0       116035.0       116806.0       117538.0       118324.0
       119143.0       119957.0       120824.0       121794.0       122864.0
       124034.0       125277.0       126610.0       127993.0       129369.0
       130723.0       132060.0       133357.0       134591.0       135841.0
       137054.0       138285.0       139536.0       140710.0       141883.0
       143061.0       144188.0       145315.0       146465.0       147614.0
       148802.0       149957.0       151111.0       152243.0       153238.0
       154222.0       155217.0       156186.0       157132.0       158065.0
       159020.0       159932.0       160788.0       161617.0       162459.0
       163289.0       164066.0       164833.0       165534.0       166162.0
       166781.0       167363.0       167888.0       168370.0       168792.0
       169074.0       169241.0       169337.0       169327.0       169224.0
       169038.0       168763.0       168343.0       167771.0       167146.0
       166522.0       165845.0       165077.0       164304.0       163453.0
       162498.0       161494.0       160401.0       159235.0       158029.0
       156882.0       155752.0       154541.0       153260.0       151946.0
       150581.0       149173.0       147803.0       146424.0       145047.0
       143694.0       142335.0       140956.0       139560.0       138200.0
       136817.0       135411.0       134081.0       132777.0       131533.0
       130410.0       129318.0       128304.0       127322.0       126441.0
       125724.0       124956.0       124180.0       123411.0       122658.0
       121943.0       121180.0       120449.0       119714.0       118892.0
       118041.0       117144.0       116142.0       115056.0       113914.0
       112701.0       111385.0       109974.0       108523.0       107019.0
       105526.0       104081.0       102605.0       101221.0       99930.00
       98598.00       97304.00       96030.00       94750.00       93498.00
       92234.00       90967.00       89615.00       88213.00       86856.00
       85428.00       83912.00       82372.00       80807.00       79216.00
       77612.00       76027.00       74483.00       72986.00       71493.00
       69994.00       68534.00       67129.00       65804.00       64473.00
       63143.00       61824.00       60398.00       58877.00       57242.00
       55526.00       53822.00       52109.00       50295.00       48472.00
       46661.00       44902.00       43302.00       41653.00       40084.00
       38628.00       37237.00       35986.00       34745.00       33606.00
       32440.00       31147.00       29941.00       28869.00       27800.00
       26737.00       25704.00       24746.00       23861.00       22843.00
       21875.00       20925.00       19879.00       18827.00       17644.00
       16391.00       15151.00       13957.00       12596.00       11211.00
       9996.000       8657.000       7301.000       5866.000       4302.000
       2743.000       1222.000      -265.0000      -1927.000      -3630.000
      -5240.000      -6890.000      -8731.000      -10719.00      -12583.00
      -14434.00      -16367.00      -18307.00      -20341.00      -22375.00
      -24221.00      -26041.00      -27975.00      -29823.00      -31617.00
      -33447.00      -35282.00      -37105.00      -38859.00      -40492.00
      -42051.00      -43682.00      -45226.00      -46607.00      -47970.00
      -49173.00      -50317.00      -51520.00      -52643.00      -53692.00
      -54633.00      -55661.00      -56554.00      -57249.00      -58027.00
      -58679.00      -59361.00      -60100.00      -60787.00      -61501.00
      -62190.00      -62812.00      -63468.00      -64205.00      -64991.00
      -65874.00      -66750.00      -67604.00      -68521.00      -69539.00
      -70624.00      -71734.00      -72963.00      -74176.00      -75397.00
      -76729.00      -77978.00      -79259.00      -80570.00      -81830.00
      -83112.00      -84323.00      -85431.00      -86408.00      -87338.00
      -88223.00      -89035.00      -89748.00      -90345.00      -91008.00
      -91601.00      -92065.00      -92505.00      -92870.00      -93232.00
      -93685.00      -94163.00      -94495.00      -94848.00      -95220.00
      -95637.00      -96234.00      -96725.00      -97215.00      -97802.00
      -98410.00      -99063.00      -99663.00      -100245.0      -100843.0
      -101443.0      -101960.0      -102442.0      -102982.0      -103488.0
      -103907.0      -104263.0      -104502.0      -104684.0      -104828.0
      -104847.0      -104871.0      -104852.0      -104758.0      -104605.0
      -104305.0      -103956.0      -103548.0      -103067.0      -102623.0
      -102142.0      -101595.0      -101018.0      -100377.0      -99718.00
      -99040.00      -98394.00      -97726.00      -96964.00      -96234.00
      -95486.00      -94740.00      -93957.00      -93059.00      -92225.00
      -91388.00      -90558.00      -89752.00      -88870.00      -88053.00
      -87242.00      -86492.00      -85797.00      -85134.00      -84523.00
      -83868.00      -83299.00      -82670.00      -82044.00      -81453.00
      -80823.00      -80267.00      -79697.00      -79205.00      -78731.00
      -78257.00      -77751.00      -77187.00      -76680.00      -76111.00
      -75525.00      -74833.00      -74056.00      -73239.00      -72284.00
      -71310.00      -70234.00      -69050.00      -67804.00      -66451.00
      -65017.00      -63557.00      -62072.00      -60536.00      -59016.00
      -57514.00      -56029.00      -54550.00      -53087.00      -51633.00
      -50195.00      -48801.00      -47378.00      -45952.00      -44569.00
      -43164.00      -41782.00      -40426.00      -39047.00      -37696.00
      -36323.00      -34902.00      -33452.00      -32012.00      -30586.00
      -29145.00      -27718.00      -26296.00      -24894.00      -23506.00
      -22169.00      -20861.00      -19511.00      -18197.00      -16876.00
      -15513.00      -14151.00      -12782.00      -11436.00      -10118.00
      -8832.000      -7584.000      -6365.000      -5175.000      -4006.000
      -2896.000      -1842.000      -739.0000       386.0000       1558.000
       2841.000       4168.000       5488.000       6788.000       8160.000
       9526.000       10879.00       12271.00       13600.00       14955.00
       16353.00       17796.00       19270.00       20781.00       22380.00
       24028.00       25757.00       27529.00       29382.00       31302.00
       33302.00       35470.00       37722.00       40113.00       42625.00
       45195.00       47881.00       50627.00       53440.00       56342.00
       59315.00       62327.00       65313.00       68308.00       71338.00
       74422.00       77540.00       80674.00       83864.00       87067.00
       90301.00       93552.00       96793.00       100052.0       103310.0
       106583.0       109853.0       113196.0       116594.0       119977.0
       123365.0       126677.0       129932.0       133113.0       136165.0
       139139.0       142067.0       144916.0       147677.0       150366.0
       152954.0       155506.0       157945.0       160219.0       162363.0
       164440.0       166453.0       168313.0       170041.0       171627.0
       173194.0       174596.0       175860.0       177094.0       178159.0
       179182.0       180098.0       180930.0       181662.0       182327.0
       182986.0       183559.0       184135.0       184643.0       185158.0
       185705.0       186237.0       186831.0       187436.0       188001.0
       188555.0       189198.0       189789.0       190344.0       190998.0
       191674.0       192436.0       193249.0       194128.0       195003.0
       195892.0       196965.0       198101.0       199320.0       200609.0
       201957.0       203401.0       204894.0       206523.0       208181.0
       209849.0       211601.0       213375.0       215249.0       217194.0
       219207.0       221365.0       223592.0       225816.0       227980.0
       230149.0       232340.0       234459.0       236540.0       238517.0
       240366.0       242145.0       243772.0       245279.0       246745.0
       248144.0       249473.0       250756.0       251985.0       253176.0
       254302.0       255336.0       256303.0       257168.0       257943.0
       258566.0       259051.0       259436.0       259654.0       259822.0
       259896.0       259865.0       259762.0       259574.0       259337.0
       259033.0       258817.0       258561.0       258174.0       257772.0
       257290.0       256728.0       256018.0       255172.0       254224.0
       253129.0       251944.0       250642.0       249220.0       247757.0
       246266.0       244777.0       243240.0       241698.0       240224.0
       238751.0       237311.0       235894.0       234512.0       233159.0
       231828.0       230472.0       229105.0       227757.0       226338.0
       224932.0       223467.0       222001.0       220601.0       219153.0
       217665.0       216101.0       214586.0       213040.0       211378.0
       209645.0       207831.0       205909.0       203858.0       201709.0
       199374.0       196937.0       194412.0       191728.0       188866.0
       185885.0       182843.0       179634.0       176392.0       173133.0
       169805.0       166407.0       162942.0       159491.0       155979.0
       152452.0       149035.0       145685.0       142298.0       138858.0
       135398.0       131946.0       128501.0       125107.0       121803.0
       118549.0       115390.0       112300.0       109268.0       106369.0
       103562.0       100878.0       98308.00       95816.00       93429.00
       91086.00       88812.00       86608.00       84484.00       82438.00
       80351.00       78256.00       76170.00       74093.00       72042.00
       69913.00       67725.00       65512.00       63291.00       61126.00
       58916.00       56629.00       54373.00       52108.00       49778.00
       47386.00       44903.00       42396.00       39829.00       37143.00
       34474.00       31801.00       29082.00       26353.00       23590.00
       20802.00       18032.00       15227.00       12377.00       9502.000
       6539.000       3503.000       439.0000      -2681.000      -5817.000
      -8942.000      -12128.00      -15263.00      -18430.00      -21630.00
      -24719.00      -27806.00      -30916.00      -34122.00      -37341.00
      -40579.00      -43943.00      -47307.00      -50675.00      -54067.00
      -57465.00      -60822.00      -64099.00      -67298.00      -70473.00
      -73567.00      -76584.00      -79600.00      -82507.00      -85419.00
      -88305.00      -91199.00      -94137.00      -96988.00      -99860.00
      -102697.0      -105547.0      -108413.0      -111183.0      -113817.0
      -116383.0      -118907.0      -121345.0      -123878.0      -126348.0
      -128690.0      -131029.0      -133326.0      -135670.0      -137970.0
      -140180.0      -142438.0      -144712.0      -147042.0      -149456.0
      -151718.0      -153802.0      -155736.0      -157568.0      -159391.0
      -161137.0      -162832.0      -164445.0      -165915.0      -167238.0
      -168455.0      -169552.0      -170548.0      -171604.0      -172636.0
      -173604.0      -174484.0      -175184.0      -175810.0      -176440.0
      -177148.0      -177867.0      -178526.0      -179142.0      -179667.0
      -180241.0      -180832.0      -181330.0      -181911.0      -182568.0
      -183283.0      -184099.0      -184869.0      -185637.0      -186385.0
      -187112.0      -187941.0      -188753.0      -189547.0      -190291.0
      -190865.0      -191261.0      -191394.0      -191389.0      -191363.0
      -191249.0      -191183.0      -191168.0      -191222.0      -191361.0
      -191128.0      -190567.0      -190133.0      -189674.0      -189054.0
      -188561.0      -188204.0      -187750.0      -187035.0      -186060.0
      -185088.0      -183953.0      -182550.0      -181406.0      -180553.0
      -179785.0      -179014.0      -178089.0      -177060.0      -175871.0
      -174573.0      -173170.0      -171787.0      -170544.0      -169146.0
      -167786.0      -166572.0      -165262.0      -163963.0      -162668.0
      -161232.0      -159717.0      -158231.0      -156903.0      -155912.0
      -155129.0      -154366.0      -153693.0      -152933.0      -151933.0
      -150868.0      -149878.0      -148940.0      -148005.0      -147203.0
      -146438.0      -145550.0      -144669.0      -143697.0      -142635.0
      -141571.0      -140356.0      -139160.0      -138016.0      -136776.0
      -135495.0      -133964.0      -132237.0      -130641.0      -129166.0
      -127678.0      -126209.0      -124694.0      -122905.0      -120876.0
      -118584.0      -116054.0      -113475.0      -110901.0      -108376.0
      -105803.0      -103200.0      -100686.0      -98141.00      -95525.00
      -92950.00      -90383.00      -87592.00      -84554.00      -81511.00
      -78365.00      -74980.00      -71665.00      -68551.00      -65465.00
      -62268.00      -58972.00      -55687.00      -52315.00      -48786.00
      -45103.00      -41339.00      -37723.00      -34208.00      -30714.00
      -27191.00      -23471.00      -19642.00      -15813.00      -12011.00
      -8285.000      -4476.000      -515.0000       3534.000       7594.000
       11573.00       15438.00       19223.00       22928.00       26470.00
       29865.00       32975.00       35825.00       38532.00       41013.00
       43391.00       45644.00       47681.00       49498.00       51122.00
       52550.00       53794.00       55062.00       56438.00       58045.00
       59840.00       61612.00       63340.00       64957.00       66565.00
       68282.00       70126.00       72205.00       74516.00       77053.00
       79755.00       82411.00       84962.00       87434.00       89805.00
