     0.02500000      -12345.00      -12345.00   1.938500e+09      -12345.00
   0.0005380000       1859.976      -666.0195      -12345.00      -12345.00
      -12345.00      -12345.00      -12345.00      -12345.00      -12345.00
      -12345.00      -12345.00      -12345.00      -12345.00      -12345.00
      -12345.00      -12345.00      -12345.00      -12345.00      -12345.00
      -12345.00      -12345.00      -12345.00      -12345.00      -12345.00
      -12345.00      -54.28360      -36.48790       20.00000       0.000000
      -42.72450       173.0647      -12345.00       22.00000      -12345.00
      -12345.00      -12345.00      -12345.00      -12345.00      -12345.00
      -12345.00      -12345.00      -12345.00      -12345.00      -12345.00
       8907.578       162.9284       201.6498       80.11132      -12345.00
      -12345.00      -12345.00       90.90000       90.00000      -12345.00
      -12345.00      -12345.00      -12345.00      -12345.00      -12345.00
      -12345.00      -12345.00      -12345.00      -12345.00      -12345.00
      2016       318        11        14         5
        19         6    -12345    -12345     74400
    -12345    -12345    -12345    -12345    -12345
         1    -12345    -12345    -12345    -12345
    -12345    -12345    -12345    -12345    -12345
    -12345    -12345    -12345    -12345    -12345
    -12345    -12345    -12345    -12345    -12345
         1    -12345    -12345    -12345    -12345
HOPE    South Island, Ne
10      -12345  -12345  
-12345  -12345  -12345  
-12345  -12345  -12345  
-12345  -12345  -12345  
-12345  -12345  -12345  
-12345  -12345  BH2     
II      -12345  Nanometr
[...]
      -698117.0      -697819.0      -697515.0      -697237.0      -696896.0
      -696578.0      -696263.0      -695921.0      -695612.0      -695267.0
      -694881.0      -694521.0      -694146.0      -693735.0      -693340.0
      -692936.0      -692496.0      -692103.0      -691714.0      -691241.0
      -690775.0      -690337.0      -689855.0      -689321.0      -688781.0
      -688296.0      -687783.0      -687207.0      -686670.0      -686110.0
      -685497.0      -684904.0      -684297.0      -683650.0      -683002.0
      -682377.0      -681725.0      -681029.0      -680352.0      -679643.0
      -678897.0      -678184.0      -677452.0      -676704.0      -675943.0
      -675157.0      -674392.0      -673585.0      -672797.0      -672064.0
      -671257.0      -670466.0      -669676.0      -668854.0      -668077.0
      -667250.0      -666431.0      -665656.0      -664863.0      -664069.0
      -663288.0      -662514.0      -661747.0      -660973.0      -660197.0
      -659487.0      -658743.0      -657950.0      -657194.0      -656404.0
      -655593.0      -654805.0      -654042.0      -653284.0      -652505.0
      -651701.0      -650880.0      -650088.0      -649288.0      -648430.0
      -647607.0      -646759.0      -645882.0      -645061.0      -644201.0
      -643288.0      -642409.0      -641537.0      -640597.0      -639716.0
      -638867.0      -637972.0      -637114.0      -636208.0      -635315.0
      -634459.0      -633486.0      -632530.0      -631646.0      -630746.0
      -629817.0      -628809.0      -627817.0      -626838.0      -625847.0
      -624876.0      -623849.0      -622828.0      -621813.0      -620757.0
      -619693.0      -618613.0      -617536.0      -616463.0      -615347.0
      -614189.0      -613044.0      -611897.0      -610739.0      -609595.0
      -608461.0      -607293.0      -606121.0      -604982.0      -603771.0
      -602533.0      -601301.0      -600074.0      -598881.0      -597621.0
      -596368.0      -595101.0      -593836.0      -592607.0      -591330.0
      -590091.0      -588804.0      -587492.0      -586217.0      -584894.0
      -583568.0      -582204.0      -580811.0      -579481.0      -578081.0
      -576640.0      -575283.0      -573846.0      -572397.0      -570967.0
      -569531.0      -568117.0      -566618.0      -565149.0      -563685.0
      -562192.0      -560734.0      -559251.0      -557771.0      -556296.0
      -554819.0      -553349.0      -551872.0      -550375.0      -548870.0
      -547365.0      -545817.0      -544243.0      -542722.0      -541189.0
      -539608.0      -538082.0      -536541.0      -534952.0      -533373.0
      -531754.0      -530148.0      -528560.0      -526958.0      -525343.0
      -523682.0      -522020.0      -520379.0      -518733.0      -516995.0
      -515239.0      -513558.0      -511884.0      -510197.0      -508474.0
      -506728.0      -504958.0      -503198.0      -501433.0      -499635.0
      -497860.0      -496052.0      -494217.0      -492376.0      -490516.0
      -488702.0      -486888.0      -485051.0      -483196.0      -481261.0
      -479346.0      -477460.0      -475498.0      -473547.0      -471625.0
      -469676.0      -467683.0      -465671.0      -463683.0      -461674.0
      -459665.0      -457633.0      -455561.0      -453500.0      -451427.0
      -449357.0      -447274.0      -445178.0      -443100.0      -440995.0
      -438882.0      -436774.0      -434650.0      -432570.0      -430466.0
      -428289.0      -426160.0      -424059.0      -421890.0      -419691.0
      -417508.0      -415305.0      -413094.0      -410900.0      -408708.0
      -406512.0      -404285.0      -402031.0      -399786.0      -397529.0
      -395263.0      -392990.0      -390720.0      -388461.0      -386183.0
      -383922.0      -381655.0      -379384.0      -377148.0      -374904.0
      -372635.0      -370350.0      -368103.0      -365886.0      -363642.0
      -361390.0      -359147.0      -356927.0      -354694.0      -352437.0
      -350219.0      -348007.0      -345792.0      -343603.0      -341405.0
      -339215.0      -337055.0      -334897.0      -332740.0      -330563.0
      -328369.0      -326203.0      -324035.0      -321871.0      -319737.0
      -317621.0      -315508.0      -313385.0      -311260.0      -309150.0
      -307079.0      -304985.0      -302888.0      -300856.0      -298816.0
      -296761.0      -294724.0      -292703.0      -290686.0      -288632.0
      -286607.0      -284611.0      -282588.0      -280593.0      -278614.0
      -276615.0      -274645.0      -272673.0      -270667.0      -268686.0
      -266714.0      -264719.0      -262708.0      -260696.0      -258684.0
      -256667.0      -254657.0      -252626.0      -250591.0      -248533.0
      -246430.0      -244331.0      -242224.0      -240107.0      -238004.0
      -235878.0      -233725.0      -231580.0      -229451.0      -227302.0
      -225096.0      -222883.0      -220696.0      -218529.0      -216334.0
      -214090.0      -211854.0      -209603.0      -207332.0      -205048.0
      -202738.0      -200424.0      -198109.0      -195760.0      -193387.0
      -191034.0      -188666.0      -186257.0      -183851.0      -181437.0
      -179015.0      -176622.0      -174204.0      -171746.0      -169285.0
      -166812.0      -164324.0      -161862.0      -159425.0      -156948.0
      -154463.0      -151968.0      -149447.0      -146921.0      -144373.0
      -141828.0      -139287.0      -136728.0      -134146.0      -131571.0
      -129014.0      -126397.0      -123776.0      -121168.0      -118517.0
      -115870.0      -113230.0      -110617.0      -107979.0      -105322.0
      -102665.0      -99956.00      -97258.00      -94552.00      -91832.00
      -89097.00      -86360.00      -83613.00      -80848.00      -78114.00
      -75350.00      -72599.00      -69844.00      -67047.00      -64276.00
      -61468.00      -58663.00      -55855.00      -52965.00      -50094.00
      -47251.00      -44353.00      -41434.00      -38551.00      -35645.00
      -32698.00      -29770.00      -26842.00      -23936.00      -21017.00
      -18048.00      -15107.00      -12198.00      -9261.000      -6330.000
      -3444.000      -552.0000       2350.000       5248.000       8141.000
       11035.00       13974.00       16876.00       19764.00       22695.00
       25591.00       28484.00       31418.00       34342.00       37238.00
       40133.00       43010.00       45893.00       48782.00       51638.00
       54514.00       57397.00       60264.00       63140.00       66021.00
       68892.00       71718.00       74549.00       77403.00       80278.00
       83127.00       85928.00       88786.00       91633.00       94468.00
       97301.00       100095.0       102920.0       105719.0       108503.0
       111295.0       114099.0       116895.0       119650.0       122434.0
       125171.0       127889.0       130644.0       133379.0       136091.0
       138775.0       141469.0       144195.0       146903.0       149608.0
       152339.0       155030.0       157710.0       160426.0       163118.0
       165802.0       168488.0       171156.0       173832.0       176507.0
       179171.0       181830.0       184457.0       187110.0       189787.0
       192440.0       195120.0       197753.0       200362.0       203035.0
       205698.0       208382.0       211067.0       213701.0       216349.0
       218981.0       221604.0       224252.0       226886.0       229497.0
       232117.0       234747.0       237363.0       239975.0       242595.0
       245203.0       247797.0       250419.0       253026.0       255642.0
       258257.0       260859.0       263527.0       266177.0       268838.0
       271508.0       274154.0       276806.0       279427.0       282064.0
       284717.0       287366.0       289991.0       292586.0       295189.0
       297803.0       300418.0       303011.0       305592.0       308184.0
       310770.0       313358.0       315971.0       318563.0       321144.0
       323747.0       326351.0       328984.0       331606.0       334225.0
       336858.0       339478.0       342135.0       344792.0       347432.0
       350102.0       352756.0       355389.0       358063.0       360732.0
       363371.0       366038.0       368707.0       371368.0       374052.0
       376750.0       379442.0       382107.0       384777.0       387443.0
       390115.0       392804.0       395467.0       398145.0       400809.0
       403459.0       406121.0       408774.0       411414.0       414068.0
       416731.0       419335.0       421952.0       424590.0       427186.0
       429788.0       432387.0       435007.0       437601.0       440156.0
       442752.0       445323.0       447906.0       450481.0       452995.0
       455521.0       458077.0       460659.0       463194.0       465715.0
       468270.0       470823.0       473361.0       475871.0       478429.0
       480984.0       483507.0       486015.0       488504.0       491056.0
       493556.0       496038.0       498582.0       501084.0       503567.0
       506021.0       508456.0       510903.0       513310.0       515667.0
       518044.0       520433.0       522752.0       525097.0       527489.0
       529838.0       532171.0       534501.0       536835.0       539161.0
       541480.0       543811.0       546131.0       548422.0       550685.0
       552931.0       555206.0       557465.0       559658.0       561864.0
       564089.0       566255.0       568371.0       570508.0       572600.0
       574651.0       576701.0       578681.0       580707.0       582720.0
       584648.0       586588.0       588515.0       590444.0       592368.0
       594233.0       596043.0       597871.0       599735.0       601537.0
       603298.0       605066.0       606818.0       608574.0       610323.0
       612023.0       613716.0       615422.0       617089.0       618749.0
       620418.0       622064.0       623701.0       625309.0       626899.0
       628512.0       630118.0       631677.0       633197.0       634710.0
       636215.0       637714.0       639233.0       640722.0       642150.0
       643594.0       645015.0       646383.0       647762.0       649108.0
       650445.0       651782.0       653060.0       654328.0       655617.0
       656842.0       658042.0       659261.0       660367.0       661456.0
       662579.0       663662.0       664751.0       665839.0       666927.0
       668020.0       669122.0       670186.0       671215.0       672283.0
       673346.0       674397.0       675490.0       676548.0       677622.0
       678724.0       679752.0       680809.0       681851.0       682862.0
       683873.0       684861.0       685867.0       686828.0       687773.0
       688754.0       689733.0       690690.0       691620.0       692512.0
       693406.0       694324.0       695242.0       696149.0       697059.0
       697946.0       698806.0       699674.0       700524.0       701384.0
       702236.0       703076.0       703918.0       704722.0       705563.0
       706422.0       707257.0       708078.0       708882.0       709697.0
       710468.0       711248.0       712078.0       712838.0       713573.0
       714346.0       715081.0       715810.0       716544.0       717262.0
       718007.0       718715.0       719437.0       720170.0       720840.0
       721526.0       722165.0       722765.0       723412.0       724029.0
       724612.0       725207.0       725790.0       726351.0       726894.0
       727426.0       727942.0       728440.0       728922.0       729378.0
       729837.0       730263.0       730662.0       731053.0       731397.0
       731772.0       732164.0       732524.0       732890.0       733240.0
       733599.0       733959.0       734275.0       734598.0       734912.0
       735188.0       735461.0       735707.0       735937.0       736162.0
       736386.0       736592.0       736765.0       736959.0       737131.0
       737289.0       737447.0       737582.0       737726.0       737840.0
       737968.0       738109.0       738213.0       738322.0       738413.0
       738472.0       738555.0       738634.0       738677.0       738723.0
       738776.0       738830.0       738890.0       738958.0       739029.0
       739085.0       739150.0       739220.0       739292.0       739377.0
       739447.0       739532.0       739623.0       739669.0       739728.0
       739823.0       739900.0       739961.0       740013.0       740046.0
       740128.0       740220.0       740277.0       740326.0       740373.0
       740462.0       740542.0       740611.0       740704.0       740765.0
       740821.0       740904.0       740966.0       740978.0       741000.0
       741036.0       741022.0       740978.0       740931.0       740884.0
       740811.0       740714.0       740614.0       740483.0       740328.0
       740160.0       739958.0       739749.0       739523.0       739273.0
       739033.0       738764.0       738455.0       738134.0       737775.0
       737416.0       737067.0       736667.0       736271.0       735849.0
       735405.0       735013.0       734580.0       734114.0       733667.0
       733223.0       732766.0       732310.0       731860.0       731395.0
       730945.0       730482.0       729979.0       729501.0       729033.0
       728535.0       728031.0       727496.0       726948.0       726421.0
       725901.0       725365.0       724798.0       724211.0       723624.0
       723053.0       722437.0       721797.0       721153.0       720493.0
       719850.0       719163.0       718473.0       717775.0       717036.0
       716300.0       715536.0       714766.0       713988.0       713185.0
       712385.0       711558.0       710700.0       709849.0       708960.0
       708040.0       707135.0       706202.0       705228.0       704239.0
       703245.0       702232.0       701194.0       700175.0       699142.0
       698064.0       697006.0       695941.0       694836.0       693750.0
       692660.0       691560.0       690454.0       689308.0       688179.0
       687054.0       685913.0       684795.0       683664.0       682545.0
       681425.0       680311.0       679242.0       678166.0       677076.0
       675974.0       674891.0       673807.0       672707.0       671629.0
       670558.0       669487.0       668392.0       667266.0       666178.0
       665104.0       663990.0       662869.0       661721.0       660549.0
       659396.0       658226.0       657049.0       655897.0       654753.0
       653597.0       652406.0       651240.0       650092.0       648876.0
       647677.0       646536.0       645372.0       644211.0       643083.0
       641946.0       640775.0       639598.0       638424.0       637296.0
       636195.0       635067.0       633943.0       632829.0       631721.0
       630598.0       629491.0       628382.0       627283.0       626208.0
       625056.0       623900.0       622767.0       621601.0       620456.0
       619326.0       618152.0       616940.0       615698.0       614407.0
       613120.0       611816.0       610468.0       609126.0       607771.0
       606353.0       604914.0       603447.0       601943.0       600478.0
       598956.0       597402.0       595873.0       594275.0       592646.0
       591018.0       589396.0       587758.0       586099.0       584448.0
       582782.0       581107.0       579416.0       577753.0       576077.0
       574345.0       572693.0       571028.0       569305.0       567640.0
       565925.0       564225.0       562551.0       560807.0       559081.0
       557354.0       555597.0       553876.0       552179.0       550463.0
       548757.0       547045.0       545360.0       543678.0       541948.0
       540211.0       538453.0       536736.0       535038.0       533329.0
       531625.0       529874.0       528185.0       526490.0       524753.0
       523047.0       521322.0       519633.0       517928.0       516209.0
       514521.0       512839.0       511145.0       509440.0       507747.0
       506049.0       504419.0       502737.0       500980.0       499268.0
       497543.0       495844.0       494124.0       492337.0       490578.0
       488836.0       487074.0       485295.0       483515.0       481724.0
       479937.0       478162.0       476332.0       474509.0       472716.0
       470859.0       469026.0       467208.0       465348.0       463512.0
       461650.0       459790.0       457956.0       456090.0       454227.0
       452366.0       450513.0       448644.0       446745.0       444842.0
       442920.0       441022.0       439128.0       437228.0       435356.0
       433448.0       431498.0       429559.0       427641.0       425720.0
       423788.0       421835.0       419869.0       417907.0       415929.0
       413942.0       411927.0       409894.0       407878.0       405855.0
       403813.0       401736.0       399638.0       397567.0       395473.0
       393346.0       391233.0       389122.0       386989.0       384821.0
       382651.0       380464.0       378243.0       376072.0       373859.0
       371581.0       369333.0       367071.0       364825.0       362562.0
       360234.0       357901.0       355578.0       353247.0       350900.0
       348542.0       346195.0       343843.0       341491.0       339148.0
       336802.0       334466.0       332162.0       329855.0       327507.0
       325199.0       322895.0       320551.0       318229.0       315921.0
       313628.0       311335.0       309039.0       306769.0       304496.0
       302211.0       299966.0       297737.0       295462.0       293223.0
       290996.0       288764.0       286548.0       284304.0       282100.0
       279908.0       277688.0       275487.0       273280.0       271062.0
       268847.0       266624.0       264421.0       262218.0       260003.0
       257808.0       255596.0       253379.0       251185.0       249011.0
       246852.0       244638.0       242430.0       240259.0       238030.0
       235803.0       233539.0       231295.0       229100.0       226833.0
       224595.0       222334.0       220036.0       217771.0       215485.0
       213207.0       210884.0       208573.0       206301.0       203977.0
