     0.05000000      -12345.00      -12345.00   3.685570e+09      -12345.00
   0.0005380000       1859.951      -546.0195      -12345.00      -12345.00
      -12345.00      -12345.00      -12345.00      -12345.00      -12345.00
      -12345.00      -12345.00      -12345.00      -12345.00      -12345.00
      -12345.00      -12345.00      -12345.00      -12345.00      -12345.00
      -12345.00      -12345.00      -12345.00      -12345.00      -12345.00
      -12345.00      -5.014200       119.7517       300.0000       100.0000
      -42.72450       173.0647      -12345.00       22.00000      -12345.00
      -12345.00      -12345.00      -12345.00      -12345.00      -12345.00
      -12345.00      -12345.00      -12345.00      -12345.00      -12345.00
       6691.384       292.9556       137.0698       60.17973      -12345.00
      -12345.00      -12345.00       92.00000       90.00000      -12345.00
      -12345.00      -12345.00      -12345.00      -12345.00      -12345.00
      -12345.00      -12345.00      -12345.00      -12345.00      -12345.00
      2016       318        11        12         5
        19         6    -12345    -12345     37200
    -12345    -12345    -12345    -12345    -12345
         1    -12345    -12345    -12345    -12345
    -12345    -12345    -12345    -12345    -12345
    -12345    -12345    -12345    -12345    -12345
    -12345    -12345    -12345    -12345    -12345
         1    -12345    -12345    -12345    -12345
KAPI    South Island, Ne
00      -12345  -12345  
-12345  -12345  -12345  
-12345  -12345  -12345  
-12345  -12345  -12345  
-12345  -12345  -12345  
-12345  -12345  BH2     
II      -12345  Geotech 
[...]
      -855727.0      -864287.0      -872765.0      -881147.0      -889456.0
      -897710.0      -905711.0      -913564.0      -921470.0      -929333.0
      -937026.0      -944585.0      -952054.0      -959401.0      -966660.0
      -973734.0      -980778.0      -987922.0      -994945.0      -1001651.
      -1008101.      -1014679.      -1021345.      -1027794.      -1033926.
      -1039930.      -1045990.      -1051887.      -1057607.      -1063306.
      -1068956.      -1074314.      -1079455.      -1084599.      -1089644.
      -1094635.      -1099369.      -1103847.      -1108300.      -1112666.
      -1116933.      -1121018.      -1124891.      -1128632.      -1132321.
      -1135877.      -1139167.      -1142341.      -1145477.      -1148508.
      -1151293.      -1153837.      -1156332.      -1158741.      -1160983.
      -1162957.      -1164698.      -1166366.      -1167908.      -1169314.
      -1170549.      -1171470.      -1172259.      -1172995.      -1173523.
      -1173903.      -1174064.      -1174098.      -1174078.      -1173765.
      -1173232.      -1172560.      -1171686.      -1170605.      -1169330.
      -1167956.      -1166402.      -1164565.      -1162606.      -1160450.
      -1158048.      -1155534.      -1152870.      -1150041.      -1146993.
      -1143683.      -1140131.      -1136398.      -1132518.      -1128422.
      -1124254.      -1119958.      -1115277.      -1110312.      -1105300.
      -1100280.      -1095036.      -1089576.      -1083844.      -1077799.
      -1071603.      -1065344.      -1059064.      -1052543.      -1045744.
      -1038670.      -1031305.      -1023850.      -1016338.      -1008759.
      -1000939.      -992716.0      -984279.0      -975746.0      -967104.0
      -958334.0      -949444.0      -940347.0      -930925.0      -921291.0
      -911624.0      -901994.0      -892185.0      -882000.0      -871557.0
      -861012.0      -850428.0      -839753.0      -828876.0      -817777.0
      -806497.0      -795086.0      -783598.0      -771957.0      -760140.0
      -748245.0      -736287.0      -724214.0      -711997.0      -699669.0
      -687239.0      -674745.0      -662126.0      -649341.0      -636440.0
      -623388.0      -610318.0      -597229.0      -583951.0      -570498.0
      -556944.0      -543431.0      -529887.0      -516196.0      -502440.0
      -488595.0      -474671.0      -460727.0      -446779.0      -432739.0
      -418633.0      -404600.0      -390598.0      -376518.0      -362261.0
      -347991.0      -333806.0      -319689.0      -305572.0      -291361.0
      -277138.0      -262793.0      -248518.0      -234471.0      -220350.0
      -206136.0      -192017.0      -178045.0      -164093.0      -150117.0
      -136209.0      -122393.0      -108647.0      -94994.00      -81392.00
      -67822.00      -54376.00      -41019.00      -27792.00      -14609.00
      -1508.000       11287.00       24060.00       36883.00       49505.00
       61906.00       74194.00       86373.00       98400.00       110333.0
       122040.0       133595.0       145071.0       156314.0       167303.0
       178179.0       189007.0       199522.0       209845.0       219967.0
       229808.0       239571.0       249134.0       258528.0       267702.0
       276544.0       285195.0       293671.0       301905.0       309923.0
       317729.0       325222.0       332446.0       339463.0       346239.0
       352759.0       359003.0       364945.0       370678.0       376229.0
       381438.0       386400.0       391131.0       395579.0       399774.0
       403636.0       407302.0       410760.0       413943.0       416864.0
       419405.0       421619.0       423588.0       425373.0       426868.0
       427940.0       428683.0       429241.0       429608.0       429620.0
       429297.0       428657.0       427792.0       426740.0       425328.0
       423655.0       421675.0       419377.0       416860.0       414012.0
       410877.0       407522.0       403879.0       399832.0       395488.0
       390951.0       386107.0       380939.0       375461.0       369733.0
       363735.0       357458.0       351016.0       344206.0       337006.0
       329698.0       322173.0       314262.0       306020.0       297610.0
       289060.0       280187.0       270918.0       261346.0       251607.0
       241618.0       231308.0       220855.0       210168.0       199130.0
       187851.0       176338.0       164579.0       152604.0       140489.0
       128111.0       115395.0       102499.0       89319.00       75981.00
       62577.00       48786.00       34713.00       20552.00       6230.000
      -8307.000      -23057.00      -38021.00      -53189.00      -68434.00
      -83878.00      -99646.00      -115567.0      -131600.0      -147779.0
      -164051.0      -180456.0      -197120.0      -213963.0      -230870.0
      -247867.0      -264914.0      -282083.0      -299463.0      -316943.0
      -334438.0      -352038.0      -369793.0      -387643.0      -405566.0
      -423580.0      -441591.0      -459593.0      -477813.0      -496163.0
      -514475.0      -532730.0      -550965.0      -569311.0      -587667.0
      -606046.0      -624484.0      -642804.0      -661095.0      -679497.0
      -697914.0      -716284.0      -734574.0      -752761.0      -770950.0
      -789144.0      -807274.0      -825415.0      -843521.0      -861442.0
      -879219.0      -896944.0      -914631.0      -932245.0      -949769.0
      -967138.0      -984339.0      -1001492.      -1018614.      -1035606.
      -1052377.      -1068991.      -1085457.      -1101772.      -1118014.
      -1134064.      -1149973.      -1165735.      -1181202.      -1196547.
      -1211849.      -1226899.      -1241678.      -1256318.      -1270718.
      -1284920.      -1298947.      -1312691.      -1326211.      -1339546.
      -1352652.      -1365490.      -1378137.      -1390508.      -1402582.
      -1414550.      -1426280.      -1437665.      -1448847.      -1459779.
      -1470384.      -1480759.      -1490835.      -1500575.      -1510153.
      -1519412.      -1528295.      -1536958.      -1545310.      -1553349.
      -1561050.      -1568429.      -1575525.      -1582342.      -1588889.
      -1595089.      -1601039.      -1606666.      -1611863.      -1616841.
      -1621434.      -1625580.      -1629560.      -1633235.      -1636575.
      -1639572.      -1642113.      -1644362.      -1646330.      -1647983.
      -1649331.      -1650318.      -1650894.      -1651194.      -1651218.
      -1650758.      -1650002.      -1648897.      -1647380.      -1645648.
      -1643530.      -1641083.      -1638323.      -1635133.      -1631618.
      -1627850.      -1623845.      -1619437.      -1614681.      -1609641.
      -1604225.      -1598511.      -1592478.      -1586209.      -1579645.
      -1572585.      -1565296.      -1557792.      -1549910.      -1541719.
      -1533144.      -1524358.      -1515353.      -1505907.      -1496154.
      -1486207.      -1475969.      -1465360.      -1454544.      -1443490.
      -1432032.      -1420369.      -1408538.      -1396318.      -1383809.
      -1371119.      -1358181.      -1344960.      -1331510.      -1317816.
      -1303807.      -1289589.      -1275119.      -1260519.      -1245699.
      -1230506.      -1215199.      -1199702.      -1183912.      -1167924.
      -1151820.      -1135461.      -1118785.      -1101997.      -1085048.
      -1067860.      -1050606.      -1033166.      -1015388.      -997593.0
      -979758.0      -961643.0      -943396.0      -925031.0      -906511.0
      -887886.0      -869110.0      -850156.0      -831032.0      -811829.0
      -792500.0      -773061.0      -753611.0      -733975.0      -714222.0
      -694428.0      -674444.0      -654463.0      -634518.0      -614442.0
      -594254.0      -574040.0      -553872.0      -533590.0      -513146.0
      -492814.0      -472535.0      -452113.0      -431593.0      -411149.0
      -390828.0      -370311.0      -349709.0      -329189.0      -308678.0
      -288248.0      -267730.0      -247223.0      -226867.0      -206488.0
      -186076.0      -165894.0      -145854.0      -125726.0      -105686.0
      -85739.00      -65821.00      -45937.00      -26195.00      -6628.000
       12943.00       32478.00       51975.00       71329.00       90359.00
       109256.0       128259.0       147257.0       165958.0       184409.0
       202767.0       221051.0       239255.0       257273.0       275109.0
       292749.0       310193.0       327493.0       344657.0       361721.0
       378585.0       395173.0       411556.0       427829.0       443949.0
       459903.0       475650.0       491066.0       506300.0       521364.0
       536271.0       551050.0       565484.0       579671.0       593669.0
       607426.0       621050.0       634491.0       647642.0       660465.0
       673051.0       685450.0       697649.0       709707.0       721394.0
       732702.0       743882.0       754834.0       765558.0       776038.0
       786267.0       796300.0       806004.0       815410.0       824602.0
       833572.0       842308.0       850770.0       858926.0       866828.0
       874454.0       881763.0       888824.0       895611.0       902106.0
       908297.0       914211.0       919972.0       925446.0       930539.0
       935404.0       940011.0       944384.0       948543.0       952412.0
       956021.0       959329.0       962347.0       965053.0       967475.0
       969684.0       971526.0       973044.0       974248.0       975157.0
       975810.0       976132.0       976213.0       975932.0       975397.0
       974608.0       973518.0       972281.0       970639.0       968738.0
       966649.0       964128.0       961409.0       958487.0       955177.0
       951602.0       947681.0       943412.0       938916.0       934071.0
       928900.0       923449.0       917680.0       911602.0       905214.0
       898488.0       891505.0       884293.0       876779.0       869038.0
       860950.0       852495.0       843965.0       835244.0       826120.0
       816682.0       807000.0       797091.0       786820.0       776244.0
       765489.0       754334.0       742831.0       731178.0       719235.0
       706945.0       694444.0       681662.0       668536.0       655186.0
       641638.0       627871.0       613874.0       599600.0       585072.0
       570234.0       555138.0       540005.0       524643.0       508949.0
       493008.0       476793.0       460398.0       443816.0       427028.0
       409920.0       392587.0       375196.0       357548.0       339645.0
       321471.0       303028.0       284532.0       265950.0       247082.0
       227945.0       208736.0       189299.0       169683.0       150061.0
       130166.0       110032.0       89768.00       69380.00       48930.00
       28271.00       7361.000      -13698.00      -34827.00      -55990.00
      -77284.00      -98848.00      -120599.0      -142336.0      -164131.0
      -186059.0      -208130.0      -230331.0      -252544.0      -274869.0
      -297289.0      -319660.0      -342137.0      -364739.0      -387451.0
      -410213.0      -432959.0      -455823.0      -478635.0      -501483.0
      -524516.0      -547508.0      -570439.0      -593395.0      -616412.0
      -639389.0      -662358.0      -685304.0      -708160.0      -731088.0
      -753956.0      -776684.0      -799413.0      -822229.0      -845023.0
      -867686.0      -890209.0      -912604.0      -935095.0      -957618.0
      -980007.0      -1002176.      -1024161.      -1046194.      -1068210.
      -1090106.      -1111818.      -1133275.      -1154690.      -1176024.
      -1197111.      -1218151.      -1239120.      -1259851.      -1280318.
      -1300734.      -1321019.      -1341017.      -1360925.      -1380632.
      -1400081.      -1419295.      -1438306.      -1457181.      -1475853.
      -1494313.      -1512496.      -1530516.      -1548406.      -1565967.
      -1583355.      -1600554.      -1617394.      -1633951.      -1650276.
      -1666392.      -1682274.      -1697851.      -1713024.      -1727942.
      -1742683.      -1757119.      -1771285.      -1785084.      -1798539.
      -1811724.      -1824639.      -1837324.      -1849653.      -1861685.
      -1873392.      -1884747.      -1895880.      -1906694.      -1917117.
      -1927108.      -1936838.      -1946250.      -1955260.      -1964022.
      -1972412.      -1980458.      -1988161.      -1995471.      -2002395.
      -2009008.      -2015303.      -2021144.      -2026696.      -2031882.
      -2036674.      -2041160.      -2045245.      -2048993.      -2052416.
      -2055445.      -2058002.      -2060172.      -2061989.      -2063386.
      -2064456.      -2065137.      -2065381.      -2065241.      -2064719.
      -2063846.      -2062607.      -2060993.      -2058969.      -2056441.
      -2053547.      -2050426.      -2046937.      -2043001.      -2038619.
      -2033848.      -2028679.      -2023163.      -2017299.      -2010981.
      -2004295.      -1997209.      -1989783.      -1982017.      -1973837.
      -1965290.      -1956336.      -1947012.      -1937321.      -1927273.
      -1916829.      -1906047.      -1894914.      -1883370.      -1871626.
      -1859504.      -1846918.      -1834071.      -1820898.      -1807363.
      -1793533.      -1779322.      -1764717.      -1749846.      -1734640.
      -1719169.      -1703354.      -1687181.      -1670818.      -1654096.
      -1637093.      -1619882.      -1602290.      -1584476.      -1566569.
      -1548295.      -1529657.      -1510859.      -1491794.      -1472389.
      -1452799.      -1432994.      -1412850.      -1392473.      -1371964.
      -1351310.      -1330348.      -1309174.      -1287904.      -1266385.
      -1244640.      -1222746.      -1200769.      -1178639.      -1156312.
      -1133909.      -1111323.      -1088479.      -1065594.      -1042720.
      -1019658.      -996417.0      -973095.0      -949590.0      -925964.0
      -902342.0      -878739.0      -855059.0      -831219.0      -807287.0
      -783291.0      -759285.0      -735262.0      -711272.0      -687295.0
      -663161.0      -638917.0      -614785.0      -590753.0      -566673.0
      -542581.0      -518333.0      -494063.0      -470154.0      -446403.0
      -422434.0      -398312.0      -374408.0      -350595.0      -326766.0
      -303176.0      -279680.0      -256241.0      -232822.0      -209383.0
      -186178.0      -163246.0      -140389.0      -117435.0      -94616.00
      -72149.00      -49850.00      -27676.00      -5561.000       16578.00
       38552.00       60221.00       81592.00       102823.0       124009.0
       145030.0       165917.0       186568.0       206810.0       226901.0
       246818.0       266592.0       286258.0       305483.0       324579.0
       343530.0       362083.0       380534.0       398736.0       416515.0
       434034.0       451366.0       468576.0       485520.0       502083.0
       518314.0       534281.0       550076.0       565455.0       580518.0
       595522.0       610110.0       624241.0       638122.0       651758.0
       665250.0       678455.0       691170.0       703593.0       715813.0
       727721.0       739200.0       750423.0       761428.0       771960.0
       782216.0       792153.0       801643.0       810910.0       819788.0
       828260.0       836438.0       844293.0       851971.0       859278.0
       866161.0       872762.0       879023.0       884948.0       890524.0
       895804.0       900789.0       905417.0       909619.0       913498.0
       917132.0       920430.0       923304.0       925736.0       927959.0
       929991.0       931598.0       932769.0       933618.0       934183.0
       934492.0       934415.0       933916.0       933233.0       932226.0
       930915.0       929350.0       927239.0       924825.0       922220.0
       919277.0       916079.0       912453.0       908376.0       904067.0
       899521.0       894677.0       889458.0       883815.0       877932.0
       871767.0       865319.0       858679.0       851639.0       844320.0
       836800.0       828977.0       820815.0       812348.0       803609.0
       794558.0       785364.0       775846.0       765872.0       755662.0
       745262.0       734689.0       723798.0       712493.0       701012.0
       689387.0       677406.0       665062.0       652567.0       639982.0
       627111.0       613963.0       600692.0       587161.0       573278.0
       559336.0       545251.0       530769.0       516080.0       501221.0
       486142.0       470929.0       455545.0       439917.0       424045.0
       408072.0       392034.0       375693.0       359205.0       342664.0
       325924.0       309133.0       292178.0       275052.0       257754.0
       240289.0       222818.0       205150.0       187406.0       169531.0
       151417.0       133247.0       114967.0       96743.00       78506.00
       60089.00       41463.00       22785.00       4236.000      -14522.00
      -33197.00      -51770.00      -70699.00      -89730.00      -108715.0
      -127608.0      -146651.0      -165843.0      -184857.0      -203998.0
      -223178.0      -242224.0      -261378.0      -280544.0      -299690.0
      -318759.0      -337730.0      -356716.0      -375651.0      -394642.0
      -413634.0      -432424.0      -451259.0      -470213.0      -489017.0
      -507742.0      -526494.0      -545158.0      -563819.0      -582536.0
      -601072.0      -619411.0      -637780.0      -656095.0      -674236.0
      -692283.0      -710348.0      -728461.0      -746338.0      -764041.0
      -781728.0      -799259.0      -816761.0      -834259.0      -851602.0
      -868647.0      -885623.0      -902607.0      -919377.0      -936148.0
      -952829.0      -969262.0      -985602.0      -1001778.      -1017778.
      -1033607.      -1049289.      -1064885.      -1080284.      -1095544.
      -1110676.      -1125653.      -1140568.      -1155270.      -1169760.
      -1183989.      -1197954.      -1211978.      -1225867.      -1239462.
      -1252802.      -1265968.      -1279021.      -1291861.      -1304585.
      -1317039.      -1329293.      -1341408.      -1353211.      -1364722.
