     0.05000000      -12345.00      -12345.00   3.543300e+09      -12345.00
   0.0005380000       1859.951      -546.0195      -12345.00      -12345.00
      -12345.00      -12345.00      -12345.00      -12345.00      -12345.00
      -12345.00      -12345.00      -12345.00      -12345.00      -12345.00
      -12345.00      -12345.00      -12345.00      -12345.00      -12345.00
      -12345.00      -12345.00      -12345.00      -12345.00      -12345.00
      -12345.00      -5.014200       119.7517       300.0000       100.0000
      -42.72450       173.0647      -12345.00       22.00000      -12345.00
      -12345.00      -12345.00      -12345.00      -12345.00      -12345.00
      -12345.00      -12345.00      -12345.00      -12345.00      -12345.00
       6691.384       292.9556       137.0698       60.17973      -12345.00
      -12345.00      -12345.00       0.000000       0.000000      -12345.00
      -12345.00      -12345.00      -12345.00      -12345.00      -12345.00
      -12345.00      -12345.00      -12345.00      -12345.00      -12345.00
      2016       318        11        12         5
        19         6    -12345    -12345     37200
    -12345    -12345    -12345    -12345    -12345
         1    -12345    -12345    -12345    -12345
    -12345    -12345    -12345    -12345    -12345
    -12345    -12345    -12345    -12345    -12345
    -12345    -12345    -12345    -12345    -12345
         1    -12345    -12345    -12345    -12345
KAPI    South Island, Ne
00      -12345  -12345  
-12345  -12345  -12345  
-12345  -12345  -12345  
-12345  -12345  -12345  
-12345  -12345  -12345  
-12345  -12345  BHZ     
II      -12345  Geotech 
[...]
      -463697.0      -464087.0      -464368.0      -464559.0      -464602.0
      -464542.0      -464493.0      -464353.0      -464122.0      -463770.0
      -463201.0      -462634.0      -462122.0      -461505.0      -460824.0
      -460052.0      -459102.0      -458142.0      -457194.0      -456147.0
      -455046.0      -453849.0      -452528.0      -451123.0      -449634.0
      -448172.0      -446789.0      -445287.0      -443558.0      -441760.0
      -440008.0      -438250.0      -436504.0      -434704.0      -432749.0
      -430719.0      -428625.0      -426564.0      -424597.0      -422549.0
      -420349.0      -418041.0      -415721.0      -413439.0      -411189.0
      -408950.0      -406642.0      -404224.0      -401741.0      -399309.0
      -397022.0      -394634.0      -392119.0      -389674.0      -387048.0
      -384476.0      -382047.0      -379514.0      -376979.0      -374350.0
      -371623.0      -368879.0      -366274.0      -363694.0      -361007.0
      -358339.0      -355565.0      -352740.0      -349965.0      -347142.0
      -344287.0      -341496.0      -338753.0      -335935.0      -333004.0
      -330097.0      -327222.0      -324280.0      -321432.0      -318614.0
      -315578.0      -312463.0      -309462.0      -306579.0      -303622.0
      -300404.0      -297110.0      -293949.0      -290865.0      -287780.0
      -284537.0      -281117.0      -277738.0      -274471.0      -271126.0
      -267679.0      -264338.0      -260887.0      -257247.0      -253661.0
      -250150.0      -246593.0      -242913.0      -239175.0      -235430.0
      -231690.0      -227957.0      -224178.0      -220314.0      -216467.0
      -212498.0      -208372.0      -204356.0      -200422.0      -196453.0
      -192292.0      -187997.0      -183690.0      -179431.0      -175227.0
      -170870.0      -166410.0      -161931.0      -157462.0      -152893.0
      -148245.0      -143675.0      -139029.0      -134272.0      -129484.0
      -124784.0      -120004.0      -115069.0      -110171.0      -105268.0
      -100327.0      -95237.00      -90083.00      -85009.00      -79897.00
      -74693.00      -69411.00      -64125.00      -58787.00      -53380.00
      -47970.00      -42506.00      -37020.00      -31454.00      -25775.00
      -20157.00      -14568.00      -8916.000      -3185.000       2667.000
       8568.000       14315.00       20014.00       25872.00       31839.00
       37803.00       43706.00       49642.00       55583.00       61595.00
       67685.00       73689.00       79746.00       85913.00       92070.00
       98238.00       104479.0       110738.0       116916.0       123089.0
       129387.0       135706.0       141978.0       148278.0       154579.0
       160779.0       166984.0       173323.0       179629.0       185967.0
       192359.0       198610.0       204825.0       211058.0       217389.0
       223835.0       230222.0       236445.0       242504.0       248650.0
       254934.0       261223.0       267450.0       273584.0       279693.0
       285760.0       291808.0       297881.0       303941.0       310035.0
       316069.0       321953.0       327752.0       333528.0       339378.0
       345287.0       351058.0       356570.0       362055.0       367589.0
       373088.0       378620.0       384050.0       389341.0       394558.0
       399670.0       404755.0       409849.0       414907.0       419837.0
       424614.0       429344.0       434047.0       438656.0       443126.0
       447499.0       451880.0       456179.0       460302.0       464299.0
       468260.0       472178.0       475960.0       479624.0       483109.0
       486425.0       489758.0       493071.0       496181.0       499097.0
       501943.0       504643.0       507196.0       509745.0       512106.0
       514205.0       516246.0       518289.0       520170.0       521817.0
       523374.0       524806.0       526067.0       527146.0       528068.0
       528856.0       529527.0       530046.0       530277.0       530341.0
       530271.0       529998.0       529631.0       529133.0       528381.0
       527387.0       526209.0       524867.0       523392.0       521782.0
       519899.0       517769.0       515509.0       513052.0       510341.0
       507487.0       504485.0       501190.0       497644.0       493957.0
       490205.0       486251.0       482016.0       477591.0       472894.0
       468015.0       463023.0       457868.0       452498.0       446868.0
       440989.0       434945.0       428810.0       422473.0       415902.0
       409094.0       402094.0       394877.0       387469.0       379921.0
       372147.0       364197.0       356031.0       347705.0       339209.0
       330506.0       321663.0       312618.0       303404.0       294032.0
       284515.0       274825.0       264938.0       254910.0       244728.0
       234429.0       223961.0       213265.0       202408.0       191477.0
       180394.0       169050.0       157629.0       146182.0       134537.0
       122649.0       110628.0       98553.00       86340.00       73968.00
       61535.00       49043.00       36366.00       23549.00       10673.00
      -2283.000      -15304.00      -28446.00      -41717.00      -55161.00
      -68676.00      -82139.00      -95726.00      -109412.0      -123165.0
      -137031.0      -150903.0      -164752.0      -178661.0      -192707.0
      -206847.0      -220938.0      -234947.0      -249102.0      -263439.0
      -277721.0      -291848.0      -306004.0      -320333.0      -334593.0
      -348736.0      -362981.0      -377229.0      -391403.0      -405479.0
      -419469.0      -433509.0      -447520.0      -461440.0      -475259.0
      -489024.0      -502764.0      -516405.0      -529942.0      -543380.0
      -556763.0      -570119.0      -583351.0      -596428.0      -609398.0
      -622271.0      -635053.0      -647676.0      -660227.0      -672692.0
      -684924.0      -697002.0      -708932.0      -720766.0      -732506.0
      -744027.0      -755387.0      -766608.0      -777674.0      -788568.0
      -799297.0      -809926.0      -820293.0      -830350.0      -840314.0
      -850190.0      -859789.0      -869108.0      -878279.0      -887281.0
      -896086.0      -904661.0      -912997.0      -921117.0      -928970.0
      -936656.0      -944159.0      -951311.0      -958152.0      -964797.0
      -971281.0      -977470.0      -983279.0      -988804.0      -994118.0
      -999203.0      -1004037.      -1008597.      -1012854.      -1016843.
      -1020563.      -1024019.      -1027244.      -1030170.      -1032709.
      -1035007.      -1037147.      -1038898.      -1040325.      -1041583.
      -1042495.      -1042971.      -1043176.      -1043185.      -1042894.
      -1042248.      -1041273.      -1040027.      -1038525.      -1036764.
      -1034623.      -1032105.      -1029429.      -1026477.      -1023174.
      -1019637.      -1015806.      -1011651.      -1007187.      -1002429.
      -997389.0      -992079.0      -986462.0      -980455.0      -974191.0
      -967740.0      -961012.0      -953977.0      -946598.0      -938932.0
      -930998.0      -922844.0      -914480.0      -905847.0      -896872.0
      -887530.0      -878014.0      -868358.0      -858438.0      -848272.0
      -837883.0      -827126.0      -816130.0      -805038.0      -793657.0
      -782003.0      -770173.0      -758068.0      -745666.0      -733050.0
      -720225.0      -707251.0      -694061.0      -680594.0      -666956.0
      -653159.0      -639183.0      -624975.0      -610552.0      -595993.0
      -581273.0      -566341.0      -551239.0      -535966.0      -520531.0
      -504991.0      -489256.0      -473339.0      -457250.0      -441023.0
      -424732.0      -408216.0      -391581.0      -374855.0      -357893.0
      -340832.0      -323727.0      -306603.0      -289275.0      -271756.0
      -254300.0      -236677.0      -218941.0      -201209.0      -183330.0
      -165354.0      -147284.0      -129255.0      -111157.0      -92936.00
      -74746.00      -56413.00      -38081.00      -19822.00      -1470.000
       16948.00       35379.00       53765.00       72201.00       90616.00
       108989.0       127453.0       145890.0       164288.0       182689.0
       201105.0       219472.0       237758.0       256079.0       274330.0
       292460.0       310573.0       328668.0       346720.0       364692.0
       382577.0       400349.0       418069.0       435764.0       453290.0
       470707.0       488066.0       505326.0       522503.0       539550.0
       556508.0       573388.0       590161.0       606832.0       623359.0
       639779.0       656103.0       672341.0       688422.0       704266.0
       719987.0       735599.0       751118.0       766434.0       781537.0
       796512.0       811279.0       825940.0       840410.0       854616.0
       868762.0       882737.0       896432.0       910039.0       923480.0
       936654.0       949688.0       962543.0       975087.0       987420.0
       999695.0       1011732.       1023391.       1034752.       1046038.
       1057268.       1068130.       1078712.       1089167.       1099342.
       1109234.       1118907.       1128412.       1137733.       1146692.
       1155339.       1163775.       1171967.       1179929.       1187702.
       1195138.       1202165.       1209020.       1215631.       1222003.
       1228145.       1233886.       1239312.       1244512.       1249565.
       1254369.       1258834.       1263009.       1266869.       1270452.
       1273802.       1276894.       1279684.       1282171.       1284314.
       1286153.       1287720.       1288985.       1289967.       1290628.
       1290984.       1291057.       1290818.       1290318.       1289603.
       1288514.       1286966.       1285159.       1283193.       1281031.
       1278485.       1275500.       1272286.       1268859.       1265147.
       1261133.       1256773.       1252030.       1246963.       1241652.
       1236067.       1230213.       1224062.       1217515.       1210593.
       1203427.       1196157.       1188625.       1180696.       1172427.
       1163787.       1154954.       1145969.       1136664.       1127013.
       1117050.       1106805.       1096324.       1085608.       1074570.
       1063267.       1051688.       1039743.       1027554.       1015193.
       1002561.       989600.0       976327.0       962855.0       949207.0
       935304.0       921146.0       906759.0       892156.0       877334.0
       862333.0       847058.0       831504.0       815802.0       799912.0
       783750.0       767304.0       750629.0       733721.0       716680.0
       699467.0       681901.0       664102.0       646213.0       628131.0
       609772.0       591264.0       572577.0       553624.0       534490.0
       515198.0       495769.0       476178.0       456378.0       436351.0
       416184.0       395894.0       375402.0       354818.0       334071.0
       313113.0       291973.0       270710.0       249371.0       227890.0
       206285.0       184426.0       162477.0       140516.0       118374.0
       96209.00       73910.00       51387.00       28838.00       6256.000
      -16424.00      -39187.00      -62046.00      -84984.00      -107984.0
      -131069.0      -154211.0      -177395.0      -200616.0      -223876.0
      -247153.0      -270420.0      -293776.0      -317274.0      -340722.0
      -364101.0      -387573.0      -411021.0      -434421.0      -457822.0
      -481206.0      -504587.0      -527851.0      -551033.0      -574208.0
      -597362.0      -620441.0      -643429.0      -666389.0      -689242.0
      -711986.0      -734706.0      -757292.0      -779676.0      -801962.0
      -824176.0      -846318.0      -868294.0      -890036.0      -911620.0
      -932993.0      -954268.0      -975489.0      -996468.0      -1017249.
      -1037819.      -1058163.      -1078410.      -1098493.      -1118277.
      -1137741.      -1157051.      -1176264.      -1195219.      -1213859.
      -1232194.      -1250270.      -1268129.      -1285749.      -1303074.
      -1320122.      -1336859.      -1353289.      -1369477.      -1385347.
      -1400984.      -1416260.      -1431142.      -1445818.      -1460157.
      -1474128.      -1487707.      -1500982.      -1513992.      -1526615.
      -1538878.      -1550673.      -1562075.      -1573184.      -1583923.
      -1594306.      -1604338.      -1613967.      -1623098.      -1631915.
      -1640472.      -1648548.      -1656165.      -1663335.      -1670095.
      -1676514.      -1682472.      -1687980.      -1693145.      -1697846.
      -1702033.      -1705843.      -1709295.      -1712367.      -1714968.
      -1716965.      -1718442.      -1719629.      -1720476.      -1720792.
      -1720633.      -1719987.      -1718854.      -1717288.      -1715302.
      -1712910.      -1710051.      -1706685.      -1702803.      -1698494.
      -1693767.      -1688524.      -1682796.      -1676606.      -1669966.
      -1662915.      -1655446.      -1647543.      -1639216.      -1630431.
      -1621104.      -1611324.      -1601235.      -1590759.      -1579768.
      -1568347.      -1556453.      -1544058.      -1531351.      -1518327.
      -1504940.      -1491071.      -1476634.      -1461811.      -1446720.
      -1431313.      -1415494.      -1399198.      -1382556.      -1365569.
      -1348199.      -1330587.      -1312620.      -1294226.      -1275514.
      -1256449.      -1237056.      -1217442.      -1197474.      -1177071.
      -1156389.      -1135426.      -1114101.      -1092449.      -1070558.
      -1048395.      -1025889.      -1003115.      -980045.0      -956745.0
      -933328.0      -909602.0      -885584.0      -861326.0      -836794.0
      -812089.0      -787212.0      -762087.0      -736699.0      -711079.0
      -685241.0      -659284.0      -633154.0      -606802.0      -580236.0
      -553484.0      -526686.0      -499716.0      -472575.0      -445360.0
      -418031.0      -390615.0      -363072.0      -335463.0      -307768.0
      -279949.0      -252123.0      -224252.0      -196271.0      -168285.0
      -140322.0      -112277.0      -84236.00      -56210.00      -28135.00
      -83.00000       27957.00       55947.00       83910.00       111822.0
       139697.0       167569.0       195317.0       223033.0       250656.0
       278097.0       305511.0       332835.0       359981.0       387014.0
       413958.0       440753.0       467370.0       493902.0       520319.0
       546528.0       572617.0       598524.0       624200.0       649756.0
       675185.0       700373.0       725297.0       750120.0       774703.0
       798936.0       823048.0       846919.0       870498.0       893871.0
       916965.0       939862.0       962483.0       984769.0       1006866.
       1028763.       1050274.       1071337.       1092124.       1112709.
       1133048.       1152900.       1172351.       1191649.       1210549.
       1229083.       1247293.       1265159.       1282721.       1299900.
       1316706.       1333021.       1349007.       1364715.       1380016.
       1394867.       1409295.       1423424.       1437093.       1450371.
       1463303.       1475792.       1487874.       1499526.       1510823.
       1521736.       1532171.       1542243.       1551920.       1561101.
       1569860.       1578179.       1586020.       1593456.       1600519.
       1607126.       1613276.       1618927.       1624088.       1628920.
       1633303.       1637219.       1640716.       1643694.       1646283.
       1648517.       1650250.       1651451.       1652286.       1652752.
       1652615.       1652020.       1651173.       1649942.       1648064.
       1645540.       1642683.       1639545.       1636046.       1632127.
       1627546.       1622409.       1616972.       1611212.       1605033.
       1598499.       1591576.       1584120.       1576236.       1567880.
       1559227.       1550373.       1541048.       1531059.       1520418.
       1509774.       1499040.       1487566.       1475546.       1463139.
       1450386.       1437362.       1424046.       1410374.       1396159.
       1381517.       1366547.       1351341.       1335895.       1320005.
       1303757.       1287166.       1270285.       1253115.       1235677.
       1218004.       1199911.       1181494.       1162787.       1143836.
       1124677.       1105124.       1085232.       1065052.       1044618.
       1023964.       1003065.       981931.0       960501.0       938700.0
       916609.0       894463.0       872256.0       849760.0       826939.0
       803900.0       780651.0       757280.0       733927.0       710364.0
       686475.0       662549.0       638486.0       614198.0       589815.0
       565401.0       540907.0       516140.0       491291.0       466375.0
       441393.0       416333.0       391101.0       365859.0       340493.0
       315082.0       289628.0       264083.0       238659.0       213182.0
       187504.0       161912.0       136467.0       110972.0       85408.00
       59839.00       34331.00       8881.000      -16580.00      -42015.00
      -67318.00      -92623.00      -117910.0      -143061.0      -168171.0
      -193139.0      -217984.0      -242744.0      -267463.0      -292112.0
      -316540.0      -340849.0      -364961.0      -388909.0      -412819.0
      -436608.0      -460104.0      -483280.0      -506397.0      -529415.0
      -552285.0      -574985.0      -597371.0      -619586.0      -641673.0
      -663566.0      -685269.0      -706747.0      -728059.0      -749087.0
      -769833.0      -790424.0      -810710.0      -830748.0      -850636.0
      -870347.0      -889762.0      -908779.0      -927539.0      -946107.0
      -964458.0      -982501.0      -1000188.      -1017598.      -1034734.
      -1051531.      -1067954.      -1084044.      -1099876.      -1115522.
      -1130822.      -1145613.      -1160083.      -1174372.      -1188428.
      -1202122.      -1215391.      -1228312.      -1240956.      -1253297.
      -1265365.      -1277114.      -1288376.      -1299297.      -1309939.
      -1320198.      -1329993.      -1339397.      -1348552.      -1357313.
