     0.05000000      -12345.00      -12345.00   3.771100e+09      -12345.00
   0.0005380000       1859.951      -546.0195      -12345.00      -12345.00
      -12345.00      -12345.00      -12345.00      -12345.00      -12345.00
      -12345.00      -12345.00      -12345.00      -12345.00      -12345.00
      -12345.00      -12345.00      -12345.00      -12345.00      -12345.00
      -12345.00      -12345.00      -12345.00      -12345.00      -12345.00
      -12345.00      -5.014200       119.7517       300.0000       100.0000
      -42.72450       173.0647      -12345.00       22.00000      -12345.00
      -12345.00      -12345.00      -12345.00      -12345.00      -12345.00
      -12345.00      -12345.00      -12345.00      -12345.00      -12345.00
       6691.384       292.9556       137.0698       60.17973      -12345.00
      -12345.00      -12345.00       1.000000       90.00000      -12345.00
      -12345.00      -12345.00      -12345.00      -12345.00      -12345.00
      -12345.00      -12345.00      -12345.00      -12345.00      -12345.00
      2016       318        11        12         5
        19         6    -12345    -12345     37200
    -12345    -12345    -12345    -12345    -12345
         1    -12345    -12345    -12345    -12345
    -12345    -12345    -12345    -12345    -12345
    -12345    -12345    -12345    -12345    -12345
    -12345    -12345    -12345    -12345    -12345
         1    -12345    -12345    -12345    -12345
KAPI    South Island, Ne
00      -12345  -12345  
-12345  -12345  -12345  
-12345  -12345  -12345  
-12345  -12345  -12345  
-12345  -12345  -12345  
-12345  -12345  BH1     
II      -12345  Geotech 
[...]
      -768189.0      -769265.0      -770362.0      -771510.0      -772596.0
      -773655.0      -774661.0      -775592.0      -776428.0      -777162.0
      -777808.0      -778475.0      -779137.0      -779697.0      -780162.0
      -780489.0      -780812.0      -781115.0      -781369.0      -781685.0
      -781807.0      -781732.0      -781698.0      -781646.0      -781510.0
      -781270.0      -780912.0      -780476.0      -780005.0      -779462.0
      -778827.0      -778133.0      -777293.0      -776342.0      -775382.0
      -774367.0      -773227.0      -771933.0      -770594.0      -769247.0
      -767744.0      -766077.0      -764397.0      -762754.0      -761050.0
      -759198.0      -757176.0      -755122.0      -753075.0      -750887.0
      -748547.0      -746151.0      -743766.0      -741293.0      -738646.0
      -735924.0      -733275.0      -730665.0      -727861.0      -724889.0
      -721943.0      -718984.0      -715921.0      -712799.0      -709664.0
      -706491.0      -703202.0      -699813.0      -696428.0      -693036.0
      -689613.0      -686128.0      -682639.0      -679123.0      -675524.0
      -671879.0      -668157.0      -664446.0      -660714.0      -656867.0
      -653018.0      -649214.0      -645362.0      -641486.0      -637607.0
      -633704.0      -629779.0      -625852.0      -621926.0      -617914.0
      -613931.0      -609994.0      -606036.0      -602097.0      -598156.0
      -594236.0      -590295.0      -586296.0      -582257.0      -578209.0
      -574163.0      -570149.0      -566155.0      -562103.0      -558047.0
      -554045.0      -550037.0      -545966.0      -541871.0      -537815.0
      -533828.0      -529868.0      -525837.0      -521793.0      -517785.0
      -513788.0      -509820.0      -505887.0      -501945.0      -497996.0
      -494068.0      -490124.0      -486212.0      -482300.0      -478438.0
      -474620.0      -470736.0      -466857.0      -463007.0      -459239.0
      -455507.0      -451746.0      -447976.0      -444222.0      -440503.0
      -436804.0      -433126.0      -429425.0      -425686.0      -421985.0
      -418404.0      -414901.0      -411371.0      -407782.0      -404194.0
      -400667.0      -397219.0      -393851.0      -390456.0      -386961.0
      -383401.0      -379840.0      -376384.0      -373017.0      -369652.0
      -366279.0      -362910.0      -359505.0      -356110.0      -352793.0
      -349495.0      -346253.0      -343083.0      -339921.0      -336758.0
      -333636.0      -330591.0      -327497.0      -324281.0      -321026.0
      -317858.0      -314824.0      -311887.0      -308908.0      -305796.0
      -302738.0      -299790.0      -296823.0      -293814.0      -290950.0
      -288262.0      -285561.0      -282801.0      -280019.0      -277318.0
      -274642.0      -271969.0      -269282.0      -266594.0      -263943.0
      -261249.0      -258485.0      -255736.0      -253126.0      -250570.0
      -248058.0      -245558.0      -243019.0      -240570.0      -238167.0
      -235740.0      -233356.0      -230921.0      -228460.0      -225992.0
      -223472.0      -221093.0      -218721.0      -216320.0      -213993.0
      -211530.0      -209027.0      -206737.0      -204521.0      -202288.0
      -200056.0      -197738.0      -195496.0      -193298.0      -191087.0
      -188949.0      -186789.0      -184635.0      -182396.0      -180087.0
      -177827.0      -175582.0      -173402.0      -171209.0      -168905.0
      -166627.0      -164372.0      -162081.0      -159810.0      -157491.0
      -155160.0      -152866.0      -150602.0      -148305.0      -145919.0
      -143516.0      -141138.0      -138775.0      -136396.0      -133966.0
      -131452.0      -128973.0      -126568.0      -124119.0      -121658.0
      -119181.0      -116729.0      -114354.0      -111945.0      -109497.0
      -107053.0      -104634.0      -102227.0      -99824.00      -97446.00
      -95025.00      -92601.00      -90194.00      -87819.00      -85468.00
      -83087.00      -80652.00      -78211.00      -75864.00      -73512.00
      -71195.00      -68873.00      -66454.00      -64091.00      -61756.00
      -59388.00      -57062.00      -54824.00      -52647.00      -50354.00
      -47910.00      -45536.00      -43362.00      -41235.00      -38917.00
      -36548.00      -34248.00      -31990.00      -29763.00      -27483.00
      -25246.00      -23070.00      -20997.00      -18966.00      -16732.00
      -14641.00      -12793.00      -10909.00      -9081.000      -7132.000
      -5194.000      -3498.000      -1794.000      -46.00000       1738.000
       3468.000       5095.000       6700.000       8211.000       9768.000
       11385.00       12850.00       14198.00       15594.00       16969.00
       18260.00       19503.00       20717.00       22013.00       23188.00
       24186.00       25213.00       26207.00       27223.00       28216.00
       29089.00       29949.00       30686.00       31474.00       32229.00
       32817.00       33565.00       34198.00       34754.00       35223.00
       35439.00       35884.00       36430.00       36755.00       36809.00
       36669.00       36764.00       36864.00       36673.00       36467.00
       36193.00       35791.00       35417.00       35045.00       34518.00
       33789.00       32968.00       32173.00       31341.00       30467.00
       29356.00       28090.00       27000.00       25782.00       24389.00
       22881.00       21266.00       19723.00       18002.00       15982.00
       13886.00       11803.00       9699.000       7460.000       4813.000
       1995.000      -610.0000      -3196.000      -5944.000      -8928.000
      -12073.00      -15211.00      -18351.00      -21642.00      -25183.00
      -28897.00      -32670.00      -36525.00      -40559.00      -44656.00
      -48858.00      -53322.00      -57946.00      -62694.00      -67474.00
      -72255.00      -77215.00      -82312.00      -87546.00      -92944.00
      -98436.00      -103989.0      -109526.0      -115146.0      -120964.0
      -127000.0      -133181.0      -139401.0      -145640.0      -151943.0
      -158449.0      -165047.0      -171667.0      -178498.0      -185542.0
      -192713.0      -199854.0      -206898.0      -214018.0      -221396.0
      -228970.0      -236535.0      -244176.0      -251938.0      -259851.0
      -267975.0      -276136.0      -284324.0      -292596.0      -301028.0
      -309688.0      -318512.0      -327394.0      -336261.0      -345170.0
      -354173.0      -363322.0      -372636.0      -382075.0      -391628.0
      -401275.0      -410999.0      -420736.0      -430569.0      -440693.0
      -451032.0      -461321.0      -471538.0      -481889.0      -492425.0
      -503093.0      -513758.0      -524330.0      -534946.0      -545751.0
      -556733.0      -567718.0      -578677.0      -589729.0      -600935.0
      -612280.0      -623594.0      -634807.0      -646071.0      -657552.0
      -669171.0      -680803.0      -692501.0      -704203.0      -715912.0
      -727783.0      -739782.0      -751833.0      -764083.0      -776366.0
      -788366.0      -800364.0      -812590.0      -824820.0      -836955.0
      -849111.0      -861234.0      -873377.0      -885608.0      -897872.0
      -910153.0      -922452.0      -934833.0      -946983.0      -959006.0
      -971387.0      -983774.0      -995969.0      -1008275.      -1020533.
      -1032610.      -1044927.      -1057316.      -1069301.      -1081322.
      -1093364.      -1105341.      -1117397.      -1129477.      -1141552.
      -1153366.      -1165208.      -1176875.      -1188501.      -1200457.
      -1212220.      -1223786.      -1235222.      -1246587.      -1257966.
      -1269130.      -1280345.      -1291499.      -1302320.      -1313013.
      -1323459.      -1334243.      -1344982.      -1355483.      -1365641.
      -1375610.      -1385873.      -1395580.      -1405863.      -1415649.
      -1424908.      -1434580.      -1443916.      -1453380.      -1461884.
      -1470753.      -1479545.      -1487833.      -1496690.      -1504352.
      -1512417.      -1520518.      -1527737.      -1535606.      -1543156.
      -1550330.      -1557283.      -1564356.      -1571348.      -1578076.
      -1584724.      -1590524.      -1596677.      -1602554.      -1607955.
      -1613651.      -1619063.      -1624271.      -1628697.      -1633284.
      -1638096.      -1642437.      -1646884.      -1650915.      -1654673.
      -1658393.      -1661909.      -1665474.      -1668667.      -1671352.
      -1673981.      -1676519.      -1678609.      -1680717.      -1683021.
      -1684743.      -1686047.      -1687397.      -1688675.      -1689643.
      -1690424.      -1691170.      -1691576.      -1691838.      -1691972.
      -1691637.      -1691256.      -1690922.      -1690179.      -1689254.
      -1688110.      -1686532.      -1684990.      -1683486.      -1681659.
      -1679522.      -1677277.      -1674956.      -1672619.      -1670050.
      -1667162.      -1664167.      -1660977.      -1657669.      -1654131.
      -1650356.      -1646411.      -1642356.      -1638191.      -1633537.
      -1628638.      -1623859.      -1619038.      -1613933.      -1608501.
      -1602781.      -1596771.      -1590800.      -1584768.      -1578349.
      -1571687.      -1564804.      -1557773.      -1550608.      -1543285.
      -1535918.      -1528344.      -1520291.      -1512117.      -1504293.
      -1496194.      -1487539.      -1478782.      -1469999.      -1461129.
      -1451962.      -1442570.      -1433132.      -1423643.      -1413982.
      -1404116.      -1394143.      -1383953.      -1373633.      -1363044.
      -1352341.      -1341691.      -1330571.      -1319051.      -1307655.
      -1296282.      -1284708.      -1272982.      -1260780.      -1248508.
      -1236449.      -1224388.      -1212227.      -1199560.      -1186716.
      -1173940.      -1161389.      -1148735.      -1135604.      -1122276.
      -1108866.      -1095935.      -1082788.      -1068891.      -1055087.
      -1041410.      -1027780.      -1014020.      -1000024.      -985811.0
      -971612.0      -957724.0      -943715.0      -929326.0      -914505.0
      -900069.0      -886113.0      -871674.0      -857045.0      -842598.0
      -828204.0      -813486.0      -798845.0      -784411.0      -769639.0
      -754977.0      -740370.0      -725469.0      -710478.0      -695661.0
      -681026.0      -666354.0      -651490.0      -636386.0      -621416.0
      -606727.0      -591896.0      -576796.0      -561756.0      -546999.0
      -532257.0      -517267.0      -502308.0      -487401.0      -472413.0
      -457512.0      -442763.0      -427950.0      -413019.0      -398300.0
      -383749.0      -369132.0      -354435.0      -339712.0      -325213.0
      -310978.0      -296562.0      -281906.0      -267475.0      -253168.0
      -238830.0      -224626.0      -210488.0      -196358.0      -182242.0
      -168208.0      -154343.0      -140589.0      -126896.0      -113219.0
      -99504.00      -85931.00      -72590.00      -59262.00      -45857.00
      -32610.00      -19585.00      -6633.000       6315.000       19290.00
       32128.00       44817.00       57454.00       70045.00       82555.00
       94907.00       107194.0       119321.0       131157.0       142897.0
       154643.0       166314.0       177971.0       189453.0       200631.0
       211825.0       223041.0       234137.0       245116.0       255962.0
       266673.0       277305.0       287853.0       298125.0       308128.0
       318047.0       328025.0       337880.0       347283.0       356433.0
       365634.0       374942.0       384201.0       392995.0       401469.0
       410143.0       418970.0       427548.0       435663.0       443500.0
       451369.0       459379.0       467310.0       474808.0       481886.0
       489016.0       496383.0       503557.0       510150.0       516493.0
       523107.0       529743.0       536100.0       542086.0       547827.0
       553725.0       559632.0       565267.0       570610.0       575770.0
       581051.0       586223.0       590919.0       595421.0       599967.0
       604585.0       608942.0       612806.0       616795.0       621018.0
       624915.0       628434.0       631900.0       635418.0       638790.0
       641935.0       644923.0       647741.0       650510.0       653264.0
       655785.0       658113.0       660334.0       662426.0       664459.0
       666400.0       668129.0       669691.0       671170.0       672495.0
       673651.0       674760.0       675777.0       676529.0       677148.0
       677760.0       678332.0       678756.0       678958.0       679005.0
       678977.0       679005.0       678928.0       678530.0       677922.0
       677293.0       676672.0       675827.0       674610.0       673136.0
       671707.0       670367.0       668785.0       666871.0       664789.0
       662750.0       660779.0       658625.0       656148.0       653444.0
       650858.0       648343.0       645428.0       642127.0       638874.0
       635877.0       632739.0       629122.0       625248.0       621404.0
       617610.0       613665.0       609384.0       604826.0       600215.0
       595638.0       590933.0       585880.0       580611.0       575323.0
       569960.0       564506.0       558925.0       553239.0       547410.0
       541372.0       535253.0       529137.0       522999.0       516551.0
       509762.0       502991.0       496271.0       489356.0       482221.0
       474989.0       467622.0       460174.0       452635.0       444996.0
       437292.0       429347.0       421230.0       413096.0       404959.0
       396691.0       388098.0       379387.0       370766.0       362104.0
       353250.0       344258.0       335224.0       326000.0       316626.0
       307254.0       297781.0       288137.0       278392.0       268579.0
       258600.0       248431.0       238304.0       228178.0       217830.0
       207384.0       196959.0       186480.0       175783.0       164873.0
       153927.0       142990.0       131950.0       120760.0       109447.0
       97917.00       86198.00       74475.00       62806.00       51081.00
       39098.00       26904.00       14706.00       2482.000      -9919.000
      -22523.00      -35104.00      -47600.00      -60189.00      -72955.00
      -85813.00      -98699.00      -111621.0      -124600.0      -137691.0
      -150840.0      -164102.0      -177520.0      -190957.0      -204379.0
      -217927.0      -231691.0      -245521.0      -259347.0      -273258.0
      -287297.0      -301418.0      -315580.0      -329799.0      -344036.0
      -358344.0      -372788.0      -387284.0      -401746.0      -416171.0
      -430598.0      -445069.0      -459677.0      -474301.0      -488752.0
      -503218.0      -517846.0      -532464.0      -546957.0      -561402.0
      -575903.0      -590438.0      -604930.0      -619378.0      -633801.0
      -648219.0      -662679.0      -677115.0      -691482.0      -705789.0
      -720067.0      -734367.0      -748598.0      -762755.0      -776946.0
      -791113.0      -805113.0      -819020.0      -832973.0      -846974.0
      -860908.0      -874678.0      -888416.0      -902197.0      -915876.0
      -929354.0      -942815.0      -956308.0      -969614.0      -982747.0
      -995793.0      -1008800.      -1021831.      -1034828.      -1047678.
      -1060341.      -1072958.      -1085613.      -1098171.      -1110525.
      -1122727.      -1134929.      -1147153.      -1159244.      -1171101.
      -1182710.      -1194251.      -1205867.      -1217343.      -1228546.
      -1239650.      -1250737.      -1261669.      -1272452.      -1283222.
      -1293897.      -1304424.      -1314916.      -1325338.      -1335622.
      -1345731.      -1355632.      -1365367.      -1374951.      -1384454.
      -1393839.      -1402930.      -1411742.      -1420387.      -1428974.
      -1437512.      -1445875.      -1454044.      -1462108.      -1470126.
      -1478006.      -1485646.      -1493164.      -1500668.      -1508068.
      -1515220.      -1522125.      -1528893.      -1535524.      -1541955.
      -1548207.      -1554288.      -1560046.      -1565532.      -1570978.
      -1576355.      -1581538.      -1586449.      -1591149.      -1595719.
      -1600223.      -1604554.      -1608540.      -1612386.      -1616137.
      -1619659.      -1622987.      -1626067.      -1628895.      -1631629.
      -1634283.      -1636704.      -1638831.      -1640786.      -1642648.
      -1644411.      -1646016.      -1647373.      -1648489.      -1649426.
      -1650273.      -1650987.      -1651387.      -1651487.      -1651480.
      -1651434.      -1651238.      -1650781.      -1650032.      -1649171.
      -1648229.      -1646968.      -1645600.      -1644194.      -1642467.
      -1640412.      -1638176.      -1635903.      -1633416.      -1630740.
      -1628009.      -1624980.      -1621848.      -1618717.      -1615332.
      -1611809.      -1608080.      -1604209.      -1600350.      -1596304.
      -1592116.      -1587749.      -1583282.      -1578723.      -1573927.
      -1569074.      -1563930.      -1558462.      -1553021.      -1547514.
      -1541844.      -1535832.      -1529623.      -1523534.      -1517431.
      -1511209.      -1504591.      -1497836.      -1491165.      -1484370.
      -1477602.      -1470539.      -1463097.      -1455641.      -1448258.
      -1440856.      -1433115.      -1425051.      -1416925.      -1408881.
      -1400878.      -1392555.      -1383884.      -1375145.      -1366506.
      -1357869.      -1348948.      -1339700.      -1330386.      -1321247.
      -1312105.      -1302695.      -1293002.      -1283252.      -1273626.
      -1263964.      -1254081.      -1243944.      -1233690.      -1223560.
      -1213420.      -1203147.      -1192796.      -1182269.      -1171646.
      -1161084.      -1150584.      -1139981.      -1129219.      -1118216.
      -1107218.      -1096489.      -1085595.      -1074429.      -1063105.
      -1051708.      -1040433.      -1029260.      -1017989.      -1006490.
      -995026.0      -983657.0      -972265.0      -960794.0      -949136.0
