     0.02500000      -12345.00      -12345.00   1.960670e+09      -12345.00
   0.0005380000       1859.976      -546.0195      -12345.00      -12345.00
      -12345.00      -12345.00      -12345.00      -12345.00      -12345.00
      -12345.00      -12345.00      -12345.00      -12345.00      -12345.00
      -12345.00      -12345.00      -12345.00      -12345.00      -12345.00
      -12345.00      -12345.00      -12345.00      -12345.00      -12345.00
      -12345.00      -5.014200       119.7517       300.0000       7.000000
      -42.72450       173.0647      -12345.00       22.00000      -12345.00
      -12345.00      -12345.00      -12345.00      -12345.00      -12345.00
      -12345.00      -12345.00      -12345.00      -12345.00      -12345.00
       6691.384       292.9556       137.0698       60.17973      -12345.00
      -12345.00      -12345.00       95.00000       90.00000      -12345.00
      -12345.00      -12345.00      -12345.00      -12345.00      -12345.00
      -12345.00      -12345.00      -12345.00      -12345.00      -12345.00
      2016       318        11        12         5
        19         6    -12345    -12345     74400
    -12345    -12345    -12345    -12345    -12345
         1    -12345    -12345    -12345    -12345
    -12345    -12345    -12345    -12345    -12345
    -12345    -12345    -12345    -12345    -12345
    -12345    -12345    -12345    -12345    -12345
         1    -12345    -12345    -12345    -12345
KAPI    South Island, Ne
10      -12345  -12345  
-12345  -12345  -12345  
-12345  -12345  -12345  
-12345  -12345  -12345  
-12345  -12345  -12345  
-12345  -12345  BH2     
II      -12345  Nanometr
[...]
      -609006.0      -609409.0      -610153.0      -610651.0      -610798.0
      -611417.0      -611781.0      -611720.0      -612056.0      -612499.0
      -612629.0      -612487.0      -612410.0      -612765.0      -612842.0
      -612431.0      -612454.0      -612431.0      -611957.0      -611801.0
      -611698.0      -611136.0      -610634.0      -610346.0      -609893.0
      -609330.0      -608831.0      -608135.0      -607349.0      -606921.0
      -606315.0      -605308.0      -604444.0      -603670.0      -602755.0
      -601664.0      -600671.0      -599755.0      -598712.0      -597569.0
      -596377.0      -595247.0      -594040.0      -592712.0      -591372.0
      -590143.0      -588616.0      -586970.0      -585747.0      -584220.0
      -582535.0      -581005.0      -579172.0      -577585.0      -576051.0
      -574147.0      -572403.0      -570503.0      -568507.0      -566639.0
      -564675.0      -562766.0      -560671.0      -558505.0      -556486.0
      -554297.0      -552080.0      -549855.0      -547372.0      -545137.0
      -542964.0      -540471.0      -538121.0      -535550.0      -532936.0
      -530505.0      -527907.0      -525263.0      -522628.0      -519981.0
      -517107.0      -514364.0      -511595.0      -508659.0      -505977.0
      -503068.0      -500008.0      -496957.0      -493956.0      -491007.0
      -487795.0      -484773.0      -481751.0      -478422.0      -475138.0
      -471811.0      -468612.0      -465389.0      -461958.0      -458577.0
      -455175.0      -451681.0      -448141.0      -444772.0      -441200.0
      -437526.0      -434079.0      -430308.0      -426573.0      -422971.0
      -419220.0      -415457.0      -411558.0      -407838.0      -404139.0
      -400111.0      -396241.0      -392311.0      -388133.0      -384335.0
      -380452.0      -376226.0      -372245.0      -368110.0      -363845.0
      -359831.0      -355665.0      -351399.0      -347245.0      -343029.0
      -338562.0      -334298.0      -330199.0      -325491.0      -321002.0
      -316974.0      -312464.0      -307828.0      -303431.0      -299042.0
      -294535.0      -289847.0      -285258.0      -280741.0      -276069.0
      -271513.0      -266907.0      -262166.0      -257582.0      -252965.0
      -248104.0      -243309.0      -238745.0      -233982.0      -228965.0
      -224225.0      -219616.0      -214691.0      -209829.0      -204996.0
      -200103.0      -195172.0      -190118.0      -185218.0      -180184.0
      -175264.0      -170387.0      -165237.0      -160253.0      -155183.0
      -150107.0      -145166.0      -140109.0      -135085.0      -129835.0
      -124530.0      -119674.0      -114625.0      -109226.0      -104063.0
      -98987.00      -93700.00      -88523.00      -83539.00      -78308.00
      -73035.00      -67842.00      -62550.00      -57331.00      -52054.00
      -46828.00      -41755.00      -36388.00      -31122.00      -26013.00
      -20538.00      -15202.00      -10060.00      -4774.000       571.0000
       5778.000       10878.00       16367.00       21835.00       26910.00
       32255.00       37680.00       42737.00       47956.00       53509.00
       58843.00       64061.00       69569.00       74854.00       79957.00
       85474.00       90722.00       95814.00       101355.0       106692.0
       111937.0       117337.0       122550.0       127862.0       133224.0
       138330.0       143687.0       149085.0       154205.0       159649.0
       164748.0       169667.0       175237.0       180414.0       185488.0
       190778.0       195894.0       201261.0       206245.0       211252.0
       216809.0       221808.0       226843.0       232173.0       237058.0
       242183.0       247320.0       252361.0       257583.0       262476.0
       267592.0       272655.0       277657.0       282950.0       287619.0
       292583.0       297672.0       302249.0       307399.0       312307.0
       317313.0       322470.0       327015.0       332072.0       336803.0
       341362.0       346559.0       351093.0       355633.0       360882.0
       365476.0       369999.0       375026.0       379468.0       384230.0
       389012.0       393173.0       398055.0       402790.0       406829.0
       411601.0       416443.0       420451.0       424984.0       429744.0
       433824.0       438416.0       442972.0       446890.0       451470.0
       455926.0       459723.0       464019.0       468732.0       472737.0
       476634.0       481388.0       485253.0       489125.0       493731.0
       497351.0       501418.0       505512.0       509260.0       513559.0
       517284.0       521087.0       525123.0       529132.0       532850.0
       536453.0       540589.0       543938.0       547608.0       551678.0
       554990.0       558611.0       562339.0       566015.0       569372.0
       572809.0       576597.0       579908.0       583243.0       586656.0
       590108.0       593315.0       596497.0       600048.0       602982.0
       606183.0       609705.0       612659.0       615696.0       618852.0
       622019.0       624869.0       627623.0       630836.0       633782.0
       636439.0       639405.0       642283.0       644978.0       647772.0
       650509.0       653143.0       655810.0       658443.0       661135.0
       663742.0       666098.0       668682.0       671125.0       673473.0
       675984.0       678244.0       680551.0       682888.0       685219.0
       687437.0       689614.0       691897.0       693869.0       695843.0
       697975.0       700097.0       702083.0       703832.0       705818.0
       707788.0       709443.0       711300.0       713145.0       714839.0
       716470.0       718006.0       719677.0       721251.0       722769.0
       724330.0       725749.0       727251.0       728709.0       729894.0
       731266.0       732624.0       733750.0       735152.0       736178.0
       737216.0       738585.0       739450.0       740581.0       741797.0
       742651.0       743582.0       744498.0       745416.0       746269.0
       747056.0       747761.0       748477.0       749233.0       749773.0
       750422.0       751063.0       751539.0       752070.0       752452.0
       752951.0       753379.0       753552.0       753845.0       754079.0
       754357.0       754458.0       754569.0       754807.0       754687.0
       754764.0       754776.0       754726.0       754658.0       754273.0
       754277.0       754082.0       753670.0       753531.0       753148.0
       752818.0       752472.0       752007.0       751611.0       750991.0
       750480.0       750052.0       749314.0       748568.0       747996.0
       747265.0       746412.0       745746.0       744931.0       743996.0
       743149.0       742110.0       741215.0       740290.0       738939.0
       737823.0       736854.0       735623.0       734314.0       733004.0
       731683.0       730403.0       728997.0       727455.0       726042.0
       724490.0       722920.0       721365.0       719648.0       718037.0
       716218.0       714390.0       712697.0       710712.0       708789.0
       706946.0       705004.0       703007.0       700971.0       698907.0
       696728.0       694711.0       692567.0       690165.0       688007.0
       685661.0       683302.0       681162.0       678630.0       676225.0
       673938.0       671293.0       668757.0       666253.0       663611.0
       660928.0       658341.0       655656.0       652705.0       650057.0
       647149.0       644143.0       641616.0       638506.0       635403.0
       632399.0       629110.0       626340.0       623114.0       619747.0
       616870.0       613411.0       610088.0       606856.0       603356.0
       600204.0       596670.0       593088.0       589602.0       585955.0
       582587.0       578817.0       575082.0       571628.0       567901.0
       564197.0       560416.0       556590.0       552863.0       548976.0
       544933.0       541182.0       537160.0       532856.0       529119.0
       525093.0       520832.0       516927.0       512847.0       508712.0
       504362.0       500061.0       496096.0       491491.0       487015.0
       483096.0       478479.0       473964.0       469836.0       465215.0
       460664.0       456098.0       451506.0       447053.0       442198.0
       437658.0       433123.0       428277.0       423781.0       418777.0
       414016.0       409439.0       404189.0       399587.0       394663.0
       389429.0       384749.0       379645.0       374797.0       369934.0
       364578.0       359631.0       354668.0       349283.0       344257.0
       339258.0       333766.0       328665.0       323536.0       318179.0
       312912.0       307709.0       302546.0       297022.0       291707.0
       286230.0       280810.0       275584.0       269851.0       264583.0
       259156.0       253490.0       248275.0       242599.0       236877.0
       231369.0       225694.0       220086.0       214525.0       208845.0
       203199.0       197656.0       191902.0       186247.0       180478.0
       174515.0       168873.0       162991.0       157176.0       151550.0
       145599.0       139835.0       134050.0       128100.0       122215.0
       116371.0       110507.0       104432.0       98559.00       92655.00
       86668.00       80867.00       74828.00       68734.00       62819.00
       57023.00       50986.00       44841.00       38950.00       32944.00
       26839.00       20693.00       14792.00       8775.000       2482.000
      -3326.000      -9522.000      -15660.00      -21513.00      -27834.00
      -33727.00      -39795.00      -46086.00      -52259.00      -58358.00
      -64226.00      -70527.00      -76569.00      -82467.00      -88778.00
      -94892.00      -100959.0      -107077.0      -113285.0      -119341.0
      -125273.0      -131641.0      -137630.0      -143381.0      -149788.0
      -155886.0      -161740.0      -168112.0      -174045.0      -179786.0
      -186107.0      -192222.0      -198046.0      -204073.0      -210359.0
      -216374.0      -222319.0      -228423.0      -234165.0      -240297.0
      -246446.0      -252049.0      -258000.0      -264165.0      -270233.0
      -276029.0      -281862.0      -287991.0      -293861.0      -299748.0
      -305507.0      -311300.0      -317382.0      -322964.0      -328859.0
      -334851.0      -340418.0      -346511.0      -352146.0      -357663.0
      -363724.0      -369281.0      -374984.0      -380531.0      -386096.0
      -392131.0      -397547.0      -403114.0      -408609.0      -414160.0
      -420065.0      -425245.0      -430860.0      -436467.0      -441704.0
      -447263.0      -452455.0      -458025.0      -463447.0      -468704.0
      -474279.0      -479260.0      -484623.0      -489980.0      -495092.0
      -500407.0      -505367.0      -510732.0      -515839.0      -520616.0
      -525964.0      -530978.0      -535838.0      -540954.0      -545783.0
      -550745.0      -555763.0      -560401.0      -565400.0      -570233.0
      -574801.0      -579723.0      -584389.0      -589164.0      -593914.0
      -598333.0      -603080.0      -607724.0      -612069.0      -616706.0
      -621308.0      -625554.0      -630029.0      -634412.0      -638623.0
      -643175.0      -647233.0      -651419.0      -655932.0      -659839.0
      -664038.0      -668201.0      -672100.0      -676185.0      -680105.0
      -684059.0      -687954.0      -691733.0      -695633.0      -699406.0
      -703146.0      -706944.0      -710555.0      -714291.0      -717741.0
      -721179.0      -724757.0      -728220.0      -731824.0      -734782.0
      -738302.0      -741929.0      -744869.0      -748203.0      -751317.0
      -754679.0      -757641.0      -760551.0      -763784.0      -766534.0
      -769736.0      -772480.0      -775236.0      -778293.0      -781022.0
      -783708.0      -786196.0      -789084.0      -791446.0      -793802.0
      -796598.0      -798901.0      -801358.0      -803635.0      -805881.0
      -808289.0      -810497.0      -812576.0      -814694.0      -816889.0
      -818721.0      -820845.0      -822920.0      -824404.0      -826448.0
      -828444.0      -829910.0      -831640.0      -833417.0      -834944.0
      -836478.0      -837974.0      -839359.0      -840789.0      -842151.0
      -843546.0      -844766.0      -845900.0      -847205.0      -848187.0
      -849259.0      -850412.0      -851229.0      -852187.0      -853023.0
      -853937.0      -854901.0      -855428.0      -856165.0      -856724.0
      -857179.0      -857862.0      -858292.0      -858670.0      -858904.0
      -859328.0      -859620.0      -859623.0      -860042.0      -860038.0
      -860032.0      -860226.0      -859865.0      -859854.0      -859722.0
      -859442.0      -859346.0      -858863.0      -858573.0      -858210.0
      -857721.0      -857210.0      -856613.0      -856050.0      -855288.0
      -854623.0      -853717.0      -852763.0      -852116.0      -851169.0
      -850069.0      -849184.0      -848140.0      -846922.0      -845882.0
      -844592.0      -843101.0      -841848.0      -840364.0      -839010.0
      -837606.0      -835757.0      -834403.0      -832742.0      -830931.0
      -829278.0      -827270.0      -825630.0      -823588.0      -821543.0
      -819693.0      -817447.0      -815468.0      -813298.0      -811064.0
      -808903.0      -806448.0      -804120.0      -801751.0      -799157.0
      -796735.0      -794231.0      -791427.0      -788779.0      -786274.0
      -783366.0      -780390.0      -777808.0      -774881.0      -771713.0
      -768800.0      -765745.0      -762670.0      -759439.0      -756183.0
      -753170.0      -749765.0      -746510.0      -743161.0      -739447.0
      -736230.0      -732714.0      -729058.0      -725486.0      -721800.0
      -718340.0      -714356.0      -710442.0      -706946.0      -703057.0
      -698871.0      -694943.0      -691140.0      -686781.0      -682797.0
      -678876.0      -674399.0      -670375.0      -666148.0      -661707.0
      -657452.0      -652909.0      -648486.0      -644181.0      -639605.0
      -634987.0      -630577.0      -625942.0      -621048.0      -616676.0
      -611831.0      -606689.0      -602402.0      -597394.0      -592394.0
      -587770.0      -582709.0      -577872.0      -572686.0      -567726.0
      -562665.0      -557345.0      -552590.0      -547236.0      -541876.0
      -536982.0      -531289.0      -525980.0      -521177.0      -515302.0
      -509811.0      -504742.0      -499075.0      -493554.0      -487970.0
      -482404.0      -476942.0      -471322.0      -465593.0      -459956.0
      -454350.0      -448397.0      -442802.0      -437174.0      -431039.0
      -425359.0      -419703.0      -413697.0      -407699.0      -401824.0
      -395902.0      -389910.0      -384047.0      -378012.0      -372009.0
      -365981.0      -359873.0      -353828.0      -347769.0      -341851.0
      -335552.0      -329228.0      -323265.0      -317074.0      -310715.0
      -304610.0      -298660.0      -292165.0      -285902.0      -279858.0
      -273242.0      -267180.0      -260889.0      -254302.0      -248149.0
      -241672.0      -235363.0      -228980.0      -222539.0      -216209.0
      -209834.0      -203502.0      -197003.0      -190650.0      -184116.0
      -177683.0      -171357.0      -164659.0      -158185.0      -151909.0
      -145476.0      -138812.0      -132401.0      -126041.0      -119329.0
      -112973.0      -106695.0      -100092.0      -93480.00      -86997.00
      -80450.00      -73813.00      -67461.00      -61129.00      -54624.00
      -48153.00      -41590.00      -35022.00      -28607.00      -22072.00
      -15526.00      -9015.000      -2398.000       3884.000       10066.00
       16619.00       23158.00       29509.00       36046.00       42612.00
       48945.00       55456.00       61838.00       67990.00       74578.00
       81024.00       87290.00       93751.00       99964.00       106354.0
       112696.0       118868.0       125251.0       131466.0       137760.0
       144077.0       150345.0       156642.0       162746.0       168803.0
       174888.0       181165.0       187331.0       193287.0       199603.0
       205899.0       211907.0       217812.0       223615.0       229627.0
       235665.0       241574.0       247542.0       253462.0       259412.0
       265523.0       271456.0       276957.0       282671.0       288802.0
       294490.0       300108.0       306027.0       311554.0       317088.0
       322897.0       328631.0       334155.0       339708.0       345326.0
       350875.0       356420.0       361720.0       367170.0       372565.0
       377760.0       383231.0       388658.0       393935.0       398993.0
       404445.0       409859.0       414480.0       419791.0       425182.0
       429795.0       435016.0       440318.0       445100.0       450003.0
       454969.0       459909.0       464633.0       469559.0       474569.0
       478898.0       483493.0       488428.0       492968.0       497538.0
       502097.0       506593.0       511350.0       515757.0       519976.0
       524491.0       528842.0       533043.0       537222.0       541586.0
       545775.0       549880.0       554100.0       557969.0       562079.0
       566044.0       569878.0       574061.0       577814.0       581578.0
       585458.0       589056.0       592651.0       596359.0       600035.0
       603508.0       607172.0       610836.0       614114.0       617486.0
       621046.0       624260.0       627347.0       630808.0       634068.0
       637085.0       640323.0       643433.0       646535.0       649476.0
       652220.0       655308.0       658142.0       660912.0       663798.0
       666434.0       669141.0       671743.0       674505.0       677002.0
       679173.0       681903.0       684397.0       686583.0       688880.0
       691085.0       693459.0       695647.0       697428.0       699635.0
       701935.0       703557.0       705560.0       707649.0       709343.0
       711430.0       713147.0       714658.0       716344.0       718039.0
       719851.0       721094.0       722650.0       724396.0       725285.0
