     0.02500000      -12345.00      -12345.00   1.959270e+09      -12345.00
   0.0005380000       1859.976      -546.0195      -12345.00      -12345.00
      -12345.00      -12345.00      -12345.00      -12345.00      -12345.00
      -12345.00      -12345.00      -12345.00      -12345.00      -12345.00
      -12345.00      -12345.00      -12345.00      -12345.00      -12345.00
      -12345.00      -12345.00      -12345.00      -12345.00      -12345.00
      -12345.00      -5.014200       119.7517       300.0000       7.000000
      -42.72450       173.0647      -12345.00       22.00000      -12345.00
      -12345.00      -12345.00      -12345.00      -12345.00      -12345.00
      -12345.00      -12345.00      -12345.00      -12345.00      -12345.00
       6691.384       292.9556       137.0698       60.17973      -12345.00
      -12345.00      -12345.00       5.000000       90.00000      -12345.00
      -12345.00      -12345.00      -12345.00      -12345.00      -12345.00
      -12345.00      -12345.00      -12345.00      -12345.00      -12345.00
      2016       318        11        12         5
        19         6    -12345    -12345     74400
    -12345    -12345    -12345    -12345    -12345
         1    -12345    -12345    -12345    -12345
    -12345    -12345    -12345    -12345    -12345
    -12345    -12345    -12345    -12345    -12345
    -12345    -12345    -12345    -12345    -12345
         1    -12345    -12345    -12345    -12345
KAPI    South Island, Ne
10      -12345  -12345  
-12345  -12345  -12345  
-12345  -12345  -12345  
-12345  -12345  -12345  
-12345  -12345  -12345  
-12345  -12345  BH1     
II      -12345  Nanometr
[...]
       162822.0       160633.0       158475.0       156012.0       153864.0
       151476.0       148991.0       146875.0       144282.0       141831.0
       139527.0       136908.0       134559.0       132159.0       129586.0
       127195.0       124752.0       122230.0       119785.0       117304.0
       114815.0       112151.0       109570.0       107055.0       104298.0
       101693.0       99036.00       96338.00       93774.00       91072.00
       88410.00       85841.00       83084.00       80375.00       77680.00
       74754.00       71955.00       69061.00       66168.00       63468.00
       60665.00       57944.00       55091.00       52206.00       49345.00
       46357.00       43458.00       40469.00       37544.00       34695.00
       31752.00       28862.00       26017.00       23119.00       20135.00
       17125.00       14107.00       11085.00       8060.000       5107.000
       2100.000      -943.0000      -3893.000      -6998.000      -10054.00
      -13046.00      -16194.00      -19369.00      -22552.00      -25536.00
      -28649.00      -31805.00      -34643.00      -37810.00      -41013.00
      -44131.00      -47422.00      -50564.00      -53740.00      -56836.00
      -59980.00      -63334.00      -66508.00      -69753.00      -73011.00
      -76087.00      -79427.00      -82696.00      -85872.00      -89218.00
      -92387.00      -95766.00      -99256.00      -102499.0      -105968.0
      -109412.0      -112727.0      -115871.0      -118964.0      -122582.0
      -125777.0      -129080.0      -132710.0      -135695.0      -139266.0
      -142706.0      -145767.0      -149268.0      -152525.0      -156039.0
      -159304.0      -162468.0      -165962.0      -169129.0      -172716.0
      -176080.0      -179236.0      -183000.0      -186132.0      -189368.0
      -193166.0      -196325.0      -199796.0      -203246.0      -206208.0
      -209628.0      -213091.0      -216578.0      -220004.0      -223354.0
      -226788.0      -229995.0      -233378.0      -236875.0      -240224.0
      -243643.0      -246880.0      -250250.0      -253710.0      -256994.0
      -260629.0      -264012.0      -267268.0      -270631.0      -273773.0
      -277105.0      -280572.0      -284079.0      -287178.0      -290278.0
      -293932.0      -297311.0      -300454.0      -303816.0      -307184.0
      -310659.0      -314047.0      -317090.0      -320339.0      -323773.0
      -327079.0      -330224.0      -333385.0      -336579.0      -339842.0
      -343445.0      -346837.0      -349825.0      -352980.0      -356446.0
      -359613.0      -362482.0      -365835.0      -369267.0      -372227.0
      -375299.0      -378651.0      -381728.0      -384696.0      -388030.0
      -391147.0      -394114.0      -397434.0      -400315.0      -403216.0
      -406377.0      -409205.0      -412148.0      -415162.0      -418218.0
      -421226.0      -424304.0      -427533.0      -430436.0      -432754.0
      -435545.0      -439708.0      -441883.0      -442951.0      -447860.0
      -451870.0      -452276.0      -454319.0      -459165.0      -463162.0
      -463873.0      -465984.0      -469947.0      -472744.0      -475482.0
      -477143.0      -480303.0      -484536.0      -485506.0      -487174.0
      -491890.0      -494129.0      -494046.0      -498110.0      -503116.0
      -503304.0      -503830.0      -508339.0      -512337.0      -513600.0
      -514262.0      -516818.0      -520833.0      -522924.0      -523945.0
      -526695.0      -529491.0      -530932.0      -532747.0      -535874.0
      -538807.0      -539859.0      -541239.0      -544603.0      -546708.0
      -547755.0      -549985.0      -552557.0      -554760.0      -556505.0
      -558171.0      -560399.0      -562725.0      -564577.0      -565754.0
      -567062.0      -569799.0      -571770.0      -572860.0      -574786.0
      -576143.0      -578068.0      -580130.0      -581363.0      -583211.0
      -584675.0      -586356.0      -588108.0      -589054.0      -590119.0
      -591507.0      -593575.0      -595113.0      -596150.0      -597543.0
      -598783.0      -600405.0      -601680.0      -602786.0      -604328.0
      -605222.0      -606245.0      -607688.0      -608887.0      -609977.0
      -610908.0      -612127.0      -613560.0      -614355.0      -615088.0
      -616215.0      -617077.0      -617957.0      -618753.0      -619759.0
      -620757.0      -621023.0      -621749.0      -622529.0      -623499.0
      -624535.0      -624836.0      -625749.0      -626393.0      -626635.0
      -627111.0      -627676.0      -628680.0      -628770.0      -629029.0
      -629990.0      -630125.0      -630386.0      -630781.0      -631488.0
      -631897.0      -631628.0      -632302.0      -632525.0      -632429.0
      -632851.0      -632937.0      -633110.0      -632968.0      -632987.0
      -633340.0      -633219.0      -633324.0      -633426.0      -633244.0
      -633077.0      -632756.0      -632938.0      -632947.0      -632099.0
      -631755.0      -631870.0      -631642.0      -631297.0      -630988.0
      -630685.0      -630367.0      -629794.0      -629313.0      -628973.0
      -628436.0      -627940.0      -627393.0      -626973.0      -626545.0
      -626024.0      -625515.0      -624601.0      -623979.0      -623582.0
      -622777.0      -621949.0      -621073.0      -620436.0      -619858.0
      -618844.0      -617915.0      -617080.0      -616188.0      -615313.0
      -614384.0      -613428.0      -612394.0      -611426.0      -610303.0
      -609106.0      -608096.0      -606679.0      -605398.0      -604482.0
      -603334.0      -602216.0      -600828.0      -599604.0      -598417.0
      -596792.0      -595493.0      -594100.0      -592694.0      -591152.0
      -589343.0      -588029.0      -586662.0      -585072.0      -583503.0
      -581863.0      -580175.0      -578405.0      -576706.0      -574968.0
      -573124.0      -571393.0      -569551.0      -567725.0      -565963.0
      -563856.0      -562004.0      -560251.0      -558248.0      -556410.0
      -554321.0      -552137.0      -550013.0      -547784.0      -545739.0
      -543790.0      -541921.0      -539806.0      -537386.0      -535155.0
      -532817.0      -530537.0      -528459.0      -526033.0      -523631.0
      -521439.0      -519078.0      -516603.0      -514124.0      -511647.0
      -509169.0      -506763.0      -504322.0      -501711.0      -499145.0
      -496650.0      -494134.0      -491550.0      -488831.0      -486202.0
      -483551.0      -480915.0      -478217.0      -475217.0      -472683.0
      -470043.0      -466822.0      -463926.0      -461374.0      -458696.0
      -455625.0      -452718.0      -449608.0      -446321.0      -443401.0
      -440385.0      -437528.0      -434368.0      -431317.0      -428453.0
      -425032.0      -421936.0      -418790.0      -415561.0      -412283.0
      -408646.0      -405736.0      -402702.0      -399128.0      -396029.0
      -392934.0      -389567.0      -386337.0      -382942.0      -379090.0
      -375952.0      -372767.0      -368829.0      -365848.0      -362607.0
      -358758.0      -355840.0      -352419.0      -348382.0      -344954.0
      -341537.0      -337946.0      -334195.0      -330544.0      -327300.0
      -324091.0      -320553.0      -316523.0      -312832.0      -309109.0
      -305111.0      -301814.0      -298162.0      -294180.0      -290759.0
      -287110.0      -283375.0      -279597.0      -275523.0      -272030.0
      -268346.0      -264124.0      -260417.0      -256567.0      -252814.0
      -249299.0      -245464.0      -241505.0      -237502.0      -233811.0
      -229616.0      -225248.0      -221763.0      -218070.0      -214254.0
      -210461.0      -206288.0      -202394.0      -198368.0      -194302.0
      -190696.0      -186777.0      -182719.0      -178964.0      -174990.0
      -170695.0      -166551.0      -162856.0      -159331.0      -155260.0
      -150769.0      -146816.0      -143194.0      -139024.0      -134993.0
      -131262.0      -127175.0      -123012.0      -118684.0      -114686.0
      -110753.0      -106703.0      -103044.0      -98840.00      -94754.00
      -90883.00      -86732.00      -82752.00      -78529.00      -74387.00
      -70358.00      -66296.00      -62354.00      -58454.00      -54387.00
      -50081.00      -45939.00      -41900.00      -37760.00      -33639.00
      -29803.00      -25830.00      -21744.00      -17726.00      -13432.00
      -9426.000      -5327.000      -1071.000       2760.000       6827.000
       11061.00       15196.00       19247.00       23187.00       27298.00
       31230.00       35163.00       39549.00       43617.00       47581.00
       51781.00       55621.00       59501.00       63529.00       67622.00
       71679.00       75599.00       79739.00       83766.00       87734.00
       91797.00       95672.00       99494.00       103465.0       107362.0
       111312.0       115587.0       119551.0       123384.0       127370.0
       131211.0       135154.0       139181.0       143157.0       147046.0
       150845.0       154748.0       158711.0       162532.0       166385.0
       170329.0       174241.0       178030.0       181815.0       185774.0
       189517.0       193225.0       197100.0       200901.0       204678.0
       208323.0       212063.0       215966.0       219738.0       223407.0
       227143.0       230885.0       234420.0       238056.0       241883.0
       245633.0       249296.0       252916.0       256574.0       260104.0
       263645.0       267261.0       270824.0       274446.0       277910.0
       281503.0       285249.0       288704.0       292197.0       295726.0
       299150.0       302709.0       306154.0       309623.0       313190.0
       316556.0       320057.0       323432.0       326763.0       330341.0
       333648.0       336980.0       340369.0       343539.0       346765.0
       350040.0       353275.0       356542.0       359815.0       363070.0
       366417.0       369495.0       372587.0       376086.0       379109.0
       381993.0       385168.0       388223.0       391446.0       394506.0
       397556.0       400817.0       403674.0       406718.0       409916.0
       412752.0       415764.0       418825.0       421720.0       424587.0
       427553.0       430598.0       433381.0       436198.0       439143.0
       441834.0       444487.0       447298.0       450092.0       452842.0
       455615.0       458362.0       461106.0       463714.0       466155.0
       468675.0       471194.0       473753.0       476441.0       479072.0
       481543.0       484134.0       486777.0       489064.0       491423.0
       493795.0       496068.0       498540.0       501048.0       503649.0
       505992.0       508265.0       510710.0       512829.0       515021.0
       517230.0       519405.0       521667.0       523682.0       526061.0
       528433.0       530448.0       532734.0       534756.0       536661.0
       538693.0       540534.0       542530.0       544560.0       546714.0
       548897.0       550735.0       552737.0       554592.0       556124.0
       557887.0       559688.0       561601.0       563609.0       565463.0
       567284.0       568898.0       570525.0       572375.0       573938.0
       575417.0       577058.0       578688.0       580512.0       582210.0
       583729.0       585318.0       586767.0       588224.0       589767.0
       591213.0       592527.0       593964.0       595589.0       597053.0
       598376.0       599724.0       600955.0       602081.0       603381.0
       604758.0       605961.0       607153.0       608485.0       609837.0
       611008.0       611898.0       612838.0       614029.0       615253.0
       616533.0       617670.0       618626.0       619684.0       620626.0
       621539.0       622525.0       623480.0       624615.0       625626.0
       626426.0       627336.0       628198.0       629051.0       629861.0
       630647.0       631536.0       632248.0       632940.0       633780.0
       634638.0       635386.0       635996.0       636538.0       637274.0
       638056.0       638474.0       639131.0       639851.0       640305.0
       640876.0       641363.0       641930.0       642528.0       642940.0
       643479.0       643874.0       644194.0       644745.0       645089.0
       645447.0       645852.0       646084.0       646477.0       646807.0
       647010.0       647274.0       647662.0       647924.0       647940.0
       648142.0       648392.0       648565.0       648682.0       648868.0
       649063.0       649151.0       649315.0       649222.0       649244.0
       649405.0       649346.0       649410.0       649324.0       649297.0
       649408.0       649334.0       649315.0       649250.0       649070.0
       648844.0       648653.0       648530.0       648353.0       648198.0
       648094.0       647858.0       647552.0       647255.0       646829.0
       646373.0       645960.0       645631.0       645323.0       644933.0
       644609.0       644152.0       643578.0       643126.0       642559.0
       641919.0       641414.0       640843.0       640272.0       639823.0
       639300.0       638702.0       638016.0       637326.0       636629.0
       635870.0       635142.0       634423.0       633757.0       633147.0
       632509.0       631675.0       630675.0       629773.0       628935.0
       627908.0       627061.0       626440.0       625629.0       624812.0
       623848.0       622821.0       621814.0       620638.0       619638.0
       618640.0       617583.0       616631.0       615493.0       614430.0
       613394.0       612182.0       610974.0       609665.0       608472.0
       607179.0       605853.0       604761.0       603442.0       602220.0
       600973.0       599439.0       598095.0       596619.0       595115.0
       593768.0       592271.0       590867.0       589381.0       587860.0
       586417.0       584891.0       583392.0       581755.0       580199.0
       578641.0       577051.0       575501.0       573652.0       571995.0
       570453.0       568761.0       567104.0       565366.0       563779.0
       562067.0       560120.0       558212.0       556332.0       554615.0
       552827.0       551000.0       549125.0       547245.0       545408.0
       543289.0       541346.0       539505.0       537464.0       535507.0
       533455.0       531422.0       529415.0       527329.0       525355.0
       523184.0       521027.0       519124.0       516997.0       514788.0
       512614.0       510331.0       508141.0       505954.0       503711.0
       501523.0       499276.0       497074.0       494916.0       492498.0
       489983.0       487616.0       485329.0       483078.0       480721.0
       478319.0       475970.0       473562.0       471098.0       468637.0
       466254.0       463812.0       461359.0       458868.0       456230.0
       453729.0       451193.0       448561.0       446114.0       443658.0
       441005.0       438346.0       435711.0       433055.0       430522.0
       427850.0       425018.0       422397.0       419704.0       416880.0
       414160.0       411359.0       408671.0       406102.0       403277.0
       400366.0       397501.0       394719.0       391971.0       389068.0
       386281.0       383540.0       380668.0       377759.0       374683.0
       371763.0       368931.0       365910.0       362875.0       359957.0
       357147.0       354097.0       351083.0       348082.0       344879.0
       341924.0       338910.0       335783.0       332727.0       329443.0
       326210.0       323116.0       319924.0       316879.0       313783.0
       310478.0       307395.0       304127.0       300788.0       297593.0
       294164.0       291077.0       287769.0       284352.0       281162.0
       277716.0       274484.0       270960.0       267492.0       264315.0
       260830.0       257395.0       254146.0       250791.0       247365.0
       243988.0       240464.0       236956.0       233492.0       230123.0
       226635.0       223096.0       219681.0       216206.0       212766.0
       209135.0       205590.0       202180.0       198636.0       195073.0
       191458.0       187818.0       184276.0       180648.0       177003.0
       173506.0       169825.0       166215.0       162618.0       158826.0
       155195.0       151502.0       147678.0       144005.0       140383.0
       136688.0       132897.0       129059.0       125363.0       121602.0
       117690.0       113923.0       110225.0       106453.0       102591.0
       98795.00       95005.00       91146.00       87355.00       83412.00
       79452.00       75718.00       71846.00       67894.00       64152.00
       60328.00       56414.00       52596.00       48696.00       44800.00
       40960.00       37004.00       33092.00       29267.00       25382.00
       21480.00       17643.00       13879.00       10009.00       5951.000
       1974.000      -1823.000      -5685.000      -9622.000      -13434.00
      -17170.00      -21088.00      -25069.00      -28909.00      -32827.00
      -36714.00      -40531.00      -44397.00      -48183.00      -52061.00
      -55929.00      -59708.00      -63647.00      -67493.00      -71311.00
      -75251.00      -79061.00      -82899.00      -86800.00      -90577.00
      -94316.00      -98134.00      -102023.0      -105840.0      -109642.0
      -113474.0      -117231.0      -121002.0      -124822.0      -128616.0
      -132378.0      -136200.0      -140021.0      -143772.0      -147476.0
      -151117.0      -154876.0      -158621.0      -162345.0      -166130.0
      -169792.0      -173568.0      -177292.0      -180924.0      -184654.0
      -188224.0      -191917.0      -195690.0      -199269.0      -202946.0
      -206655.0      -210250.0      -213852.0      -217390.0      -220973.0
      -224668.0      -228229.0      -231839.0      -235406.0      -238826.0
      -242387.0      -245829.0      -249279.0      -252902.0      -256334.0
      -259718.0      -263247.0      -266749.0      -270213.0      -273652.0
      -277013.0      -280463.0      -283844.0      -287176.0      -290653.0
      -293949.0      -297306.0      -300738.0      -304040.0      -307366.0
