     0.02500000      -12345.00      -12345.00   2.007350e+09      -12345.00
   0.0005380000       1859.976      -546.0195      -12345.00      -12345.00
      -12345.00      -12345.00      -12345.00      -12345.00      -12345.00
      -12345.00      -12345.00      -12345.00      -12345.00      -12345.00
      -12345.00      -12345.00      -12345.00      -12345.00      -12345.00
      -12345.00      -12345.00      -12345.00      -12345.00      -12345.00
      -12345.00      -5.014200       119.7517       300.0000       7.000000
      -42.72450       173.0647      -12345.00       22.00000      -12345.00
      -12345.00      -12345.00      -12345.00      -12345.00      -12345.00
      -12345.00      -12345.00      -12345.00      -12345.00      -12345.00
       6691.384       292.9556       137.0698       60.17973      -12345.00
      -12345.00      -12345.00       0.000000       0.000000      -12345.00
      -12345.00      -12345.00      -12345.00      -12345.00      -12345.00
      -12345.00      -12345.00      -12345.00      -12345.00      -12345.00
      2016       318        11        12         5
        19         6    -12345    -12345     74400
    -12345    -12345    -12345    -12345    -12345
         1    -12345    -12345    -12345    -12345
    -12345    -12345    -12345    -12345    -12345
    -12345    -12345    -12345    -12345    -12345
    -12345    -12345    -12345    -12345    -12345
         1    -12345    -12345    -12345    -12345
KAPI    South Island, Ne
10      -12345  -12345  
-12345  -12345  -12345  
-12345  -12345  -12345  
-12345  -12345  -12345  
-12345  -12345  -12345  
-12345  -12345  BHZ     
II      -12345  Nanometr
[...]
      -545981.0      -547273.0      -548927.0      -550162.0      -551328.0
      -552832.0      -553954.0      -555135.0      -556432.0      -557278.0
      -558433.0      -559733.0      -560415.0      -561380.0      -562581.0
      -563249.0      -564102.0      -565021.0      -565762.0      -566546.0
      -567115.0      -567720.0      -568337.0      -568957.0      -569449.0
      -569930.0      -570606.0      -570773.0      -571036.0      -571625.0
      -571779.0      -572040.0      -572288.0      -572432.0      -572578.0
      -572405.0      -572523.0      -572582.0      -572429.0      -572429.0
      -572221.0      -572097.0      -571874.0      -571520.0      -571265.0
      -570818.0      -570426.0      -570054.0      -569514.0      -569000.0
      -568503.0      -567941.0      -567198.0      -566528.0      -565850.0
      -564839.0      -564126.0      -563428.0      -562395.0      -561568.0
      -560499.0      -559382.0      -558575.0      -557388.0      -556158.0
      -555135.0      -553809.0      -552557.0      -551343.0      -549798.0
      -548512.0      -547195.0      -545496.0      -544053.0      -542656.0
      -541002.0      -539279.0      -537651.0      -535968.0      -534080.0
      -532246.0      -530470.0      -528603.0      -526664.0      -524749.0
      -522716.0      -520675.0      -518705.0      -516531.0      -514269.0
      -512088.0      -509952.0      -507586.0      -505184.0      -502928.0
      -500501.0      -498132.0      -495709.0      -493172.0      -490692.0
      -488081.0      -485521.0      -482795.0      -479952.0      -477344.0
      -474622.0      -471800.0      -468946.0      -466150.0      -463395.0
      -460319.0      -457329.0      -454529.0      -451458.0      -448311.0
      -445208.0      -442021.0      -438903.0      -435769.0      -432506.0
      -429290.0      -425966.0      -422613.0      -419313.0      -415867.0
      -412509.0      -409061.0      -405510.0      -402026.0      -398330.0
      -394771.0      -391263.0      -387462.0      -383789.0      -380160.0
      -376409.0      -372641.0      -368846.0      -365020.0      -361057.0
      -357243.0      -353393.0      -349283.0      -345437.0      -341543.0
      -337379.0      -333351.0      -329355.0      -325220.0      -320993.0
      -316882.0      -312804.0      -308547.0      -304306.0      -300115.0
      -295813.0      -291508.0      -287195.0      -282804.0      -278472.0
      -274114.0      -269631.0      -265214.0      -260854.0      -256367.0
      -251766.0      -247242.0      -242852.0      -238200.0      -233465.0
      -228992.0      -224360.0      -219650.0      -215092.0      -210386.0
      -205620.0      -200936.0      -196130.0      -191430.0      -186786.0
      -181777.0      -176837.0      -172227.0      -167358.0      -162346.0
      -157542.0      -152763.0      -147891.0      -142861.0      -137925.0
      -133092.0      -127984.0      -122889.0      -118175.0      -113291.0
      -107958.0      -102890.0      -98177.00      -93007.00      -87748.00
      -82952.00      -77823.00      -72616.00      -67615.00      -62391.00
      -57300.00      -52241.00      -47046.00      -41974.00      -36902.00
      -31587.00      -26380.00      -21372.00      -16237.00      -11046.00
      -5638.000      -455.0000       4467.000       9799.000       15025.00
       20124.00       25375.00       30572.00       35836.00       41081.00
       46203.00       51420.00       56740.00       61859.00       67051.00
       72382.00       77578.00       82704.00       87855.00       93181.00
       98403.00       103621.0       108847.0       113954.0       119250.0
       124476.0       129601.0       134803.0       140073.0       145327.0
       150412.0       155558.0       160813.0       165975.0       171100.0
       176282.0       181480.0       186585.0       191608.0       196776.0
       201982.0       207054.0       212123.0       217202.0       222334.0
       227467.0       232445.0       237498.0       242638.0       247608.0
       252541.0       257577.0       262626.0       267565.0       272585.0
       277613.0       282420.0       287307.0       292300.0       297242.0
       302070.0       306909.0       311835.0       316677.0       321468.0
       326231.0       331108.0       335919.0       340582.0       345406.0
       350205.0       354876.0       359527.0       364302.0       369036.0
       373616.0       378290.0       382903.0       387503.0       392141.0
       396663.0       401259.0       405864.0       410367.0       414896.0
       419325.0       423732.0       428231.0       432555.0       436977.0
       441466.0       445643.0       450110.0       454507.0       458569.0
       462980.0       467170.0       471312.0       475657.0       479719.0
       483760.0       487917.0       492186.0       496171.0       500059.0
       504214.0       508133.0       512023.0       516083.0       520052.0
       523923.0       527726.0       531479.0       535310.0       539225.0
       542954.0       546657.0       550402.0       554035.0       557679.0
       561311.0       564975.0       568559.0       571985.0       575444.0
       578972.0       582391.0       585759.0       589321.0       592705.0
       595916.0       599220.0       602400.0       605606.0       608769.0
       611802.0       615079.0       618302.0       621287.0       624345.0
       627332.0       630245.0       633221.0       636163.0       639018.0
       641894.0       644685.0       647381.0       650147.0       652819.0
       655494.0       658181.0       660732.0       663376.0       666025.0
       668412.0       670818.0       673263.0       675615.0       678011.0
       680273.0       682561.0       684838.0       686957.0       689219.0
       691372.0       693401.0       695570.0       697555.0       699433.0
       701357.0       703226.0       705209.0       706924.0       708650.0
       710588.0       712179.0       713915.0       715634.0       717124.0
       718654.0       720065.0       721612.0       723058.0       724350.0
       725780.0       727186.0       728526.0       729715.0       730880.0
       732079.0       733244.0       734380.0       735330.0       736279.0
       737402.0       738306.0       738976.0       740014.0       740957.0
       741555.0       742342.0       743023.0       743734.0       744339.0
       744753.0       745443.0       745810.0       746135.0       746795.0
       746986.0       747185.0       747656.0       747736.0       747939.0
       748207.0       748113.0       748246.0       748299.0       748130.0
       748159.0       747968.0       747767.0       747698.0       747411.0
       747173.0       746896.0       746569.0       746048.0       745553.0
       745073.0       744260.0       744026.0       743263.0       742419.0
       742283.0       741090.0       740474.0       739878.0       738406.0
       737956.0       736856.0       735579.0       735105.0       733580.0
       732502.0       731719.0       730115.0       729137.0       727803.0
       726347.0       725166.0       723485.0       722096.0       720576.0
       718971.0       717401.0       715724.0       714153.0       712328.0
       710620.0       708867.0       706984.0       705125.0       703063.0
       701108.0       699031.0       696921.0       694840.0       692649.0
       690661.0       688443.0       686152.0       683911.0       681467.0
       679148.0       676734.0       674138.0       671589.0       669057.0
       666541.0       663901.0       661258.0       658661.0       655824.0
       652990.0       650327.0       647366.0       644348.0       641557.0
       638471.0       635475.0       632424.0       629215.0       626359.0
       623027.0       619694.0       616660.0       613214.0       609974.0
       606620.0       603017.0       599685.0       596168.0       592575.0
       589049.0       585482.0       581945.0       578193.0       574376.0
       570742.0       566991.0       562965.0       559100.0       555416.0
       551386.0       547362.0       543492.0       539427.0       535375.0
       531262.0       527112.0       523026.0       518870.0       514596.0
       510313.0       506113.0       501810.0       497472.0       493069.0
       488640.0       484261.0       479707.0       475213.0       470827.0
       466204.0       461549.0       456964.0       452385.0       447683.0
       442755.0       438108.0       433457.0       428463.0       423543.0
       418746.0       413963.0       408978.0       403974.0       399037.0
       393930.0       388811.0       383721.0       378626.0       373561.0
       368387.0       363096.0       357972.0       352667.0       347278.0
       342143.0       336725.0       331372.0       326049.0       320474.0
       315105.0       309610.0       304052.0       298644.0       293031.0
       287450.0       281971.0       276299.0       270605.0       264996.0
       259302.0       253566.0       247782.0       241971.0       236321.0
       230539.0       224531.0       218742.0       212981.0       207018.0
       201159.0       195250.0       189216.0       183246.0       177246.0
       171213.0       165103.0       159032.0       153060.0       147002.0
       140816.0       134618.0       128620.0       122494.0       116126.0
       109909.0       103694.0       97467.00       91259.00       84929.00
       78689.00       72378.00       66000.00       59793.00       53485.00
       47058.00       40673.00       34245.00       27806.00       21512.00
       15090.00       8537.000       2200.000      -4240.000      -10788.00
      -17166.00      -23678.00      -30224.00      -36651.00      -43237.00
      -49731.00      -56204.00      -62888.00      -69389.00      -75893.00
      -82524.00      -89092.00      -95667.00      -102239.0      -108835.0
      -115426.0      -122014.0      -128626.0      -135225.0      -141780.0
      -148392.0      -155069.0      -161608.0      -168275.0      -175068.0
      -181602.0      -188208.0      -194882.0      -201439.0      -208133.0
      -214826.0      -221386.0      -228055.0      -234725.0      -241227.0
      -247921.0      -254598.0      -261122.0      -267771.0      -274354.0
      -281016.0      -287644.0      -294135.0      -300669.0      -307204.0
      -313905.0      -320352.0      -326853.0      -333533.0      -339939.0
      -346558.0      -352951.0      -359349.0      -366104.0      -372464.0
      -378854.0      -385393.0      -391731.0      -398186.0      -404633.0
      -411007.0      -417463.0      -423750.0      -430038.0      -436379.0
      -442647.0      -448985.0      -455217.0      -461474.0      -467790.0
      -473972.0      -480142.0      -486374.0      -492562.0      -498594.0
      -504631.0      -510792.0      -516855.0      -522702.0      -528733.0
      -534881.0      -540776.0      -546710.0      -552702.0      -558554.0
      -564393.0      -570247.0      -576050.0      -581814.0      -587459.0
      -593249.0      -599059.0      -604562.0      -610304.0      -616042.0
      -621483.0      -626996.0      -632539.0      -638016.0      -643311.0
      -648785.0      -654373.0      -659593.0      -664923.0      -670290.0
      -675479.0      -680754.0      -685828.0      -690936.0      -696126.0
      -701096.0      -706144.0      -711154.0      -716065.0      -721022.0
      -725918.0      -730661.0      -735502.0      -740311.0      -744887.0
      -749671.0      -754258.0      -758722.0      -763397.0      -767885.0
      -772357.0      -776712.0      -781087.0      -785507.0      -789757.0
      -794081.0      -798114.0      -802173.0      -806548.0      -810534.0
      -814459.0      -818503.0      -822423.0      -826345.0      -830017.0
      -833735.0      -837643.0      -841225.0      -844761.0      -848499.0
      -852037.0      -855497.0      -858917.0      -862194.0      -865680.0
      -868860.0      -871820.0      -875170.0      -878280.0      -881278.0
      -884295.0      -887206.0      -890202.0      -892979.0      -895719.0
      -898501.0      -901240.0      -903830.0      -906300.0      -908863.0
      -911248.0      -913672.0      -916143.0      -918396.0      -920617.0
      -922832.0      -924966.0      -926924.0      -928972.0      -930942.0
      -932695.0      -934535.0      -936324.0      -938126.0      -939702.0
      -941192.0      -942773.0      -944249.0      -945702.0      -946992.0
      -948330.0      -949542.0      -950618.0      -951712.0      -952691.0
      -953792.0      -954646.0      -955461.0      -956466.0      -957137.0
      -957787.0      -958466.0      -958979.0      -959361.0      -959680.0
      -960120.0      -960343.0      -960552.0      -960922.0      -960913.0
      -960887.0      -961014.0      -960836.0      -960633.0      -960551.0
      -960192.0      -959726.0      -959372.0      -958904.0      -958276.0
      -957690.0      -957094.0      -956287.0      -955509.0      -954746.0
      -953754.0      -952725.0      -951742.0      -950558.0      -949261.0
      -948046.0      -946751.0      -945365.0      -943879.0      -942360.0
      -940794.0      -939155.0      -937363.0      -935503.0      -933807.0
      -931788.0      -929754.0      -927780.0      -925598.0      -923553.0
      -921250.0      -918996.0      -916720.0      -914187.0      -911842.0
      -909274.0      -906619.0      -904029.0      -901261.0      -898363.0
      -895458.0      -892683.0      -889728.0      -886666.0      -883638.0
      -880445.0      -877284.0      -873946.0      -870541.0      -867339.0
      -863767.0      -860094.0      -856560.0      -852950.0      -849286.0
      -845468.0      -841750.0      -837930.0      -833995.0      -830137.0
      -826026.0      -821838.0      -817719.0      -813443.0      -809158.0
      -804914.0      -800436.0      -796129.0      -791749.0      -787071.0
      -782611.0      -777884.0      -773153.0      -768513.0      -763548.0
      -758829.0      -754022.0      -748848.0      -743885.0      -738946.0
      -733854.0      -728776.0      -723520.0      -718264.0      -713064.0
      -707655.0      -702280.0      -696837.0      -691345.0      -685915.0
      -680214.0      -674589.0      -669121.0      -663451.0      -657610.0
      -651729.0      -645934.0      -640113.0      -634106.0      -628174.0
      -622200.0      -615970.0      -610016.0      -603780.0      -597454.0
      -591473.0      -585060.0      -578801.0      -572432.0      -565989.0
      -559671.0      -553033.0      -546559.0      -540027.0      -533479.0
      -526725.0      -520053.0      -513564.0      -506742.0      -500127.0
      -493223.0      -486299.0      -479611.0      -472654.0      -465707.0
      -458674.0      -451796.0      -444701.0      -437571.0      -430679.0
      -423460.0      -416342.0      -409191.0      -401984.0      -394715.0
      -387342.0      -380154.0      -372826.0      -365404.0      -357942.0
      -350679.0      -343331.0      -335653.0      -328293.0      -320824.0
      -313169.0      -305661.0      -298035.0      -290387.0      -282844.0
      -275257.0      -267557.0      -259842.0      -252120.0      -244452.0
      -236705.0      -228953.0      -221231.0      -213391.0      -205660.0
      -197853.0      -190027.0      -182214.0      -174302.0      -166555.0
      -158662.0      -150728.0      -142903.0      -134950.0      -127076.0
      -119197.0      -111238.0      -103380.0      -95417.00      -87382.00
      -79569.00      -71596.00      -63584.00      -55738.00      -47739.00
      -39778.00      -31797.00      -23858.00      -15982.00      -7961.000
      -7.000000       7943.000       15969.00       23866.00       31789.00
       39794.00       47762.00       55675.00       63541.00       71497.00
       79464.00       87361.00       95129.00       103075.0       111170.0
       118922.0       126771.0       134706.0       142479.0       150381.0
       158270.0       166008.0       173758.0       181535.0       189335.0
       197171.0       204823.0       212555.0       220326.0       227919.0
       235607.0       243244.0       250921.0       258523.0       266085.0
       273732.0       281192.0       288736.0       296319.0       303746.0
       311269.0       318777.0       326108.0       333570.0       340999.0
       348304.0       355688.0       362997.0       370227.0       377470.0
       384784.0       391993.0       399154.0       406377.0       413480.0
       420614.0       427686.0       434601.0       441663.0       448810.0
       455811.0       462512.0       469406.0       476473.0       483049.0
       489860.0       496832.0       503447.0       510064.0       516672.0
       523432.0       530054.0       536376.0       542969.0       549610.0
       555900.0       562276.0       568784.0       574983.0       581234.0
       587580.0       593717.0       599972.0       606160.0       612194.0
       618310.0       624198.0       630032.0       636030.0       641875.0
       647629.0       653468.0       659298.0       664887.0       670598.0
       676232.0       681376.0       687057.0       692682.0       697896.0
       703381.0       708603.0       713833.0       719025.0       724172.0
       729373.0       734336.0       739348.0       744316.0       749233.0
       754181.0       758943.0       763491.0       768394.0       773206.0
       777401.0       781916.0       786641.0       791017.0       795326.0
       799695.0       803950.0       808202.0       812309.0       816247.0
       820477.0       824421.0       828253.0       832330.0       835932.0
       839689.0       843547.0       847074.0       850739.0       854220.0
       857660.0       861169.0       864479.0       867733.0       870980.0
       874209.0       877337.0       880403.0       883395.0       886374.0
       889295.0       892013.0       894836.0       897699.0       900325.0
       902810.0       905401.0       907911.0       910214.0       912690.0
       914914.0       917037.0       919317.0       921321.0       923367.0
       925390.0       927323.0       929182.0       930935.0       932705.0
       934374.0       936024.0       937441.0       938874.0       940360.0
       941603.0       942983.0       944235.0       945313.0       946480.0
