     0.02500000      -12345.00      -12345.00   2.507040e+09      -12345.00
   0.0005380000       1859.976      -566.0195      -12345.00      -12345.00
      -12345.00      -12345.00      -12345.00      -12345.00      -12345.00
      -12345.00      -12345.00      -12345.00      -12345.00      -12345.00
      -12345.00      -12345.00      -12345.00      -12345.00      -12345.00
      -12345.00      -12345.00      -12345.00      -12345.00      -12345.00
      -12345.00      -27.12670      -109.3344       110.0000       0.000000
      -42.72450       173.0647      -12345.00       22.00000      -12345.00
      -12345.00      -12345.00      -12345.00      -12345.00      -12345.00
      -12345.00      -12345.00      -12345.00      -12345.00      -12345.00
       7050.492       103.2424       233.5941       63.40941      -12345.00
      -12345.00      -12345.00       0.000000       0.000000      -12345.00
      -12345.00      -12345.00      -12345.00      -12345.00      -12345.00
      -12345.00      -12345.00      -12345.00      -12345.00      -12345.00
      2016       318        11        12        25
        19         6    -12345    -12345     74400
    -12345    -12345    -12345    -12345    -12345
         1    -12345    -12345    -12345    -12345
    -12345    -12345    -12345    -12345    -12345
    -12345    -12345    -12345    -12345    -12345
    -12345    -12345    -12345    -12345    -12345
         1    -12345    -12345    -12345    -12345
RPN     South Island, Ne
10      -12345  -12345  
-12345  -12345  -12345  
-12345  -12345  -12345  
-12345  -12345  -12345  
-12345  -12345  -12345  
-12345  -12345  BHZ     
II      -12345  Streckei
[...]
       362314.0       360342.0       358063.0       356162.0       354242.0
       352194.0       350361.0       348521.0       346242.0       344068.0
       342219.0       339923.0       337685.0       335816.0       333711.0
       331651.0       329624.0       327358.0       325147.0       322897.0
       320636.0       318586.0       316389.0       314183.0       312113.0
       309902.0       307581.0       305203.0       302858.0       300376.0
       298016.0       295782.0       293347.0       291013.0       288523.0
       286049.0       283673.0       281197.0       278809.0       276175.0
       273567.0       271125.0       268560.0       266016.0       263483.0
       261008.0       258546.0       255969.0       253440.0       251086.0
       248737.0       246267.0       243932.0       241665.0       239148.0
       236663.0       234154.0       231507.0       229082.0       226474.0
       223759.0       221258.0       218735.0       216251.0       213659.0
       211217.0       208719.0       206061.0       203637.0       201001.0
       198530.0       195928.0       192920.0       190494.0       187864.0
       184861.0       182454.0       179941.0       177164.0       174678.0
       172147.0       169256.0       166422.0       163797.0       160818.0
       158055.0       155657.0       152906.0       150241.0       147685.0
       144861.0       142077.0       139496.0       136836.0       134025.0
       131186.0       128512.0       126034.0       123285.0       120552.0
       118236.0       115809.0       113269.0       110785.0       107998.0
       105136.0       102615.0       100014.0       97211.00       94590.00
       92028.00       89356.00       86760.00       84296.00       81694.00
       79014.00       76563.00       73913.00       70951.00       68312.00
       65591.00       62675.00       60122.00       57540.00       54815.00
       52107.00       49266.00       46532.00       43997.00       41275.00
       38469.00       35802.00       32872.00       29911.00       27300.00
       24514.00       21633.00       18956.00       16275.00       13543.00
       10752.00       7901.000       5073.000       2345.000      -503.0000
      -3393.000      -6007.000      -8757.000      -11877.00      -14756.00
      -17534.00      -20624.00      -23617.00      -26515.00      -29292.00
      -32088.00      -35076.00      -37915.00      -40737.00      -43486.00
      -46393.00      -49525.00      -52344.00      -55260.00      -58327.00
      -61227.00      -64156.00      -67264.00      -70405.00      -73269.00
      -76373.00      -79697.00      -82846.00      -85991.00      -88850.00
      -91827.00      -95009.00      -98014.00      -101114.0      -104307.0
      -107583.0      -110783.0      -113931.0      -117016.0      -120041.0
      -123234.0      -126308.0      -129406.0      -132622.0      -135854.0
      -139081.0      -142128.0      -145293.0      -148565.0      -151685.0
      -154820.0      -157938.0      -160934.0      -163838.0      -166723.0
      -169829.0      -173026.0      -176128.0      -179223.0      -182231.0
      -185315.0      -188364.0      -191222.0      -194141.0      -196858.0
      -199651.0      -202667.0      -205313.0      -208005.0      -210987.0
      -213942.0      -216669.0      -219248.0      -221938.0      -224469.0
      -226993.0      -229680.0      -232306.0      -234907.0      -237437.0
      -240001.0      -242611.0      -245252.0      -247890.0      -250422.0
      -253125.0      -255687.0      -258153.0      -260810.0      -263205.0
      -265779.0      -268520.0      -270980.0      -273637.0      -276348.0
      -278798.0      -281459.0      -284136.0      -286629.0      -289490.0
      -292166.0      -294548.0      -297336.0      -300151.0      -302883.0
      -305634.0      -308428.0      -311154.0      -313866.0      -316955.0
      -319704.0      -322204.0      -324875.0      -327513.0      -330339.0
      -332990.0      -335584.0      -338362.0      -341029.0      -343635.0
      -346256.0      -349010.0      -351607.0      -354032.0      -356692.0
      -359244.0      -361860.0      -364502.0      -366866.0      -369580.0
      -372088.0      -374386.0      -377246.0      -379780.0      -381974.0
      -384546.0      -387104.0      -389335.0      -391682.0      -394167.0
      -396382.0      -398704.0      -401133.0      -403293.0      -405692.0
      -408232.0      -410476.0      -412909.0      -415267.0      -417324.0
      -419574.0      -421828.0      -423956.0      -426082.0      -428282.0
      -430554.0      -432819.0      -434993.0      -437099.0      -439315.0
      -441441.0      -443532.0      -445806.0      -447988.0      -450116.0
      -452140.0      -453990.0      -456007.0      -458142.0      -460264.0
      -462266.0      -464261.0      -466353.0      -468144.0      -469950.0
      -471822.0      -473507.0      -475351.0      -477049.0      -478657.0
      -480342.0      -481843.0      -483541.0      -485217.0      -486608.0
      -488143.0      -489639.0      -491036.0      -492580.0      -494018.0
      -495339.0      -496631.0      -497859.0      -499039.0      -500165.0
      -501340.0      -502428.0      -503489.0      -504545.0      -505501.0
      -506439.0      -507341.0      -508315.0      -509246.0      -510101.0
      -510929.0      -511747.0      -512657.0      -513492.0      -514168.0
      -514775.0      -515480.0      -516175.0      -516798.0      -517552.0
      -518255.0      -518757.0      -519351.0      -519990.0      -520394.0
      -520990.0      -521698.0      -521945.0      -522290.0      -522846.0
      -522967.0      -523278.0      -523937.0      -524166.0      -524442.0
      -524789.0      -525068.0      -525685.0      -525813.0      -525773.0
      -526150.0      -526250.0      -526467.0      -526561.0      -526383.0
      -526713.0      -526840.0      -526824.0      -527054.0      -526966.0
      -526935.0      -526801.0      -526511.0      -526411.0      -526139.0
      -525908.0      -525534.0      -525008.0      -524679.0      -524084.0
      -523420.0      -523109.0      -522716.0      -522164.0      -521745.0
      -521159.0      -520533.0      -520152.0      -519356.0      -518285.0
      -517460.0      -516623.0      -515879.0      -515024.0      -514039.0
      -513209.0      -512335.0      -511399.0      -510255.0      -509202.0
      -508356.0      -507280.0      -506198.0      -505056.0      -503569.0
      -502306.0      -501230.0      -499773.0      -498228.0      -496720.0
      -495180.0      -493664.0      -492294.0      -490929.0      -489215.0
      -487451.0      -485813.0      -484227.0      -482570.0      -480659.0
      -478737.0      -476813.0      -474867.0      -473088.0      -471358.0
      -469516.0      -467527.0      -465637.0      -463846.0      -461743.0
      -459593.0      -457533.0      -455379.0      -453453.0      -451321.0
      -449012.0      -446980.0      -444776.0      -442612.0      -440417.0
      -437926.0      -435648.0      -433458.0      -431105.0      -428739.0
      -426246.0      -423747.0      -421391.0      -418876.0      -416254.0
      -413878.0      -411471.0      -408854.0      -406240.0      -403450.0
      -400730.0      -398121.0      -395142.0      -392182.0      -389589.0
      -386934.0      -383946.0      -380846.0      -377801.0      -374698.0
      -371600.0      -368480.0      -365273.0      -362138.0      -358932.0
      -355879.0      -352784.0      -349384.0      -346280.0      -342749.0
      -339169.0      -336242.0      -332598.0      -329090.0      -326013.0
      -322292.0      -318881.0      -315591.0      -311792.0      -307890.0
      -304236.0      -300742.0      -296821.0      -292871.0      -289100.0
      -285207.0      -281464.0      -277793.0      -274162.0      -270131.0
      -265964.0      -262365.0      -258160.0      -253782.0      -250011.0
      -245819.0      -241571.0      -237390.0      -233096.0      -228892.0
      -224490.0      -220164.0      -215854.0      -211498.0      -207406.0
      -203310.0      -198850.0      -194401.0      -190333.0      -185940.0
      -181318.0      -177086.0      -172661.0      -168192.0      -164299.0
      -160017.0      -155264.0      -150915.0      -146478.0      -141813.0
      -137367.0      -133056.0      -128687.0      -124341.0      -119948.0
      -115384.0      -110761.0      -106018.0      -101528.0      -96949.00
      -91910.00      -87267.00      -82787.00      -78155.00      -73489.00
      -68764.00      -64173.00      -59373.00      -54586.00      -49988.00
      -45004.00      -40065.00      -35452.00      -30590.00      -25842.00
      -21367.00      -16739.00      -11812.00      -6747.000      -2068.000
       2673.000       7556.000       12300.00       17378.00       22509.00
       27312.00       31916.00       36775.00       41732.00       46345.00
       51241.00       56413.00       61335.00       66402.00       71314.00
       75729.00       80621.00       85848.00       90624.00       95362.00
       100570.0       105577.0       110417.0       116002.0       121116.0
       125727.0       130993.0       136071.0       140819.0       145834.0
       150948.0       155644.0       160533.0       166031.0       171034.0
       176032.0       181649.0       186748.0       191704.0       197278.0
       202448.0       207092.0       211986.0       217106.0       221933.0
       226666.0       231888.0       236999.0       241753.0       246593.0
       251649.0       256546.0       261189.0       266125.0       270933.0
       275549.0       280319.0       285343.0       290384.0       294965.0
       299986.0       304938.0       309404.0       314483.0       319220.0
       323663.0       328720.0       333413.0       337831.0       342762.0
       347444.0       351907.0       356708.0       361375.0       366101.0
       370740.0       375189.0       379850.0       384573.0       389365.0
       394004.0       398610.0       403322.0       408106.0       412967.0
       417545.0       422134.0       426751.0       431055.0       435443.0
       440112.0       444573.0       448903.0       453540.0       458003.0
       462232.0       466731.0       471142.0       475326.0       479652.0
       484011.0       488479.0       492861.0       497068.0       501584.0
       505958.0       510306.0       514708.0       518789.0       523134.0
       527426.0       531660.0       536157.0       540351.0       544490.0
       548907.0       553351.0       557589.0       561791.0       566320.0
       570520.0       574501.0       579039.0       583194.0       587311.0
       591916.0       595877.0       599913.0       604317.0       608206.0
       612227.0       616403.0       620276.0       624450.0       628943.0
       633058.0       637092.0       641482.0       645384.0       649284.0
       653614.0       657484.0       661349.0       665375.0       669402.0
       673486.0       677585.0       681715.0       685661.0       689639.0
       693643.0       697544.0       701347.0       705007.0       708771.0
       712763.0       716541.0       720106.0       723932.0       727575.0
       731000.0       734775.0       738487.0       741990.0       745653.0
       749170.0       752559.0       756012.0       759136.0       762352.0
       765832.0       768918.0       771986.0       775195.0       778298.0
       781293.0       784302.0       787431.0       790325.0       793340.0
       796373.0       799129.0       801990.0       804702.0       807478.0
       810403.0       813097.0       815728.0       818350.0       821121.0
       823922.0       826479.0       829154.0       831733.0       834088.0
       836499.0       838807.0       841224.0       843490.0       845687.0
       848217.0       850411.0       852578.0       854948.0       857053.0
       859394.0       861733.0       863654.0       865680.0       867840.0
       869870.0       871681.0       873594.0       875512.0       877103.0
       878860.0       880646.0       882297.0       884052.0       885697.0
       887365.0       889196.0       890820.0       892326.0       893965.0
       895366.0       896684.0       898269.0       899647.0       900866.0
       902245.0       903461.0       904758.0       906202.0       907601.0
       909245.0       910460.0       911268.0       912314.0       913366.0
       914520.0       915473.0       916328.0       917410.0       918296.0
       919244.0       920224.0       921037.0       921849.0       922398.0
       922904.0       923621.0       924259.0       924857.0       925539.0
       925928.0       926067.0       926524.0       926993.0       927275.0
       927564.0       927758.0       928005.0       928220.0       928360.0
       928432.0       928350.0       928550.0       928833.0       928605.0
       928240.0       927946.0       927618.0       927281.0       926934.0
       926618.0       925974.0       925213.0       924754.0       924030.0
       923270.0       923025.0       922401.0       921484.0       920779.0
       919739.0       918690.0       917803.0       916907.0       916063.0
       915053.0       913750.0       912444.0       911520.0       910342.0
       908987.0       907732.0       906077.0       904671.0       903523.0
       902067.0       900523.0       899048.0       897553.0       895938.0
       894291.0       892594.0       891084.0       889704.0       887810.0
       885851.0       884162.0       882383.0       880719.0       878668.0
       876567.0       875164.0       873351.0       871186.0       869031.0
       866742.0       864681.0       862427.0       860347.0       858287.0
       855690.0       853210.0       850933.0       848813.0       846203.0
       843148.0       840857.0       838855.0       836302.0       833198.0
       830078.0       827833.0       825940.0       823285.0       820021.0
       816817.0       814110.0       811469.0       808587.0       805634.0
       802696.0       799941.0       796612.0       793299.0       790665.0
       787475.0       784133.0       780896.0       777482.0       774084.0
       770443.0       767175.0       764146.0       760543.0       756639.0
       752988.0       749586.0       745849.0       741997.0       738305.0
       734504.0       730924.0       727240.0       723184.0       719516.0
       715941.0       711923.0       707830.0       703788.0       699566.0
       695367.0       691544.0       687466.0       683222.0       679334.0
       675144.0       670709.0       666231.0       661733.0       657447.0
       652909.0       648258.0       643844.0       639404.0       634895.0
       630357.0       625792.0       621017.0       616179.0       611586.0
       606862.0       601866.0       596881.0       592278.0       587783.0
       582603.0       577468.0       572942.0       568022.0       562641.0
       557691.0       553145.0       548295.0       543148.0       537938.0
       532652.0       527426.0       522284.0       517352.0       512405.0
       507143.0       501731.0       496369.0       491532.0       486774.0
       481253.0       475717.0       470666.0       465648.0       460501.0
       455111.0       449593.0       444361.0       439340.0       434128.0
       428708.0       423339.0       418192.0       412885.0       407174.0
       401903.0       397049.0       391628.0       386068.0       380736.0
       375247.0       370154.0       365065.0       359308.0       353873.0
       348479.0       342916.0       337851.0       332359.0       326866.0
       321849.0       316094.0       310305.0       304812.0       299215.0
       294132.0       288932.0       283077.0       277067.0       271611.0
       266496.0       260932.0       255102.0       249133.0       243354.0
       237958.0       232275.0       226478.0       220967.0       215352.0
       209609.0       203793.0       197876.0       191928.0       186189.0
       180646.0       174762.0       169070.0       163837.0       158120.0
       151757.0       145727.0       140345.0       134912.0       129362.0
       123357.0       117111.0       111750.0       106605.0       100998.0
       95116.00       89001.00       83452.00       78103.00       72329.00
       66987.00       61696.00       56141.00       50628.00       44437.00
       38309.00       33355.00       28373.00       22615.00       16865.00
       11175.00       5355.000       4.000000      -5193.000      -10853.00
      -16225.00      -21291.00      -26849.00      -32758.00      -38442.00
      -43396.00      -48296.00      -53824.00      -59129.00      -64317.00
      -69921.00      -75208.00      -80040.00      -85356.00      -90938.00
      -96001.00      -101325.0      -106818.0      -111575.0      -116166.0
      -121091.0      -126107.0      -131093.0      -136470.0      -141738.0
      -146180.0      -150721.0      -155329.0      -159486.0      -164256.0
      -169602.0      -174518.0      -178856.0      -182859.0      -187217.0
      -191937.0      -196540.0      -201203.0      -205753.0      -209900.0
      -213862.0      -218036.0      -222389.0      -226612.0      -231001.0
      -235374.0      -239503.0      -243668.0      -247359.0      -251109.0
      -255218.0      -258994.0      -263022.0      -266843.0      -270167.0
      -273677.0      -276988.0      -280548.0      -284767.0      -288762.0
      -291794.0      -294778.0      -298397.0      -301386.0      -304765.0
      -308812.0      -312057.0      -315593.0      -318858.0      -321538.0
      -324843.0      -328148.0      -331486.0      -334760.0      -337725.0
      -340761.0      -343640.0      -346263.0      -348956.0      -352324.0
      -355533.0      -358158.0      -361050.0      -363466.0      -365988.0
      -369166.0      -371763.0      -374507.0      -377614.0      -380368.0
      -383113.0      -385554.0      -387696.0      -390313.0      -393377.0
      -396193.0      -398464.0      -400626.0      -402780.0      -405215.0
      -408067.0      -410413.0      -412569.0      -414909.0      -417011.0
      -419191.0      -421586.0      -423753.0      -425454.0      -427729.0
      -430584.0      -432467.0      -433976.0      -435833.0      -437774.0
      -439988.0      -441646.0      -443235.0      -445500.0      -447395.0
