     0.02500000      -12345.00      -12345.00   2.489560e+09      -12345.00
   0.0005380000       1859.976      -566.0195      -12345.00      -12345.00
      -12345.00      -12345.00      -12345.00      -12345.00      -12345.00
      -12345.00      -12345.00      -12345.00      -12345.00      -12345.00
      -12345.00      -12345.00      -12345.00      -12345.00      -12345.00
      -12345.00      -12345.00      -12345.00      -12345.00      -12345.00
      -12345.00      -27.12670      -109.3344       110.0000       0.000000
      -42.72450       173.0647      -12345.00       22.00000      -12345.00
      -12345.00      -12345.00      -12345.00      -12345.00      -12345.00
      -12345.00      -12345.00      -12345.00      -12345.00      -12345.00
       7050.492       103.2424       233.5941       63.40941      -12345.00
      -12345.00      -12345.00       88.00000       90.00000      -12345.00
      -12345.00      -12345.00      -12345.00      -12345.00      -12345.00
      -12345.00      -12345.00      -12345.00      -12345.00      -12345.00
      2016       318        11        12        25
        19         6    -12345    -12345     74400
    -12345    -12345    -12345    -12345    -12345
         1    -12345    -12345    -12345    -12345
    -12345    -12345    -12345    -12345    -12345
    -12345    -12345    -12345    -12345    -12345
    -12345    -12345    -12345    -12345    -12345
         1    -12345    -12345    -12345    -12345
RPN     South Island, Ne
10      -12345  -12345  
-12345  -12345  -12345  
-12345  -12345  -12345  
-12345  -12345  -12345  
-12345  -12345  -12345  
-12345  -12345  BH2     
II      -12345  Streckei
[...]
      -466012.0      -465527.0      -464677.0      -463923.0      -463407.0
      -462709.0      -461821.0      -461120.0      -460239.0      -459325.0
      -458900.0      -458418.0      -457711.0      -457277.0      -457023.0
      -456417.0      -455923.0      -455956.0      -455555.0      -454986.0
      -454846.0      -454506.0      -454014.0      -453750.0      -453597.0
      -453320.0      -453202.0      -453315.0      -453149.0      -452995.0
      -453123.0      -453113.0      -453079.0      -453124.0      -453282.0
      -453586.0      -453442.0      -453283.0      -453621.0      -453782.0
      -453611.0      -453782.0      -454426.0      -454603.0      -454696.0
      -455154.0      -455162.0      -455321.0      -455884.0      -456252.0
      -456554.0      -456943.0      -457539.0      -457886.0      -457971.0
      -458433.0      -459055.0      -459738.0      -460307.0      -460813.0
      -461674.0      -462289.0      -462970.0      -463932.0      -464261.0
      -464649.0      -465512.0      -466286.0      -466983.0      -467904.0
      -469107.0      -469718.0      -469941.0      -471031.0      -472494.0
      -473386.0      -474033.0      -474874.0      -475730.0      -476537.0
      -477571.0      -478546.0      -479166.0      -480084.0      -481365.0
      -482315.0      -483126.0      -484383.0      -485696.0      -486467.0
      -487306.0      -488392.0      -489314.0      -490262.0      -491197.0
      -492059.0      -492908.0      -493911.0      -494927.0      -495805.0
      -496899.0      -497959.0      -498962.0      -500156.0      -501088.0
      -501930.0      -503078.0      -504168.0      -505107.0      -506136.0
      -507171.0      -508043.0      -508963.0      -510045.0      -510909.0
      -511605.0      -512655.0      -513935.0      -514978.0      -515976.0
      -517238.0      -518422.0      -519463.0      -520486.0      -521258.0
      -522248.0      -523473.0      -524472.0      -525676.0      -527085.0
      -528509.0      -529765.0      -530709.0      -531889.0      -533223.0
      -534254.0      -535339.0      -536793.0      -538225.0      -539366.0
      -540617.0      -542156.0      -543606.0      -544858.0      -546165.0
      -547722.0      -549113.0      -550398.0      -552067.0      -553353.0
      -554488.0      -556167.0      -557704.0      -558981.0      -560293.0
      -561916.0      -563527.0      -564875.0      -566589.0      -568367.0
      -569944.0      -571482.0      -573098.0      -575011.0      -576652.0
      -578116.0      -579994.0      -581902.0      -583582.0      -585290.0
      -587238.0      -589208.0      -590990.0      -592922.0      -595025.0
      -597012.0      -598963.0      -600914.0      -603004.0      -605264.0
      -607289.0      -609254.0      -611685.0      -614122.0      -616072.0
      -618153.0      -620473.0      -622641.0      -624876.0      -627129.0
      -629327.0      -631529.0      -633743.0      -636163.0      -638530.0
      -640768.0      -643040.0      -645240.0      -647706.0      -650209.0
      -652429.0      -654871.0      -657232.0      -659348.0      -661638.0
      -664005.0      -666271.0      -668369.0      -670588.0      -672891.0
      -675000.0      -677189.0      -679413.0      -681548.0      -683607.0
      -685680.0      -688018.0      -690211.0      -692138.0      -694100.0
      -696027.0      -698020.0      -699862.0      -701588.0      -703448.0
      -705202.0      -706997.0      -708906.0      -710741.0      -712401.0
      -714066.0      -715943.0      -717662.0      -719243.0      -720790.0
      -722205.0      -723873.0      -725510.0      -726823.0      -728222.0
      -729655.0      -731056.0      -732343.0      -733578.0      -734971.0
      -736075.0      -737058.0      -738323.0      -739559.0      -740649.0
      -741727.0      -742868.0      -743777.0      -744604.0      -745574.0
      -746275.0      -747077.0      -748119.0      -748910.0      -749587.0
      -750346.0      -751131.0      -751808.0      -752513.0      -753069.0
      -753402.0      -754126.0      -754751.0      -755040.0      -755623.0
      -756121.0      -756537.0      -757156.0      -757804.0      -758312.0
      -758552.0      -758995.0      -759557.0      -759803.0      -759992.0
      -760138.0      -760273.0      -760700.0      -761154.0      -761219.0
      -761319.0      -761729.0      -761895.0      -761808.0      -761858.0
      -761822.0      -761884.0      -762056.0      -761927.0      -761939.0
      -762008.0      -761958.0      -761876.0      -761624.0      -761437.0
      -760956.0      -760415.0      -760308.0      -759921.0      -759251.0
      -758664.0      -758071.0      -757547.0      -756965.0      -756325.0
      -755784.0      -755138.0      -754211.0      -753167.0      -752247.0
      -751315.0      -749984.0      -748468.0      -747225.0      -746089.0
      -744792.0      -743323.0      -741863.0      -740419.0      -738835.0
      -737161.0      -735492.0      -733867.0      -732062.0      -730186.0
      -728571.0      -726792.0      -724718.0      -722667.0      -720505.0
      -718297.0      -716144.0      -713826.0      -711420.0      -709132.0
      -706666.0      -703994.0      -701596.0      -699119.0      -696374.0
      -693670.0      -690993.0      -688374.0      -685545.0      -682702.0
      -679717.0      -676308.0      -673296.0      -670374.0      -667161.0
      -664035.0      -660812.0      -657638.0      -654326.0      -650774.0
      -647481.0      -644208.0      -640666.0      -636967.0      -633235.0
      -629637.0      -625861.0      -621920.0      -618314.0      -614517.0
      -610193.0      -606148.0      -602586.0      -598812.0      -594572.0
      -590433.0      -586592.0      -582527.0      -578189.0      -573958.0
      -569798.0      -565713.0      -561709.0      -557303.0      -552893.0
      -548924.0      -544598.0      -540083.0      -535821.0      -531451.0
      -527169.0      -523034.0      -518752.0      -514443.0      -510376.0
      -506263.0      -501823.0      -497636.0      -493647.0      -489277.0
      -484918.0      -480825.0      -476679.0      -472423.0      -468253.0
      -464160.0      -459931.0      -455831.0      -451783.0      -447512.0
      -443575.0      -439580.0      -435105.0      -430958.0      -427033.0
      -422868.0      -418644.0      -414632.0      -410707.0      -406523.0
      -402316.0      -398081.0      -393716.0      -389503.0      -385224.0
      -380878.0      -376521.0      -372035.0      -367584.0      -363136.0
      -358809.0      -354404.0      -349907.0      -345701.0      -341173.0
      -336361.0      -331774.0      -327089.0      -322426.0      -317753.0
      -312950.0      -308208.0      -303533.0      -298813.0      -293728.0
      -288819.0      -284383.0      -279657.0      -274619.0      -269669.0
      -264807.0      -259678.0      -254391.0      -249361.0      -244400.0
      -239397.0      -234230.0      -229064.0      -224021.0      -218658.0
      -213381.0      -208306.0      -203031.0      -197712.0      -192379.0
      -187204.0      -181928.0      -176356.0      -170891.0      -165322.0
      -159817.0      -154578.0      -149262.0      -144054.0      -138793.0
      -133332.0      -127863.0      -122358.0      -116996.0      -111541.0
      -105977.0      -100547.0      -95114.00      -89632.00      -83899.00
      -78346.00      -73087.00      -67438.00      -61772.00      -56363.00
      -50935.00      -45415.00      -39779.00      -34196.00      -28563.00
      -23067.00      -17783.00      -12252.00      -6813.000      -1455.000
       4270.000       10003.00       15443.00       20828.00       26562.00
       32308.00       37659.00       43106.00       48719.00       54129.00
       59453.00       64964.00       70491.00       75825.00       81233.00
       86745.00       92187.00       97719.00       103169.0       108543.0
       114156.0       119699.0       125191.0       130733.0       136155.0
       141295.0       146188.0       151479.0       156875.0       162026.0
       167424.0       172805.0       178057.0       183328.0       188538.0
       193763.0       198903.0       204144.0       209541.0       214787.0
       219821.0       224751.0       229953.0       235187.0       240115.0
       245117.0       250182.0       255221.0       260191.0       265051.0
       269983.0       274913.0       279909.0       284866.0       289640.0
       294685.0       299825.0       304664.0       309437.0       314277.0
       319187.0       323913.0       328561.0       333339.0       338187.0
       343017.0       347676.0       352541.0       357395.0       362145.0
       366908.0       371374.0       376092.0       380809.0       385270.0
       389981.0       394537.0       399082.0       403802.0       408223.0
       412682.0       417325.0       421831.0       426127.0       430460.0
       435058.0       439471.0       443817.0       448299.0       452452.0
       456631.0       460958.0       465076.0       469277.0       473540.0
       477832.0       482289.0       486616.0       490679.0       494642.0
       498800.0       502996.0       506937.0       510864.0       514877.0
       518870.0       522713.0       526537.0       530601.0       534569.0
       538408.0       542422.0       546326.0       550156.0       554042.0
       557973.0       561946.0       565740.0       569527.0       573323.0
       577277.0       581251.0       584734.0       588415.0       592377.0
       595932.0       599547.0       603423.0       607196.0       610797.0
       614438.0       618404.0       622111.0       625513.0       629281.0
       633089.0       636568.0       640051.0       643799.0       647467.0
       650978.0       654587.0       658240.0       661745.0       665204.0
       669016.0       672743.0       676090.0       679680.0       683324.0
       686679.0       690169.0       693805.0       697301.0       700758.0
       704405.0       707977.0       711283.0       714790.0       718395.0
       721844.0       725324.0       728756.0       732267.0       735836.0
       739233.0       742634.0       746032.0       749537.0       753142.0
       756553.0       759938.0       763281.0       766622.0       769890.0
       772981.0       776288.0       779645.0       782948.0       786200.0
       789238.0       792397.0       795538.0       798634.0       801843.0
       804717.0       807618.0       810717.0       813575.0       816410.0
       819230.0       821926.0       824838.0       827897.0       830583.0
       833140.0       835944.0       838607.0       840978.0       843379.0
       845994.0       848502.0       850771.0       853130.0       855363.0
       857630.0       860144.0       862278.0       864401.0       866525.0
       868235.0       870205.0       872266.0       874120.0       875886.0
       877567.0       879400.0       881042.0       882722.0       884584.0
       885871.0       887180.0       888829.0       890246.0       891584.0
       892916.0       894294.0       895580.0       896841.0       898138.0
       899106.0       900203.0       901424.0       902421.0       903402.0
       904406.0       905504.0       906509.0       907339.0       908073.0
       908833.0       909758.0       910437.0       910943.0       911660.0
       912354.0       912943.0       913521.0       914257.0       915010.0
       915483.0       916213.0       916920.0       917175.0       917757.0
       918375.0       918757.0       919379.0       919971.0       920316.0
       920562.0       920915.0       921260.0       921597.0       922058.0
       922340.0       922759.0       923482.0       924026.0       924361.0
       924747.0       925224.0       925508.0       925786.0       926250.0
       926581.0       926932.0       927276.0       927607.0       928246.0
       928645.0       928865.0       929393.0       929865.0       930371.0
       930870.0       931287.0       931648.0       931814.0       932215.0
       932740.0       933208.0       933624.0       933992.0       934597.0
       934966.0       935162.0       935765.0       936376.0       936786.0
       937238.0       937789.0       938391.0       938953.0       939564.0
       940079.0       940459.0       941006.0       941511.0       942113.0
       942885.0       943435.0       943918.0       944314.0       944612.0
       944951.0       945375.0       945808.0       946116.0       946569.0
       946973.0       947231.0       947551.0       947729.0       948013.0
       948495.0       948918.0       948991.0       948829.0       949150.0
       949488.0       949415.0       949501.0       949760.0       949951.0
       949910.0       949888.0       950058.0       949998.0       949870.0
       950012.0       950209.0       950226.0       950216.0       950402.0
       950298.0       949937.0       949962.0       949922.0       949712.0
       949548.0       949269.0       949214.0       949132.0       948825.0
       948549.0       948238.0       947970.0       947613.0       947272.0
       947198.0       947091.0       946800.0       946500.0       946277.0
       946040.0       945757.0       945489.0       945237.0       945069.0
       944787.0       944243.0       943814.0       943644.0       943533.0
       943284.0       943008.0       942848.0       942531.0       942239.0
       942075.0       941729.0       941374.0       940976.0       940458.0
       939966.0       939370.0       938908.0       938745.0       938548.0
       938231.0       937810.0       937346.0       936863.0       936524.0
       936445.0       935988.0       935136.0       934508.0       934094.0
       933726.0       933236.0       932592.0       931840.0       931015.0
       930240.0       929536.0       928988.0       928252.0       927189.0
       926186.0       925083.0       924041.0       923226.0       922212.0
       920843.0       919052.0       917490.0       916505.0       915297.0
       913879.0       912388.0       910794.0       909345.0       907896.0
       906344.0       904475.0       902388.0       900239.0       897951.0
       895978.0       894277.0       892360.0       890304.0       888274.0
       886099.0       883709.0       881291.0       878996.0       876793.0
       874447.0       871953.0       869739.0       867851.0       865599.0
       862998.0       860484.0       857858.0       855107.0       852447.0
       850050.0       847619.0       845029.0       842679.0       840087.0
       837143.0       834527.0       832059.0       829603.0       827217.0
       824518.0       821569.0       818746.0       816004.0       813125.0
       810396.0       807841.0       805119.0       802360.0       799448.0
       796354.0       793371.0       790554.0       787749.0       784871.0
       782191.0       779236.0       775809.0       772868.0       770175.0
       767119.0       764236.0       761551.0       758523.0       755295.0
       752184.0       749031.0       745898.0       742963.0       739833.0
       736626.0       733648.0       730575.0       727512.0       724541.0
       721396.0       718212.0       715296.0       712442.0       709311.0
       706167.0       703033.0       699870.0       696955.0       693985.0
       691013.0       688236.0       685109.0       681844.0       678923.0
       676150.0       673309.0       670279.0       667359.0       664492.0
       661549.0       658868.0       656086.0       653195.0       650410.0
       647651.0       645128.0       642537.0       639743.0       636918.0
       634095.0       631563.0       629110.0       626540.0       624000.0
       621395.0       618924.0       616406.0       613672.0       611161.0
       608840.0       606577.0       604303.0       601928.0       599361.0
       596731.0       594443.0       592306.0       589988.0       587750.0
       585757.0       583591.0       581162.0       579035.0       577269.0
       575333.0       573140.0       571060.0       569236.0       567378.0
       565404.0       563503.0       561504.0       559603.0       557905.0
       556119.0       554403.0       552538.0       550620.0       549013.0
       547268.0       545415.0       543679.0       541944.0       540218.0
       538508.0       537019.0       535587.0       534077.0       532664.0
       531112.0       529515.0       528015.0       526492.0       525127.0
       523823.0       522356.0       520779.0       519312.0       517932.0
       516519.0       515365.0       514184.0       512667.0       511157.0
       509939.0       509060.0       507768.0       506022.0       504730.0
       503589.0       502432.0       501415.0       500025.0       498664.0
       497622.0       496543.0       495686.0       494747.0       493581.0
       492971.0       492441.0       491264.0       490120.0       489096.0
       487987.0       487117.0       486128.0       485165.0       484582.0
       483948.0       483400.0       483051.0       482588.0       481972.0
       481442.0       481071.0       480175.0       479129.0       478772.0
       478195.0       477241.0       476522.0       475985.0       475655.0
       474921.0       474004.0       473690.0       473207.0       472374.0
       471715.0       471186.0       470608.0       469835.0       469106.0
       468530.0       467995.0       467117.0       465893.0       465315.0
       464741.0       463400.0       462503.0       461980.0       461053.0
       460030.0       459199.0       458305.0       457316.0       456758.0
       455974.0       454705.0       453957.0       453126.0       451910.0
       450972.0       450048.0       449152.0       448216.0       446969.0
       445724.0       444715.0       443803.0       442589.0       441319.0
       440235.0       438939.0       437516.0       436158.0       434968.0
       433742.0       432214.0       430868.0       429543.0       427974.0
       426471.0       424868.0       423259.0       421683.0       420045.0
       418392.0       416670.0       415141.0       413494.0       411646.0
       410062.0       408368.0       406683.0       405253.0       403393.0
       401199.0       399337.0       397640.0       395578.0       393408.0
       391495.0       389613.0       387743.0       385650.0       383448.0
