     0.02500000      -12345.00      -12345.00   2.489560e+09      -12345.00
   0.0005380000       1859.976      -566.0195      -12345.00      -12345.00
      -12345.00      -12345.00      -12345.00      -12345.00      -12345.00
      -12345.00      -12345.00      -12345.00      -12345.00      -12345.00
      -12345.00      -12345.00      -12345.00      -12345.00      -12345.00
      -12345.00      -12345.00      -12345.00      -12345.00      -12345.00
      -12345.00      -27.12670      -109.3344       110.0000       0.000000
      -42.72450       173.0647      -12345.00       22.00000      -12345.00
      -12345.00      -12345.00      -12345.00      -12345.00      -12345.00
      -12345.00      -12345.00      -12345.00      -12345.00      -12345.00
       7050.492       103.2424       233.5941       63.40941      -12345.00
      -12345.00      -12345.00       357.8000       90.00000      -12345.00
      -12345.00      -12345.00      -12345.00      -12345.00      -12345.00
      -12345.00      -12345.00      -12345.00      -12345.00      -12345.00
      2016       318        11        12        25
        19         6    -12345    -12345     74400
    -12345    -12345    -12345    -12345    -12345
         1    -12345    -12345    -12345    -12345
    -12345    -12345    -12345    -12345    -12345
    -12345    -12345    -12345    -12345    -12345
    -12345    -12345    -12345    -12345    -12345
         1    -12345    -12345    -12345    -12345
RPN     South Island, Ne
10      -12345  -12345  
-12345  -12345  -12345  
-12345  -12345  -12345  
-12345  -12345  -12345  
-12345  -12345  -12345  
-12345  -12345  BH1     
II      -12345  Streckei
[...]
       337767.0       339633.0       341586.0       343554.0       345391.0
       347225.0       349164.0       350977.0       352770.0       354487.0
       356047.0       357991.0       359888.0       361500.0       363293.0
       365025.0       366592.0       368229.0       369931.0       371626.0
       373370.0       375138.0       376831.0       378604.0       380392.0
       381950.0       383550.0       385156.0       386718.0       388467.0
       390060.0       391682.0       393416.0       394936.0       396617.0
       398209.0       399565.0       401100.0       402640.0       404238.0
       405897.0       407308.0       408638.0       410148.0       411723.0
       413025.0       414249.0       415636.0       416952.0       418405.0
       419860.0       421035.0       422156.0       423279.0       424710.0
       426150.0       427168.0       428200.0       429114.0       430026.0
       431244.0       432263.0       433060.0       434001.0       435066.0
       436086.0       437001.0       437756.0       438429.0       439097.0
       439687.0       440579.0       441688.0       442384.0       442989.0
       443649.0       444314.0       445283.0       445896.0       446286.0
       447063.0       447696.0       448171.0       448486.0       448631.0
       448953.0       449475.0       450112.0       450459.0       450658.0
       450860.0       450809.0       450871.0       451063.0       451360.0
       451687.0       451787.0       451979.0       452032.0       451919.0
       451992.0       452002.0       451973.0       451878.0       451780.0
       451782.0       451654.0       451550.0       451347.0       450961.0
       450740.0       450472.0       450186.0       450017.0       449720.0
       449297.0       448637.0       448023.0       447612.0       447033.0
       446536.0       446090.0       445357.0       444593.0       443960.0
       443134.0       442076.0       441199.0       440394.0       439470.0
       438498.0       437321.0       436006.0       434738.0       433700.0
       432794.0       431689.0       430496.0       429136.0       427730.0
       426669.0       425572.0       424176.0       422697.0       421268.0
       419986.0       418681.0       417138.0       415501.0       413899.0
       412388.0       411010.0       409537.0       407820.0       406039.0
       404333.0       402483.0       400622.0       399060.0       397415.0
       395621.0       393774.0       391857.0       390054.0       388081.0
       386062.0       384111.0       382000.0       379933.0       377683.0
       375406.0       373383.0       371262.0       369161.0       367094.0
       364872.0       362613.0       360408.0       358214.0       355913.0
       353458.0       351012.0       348666.0       346172.0       343762.0
       341603.0       339003.0       336142.0       333574.0       330960.0
       328344.0       325804.0       323045.0       320295.0       317584.0
       314788.0       312086.0       309379.0       306607.0       303796.0
       300899.0       298020.0       295148.0       292110.0       289027.0
       286134.0       283028.0       279670.0       276599.0       273500.0
       270329.0       267301.0       264093.0       260819.0       257481.0
       254144.0       250945.0       247698.0       244493.0       241167.0
       237787.0       234375.0       230799.0       227569.0       224376.0
       220977.0       217719.0       214173.0       210399.0       206900.0
       203527.0       200140.0       196762.0       193417.0       190007.0
       186405.0       182846.0       179460.0       176005.0       172390.0
       168693.0       164924.0       161263.0       157705.0       153992.0
       150368.0       146798.0       142956.0       139179.0       135481.0
       131680.0       127843.0       123842.0       119812.0       115922.0
       112195.0       108361.0       104243.0       100251.0       96287.00
       92296.00       88538.00       84680.00       80645.00       76635.00
       72594.00       68736.00       64824.00       60614.00       56528.00
       52371.00       48264.00       44479.00       40548.00       36456.00
       32373.00       28350.00       24185.00       20027.00       16289.00
       12403.00       8358.000       4429.000       333.0000      -3619.000
      -7549.000      -11677.00      -15730.00      -19801.00      -24029.00
      -28353.00      -32473.00      -36597.00      -40784.00      -44676.00
      -48752.00      -53024.00      -57155.00      -61265.00      -65334.00
      -69478.00      -73640.00      -77815.00      -82037.00      -86084.00
      -90181.00      -94380.00      -98671.00      -102977.0      -106968.0
      -111169.0      -115477.0      -119590.0      -123978.0      -128303.0
      -132581.0      -136997.0      -141292.0      -145569.0      -149743.0
      -153994.0      -158426.0      -162726.0      -166912.0      -171038.0
      -175228.0      -179483.0      -183792.0      -188258.0      -192601.0
      -196997.0      -201643.0      -206149.0      -210450.0      -214703.0
      -219018.0      -223215.0      -227342.0      -231734.0      -236018.0
      -240286.0      -244663.0      -248751.0      -252867.0      -257270.0
      -261761.0      -266049.0      -270348.0      -274743.0      -278890.0
      -283230.0      -287620.0      -291728.0      -296120.0      -300441.0
      -304502.0      -308704.0      -312950.0      -317437.0      -321795.0
      -325922.0      -330271.0      -334310.0      -338219.0      -342321.0
      -346363.0      -350556.0      -354644.0      -358725.0      -362954.0
      -366889.0      -370887.0      -375018.0      -379056.0      -383012.0
      -386784.0      -390678.0      -394685.0      -398609.0      -402350.0
      -406001.0      -409863.0      -413679.0      -417438.0      -421146.0
      -424580.0      -428042.0      -431558.0      -435143.0      -438812.0
      -442309.0      -445911.0      -449512.0      -452875.0      -456225.0
      -459556.0      -463006.0      -466431.0      -469556.0      -472675.0
      -475829.0      -479020.0      -482231.0      -485260.0      -488380.0
      -491565.0      -494557.0      -497490.0      -500538.0      -503632.0
      -506506.0      -509221.0      -512025.0      -514986.0      -517892.0
      -520601.0      -523273.0      -525921.0      -528641.0      -531452.0
      -534214.0      -536942.0      -539426.0      -541784.0      -544127.0
      -546263.0      -548561.0      -551136.0      -553766.0      -556321.0
      -558527.0      -560622.0      -562880.0      -565146.0      -567406.0
      -569412.0      -571338.0      -573525.0      -575606.0      -577638.0
      -579628.0      -581463.0      -583428.0      -585498.0      -587427.0
      -589176.0      -590971.0      -592713.0      -594249.0      -595765.0
      -597355.0      -599211.0      -601090.0      -602625.0      -604185.0
      -605729.0      -607133.0      -608541.0      -609761.0      -611005.0
      -612448.0      -613791.0      -615150.0      -616571.0      -617708.0
      -618784.0      -619973.0      -620958.0      -621912.0      -623093.0
      -624178.0      -625072.0      -625992.0      -626915.0      -627878.0
      -628779.0      -629453.0      -630113.0      -630868.0      -631654.0
      -632388.0      -633076.0      -633762.0      -634313.0      -634830.0
      -635315.0      -635656.0      -635999.0      -636356.0      -636753.0
      -637129.0      -637383.0      -637531.0      -637519.0      -637586.0
      -637728.0      -637585.0      -637401.0      -637259.0      -636942.0
      -636681.0      -636467.0      -636127.0      -635699.0      -635310.0
      -634870.0      -634254.0      -633652.0      -632898.0      -632050.0
      -631287.0      -630391.0      -629545.0      -628690.0      -627727.0
      -626674.0      -625348.0      -624187.0      -623117.0      -621751.0
      -620458.0      -619061.0      -617496.0      -616024.0      -614388.0
      -612591.0      -610733.0      -609025.0      -607334.0      -605304.0
      -603282.0      -601262.0      -599204.0      -597212.0      -594983.0
      -592515.0      -589958.0      -587529.0      -585224.0      -582641.0
      -579992.0      -577467.0      -574801.0      -572119.0      -569359.0
      -566505.0      -563829.0      -561133.0      -558188.0      -555089.0
      -552027.0      -549022.0      -546010.0      -542844.0      -539467.0
      -536242.0      -533075.0      -529783.0      -526570.0      -523254.0
      -519773.0      -516257.0      -512767.0      -509149.0      -505425.0
      -501917.0      -498310.0      -494603.0      -490864.0      -486885.0
      -483104.0      -479301.0      -475181.0      -471261.0      -467324.0
      -463188.0      -459223.0      -455178.0      -450992.0      -446884.0
      -442635.0      -438278.0      -433893.0      -429440.0      -425067.0
      -420699.0      -416323.0      -412042.0      -407602.0      -403065.0
      -398616.0      -393977.0      -389375.0      -384961.0      -380256.0
      -375460.0      -370731.0      -365868.0      -361132.0      -356414.0
      -351581.0      -346829.0      -342044.0      -337038.0      -331930.0
      -326954.0      -321981.0      -317015.0      -311957.0      -306612.0
      -301324.0      -296081.0      -290820.0      -285704.0      -280484.0
      -275172.0      -269975.0      -264673.0      -259169.0      -253747.0
      -248426.0      -242783.0      -236915.0      -231466.0      -226082.0
      -220434.0      -214874.0      -209230.0      -203582.0      -197947.0
      -192142.0      -186248.0      -180322.0      -174558.0      -168657.0
      -162603.0      -156744.0      -150760.0      -144694.0      -138667.0
      -132486.0      -126301.0      -120135.0      -113900.0      -107674.0
      -101624.0      -95549.00      -89087.00      -82604.00      -76122.00
      -69501.00      -63121.00      -56555.00      -49788.00      -43404.00
      -37062.00      -30499.00      -23895.00      -17339.00      -10811.00
      -4251.000       2355.000       9096.000       15760.00       22026.00
       28467.00       35448.00       42220.00       48693.00       55363.00
       61994.00       68482.00       75133.00       81685.00       88140.00
       94850.00       101363.0       107852.0       114580.0       121138.0
       127807.0       134461.0       141015.0       147762.0       154356.0
       160782.0       167340.0       174053.0       180721.0       187427.0
       194375.0       201248.0       207963.0       214622.0       221169.0
       227726.0       234339.0       240968.0       247600.0       254370.0
       261314.0       268057.0       274686.0       281374.0       287989.0
       294675.0       301283.0       307970.0       314984.0       321801.0
       328355.0       334825.0       341436.0       348205.0       354569.0
       360709.0       367089.0       373791.0       380507.0       386840.0
       393192.0       399651.0       405896.0       412119.0       418306.0
       424525.0       431045.0       437448.0       443438.0       449451.0
       455622.0       461681.0       467732.0       473884.0       479953.0
       485983.0       491916.0       497656.0       503478.0       509316.0
       515008.0       520727.0       526561.0       532370.0       537916.0
       543435.0       549118.0       554889.0       560715.0       566337.0
       571849.0       577283.0       582446.0       587547.0       592817.0
       598229.0       603499.0       608557.0       613711.0       618797.0
       623734.0       628921.0       633961.0       638677.0       643484.0
       648291.0       652961.0       657469.0       662086.0       666663.0
       671002.0       675539.0       680037.0       684310.0       688546.0
       692770.0       696865.0       700690.0       704764.0       708858.0
       712627.0       716477.0       720002.0       723527.0       727376.0
       730923.0       734398.0       737922.0       741237.0       744337.0
       747419.0       750547.0       753571.0       756712.0       759921.0
       762986.0       765897.0       768580.0       771421.0       774380.0
       777094.0       779833.0       782299.0       784665.0       787429.0
       790069.0       792626.0       795110.0       797285.0       799489.0
       801697.0       803779.0       805794.0       807797.0       809840.0
       811854.0       813827.0       815564.0       817200.0       818976.0
       820484.0       821870.0       823453.0       825064.0       826606.0
       827902.0       829083.0       830189.0       831057.0       831974.0
       832935.0       833796.0       834808.0       835704.0       836226.0
       836789.0       837341.0       837650.0       837921.0       838260.0
       838570.0       838713.0       838850.0       839065.0       839083.0
       838895.0       838791.0       838773.0       838587.0       838194.0
       837673.0       837120.0       836522.0       835921.0       835474.0
       834760.0       833795.0       833111.0       832464.0       831631.0
       830738.0       829733.0       828622.0       827559.0       826399.0
       824936.0       823444.0       821973.0       820326.0       818631.0
       817011.0       815540.0       813942.0       811989.0       810209.0
       808444.0       806337.0       804463.0       802507.0       800266.0
       798162.0       795805.0       793333.0       791067.0       788724.0
       786311.0       783837.0       781287.0       778740.0       776196.0
       773687.0       771128.0       768410.0       765661.0       762917.0
       759889.0       756867.0       754125.0       751162.0       748111.0
       745083.0       741953.0       738902.0       735567.0       732122.0
       728870.0       725448.0       722106.0       718828.0       715436.0
       712046.0       708438.0       704950.0       701531.0       697879.0
       694137.0       690127.0       686232.0       682480.0       678518.0
       674622.0       670756.0       666917.0       663058.0       659062.0
       655045.0       651021.0       647122.0       643056.0       638764.0
       634633.0       630354.0       626058.0       621906.0       617592.0
       613272.0       608816.0       604427.0       600263.0       595702.0
       591029.0       586512.0       582011.0       577545.0       572792.0
       568081.0       563459.0       558617.0       553924.0       549301.0
       544404.0       539294.0       534503.0       530030.0       525173.0
       520064.0       515031.0       510077.0       505270.0       500316.0
       495242.0       490290.0       485287.0       480247.0       475149.0
       470065.0       465071.0       459910.0       454666.0       449543.0
       444477.0       439352.0       434158.0       428936.0       423706.0
       418491.0       413212.0       407980.0       402772.0       397305.0
       391850.0       386510.0       381151.0       375793.0       370253.0
       364825.0       359477.0       353942.0       348443.0       342882.0
       337386.0       331796.0       325965.0       320384.0       314763.0
       309018.0       303362.0       297633.0       291960.0       286246.0
       280565.0       274873.0       268973.0       263264.0       257565.0
       251664.0       245787.0       239837.0       233957.0       228053.0
       222041.0       216257.0       210502.0       204589.0       198590.0
       192561.0       186577.0       180554.0       174543.0       168627.0
       162840.0       157024.0       150983.0       145126.0       139250.0
       133135.0       127397.0       121493.0       115261.0       109276.0
       103201.0       97001.00       90876.00       85020.00       79289.00
       73410.00       67651.00       61977.00       56141.00       49996.00
       44047.00       38533.00       32696.00       26754.00       21022.00
       15173.00       9397.000       3704.000      -2136.000      -8137.000
      -13957.00      -19536.00      -25430.00      -31369.00      -37118.00
      -42930.00      -48748.00      -54754.00      -60639.00      -66385.00
      -72213.00      -77907.00      -83744.00      -89587.00      -95447.00
      -101469.0      -107250.0      -113079.0      -119106.0      -124943.0
      -130668.0      -136515.0      -142477.0      -148424.0      -154443.0
      -160462.0      -166335.0      -172173.0      -177889.0      -183779.0
      -189863.0      -195646.0      -201522.0      -207601.0      -213486.0
      -219402.0      -225347.0      -231324.0      -237377.0      -243147.0
      -248943.0      -255000.0      -260992.0      -266943.0      -272857.0
      -278733.0      -284628.0      -290534.0      -296374.0      -302119.0
      -307949.0      -313759.0      -319626.0      -325594.0      -331370.0
      -337198.0      -343039.0      -348666.0      -354286.0      -359889.0
      -365519.0      -371109.0      -376612.0      -382208.0      -387629.0
      -392978.0      -398523.0      -404009.0      -409445.0      -414795.0
      -420079.0      -425438.0      -430760.0      -436029.0      -441136.0
      -446115.0      -451179.0      -456281.0      -461302.0      -466371.0
      -471489.0      -476356.0      -481171.0      -485937.0      -490472.0
      -495190.0      -499950.0      -504565.0      -509068.0      -513259.0
      -517654.0      -522310.0      -526590.0      -530713.0      -534928.0
      -539034.0      -543065.0      -547099.0      -550975.0      -554724.0
      -558629.0      -562477.0      -566132.0      -569858.0      -573405.0
      -576855.0      -580339.0      -583637.0      -587099.0      -590459.0
      -593532.0      -596677.0      -599641.0      -602603.0      -605701.0
      -608665.0      -611452.0      -614054.0      -616729.0      -619380.0
      -621921.0      -624561.0      -626888.0      -629091.0      -631543.0
      -633807.0      -635866.0      -637879.0      -639868.0      -641870.0
      -643904.0      -645802.0      -647451.0      -649251.0      -651041.0
      -652582.0      -654191.0      -655739.0      -657196.0      -658693.0
      -660018.0      -661211.0      -662393.0      -663576.0      -664659.0
      -665577.0      -666533.0      -667331.0      -668069.0      -668913.0
      -669516.0      -670120.0      -670723.0      -671068.0      -671389.0
