     0.05000000      -12345.00      -12345.00   4.576000e+09      -12345.00
   0.0005380000       1859.951      -566.0195      -12345.00      -12345.00
      -12345.00      -12345.00      -12345.00      -12345.00      -12345.00
      -12345.00      -12345.00      -12345.00      -12345.00      -12345.00
      -12345.00      -12345.00      -12345.00      -12345.00      -12345.00
      -12345.00      -12345.00      -12345.00      -12345.00      -12345.00
      -12345.00      -27.12670      -109.3344       110.0000       0.000000
      -42.72450       173.0647      -12345.00       22.00000      -12345.00
      -12345.00      -12345.00      -12345.00      -12345.00      -12345.00
      -12345.00      -12345.00      -12345.00      -12345.00      -12345.00
       7050.492       103.2424       233.5941       63.40941      -12345.00
      -12345.00      -12345.00       90.50000       90.00000      -12345.00
      -12345.00      -12345.00      -12345.00      -12345.00      -12345.00
      -12345.00      -12345.00      -12345.00      -12345.00      -12345.00
      2016       318        11        12        25
        19         6    -12345    -12345     37200
    -12345    -12345    -12345    -12345    -12345
         1    -12345    -12345    -12345    -12345
    -12345    -12345    -12345    -12345    -12345
    -12345    -12345    -12345    -12345    -12345
    -12345    -12345    -12345    -12345    -12345
         1    -12345    -12345    -12345    -12345
RPN     South Island, Ne
00      -12345  -12345  
-12345  -12345  -12345  
-12345  -12345  -12345  
-12345  -12345  -12345  
-12345  -12345  -12345  
-12345  -12345  BH2     
II      -12345  Streckei
[...]
      -78782.00      -77606.00      -77131.00      -76502.00      -75821.00
      -75434.00      -74407.00      -73804.00      -72999.00      -72869.00
      -73107.00      -72634.00      -72613.00      -72135.00      -72311.00
      -72857.00      -73166.00      -73731.00      -73704.00      -74424.00
      -75346.00      -76393.00      -77487.00      -78095.00      -78989.00
      -79766.00      -81175.00      -82908.00      -84119.00      -85580.00
      -87156.00      -88548.00      -90312.00      -91836.00      -93405.00
      -95030.00      -96289.00      -98236.00      -100527.0      -102314.0
      -104217.0      -106355.0      -108154.0      -110595.0      -112856.0
      -114543.0      -116800.0      -118813.0      -121397.0      -123984.0
      -125474.0      -127869.0      -129959.0      -131586.0      -133708.0
      -134937.0      -136697.0      -138579.0      -140079.0      -141748.0
      -143049.0      -144536.0      -145564.0      -146752.0      -148222.0
      -148948.0      -149720.0      -151061.0      -152083.0      -152616.0
      -153114.0      -153685.0      -154574.0      -154566.0      -154817.0
      -155346.0      -155180.0      -155541.0      -155743.0      -155725.0
      -155290.0      -155560.0      -155985.0      -155776.0      -156290.0
      -155918.0      -155500.0      -155981.0      -156051.0      -156182.0
      -156885.0      -156890.0      -155983.0      -156178.0      -156670.0
      -156707.0      -156892.0      -156860.0      -156761.0      -157290.0
      -157879.0      -157445.0      -157323.0      -157503.0      -157682.0
      -157810.0      -158357.0      -159135.0      -158827.0      -158631.0
      -158642.0      -159210.0      -159931.0      -160172.0      -160525.0
      -160699.0      -161697.0      -162759.0      -162854.0      -163394.0
      -164119.0      -164266.0      -163996.0      -164049.0      -164858.0
      -164966.0      -164818.0      -164801.0      -164430.0      -165083.0
      -164735.0      -163712.0      -163729.0      -163349.0      -163552.0
      -163778.0      -163364.0      -162573.0      -162091.0      -162147.0
      -161421.0      -160651.0      -160377.0      -159885.0      -159371.0
      -159057.0      -158277.0      -157966.0      -157615.0      -156877.0
      -156743.0      -155822.0      -155064.0      -155090.0      -154636.0
      -154385.0      -154205.0      -153587.0      -153535.0      -153343.0
      -152125.0      -151464.0      -150971.0      -150000.0      -149399.0
      -148059.0      -146923.0      -146243.0      -144679.0      -143831.0
      -142432.0      -140707.0      -139414.0      -137350.0      -135472.0
      -133158.0      -130619.0      -128117.0      -125456.0      -122502.0
      -119467.0      -116750.0      -113126.0      -109881.0      -106475.0
      -102298.0      -99050.00      -94972.00      -90856.00      -87115.00
      -82778.00      -78821.00      -74101.00      -69552.00      -65348.00
      -60772.00      -56829.00      -52862.00      -48446.00      -44007.00
      -40120.00      -36016.00      -31861.00      -28090.00      -24088.00
      -20128.00      -16135.00      -12118.00      -8011.000      -4016.000
      -210.0000       3896.000       8185.000       12290.00       16448.00
       21157.00       25901.00       30303.00       35061.00       39876.00
       44580.00       49442.00       54082.00       58500.00       63156.00
       68029.00       72708.00       77456.00       82666.00       87553.00
       91773.00       96587.00       101575.0       106489.0       111193.0
       115633.0       120316.0       125155.0       129565.0       133594.0
       138201.0       142252.0       147485.0       152740.0       156366.0
       160904.0       165648.0       170093.0       173892.0       177975.0
       182084.0       185780.0       190130.0       194084.0       197542.0
       201330.0       204800.0       207474.0       211134.0       215114.0
       218538.0       222081.0       225074.0       228425.0       232044.0
       235101.0       238115.0       240767.0       244082.0       247790.0
       250790.0       254290.0       257657.0       260667.0       263576.0
       266199.0       269818.0       273843.0       277347.0       280396.0
       283438.0       287350.0       291117.0       294658.0       298401.0
       302576.0       307459.0       311667.0       316268.0       321556.0
       326143.0       331478.0       336914.0       341767.0       347290.0
       353409.0       359636.0       365455.0       371632.0       378037.0
       384294.0       390606.0       396510.0       403019.0       409957.0
       415860.0       422159.0       429264.0       435341.0       442137.0
       449336.0       455408.0       462600.0       469702.0       476406.0
       483595.0       490290.0       497522.0       505036.0       512421.0
       519347.0       526400.0       534100.0       541480.0       549493.0
       557173.0       564438.0       571487.0       577840.0       585235.0
       592574.0       599227.0       606130.0       612877.0       619016.0
       625573.0       633253.0       639756.0       645656.0       651779.0
       657920.0       664845.0       670873.0       677476.0       683685.0
       689573.0       696743.0       702927.0       709617.0       716082.0
       722293.0       729033.0       735995.0       743349.0       749557.0
       755714.0       762612.0       769292.0       776078.0       782574.0
       788745.0       795522.0       802164.0       808535.0       815373.0
       822454.0       829113.0       835938.0       842768.0       849835.0
       857081.0       863592.0       870672.0       877794.0       884811.0
       891604.0       898022.0       904770.0       911274.0       918055.0
       924144.0       929625.0       935324.0       940483.0       945773.0
       951289.0       956477.0       961106.0       965377.0       969710.0
       973968.0       978008.0       981792.0       985481.0       988955.0
       991762.0       994896.0       998231.0       1000895.       1003272.
       1005494.       1008032.       1010541.       1012191.       1013539.
       1015166.       1016488.       1017559.       1018266.       1018860.
       1019561.       1019627.       1019560.       1019180.       1018778.
       1018004.       1016500.       1015716.       1014509.       1012862.
       1011132.       1008441.       1006178.       1003792.       1001488.
       999843.0       996718.0       993429.0       990759.0       987855.0
       984850.0       981619.0       978888.0       975699.0       972686.0
       969638.0       965635.0       962577.0       959366.0       956036.0
       952984.0       949091.0       944787.0       940725.0       937152.0
       933022.0       928119.0       922952.0       918058.0       913587.0
       908418.0       902838.0       897314.0       891569.0       885686.0
       879055.0       872195.0       866286.0       860201.0       853431.0
       846787.0       839381.0       831631.0       824468.0       816680.0
       808815.0       801119.0       792888.0       784571.0       776090.0
       767707.0       758527.0       749493.0       740624.0       730985.0
       721585.0       711049.0       701221.0       691354.0       680258.0
       669395.0       658106.0       647778.0       636358.0       624086.0
       612706.0       600426.0       588033.0       575137.0       562281.0
       549774.0       536495.0       523248.0       509463.0       495895.0
       482031.0       467071.0       452610.0       438105.0       422604.0
       406497.0       391232.0       375043.0       358526.0       343161.0
       326466.0       309894.0       293578.0       276187.0       258928.0
       241480.0       223520.0       205952.0       187954.0       169917.0
       152187.0       133770.0       115641.0       97694.00       78725.00
       59854.00       42010.00       23463.00       4845.000      -13276.00
      -31896.00      -50814.00      -69492.00      -87979.00      -106315.0
      -124072.0      -142393.0      -160210.0      -177128.0      -194918.0
      -211833.0      -228718.0      -246214.0      -262588.0      -279165.0
      -295423.0      -311572.0      -327285.0      -342093.0      -357569.0
      -372867.0      -386935.0      -401051.0      -415397.0      -428571.0
      -442261.0      -455222.0      -467053.0      -480093.0      -492580.0
      -503872.0      -515777.0      -526835.0      -537361.0      -549498.0
      -559703.0      -569706.0      -580855.0      -589571.0      -599475.0
      -610201.0      -618260.0      -627124.0      -637234.0      -646673.0
      -655405.0      -663566.0      -671820.0      -679704.0      -687801.0
      -695817.0      -702958.0      -710306.0      -717576.0      -725020.0
      -732179.0      -737979.0      -745160.0      -752441.0      -758444.0
      -765828.0      -771036.0      -776848.0      -783689.0      -787715.0
      -793696.0      -798179.0      -802934.0      -808739.0      -811755.0
      -816908.0      -821613.0      -825588.0      -829774.0      -832905.0
      -836983.0      -840685.0      -844020.0      -847519.0      -851031.0
      -854028.0      -856226.0      -858926.0      -861656.0      -863916.0
      -865425.0      -867222.0      -869884.0      -871118.0      -872259.0
      -873857.0      -874710.0      -876438.0      -877523.0      -878343.0
      -880453.0      -881085.0      -881903.0      -882677.0      -883304.0
      -885061.0      -885320.0      -885787.0      -886174.0      -887193.0
      -888299.0      -887833.0      -888083.0      -888744.0      -888948.0
      -888558.0      -889056.0      -888975.0      -889006.0      -889558.0
      -888877.0      -888462.0      -887888.0      -887411.0      -887054.0
      -886287.0      -885340.0      -884062.0      -882566.0      -882039.0
      -881491.0      -880220.0      -879476.0      -877940.0      -877143.0
      -876143.0      -874316.0      -873223.0      -871356.0      -870558.0
      -869286.0      -867101.0      -866166.0      -864737.0      -863177.0
      -861910.0      -860267.0      -858398.0      -856939.0      -855623.0
      -854343.0      -853319.0      -850907.0      -848467.0      -847450.0
      -846080.0      -844129.0      -842227.0      -841234.0      -840075.0
      -838113.0      -836892.0      -835830.0      -834860.0      -834136.0
      -833353.0      -832276.0      -830900.0      -830459.0      -830403.0
      -830389.0      -830927.0      -831442.0      -831860.0      -832333.0
      -833250.0      -834601.0      -836164.0      -837711.0      -839606.0
      -841740.0      -843573.0      -845482.0      -847564.0      -850508.0
      -852976.0      -855313.0      -858315.0      -861466.0      -864598.0
      -867314.0      -871137.0      -875071.0      -879182.0      -883591.0
      -887239.0      -891068.0      -896307.0      -900828.0      -905006.0
      -910992.0      -915445.0      -920184.0      -925382.0      -930119.0
      -935646.0      -941244.0      -946990.0      -952012.0      -957417.0
      -962501.0      -967552.0      -973072.0      -978515.0      -984494.0
      -989823.0      -995518.0      -1001253.      -1006617.      -1012147.
      -1017225.      -1022995.      -1029130.      -1035353.      -1041260.
      -1046604.      -1052614.      -1059427.      -1066321.      -1072599.
      -1078844.      -1085653.      -1092534.      -1099669.      -1107021.
      -1114157.      -1121734.      -1129036.      -1136356.      -1144049.
      -1151420.      -1159408.      -1167758.      -1176009.      -1184453.
      -1192997.      -1201731.      -1210753.      -1219856.      -1229388.
      -1239078.      -1248842.      -1258969.      -1269165.      -1280016.
      -1290515.      -1300909.      -1311900.      -1322412.      -1333486.
      -1344703.      -1355532.      -1367022.      -1378503.      -1389538.
      -1400636.      -1411681.      -1422421.      -1433369.      -1444115.
      -1454670.      -1465699.      -1475926.      -1485907.      -1495771.
      -1505060.      -1514939.      -1524404.      -1533843.      -1543192.
      -1551777.      -1560662.      -1569128.      -1577218.      -1585403.
      -1592989.      -1600384.      -1607972.      -1615244.      -1622034.
      -1628344.      -1634925.      -1641324.      -1647340.      -1653490.
      -1658808.      -1664342.      -1669682.      -1674801.      -1680733.
      -1685824.      -1691065.      -1695784.      -1699929.      -1704933.
      -1709354.      -1713846.      -1717756.      -1721449.      -1725564.
      -1729186.      -1733050.      -1735978.      -1738368.      -1740984.
      -1742859.      -1744451.      -1746426.      -1747992.      -1748617.
      -1748928.      -1748111.      -1747187.      -1746501.      -1744844.
      -1743075.      -1740789.      -1738263.      -1735746.      -1732348.
      -1728297.      -1724008.      -1719298.      -1714027.      -1708727.
      -1702827.      -1696778.      -1690515.      -1682819.      -1675257.
      -1667731.      -1659644.      -1651162.      -1642393.      -1633336.
      -1623087.      -1613207.      -1602651.      -1591453.      -1581015.
      -1569758.      -1558368.      -1546385.      -1534569.      -1522792.
      -1510409.      -1498116.      -1485324.      -1473057.      -1460916.
      -1448704.      -1436580.      -1424228.      -1411896.      -1399638.
      -1387547.      -1375327.      -1363411.      -1351411.      -1339001.
      -1326905.      -1314832.      -1302909.      -1290329.      -1277399.
      -1264584.      -1251100.      -1237551.      -1224090.      -1210802.
      -1196686.      -1182099.      -1167423.      -1152599.      -1137608.
      -1122082.      -1107217.      -1091754.      -1075381.      -1058947.
      -1042638.      -1026227.      -1009140.      -992084.0      -974841.0
      -957445.0      -939767.0      -921213.0      -903084.0      -885759.0
      -867830.0      -849489.0      -831078.0      -812652.0      -793988.0
      -775059.0      -756295.0      -737368.0      -718580.0      -699406.0
      -680144.0      -661640.0      -642703.0      -623200.0      -603916.0
      -584408.0      -564980.0      -545934.0      -526791.0      -507688.0
      -488450.0      -469049.0      -449637.0      -430058.0      -410123.0
      -391214.0      -373068.0      -353930.0      -334756.0      -315567.0
      -296738.0      -277776.0      -258502.0      -240015.0      -221293.0
      -202719.0      -184293.0      -166015.0      -147794.0      -129462.0
      -111055.0      -92525.00      -74391.00      -56518.00      -38659.00
      -20561.00      -2516.000       15689.00       33517.00       51050.00
       68721.00       86300.00       103771.0       121254.0       138439.0
       155384.0       172794.0       189487.0       205984.0       222385.0
       239107.0       256322.0       272428.0       288614.0       304605.0
       320325.0       336023.0       351673.0       367678.0       383242.0
       399116.0       414812.0       430293.0       446130.0       461269.0
       476505.0       491903.0       507146.0       522672.0       537963.0
       553150.0       568225.0       583374.0       598658.0       613574.0
       628924.0       644274.0       659252.0       674299.0       689329.0
       704671.0       719710.0       734855.0       750026.0       765160.0
       780428.0       795323.0       810775.0       825968.0       840769.0
       855230.0       869848.0       884750.0       898761.0       913198.0
       927161.0       940812.0       954374.0       967421.0       981042.0
       994181.0       1006842.       1019048.       1031195.       1043047.
       1054405.       1066255.       1077084.       1087203.       1097738.
       1107379.       1116998.       1126646.       1135236.       1143986.
       1152391.       1160656.       1168696.       1176164.       1183621.
       1190816.       1198077.       1204657.       1210996.       1217147.
       1222839.       1228779.       1234742.       1240708.       1246289.
       1251542.       1257231.       1262531.       1267149.       1272057.
       1276936.       1282315.       1287912.       1292780.       1297671.
       1302620.       1307424.       1312667.       1317810.       1322889.
       1328558.       1333507.       1338276.       1343593.       1348971.
       1354118.       1359291.       1364924.       1370331.       1376163.
       1381988.       1387255.       1393114.       1399330.       1404639.
       1409599.       1414747.       1419961.       1425129.       1429624.
       1434841.       1439610.       1443603.       1448088.       1452300.
       1456562.       1460418.       1464153.       1468207.       1472445.
       1476124.       1479412.       1482859.       1485968.       1489204.
       1492264.       1494805.       1497539.       1500749.       1503744.
       1506581.       1509464.       1512516.       1515044.       1517496.
       1520866.       1523774.       1526680.       1529686.       1532156.
       1534276.       1536176.       1539265.       1542139.       1544118.
       1547257.       1549256.       1550823.       1553488.       1554939.
       1555918.       1557515.       1558682.       1558454.       1559126.
       1558985.       1556929.       1556638.       1555613.       1553730.
       1552524.       1549426.       1545324.       1542146.       1539295.
       1535388.       1530698.       1526242.       1521473.       1517453.
       1513204.       1507308.       1501549.       1496209.       1491235.
       1485262.       1479315.       1474468.       1468299.       1461542.
       1455310.       1449349.       1442905.       1435501.       1428814.
       1422480.       1414956.       1407587.       1400978.       1394075.
       1386176.       1378349.       1370863.       1363010.       1355602.
       1347889.       1340248.       1332979.       1324982.       1317133.
       1310062.       1302578.       1294701.       1287750.       1280455.
       1273098.       1266517.       1259337.       1252957.       1246642.
       1239482.       1233472.       1227397.       1221376.       1215158.
       1209119.       1204207.       1198277.       1192314.       1187249.
