     0.05000000      -12345.00      -12345.00   4.614880e+09      -12345.00
   0.0005380000       1859.951      -566.0195      -12345.00      -12345.00
      -12345.00      -12345.00      -12345.00      -12345.00      -12345.00
      -12345.00      -12345.00      -12345.00      -12345.00      -12345.00
      -12345.00      -12345.00      -12345.00      -12345.00      -12345.00
      -12345.00      -12345.00      -12345.00      -12345.00      -12345.00
      -12345.00      -27.12670      -109.3344       110.0000       0.000000
      -42.72450       173.0647      -12345.00       22.00000      -12345.00
      -12345.00      -12345.00      -12345.00      -12345.00      -12345.00
      -12345.00      -12345.00      -12345.00      -12345.00      -12345.00
       7050.492       103.2424       233.5941       63.40941      -12345.00
      -12345.00      -12345.00      0.1000000       90.00000      -12345.00
      -12345.00      -12345.00      -12345.00      -12345.00      -12345.00
      -12345.00      -12345.00      -12345.00      -12345.00      -12345.00
      2016       318        11        12        25
        19         6    -12345    -12345     37200
    -12345    -12345    -12345    -12345    -12345
         1    -12345    -12345    -12345    -12345
    -12345    -12345    -12345    -12345    -12345
    -12345    -12345    -12345    -12345    -12345
    -12345    -12345    -12345    -12345    -12345
         1    -12345    -12345    -12345    -12345
RPN     South Island, Ne
00      -12345  -12345  
-12345  -12345  -12345  
-12345  -12345  -12345  
-12345  -12345  -12345  
-12345  -12345  -12345  
-12345  -12345  BH1     
II      -12345  Streckei
[...]
      -112667.0      -112559.0      -112730.0      -112367.0      -112485.0
      -112502.0      -112528.0      -112940.0      -113479.0      -113792.0
      -114181.0      -114822.0      -115975.0      -117114.0      -117664.0
      -119038.0      -120368.0      -121984.0      -123750.0      -124666.0
      -125947.0      -127189.0      -128797.0      -130960.0      -132895.0
      -134711.0      -136477.0      -138352.0      -140265.0      -142584.0
      -145187.0      -147764.0      -149975.0      -151971.0      -154265.0
      -156811.0      -159469.0      -161554.0      -163313.0      -165191.0
      -167086.0      -169395.0      -171788.0      -173606.0      -175130.0
      -176796.0      -179263.0      -181730.0      -183638.0      -185690.0
      -187601.0      -189913.0      -192656.0      -195275.0      -197526.0
      -199719.0      -201863.0      -204055.0      -206881.0      -209108.0
      -211145.0      -213432.0      -215527.0      -217892.0      -220098.0
      -222152.0      -224357.0      -226654.0      -229050.0      -231535.0
      -234020.0      -236498.0      -239162.0      -241811.0      -244272.0
      -246830.0      -249520.0      -252430.0      -255144.0      -257719.0
      -260335.0      -262640.0      -265049.0      -267389.0      -269430.0
      -271414.0      -273547.0      -275519.0      -277053.0      -278979.0
      -280848.0      -282136.0      -283713.0      -284942.0      -285854.0
      -286891.0      -287413.0      -288042.0      -288993.0      -289259.0
      -289074.0      -289033.0      -288320.0      -288066.0      -288186.0
      -287373.0      -286420.0      -285166.0      -284609.0      -284384.0
      -283443.0      -282720.0      -281648.0      -280536.0      -279763.0
      -278418.0      -277358.0      -276827.0      -275536.0      -274469.0
      -274189.0      -272825.0      -271548.0      -271344.0      -270422.0
      -269408.0      -268731.0      -267990.0      -266874.0      -266008.0
      -265627.0      -263939.0      -262444.0      -261226.0      -259167.0
      -257313.0      -254901.0      -252605.0      -250667.0      -247754.0
      -244942.0      -241918.0      -237992.0      -234773.0      -231109.0
      -227232.0      -223509.0      -218778.0      -214985.0      -210546.0
      -204970.0      -199908.0      -194448.0      -189052.0      -183413.0
      -177141.0      -170960.0      -164743.0      -158323.0      -151908.0
      -145595.0      -139359.0      -132726.0      -126095.0      -120029.0
      -113827.0      -107906.0      -102541.0      -97089.00      -91466.00
      -85821.00      -80359.00      -75247.00      -70440.00      -65434.00
      -60479.00      -55500.00      -50566.00      -46177.00      -42097.00
      -38273.00      -34119.00      -29853.00      -25549.00      -21664.00
      -18373.00      -14331.00      -10402.00      -6719.000      -3302.000
       235.0000       4818.000       8604.000       12402.00       16341.00
       19911.00       23844.00       27421.00       31353.00       35136.00
       38893.00       42888.00       46733.00       50828.00       55026.00
       59804.00       64704.00       69108.00       73998.00       79540.00
       84645.00       90181.00       95932.00       101523.0       107579.0
       113445.0       118942.0       124244.0       130190.0       136459.0
       142151.0       147730.0       153577.0       158920.0       164044.0
       169698.0       175144.0       180305.0       185545.0       190640.0
       195930.0       201081.0       205901.0       211023.0       215510.0
       219944.0       224527.0       228464.0       232345.0       236307.0
       240277.0       244090.0       248040.0       251430.0       254286.0
       257559.0       260898.0       264146.0       266928.0       269595.0
       271876.0       273960.0       276483.0       278466.0       280219.0
       281868.0       283547.0       284964.0       286093.0       287693.0
       288999.0       290393.0       291690.0       292545.0       293769.0
       294990.0       296585.0       297813.0       299012.0       300698.0
       301888.0       303592.0       305204.0       306933.0       308758.0
       310447.0       312559.0       314705.0       316963.0       318749.0
       321091.0       323583.0       325309.0       327615.0       329823.0
       331480.0       333320.0       335027.0       336592.0       338004.0
       339132.0       340150.0       341327.0       341997.0       342100.0
       342579.0       342767.0       343191.0       343749.0       343763.0
       343671.0       343252.0       343118.0       342713.0       342091.0
       342010.0       341816.0       341500.0       340538.0       339833.0
       339612.0       338560.0       338176.0       338053.0       336973.0
       336563.0       336270.0       335329.0       334679.0       334130.0
       333581.0       332888.0       332170.0       331797.0       331470.0
       330712.0       330330.0       329890.0       328954.0       328766.0
       328343.0       327907.0       327551.0       327249.0       327057.0
       326988.0       326744.0       326025.0       326044.0       324951.0
       324001.0       323292.0       322332.0       322123.0       321015.0
       320433.0       319549.0       317950.0       316484.0       315037.0
       314123.0       312753.0       311264.0       309905.0       308246.0
       306454.0       304751.0       302785.0       300612.0       298670.0
       296571.0       294819.0       292422.0       289287.0       286951.0
       284000.0       280973.0       278643.0       275874.0       273238.0
       270791.0       267952.0       265184.0       262807.0       260062.0
       257215.0       254872.0       252327.0       249440.0       247142.0
       244926.0       242585.0       240761.0       238617.0       236781.0
       235196.0       233118.0       231344.0       230135.0       229088.0
       228010.0       227603.0       227783.0       227695.0       227307.0
       227345.0       228078.0       228924.0       229562.0       230289.0
       231231.0       232821.0       234688.0       236227.0       238418.0
       240842.0       243060.0       245732.0       248282.0       250208.0
       252802.0       255927.0       258927.0       262737.0       265963.0
       268722.0       272415.0       275651.0       278687.0       282270.0
       285929.0       289570.0       293080.0       296812.0       300681.0
       304143.0       307267.0       310421.0       313234.0       316255.0
       319732.0       321981.0       324260.0       327167.0       329478.0
       331448.0       332666.0       334427.0       336118.0       337264.0
       339274.0       340462.0       341514.0       342490.0       343265.0
       344827.0       345273.0       345522.0       346480.0       347112.0
       347501.0       347679.0       348031.0       348122.0       348179.0
       348493.0       348476.0       348574.0       348535.0       348986.0
       349636.0       349643.0       349821.0       350437.0       351698.0
       352294.0       352681.0       353775.0       354860.0       355901.0
       356591.0       357586.0       358791.0       360177.0       361193.0
       361883.0       363062.0       363733.0       364566.0       366081.0
       367515.0       368512.0       369814.0       371076.0       372032.0
       373601.0       374866.0       376243.0       378000.0       379091.0
       379691.0       380538.0       381479.0       382262.0       383341.0
       383669.0       383413.0       383579.0       383749.0       383635.0
       382394.0       381226.0       380631.0       379221.0       377768.0
       375839.0       373760.0       371585.0       368628.0       366242.0
       363798.0       360824.0       357852.0       354821.0       351586.0
       348469.0       345165.0       341389.0       337818.0       334003.0
       329966.0       325918.0       321980.0       317797.0       313160.0
       309049.0       304667.0       300081.0       295882.0       291294.0
       286686.0       282279.0       278043.0       273454.0       268489.0
       263798.0       259614.0       255437.0       250874.0       245538.0
       239948.0       235516.0       231054.0       226404.0       221077.0
       216078.0       211314.0       205513.0       200820.0       195835.0
       190844.0       185920.0       180332.0       175317.0       170215.0
       165506.0       160096.0       154513.0       149610.0       143317.0
       137267.0       132274.0       126146.0       119787.0       114443.0
       108348.0       102556.0       96805.00       90145.00       84864.00
       78758.00       72931.00       67676.00       61164.00       57061.00
       52264.00       46831.00       43484.00       39443.00       35561.00
       31812.00       28650.00       25522.00       22313.00       19661.00
       16851.00       15128.00       13304.00       11510.00       9730.000
       8341.000       7060.000       5505.000       4629.000       2867.000
       2540.000       1892.000       330.0000      -398.0000      -1454.000
      -1286.000      -2763.000      -3801.000      -3921.000      -6039.000
      -6933.000      -8012.000      -9552.000      -11144.00      -12974.00
      -14226.00      -16179.00      -17794.00      -19899.00      -22019.00
      -23971.00      -26785.00      -28007.00      -30717.00      -33567.00
      -35394.00      -39328.00      -41457.00      -43705.00      -47006.00
      -49318.00      -52667.00      -55695.00      -58562.00      -61778.00
      -64712.00      -67857.00      -71087.00      -74264.00      -76903.00
      -80098.00      -83205.00      -85839.00      -89132.00      -91608.00
      -93781.00      -95956.00      -97935.00      -99815.00      -100963.0
      -103318.0      -105143.0      -105862.0      -107116.0      -107951.0
      -109693.0      -110392.0      -110879.0      -112303.0      -113045.0
      -114028.0      -114858.0      -115548.0      -116307.0      -117671.0
      -118738.0      -119637.0      -120733.0      -122102.0      -123443.0
      -124338.0      -126207.0      -127777.0      -129834.0      -132345.0
      -133856.0      -135797.0      -138103.0      -140571.0      -143643.0
      -146738.0      -149577.0      -153036.0      -156707.0      -160240.0
      -164206.0      -168311.0      -172346.0      -176566.0      -181151.0
      -186127.0      -190961.0      -195498.0      -200240.0      -205052.0
      -210645.0      -216450.0      -221435.0      -227051.0      -232642.0
      -237782.0      -243566.0      -249361.0      -255537.0      -261979.0
      -267700.0      -273182.0      -278973.0      -284977.0      -291494.0
      -297865.0      -303336.0      -309628.0      -316319.0      -322224.0
      -328649.0      -335488.0      -342440.0      -349040.0      -354990.0
      -361658.0      -368841.0      -376079.0      -383658.0      -391835.0
      -399755.0      -407395.0      -416257.0      -425283.0      -434585.0
      -444150.0      -453667.0      -464084.0      -474536.0      -485225.0
      -496090.0      -507027.0      -518123.0      -529272.0      -540705.0
      -552455.0      -564888.0      -577351.0      -589654.0      -601812.0
      -614661.0      -627818.0      -640218.0      -652824.0      -665887.0
      -679014.0      -691892.0      -704758.0      -716926.0      -728976.0
      -741602.0      -753829.0      -765948.0      -778213.0      -790060.0
      -801586.0      -813431.0      -824685.0      -835974.0      -847138.0
      -857403.0      -868051.0      -878764.0      -889647.0      -900164.0
      -910399.0      -920405.0      -930382.0      -941203.0      -951088.0
      -960716.0      -970746.0      -980467.0      -990261.0      -999725.0
      -1009188.      -1019343.      -1029063.      -1038503.      -1048403.
      -1057856.      -1067753.      -1077439.      -1087395.      -1098093.
      -1107820.      -1117851.      -1128296.      -1138653.      -1149160.
      -1159571.      -1169728.      -1180229.      -1190752.      -1201197.
      -1212025.      -1222250.      -1232797.      -1243371.      -1253684.
      -1264404.      -1275050.      -1286091.      -1296642.      -1306754.
      -1317274.      -1327744.      -1338234.      -1348536.      -1358239.
      -1368174.      -1378581.      -1388414.      -1397710.      -1406959.
      -1416611.      -1426007.      -1434643.      -1442990.      -1451431.
      -1460019.      -1468026.      -1475881.      -1483531.      -1490617.
      -1497123.      -1503241.      -1509691.      -1515798.      -1521034.
      -1525566.      -1529829.      -1533847.      -1537409.      -1540570.
      -1543493.      -1546267.      -1548474.      -1550371.      -1551600.
      -1552026.      -1552011.      -1551389.      -1550798.      -1550311.
      -1548997.      -1546675.      -1543991.      -1541104.      -1537687.
      -1533812.      -1529576.      -1524843.      -1519714.      -1514289.
      -1508475.      -1502020.      -1495497.      -1488796.      -1481568.
      -1474430.      -1466473.      -1458479.      -1450624.      -1441623.
      -1432813.      -1423396.      -1413589.      -1403889.      -1393275.
      -1383247.      -1372530.      -1361185.      -1350261.      -1338186.
      -1326410.      -1314939.      -1303164.      -1291124.      -1278567.
      -1266480.      -1253957.      -1241247.      -1228480.      -1215774.
      -1203258.      -1189959.      -1176594.      -1162991.      -1149344.
      -1135934.      -1122178.      -1108410.      -1094407.      -1079886.
      -1065716.      -1051130.      -1036429.      -1021874.      -1006361.
      -991386.0      -976227.0      -960636.0      -945720.0      -930486.0
      -914720.0      -898902.0      -883413.0      -867794.0      -851762.0
      -835889.0      -820289.0      -804355.0      -787918.0      -771539.0
      -755550.0      -739629.0      -723676.0      -707529.0      -691634.0
      -675952.0      -659470.0      -644065.0      -628873.0      -612601.0
      -597397.0      -581859.0      -566206.0      -550840.0      -534758.0
      -519501.0      -503970.0      -488077.0      -473088.0      -457724.0
      -442633.0      -428215.0      -413368.0      -398786.0      -384138.0
      -369590.0      -355490.0      -340969.0      -326939.0      -312669.0
      -298228.0      -284637.0      -270621.0      -256455.0      -242107.0
      -227604.0      -213910.0      -200244.0      -186238.0      -172666.0
      -159167.0      -145710.0      -132475.0      -118607.0      -105004.0
      -92262.00      -79392.00      -66249.00      -53093.00      -40274.00
      -27511.00      -14720.00      -2590.000       9717.000       21919.00
       33219.00       44999.00       56929.00       68270.00       79378.00
       90531.00       101928.0       113056.0       123384.0       133365.0
       144148.0       155099.0       165809.0       176218.0       186264.0
       196679.0       206501.0       216239.0       226525.0       236615.0
       246403.0       256052.0       265912.0       275682.0       285332.0
       294807.0       304896.0       315314.0       324985.0       335057.0
       345037.0       354894.0       365088.0       375238.0       385458.0
       394942.0       404574.0       414717.0       424283.0       433466.0
       443182.0       453069.0       462570.0       472322.0       481890.0
       491182.0       500443.0       509772.0       519352.0       528514.0
       537402.0       546593.0       555045.0       563127.0       571483.0
       579323.0       587543.0       595213.0       602282.0       609962.0
       616967.0       623769.0       630414.0       636601.0       642855.0
       649027.0       654755.0       660668.0       666874.0       672125.0
       677943.0       683527.0       688277.0       693373.0       697647.0
       702140.0       706840.0       710952.0       715102.0       718707.0
       721985.0       725244.0       728095.0       731094.0       734161.0
       736444.0       738813.0       741252.0       742486.0       744397.0
       746239.0       747173.0       748620.0       749450.0       750407.0
       751178.0       751343.0       751759.0       751981.0       751985.0
       751921.0       751765.0       751687.0       751860.0       751908.0
       752239.0       752288.0       752179.0       752803.0       753249.0
       753450.0       753849.0       754613.0       755461.0       755920.0
       756939.0       758424.0       759310.0       760470.0       761575.0
       762738.0       764483.0       765681.0       767081.0       768504.0
       769888.0       771810.0       773559.0       775269.0       776942.0
       778718.0       780440.0       782468.0       784952.0       787020.0
       788922.0       790863.0       792721.0       794922.0       797479.0
       800434.0       803267.0       805026.0       807632.0       810332.0
       812332.0       814850.0       817052.0       819890.0       822340.0
       824533.0       827509.0       830505.0       833388.0       836183.0
       839336.0       842053.0       844935.0       848115.0       851730.0
       855220.0       858081.0       861840.0       865547.0       868727.0
       871703.0       874867.0       878241.0       881226.0       884028.0
       887173.0       890725.0       893374.0       895633.0       898214.0
       900481.0       903232.0       905887.0       907185.0       908658.0
       910660.0       911999.0       913417.0       914681.0       915703.0
       916425.0       916759.0       917464.0       917135.0       917270.0
       917369.0       915527.0       914896.0       914308.0       913085.0
       912443.0       910457.0       908157.0       906231.0       904247.0
       902142.0       899007.0       896368.0       894298.0       890981.0
       887473.0       884095.0       880141.0       876940.0       873278.0
       868338.0       864802.0       860782.0       855485.0       850974.0
       846175.0       841575.0       836337.0       830382.0       825329.0
       819591.0       813696.0       807830.0       801030.0       795050.0
       789389.0       782873.0       776133.0       769157.0       762094.0
       755067.0       748166.0       741337.0       733998.0       726663.0
