     0.05000000      -12345.00      -12345.00   5.288700e+09      -12345.00
   0.0005380000       1859.951      -566.0195      -12345.00      -12345.00
      -12345.00      -12345.00      -12345.00      -12345.00      -12345.00
      -12345.00      -12345.00      -12345.00      -12345.00      -12345.00
      -12345.00      -12345.00      -12345.00      -12345.00      -12345.00
      -12345.00      -12345.00      -12345.00      -12345.00      -12345.00
      -12345.00      -27.12670      -109.3344       110.0000       0.000000
      -42.72450       173.0647      -12345.00       22.00000      -12345.00
      -12345.00      -12345.00      -12345.00      -12345.00      -12345.00
      -12345.00      -12345.00      -12345.00      -12345.00      -12345.00
       7050.492       103.2424       233.5941       63.40941      -12345.00
      -12345.00      -12345.00       0.000000       0.000000      -12345.00
      -12345.00      -12345.00      -12345.00      -12345.00      -12345.00
      -12345.00      -12345.00      -12345.00      -12345.00      -12345.00
      2016       318        11        12        25
        19         6    -12345    -12345     37200
    -12345    -12345    -12345    -12345    -12345
         1    -12345    -12345    -12345    -12345
    -12345    -12345    -12345    -12345    -12345
    -12345    -12345    -12345    -12345    -12345
    -12345    -12345    -12345    -12345    -12345
         1    -12345    -12345    -12345    -12345
RPN     South Island, Ne
00      -12345  -12345  
-12345  -12345  -12345  
-12345  -12345  -12345  
-12345  -12345  -12345  
-12345  -12345  -12345  
-12345  -12345  BHZ     
II      -12345  Streckei
[...]
      -496780.0      -508469.0      -519410.0      -532531.0      -543411.0
      -554947.0      -565719.0      -576684.0      -588397.0      -597650.0
      -607796.0      -617728.0      -627663.0      -637800.0      -647235.0
      -656284.0      -665410.0      -674089.0      -682002.0      -691015.0
      -699070.0      -706109.0      -713099.0      -720003.0      -726042.0
      -731215.0      -736883.0      -742319.0      -746465.0      -751588.0
      -755626.0      -757839.0      -762047.0      -765006.0      -768204.0
      -770678.0      -772170.0      -775112.0      -776425.0      -777763.0
      -778929.0      -779690.0      -780397.0      -780997.0      -781640.0
      -781963.0      -781552.0      -780717.0      -780514.0      -779819.0
      -779206.0      -777695.0      -775735.0      -774300.0      -772552.0
      -770571.0      -768570.0      -765914.0      -762019.0      -758936.0
      -755606.0      -752077.0      -748676.0      -744453.0      -740079.0
      -735257.0      -730327.0      -725030.0      -719472.0      -713419.0
      -706734.0      -699830.0      -692633.0      -685008.0      -677096.0
      -668517.0      -659330.0      -649677.0      -639617.0      -630538.0
      -620868.0      -610544.0      -600087.0      -588722.0      -577454.0
      -565970.0      -554387.0      -542723.0      -530711.0      -518552.0
      -505791.0      -492541.0      -479377.0      -466253.0      -452620.0
      -438857.0      -424710.0      -410305.0      -396404.0      -381493.0
      -366213.0      -351144.0      -335207.0      -319314.0      -303295.0
      -287241.0      -271502.0      -255485.0      -239464.0      -222951.0
      -205794.0      -188706.0      -171319.0      -153849.0      -136210.0
      -118184.0      -99992.00      -81217.00      -62583.00      -44044.00
      -24678.00      -4739.000       14975.00       34831.00       55341.00
       75501.00       95894.00       117088.0       137916.0       159008.0
       180429.0       201637.0       223447.0       245748.0       268087.0
       290493.0       312938.0       335296.0       357483.0       379679.0
       402694.0       425627.0       448195.0       470827.0       493126.0
       515456.0       537906.0       560695.0       583230.0       605559.0
       627635.0       649865.0       672002.0       693409.0       715640.0
       737680.0       758957.0       780763.0       802831.0       824803.0
       846655.0       867953.0       889372.0       911609.0       933453.0
       954835.0       975801.0       996582.0       1017961.       1038751.
       1059233.       1079534.       1099575.       1119873.       1139615.
       1159450.       1179099.       1197907.       1217396.       1237139.
       1255804.       1274839.       1293877.       1312480.       1331108.
       1348915.       1366645.       1384177.       1401197.       1418332.
       1435412.       1451755.       1468122.       1484482.       1500463.
       1516585.       1532408.       1547992.       1563333.       1578038.
       1592518.       1607544.       1622199.       1636234.       1649429.
       1662539.       1675574.       1687735.       1700586.       1713009.
       1724192.       1735446.       1746222.       1755516.       1764810.
       1773688.       1781910.       1789794.       1796457.       1803249.
       1809545.       1815661.       1821742.       1826610.       1831428.
       1836041.       1839844.       1843913.       1847993.       1850989.
       1854011.       1856367.       1857916.       1860224.       1861727.
       1862122.       1862237.       1862202.       1861779.       1860731.
       1859548.       1857735.       1855499.       1853150.       1850142.
       1846740.       1843137.       1839154.       1834632.       1829469.
       1824500.       1819195.       1813299.       1807550.       1801047.
       1794323.       1787944.       1780739.       1773044.       1764695.
       1755397.       1746871.       1738323.       1729421.       1719903.
       1709957.       1699674.       1689261.       1679916.       1668829.
       1657519.       1646182.       1634488.       1622230.       1609184.
       1597398.       1583575.       1569386.       1555605.       1541277.
       1526672.       1511133.       1496026.       1480446.       1464358.
       1448026.       1431929.       1415616.       1398312.       1380883.
       1363493.       1345546.       1327197.       1309015.       1289653.
       1270846.       1251780.       1231251.       1211827.       1191924.
       1171114.       1150746.       1131258.       1110409.       1089457.
       1068450.       1045777.       1025149.       1004082.       982047.0
       960042.0       937313.0       915001.0       892776.0       870939.0
       848811.0       826565.0       803630.0       780463.0       758019.0
       735222.0       713078.0       690784.0       667559.0       644559.0
       621290.0       598180.0       575363.0       551974.0       528735.0
       505575.0       482325.0       459423.0       436451.0       413492.0
       390178.0       367404.0       344980.0       321708.0       298606.0
       275883.0       253503.0       230655.0       207900.0       185339.0
       162360.0       139898.0       117446.0       94887.00       72910.00
       51326.00       29143.00       6771.000      -15343.00      -36920.00
      -58744.00      -80862.00      -102801.0      -124789.0      -146258.0
      -168367.0      -190117.0      -212191.0      -234426.0      -255849.0
      -276963.0      -298552.0      -320903.0      -341403.0      -362781.0
      -384087.0      -404841.0      -426938.0      -447930.0      -468348.0
      -488360.0      -508286.0      -528473.0      -549143.0      -568978.0
      -588288.0      -608225.0      -626927.0      -645572.0      -665228.0
      -684157.0      -702108.0      -721050.0      -738863.0      -756096.0
      -775544.0      -793488.0      -810210.0      -826871.0      -843588.0
      -860763.0      -876543.0      -893475.0      -910068.0      -924077.0
      -939981.0      -956043.0      -969409.0      -984251.0      -999991.0
      -1014426.      -1027790.      -1041790.      -1057316.      -1069821.
      -1082434.      -1096449.      -1108922.      -1120722.      -1132944.
      -1145934.      -1156795.      -1167258.      -1179063.      -1190194.
      -1199421.      -1208948.      -1218927.      -1227253.      -1236559.
      -1246209.      -1254727.      -1263445.      -1271084.      -1278953.
      -1286315.      -1292579.      -1299636.      -1305777.      -1312176.
      -1318207.      -1323700.      -1328886.      -1333889.      -1338901.
      -1342595.      -1346736.      -1350508.      -1352875.      -1355835.
      -1359160.      -1361372.      -1362649.      -1363161.      -1364404.
      -1365676.      -1366797.      -1367714.      -1368257.      -1368889.
      -1368344.      -1368564.      -1367952.      -1367536.      -1367888.
      -1367264.      -1366818.      -1364796.      -1363297.      -1362072.
      -1360323.      -1358350.      -1356135.      -1354358.      -1351427.
      -1348907.      -1346265.      -1342748.      -1339415.      -1335768.
      -1331454.      -1326970.      -1322056.      -1316899.      -1311719.
      -1305843.      -1299492.      -1292294.      -1285779.      -1279060.
      -1271079.      -1263146.      -1254478.      -1245415.      -1236119.
      -1226730.      -1217355.      -1206876.      -1195945.      -1185149.
      -1173374.      -1161021.      -1148684.      -1135931.      -1122747.
      -1109767.      -1096648.      -1082556.      -1068144.      -1053406.
      -1038559.      -1023398.      -1007691.      -991961.0      -975915.0
      -959650.0      -943281.0      -926242.0      -908743.0      -891590.0
      -874281.0      -856187.0      -837592.0      -819023.0      -800244.0
      -781541.0      -762876.0      -743749.0      -724422.0      -704697.0
      -685259.0      -666162.0      -646295.0      -626279.0      -606511.0
      -585566.0      -564806.0      -544684.0      -523691.0      -503006.0
      -481837.0      -460109.0      -438974.0      -417632.0      -395390.0
      -373321.0      -352025.0      -330109.0      -308338.0      -286659.0
      -264105.0      -241557.0      -220292.0      -199383.0      -177640.0
      -156556.0      -134923.0      -112177.0      -90478.00      -69014.00
      -47235.00      -25910.00      -4336.000       17575.00       39587.00
       61667.00       83175.00       104425.0       126082.0       147431.0
       167806.0       188303.0       209281.0       230024.0       250488.0
       270997.0       291974.0       313046.0       333645.0       354609.0
       375911.0       396270.0       416912.0       438009.0       459010.0
       480327.0       501153.0       521726.0       541889.0       562353.0
       582946.0       602919.0       623006.0       642617.0       662237.0
       682088.0       701844.0       721129.0       740069.0       758878.0
       777132.0       795341.0       813210.0       830476.0       847237.0
       863683.0       879710.0       895410.0       910826.0       925840.0
       940746.0       954662.0       968775.0       982871.0       995391.0
       1007692.       1019657.       1031403.       1042825.       1053503.
       1063962.       1074019.       1083461.       1092590.       1101421.
       1109240.       1116898.       1124269.       1131738.       1139241.
       1145271.       1151163.       1156837.       1162004.       1167143.
       1171832.       1176060.       1179699.       1183625.       1187486.
       1190502.       1193539.       1195798.       1197339.       1198470.
       1199128.       1199708.       1199751.       1200147.       1200180.
       1199545.       1199319.       1198826.       1197083.       1194452.
       1192264.       1189896.       1186763.       1183391.       1179197.
       1174313.       1170000.       1165388.       1159637.       1153003.
       1145550.       1137455.       1129002.       1121098.       1112516.
       1102999.       1093663.       1083517.       1072673.       1061666.
       1050361.       1038787.       1027228.       1015400.       1003108.
       990096.0       976035.0       962579.0       949291.0       935133.0
       920265.0       905051.0       889827.0       874211.0       858764.0
       843116.0       827188.0       810323.0       793214.0       776874.0
       760042.0       742977.0       725383.0       707518.0       689642.0
       671720.0       653828.0       635316.0       616186.0       597041.0
       578578.0       559686.0       540311.0       521035.0       501284.0
       481023.0       460651.0       440411.0       420214.0       399754.0
       378681.0       357524.0       335704.0       313491.0       291832.0
       269765.0       247424.0       224927.0       202273.0       179766.0
       156551.0       133119.0       110044.0       86691.00       63004.00
       38822.00       14348.00      -10012.00      -34283.00      -58793.00
      -84145.00      -109665.0      -134684.0      -160080.0      -185683.0
      -211511.0      -237370.0      -263129.0      -289087.0      -315059.0
      -341330.0      -367002.0      -392997.0      -419415.0      -445706.0
      -472303.0      -498834.0      -525582.0      -551563.0      -577058.0
      -602888.0      -628654.0      -654196.0      -679111.0      -704092.0
      -729217.0      -754004.0      -778505.0      -802366.0      -826170.0
      -849368.0      -872235.0      -895402.0      -918002.0      -940447.0
      -962341.0      -983776.0      -1005150.      -1026023.      -1047268.
      -1068274.      -1088460.      -1109193.      -1129843.      -1150467.
      -1171493.      -1192099.      -1212442.      -1232467.      -1252800.
      -1272734.      -1291702.      -1311147.      -1330146.      -1348534.
      -1367092.      -1385128.      -1402723.      -1420209.      -1437784.
      -1455464.      -1472536.      -1489587.      -1506790.      -1523407.
      -1539615.      -1555610.      -1571789.      -1586892.      -1601627.
      -1616315.      -1630357.      -1644504.      -1657981.      -1671358.
      -1684294.      -1697104.      -1709760.      -1722005.      -1734464.
      -1746174.      -1758002.      -1770224.      -1781715.      -1793284.
      -1805621.      -1817112.      -1828441.      -1839835.      -1850357.
      -1861134.      -1871650.      -1881780.      -1891472.      -1900916.
      -1910032.      -1918477.      -1926749.      -1934388.      -1941307.
      -1947579.      -1953950.      -1959478.      -1964339.      -1969331.
      -1973489.      -1978114.      -1981491.      -1983578.      -1986552.
      -1987925.      -1988738.      -1990185.      -1989965.      -1989581.
      -1988600.      -1986679.      -1985102.      -1982929.      -1981024.
      -1977723.      -1973874.      -1970453.      -1966135.      -1961969.
      -1956687.      -1951876.      -1946479.      -1939000.      -1932503.
      -1925581.      -1918387.      -1911249.      -1902503.      -1894489.
      -1886649.      -1877771.      -1869349.      -1860808.      -1851411.
      -1841111.      -1830850.      -1820452.      -1809239.      -1797727.
      -1786387.      -1774680.      -1761600.      -1748094.      -1734870.
      -1721438.      -1707671.      -1693764.      -1679554.      -1664922.
      -1649702.      -1633672.      -1617334.      -1600791.      -1583668.
      -1565849.      -1547722.      -1529508.      -1510615.      -1491091.
      -1471484.      -1451668.      -1430844.      -1409604.      -1388798.
      -1367205.      -1344565.      -1321854.      -1299566.      -1276738.
      -1252785.      -1229136.      -1205602.      -1181694.      -1158077.
      -1134132.      -1109747.      -1085086.      -1060799.      -1036694.
      -1011040.      -985359.0      -960155.0      -934468.0      -908584.0
      -882232.0      -855716.0      -828848.0      -802035.0      -775197.0
      -747897.0      -721216.0      -694394.0      -667183.0      -639970.0
      -612103.0      -584101.0      -555764.0      -527318.0      -499325.0
      -470918.0      -442224.0      -413263.0      -383912.0      -355244.0
      -326681.0      -297764.0      -269393.0      -240617.0      -211863.0
      -183204.0      -154024.0      -125603.0      -96779.00      -67997.00
      -39742.00      -10912.00       17586.00       46186.00       74130.00
       102213.0       130735.0       158170.0       185865.0       213153.0
       240245.0       267569.0       294765.0       321775.0       348399.0
       374911.0       401003.0       427506.0       453776.0       479707.0
       505370.0       530456.0       556021.0       581294.0       606297.0
       631407.0       655919.0       680202.0       704447.0       728674.0
       752827.0       776064.0       799465.0       823147.0       846308.0
       869251.0       891463.0       913768.0       935610.0       957126.0
       979025.0       1000121.       1020914.       1041466.       1061483.
       1081051.       1100087.       1118901.       1137084.       1154134.
       1170852.       1187453.       1203469.       1219681.       1235415.
       1249709.       1263971.       1278191.       1291825.       1305391.
       1318087.       1329709.       1341075.       1351718.       1361829.
       1371505.       1380606.       1389145.       1396854.       1404611.
       1411813.       1418240.       1424472.       1430173.       1435397.
       1440365.       1444640.       1448056.       1451561.       1454533.
       1457111.       1459328.       1460356.       1461303.       1461970.
       1462090.       1461378.       1460415.       1459812.       1457894.
       1455732.       1453407.       1450393.       1446957.       1442511.
       1437874.       1432550.       1427171.       1421553.       1415238.
       1408623.       1400904.       1392657.       1383690.       1374358.
       1364309.       1353379.       1342123.       1330151.       1317886.
       1305182.       1291630.       1277146.       1262214.       1246612.
       1230502.       1214604.       1198311.       1181082.       1163434.
       1145500.       1126440.       1107420.       1088774.       1069214.
       1049807.       1030120.       1009390.       988336.0       967115.0
       946175.0       924709.0       902833.0       880845.0       858497.0
       836140.0       813236.0       789809.0       765992.0       741985.0
       718025.0       694138.0       670100.0       645602.0       620786.0
       595634.0       570365.0       544828.0       518373.0       491645.0
       465214.0       438454.0       411350.0       383952.0       356131.0
       328488.0       300733.0       272385.0       243791.0       215411.0
       186917.0       157488.0       128277.0       99052.00       69415.00
       39963.00       9842.000      -19920.00      -49534.00      -79623.00
      -109525.0      -139638.0      -169448.0      -199683.0      -229906.0
      -259509.0      -289550.0      -319105.0      -348245.0      -377049.0
      -405668.0      -434315.0      -462765.0      -491716.0      -520339.0
      -548250.0      -576482.0      -604872.0      -632804.0      -660670.0
      -687942.0      -715160.0      -742833.0      -770140.0      -797234.0
      -823945.0      -850611.0      -876859.0      -903195.0      -929636.0
      -955475.0      -980853.0      -1006061.      -1031080.      -1055424.
      -1080138.      -1104733.      -1129283.      -1153526.      -1176840.
      -1200764.      -1224544.      -1247439.      -1270298.      -1292507.
      -1314109.      -1335731.      -1356871.      -1377616.      -1398325.
      -1418864.      -1438504.      -1458122.      -1478222.      -1497341.
      -1516396.      -1535670.      -1554020.      -1572214.      -1589807.
      -1607064.      -1624832.      -1641697.      -1657847.      -1673309.
      -1688295.      -1703020.      -1717111.      -1731342.      -1744931.
      -1758020.      -1771365.      -1784332.      -1796510.      -1808637.
      -1820682.      -1831640.      -1842328.      -1853033.      -1863118.
      -1873112.      -1882469.      -1890884.      -1899178.      -1906947.
