     0.02500000      -12345.00      -12345.00   2.054640e+09      -12345.00
   0.0005380000       1859.976      -389.0196      -12345.00      -12345.00
      -12345.00      -12345.00      -12345.00      -12345.00      -12345.00
      -12345.00      -12345.00      -12345.00      -12345.00      -12345.00
      -12345.00      -12345.00      -12345.00      -12345.00      -12345.00
      -12345.00      -12345.00      -12345.00      -12345.00      -12345.00
      -12345.00      -19.93360       134.3600       366.0000       0.000000
      -42.72450       173.0647      -12345.00       22.00000      -12345.00
      -12345.00      -12345.00      -12345.00      -12345.00      -12345.00
      -12345.00      -12345.00      -12345.00      -12345.00      -12345.00
       4406.955       292.7408       133.7505       39.63445      -12345.00
      -12345.00      -12345.00       59.00000       90.00000      -12345.00
      -12345.00      -12345.00      -12345.00      -12345.00      -12345.00
      -12345.00      -12345.00      -12345.00      -12345.00      -12345.00
      2016       318        11         9        28
        19         6    -12345    -12345     74400
    -12345    -12345    -12345    -12345    -12345
         1    -12345    -12345    -12345    -12345
    -12345    -12345    -12345    -12345    -12345
    -12345    -12345    -12345    -12345    -12345
    -12345    -12345    -12345    -12345    -12345
         1    -12345    -12345    -12345    -12345
WRAB    South Island, Ne
10      -12345  -12345  
-12345  -12345  -12345  
-12345  -12345  -12345  
-12345  -12345  -12345  
-12345  -12345  -12345  
-12345  -12345  BH2     
II      -12345  Nanometr
[...]
      -771398.0      -764978.0      -758544.0      -752087.0      -745594.0
      -739090.0      -732541.0      -725982.0      -719415.0      -712812.0
      -706195.0      -699542.0      -692877.0      -686189.0      -679475.0
      -672731.0      -665940.0      -659148.0      -652340.0      -645523.0
      -638676.0      -631809.0      -624948.0      -618058.0      -611166.0
      -604233.0      -597321.0      -590418.0      -583489.0      -576572.0
      -569619.0      -562668.0      -555726.0      -548781.0      -541833.0
      -534878.0      -527930.0      -520979.0      -514008.0      -507057.0
      -500171.0      -493270.0      -486367.0      -479500.0      -472627.0
      -465750.0      -458898.0      -452065.0      -445227.0      -438366.0
      -431540.0      -424788.0      -418042.0      -411283.0      -404540.0
      -397819.0      -391112.0      -384461.0      -377826.0      -371197.0
      -364643.0      -358066.0      -351498.0      -345017.0      -338546.0
      -332080.0      -325670.0      -319313.0      -312990.0      -306658.0
      -300367.0      -294147.0      -287935.0      -281783.0      -275663.0
      -269541.0      -263493.0      -257462.0      -251469.0      -245509.0
      -239543.0      -233649.0      -227777.0      -221924.0      -216110.0
      -210320.0      -204565.0      -198833.0      -193142.0      -187490.0
      -181862.0      -176249.0      -170673.0      -165140.0      -159620.0
      -154133.0      -148682.0      -143252.0      -137853.0      -132475.0
      -127141.0      -121831.0      -116536.0      -111299.0      -106073.0
      -100878.0      -95713.00      -90586.00      -85518.00      -80449.00
      -75426.00      -70441.00      -65472.00      -60540.00      -55630.00
      -50761.00      -45926.00      -41144.00      -36396.00      -31663.00
      -26965.00      -22278.00      -17640.00      -13020.00      -8381.000
      -3803.000       787.0000       5377.000       9877.000       14407.00
       18917.00       23366.00       27834.00       32247.00       36666.00
       41095.00       45492.00       49890.00       54264.00       58650.00
       63006.00       67360.00       71710.00       76036.00       80393.00
       84724.00       89066.00       93419.00       97756.00       102118.0
       106481.0       110851.0       115225.0       119603.0       124027.0
       128477.0       132938.0       137423.0       141930.0       146439.0
       150976.0       155557.0       160140.0       164744.0       169403.0
       174078.0       178772.0       183524.0       188319.0       193136.0
       197989.0       202844.0       207726.0       212694.0       217697.0
       222721.0       227777.0       232872.0       238016.0       243189.0
       248400.0       253641.0       258922.0       264260.0       269599.0
       274982.0       280415.0       285869.0       291381.0       296927.0
       302519.0       308155.0       313823.0       319527.0       325255.0
       331026.0       336854.0       342719.0       348580.0       354483.0
       360419.0       366379.0       372402.0       378440.0       384532.0
       390661.0       396801.0       402996.0       409210.0       415477.0
       421773.0       428084.0       434445.0       440802.0       447188.0
       453612.0       460037.0       466496.0       472971.0       479470.0
       485975.0       492484.0       499029.0       505565.0       512111.0
       518667.0       525225.0       531803.0       538354.0       544923.0
       551499.0       558027.0       564566.0       571119.0       577662.0
       584190.0       590711.0       597227.0       603714.0       610202.0
       616685.0       623140.0       629594.0       636038.0       642468.0
       648908.0       655340.0       661759.0       668166.0       674571.0
       680968.0       687350.0       693728.0       700100.0       706466.0
       712830.0       719190.0       725543.0       731872.0       738199.0
       744526.0       750836.0       757141.0       763425.0       769696.0
       775966.0       782203.0       788440.0       794667.0       800855.0
       807040.0       813202.0       819334.0       825451.0       831528.0
       837592.0       843629.0       849621.0       855604.0       861551.0
       867464.0       873354.0       879213.0       885053.0       890847.0
       896619.0       902360.0       908067.0       913768.0       919426.0
       925063.0       930677.0       936235.0       941775.0       947294.0
       952773.0       958232.0       963671.0       969069.0       974429.0
       979775.0       985078.0       990352.0       995600.0       1000792.
       1005960.       1011112.       1016260.       1021381.       1026475.
       1031534.       1036542.       1041547.       1046518.       1051462.
       1056406.       1061330.       1066229.       1071101.       1075969.
       1080803.       1085619.       1090413.       1095161.       1099899.
       1104610.       1109293.       1113945.       1118571.       1123183.
       1127761.       1132313.       1136851.       1141364.       1145836.
       1150312.       1154777.       1159201.       1163615.       1168001.
       1172351.       1176662.       1180929.       1185157.       1189363.
       1193532.       1197659.       1201777.       1205848.       1209890.
       1213901.       1217867.       1221823.       1225733.       1229606.
       1233442.       1237229.       1240997.       1244725.       1248408.
       1252048.       1255646.       1259212.       1262747.       1266244.
       1269686.       1273094.       1276471.       1279811.       1283111.
       1286349.       1289556.       1292727.       1295845.       1298929.
       1301964.       1304954.       1307902.       1310795.       1313651.
       1316463.       1319227.       1321950.       1324629.       1327262.
       1329844.       1332403.       1334920.       1337386.       1339830.
       1342212.       1344531.       1346800.       1349026.       1351222.
       1353362.       1355458.       1357527.       1359545.       1361511.
       1363427.       1365292.       1367107.       1368878.       1370622.
       1372320.       1373971.       1375591.       1377175.       1378715.
       1380215.       1381675.       1383093.       1384493.       1385867.
       1387186.       1388477.       1389727.       1390933.       1392121.
       1393269.       1394367.       1395441.       1396470.       1397452.
       1398410.       1399331.       1400208.       1401027.       1401817.
       1402555.       1403245.       1403918.       1404520.       1405091.
       1405619.       1406089.       1406531.       1406923.       1407278.
       1407593.       1407869.       1408106.       1408300.       1408450.
       1408561.       1408628.       1408648.       1408643.       1408593.
       1408505.       1408376.       1408200.       1407979.       1407700.
       1407391.       1407024.       1406603.       1406149.       1405636.
       1405076.       1404455.       1403781.       1403065.       1402285.
       1401463.       1400579.       1399635.       1398631.       1397562.
       1396434.       1395232.       1393967.       1392611.       1391174.
       1389676.       1388090.       1386420.       1384669.       1382830.
       1380900.       1378882.       1376766.       1374554.       1372260.
       1369870.       1367380.       1364799.       1362118.       1359345.
       1356478.       1353506.       1350446.       1347276.       1344002.
       1340636.       1337150.       1333581.       1329906.       1326115.
       1322235.       1318246.       1314150.       1309938.       1305624.
       1301215.       1296696.       1292080.       1287361.       1282533.
       1277613.       1272595.       1267471.       1262244.       1256909.
       1251473.       1245932.       1240271.       1234504.       1228640.
       1222675.       1216609.       1210447.       1204194.       1197850.
       1191400.       1184846.       1178201.       1171452.       1164598.
       1157652.       1150614.       1143463.       1136225.       1128885.
       1121427.       1113885.       1106239.       1098498.       1090670.
       1082745.       1074735.       1066621.       1058407.       1050101.
       1041697.       1033194.       1024587.       1015884.       1007074.
       998164.0       989155.0       980040.0       970840.0       961531.0
       952124.0       942648.0       933064.0       923388.0       913637.0
       903787.0       893864.0       883847.0       873745.0       863578.0
       853319.0       842979.0       832561.0       822062.0       811477.0
       800812.0       790067.0       779252.0       768374.0       757415.0
       746388.0       735290.0       724109.0       712854.0       701529.0
       690143.0       678695.0       667173.0       655605.0       643966.0
       632259.0       620512.0       608690.0       596816.0       584889.0
       572917.0       560900.0       548830.0       536727.0       524565.0
       512364.0       500128.0       487854.0       475557.0       463220.0
       450859.0       438473.0       426054.0       413617.0       401153.0
       388662.0       376160.0       363627.0       351070.0       338502.0
       325909.0       313308.0       300699.0       288090.0       275486.0
       262865.0       250243.0       237624.0       225001.0       212385.0
       199773.0       187167.0       174571.0       161971.0       149361.0
       136767.0       124174.0       111586.0       99017.00       86442.00
       73855.00       61280.00       48729.00       36174.00       23629.00
       11095.00      -1436.000      -13960.00      -26481.00      -38978.00
      -51475.00      -63946.00      -76405.00      -88889.00      -101364.0
      -113834.0      -126302.0      -138774.0      -151248.0      -163724.0
      -176200.0      -188665.0      -201149.0      -213631.0      -226101.0
      -238589.0      -251079.0      -263564.0      -276062.0      -288558.0
      -301051.0      -313545.0      -326035.0      -338524.0      -351015.0
      -363511.0      -376014.0      -388530.0      -401052.0      -413574.0
      -426097.0      -438615.0      -451131.0      -463636.0      -476127.0
      -488629.0      -501134.0      -513624.0      -526100.0      -538572.0
      -551044.0      -563489.0      -575916.0      -588354.0      -600770.0
      -613181.0      -625598.0      -637992.0      -650372.0      -662741.0
      -675091.0      -687423.0      -699747.0      -712041.0      -724307.0
      -736572.0      -748801.0      -760992.0      -773139.0      -785241.0
      -797332.0      -809396.0      -821423.0      -833407.0      -845347.0
      -857243.0      -869090.0      -880901.0      -892702.0      -904439.0
      -916129.0      -927807.0      -939420.0      -950994.0      -962503.0
      -973972.0      -985440.0      -996844.0      -1008202.      -1019524.
      -1030797.      -1042024.      -1053204.      -1064325.      -1075394.
      -1086421.      -1097398.      -1108335.      -1119197.      -1129997.
      -1140757.      -1151444.      -1162056.      -1172604.      -1183099.
      -1193524.      -1203882.      -1214169.      -1224380.      -1234530.
      -1244615.      -1254638.      -1264594.      -1274474.      -1284283.
      -1294025.      -1303688.      -1313287.      -1322817.      -1332260.
      -1341634.      -1350933.      -1360163.      -1369322.      -1378397.
      -1387385.      -1396278.      -1405099.      -1413844.      -1422511.
      -1431109.      -1439609.      -1448025.      -1456357.      -1464605.
      -1472774.      -1480848.      -1488836.      -1496741.      -1504562.
      -1512279.      -1519902.      -1527433.      -1534854.      -1542187.
      -1549426.      -1556570.      -1563610.      -1570546.      -1577391.
      -1584121.      -1590748.      -1597272.      -1603675.      -1609974.
      -1616168.      -1622259.      -1628246.      -1634117.      -1639878.
      -1645528.      -1651052.      -1656465.      -1661758.      -1666939.
      -1672011.      -1676960.      -1681803.      -1686534.      -1691147.
      -1695653.      -1700049.      -1704336.      -1708510.      -1712565.
      -1716497.      -1720335.      -1724066.      -1727677.      -1731197.
      -1734612.      -1737907.      -1741095.      -1744177.      -1747149.
      -1750014.      -1752771.      -1755416.      -1757965.      -1760406.
      -1762727.      -1764949.      -1767079.      -1769091.      -1770998.
      -1772820.      -1774530.      -1776132.      -1777636.      -1779032.
      -1780332.      -1781532.      -1782622.      -1783603.      -1784472.
      -1785228.      -1785874.      -1786416.      -1786844.      -1787156.
      -1787373.      -1787476.      -1787465.      -1787353.      -1787123.
      -1786788.      -1786340.      -1785776.      -1785109.      -1784326.
      -1783428.      -1782422.      -1781300.      -1780067.      -1778719.
      -1777262.      -1775693.      -1774002.      -1772206.      -1770283.
      -1768244.      -1766098.      -1763829.      -1761448.      -1758943.
      -1756322.      -1753582.      -1750727.      -1747755.      -1744658.
      -1741450.      -1738113.      -1734660.      -1731092.      -1727404.
      -1723601.      -1719679.      -1715634.      -1711475.      -1707200.
      -1702792.      -1698260.      -1693612.      -1688842.      -1683941.
      -1678922.      -1673793.      -1668536.      -1663155.      -1657654.
      -1652032.      -1646283.      -1640407.      -1634443.      -1628357.
      -1622145.      -1615844.      -1609418.      -1602890.      -1596261.
      -1589514.      -1582662.      -1575705.      -1568653.      -1561490.
      -1554226.      -1546864.      -1539393.      -1531819.      -1524145.
      -1516379.      -1508518.      -1500553.      -1492489.      -1484342.
      -1476093.      -1467757.      -1459330.      -1450802.      -1442197.
      -1433488.      -1424691.      -1415809.      -1406838.      -1397786.
      -1388642.      -1379424.      -1370117.      -1360730.      -1351272.
      -1341735.      -1332120.      -1322427.      -1312671.      -1302845.
      -1292938.      -1282970.      -1272934.      -1262814.      -1252640.
      -1242398.      -1232088.      -1221711.      -1211263.      -1200779.
      -1190231.      -1179625.      -1168974.      -1158270.      -1147525.
      -1136726.      -1125883.      -1114987.      -1104040.      -1093053.
      -1082019.      -1070943.      -1059828.      -1048671.      -1037471.
      -1026236.      -1014966.      -1003664.      -992318.0      -980942.0
      -969536.0      -958087.0      -946614.0      -935116.0      -923587.0
      -912031.0      -900449.0      -888834.0      -877197.0      -865527.0
      -853831.0      -842117.0      -830368.0      -818607.0      -806816.0
      -795008.0      -783181.0      -771326.0      -759462.0      -747561.0
      -735644.0      -723716.0      -711759.0      -699795.0      -687810.0
      -675807.0      -663789.0      -651753.0      -639706.0      -627652.0
      -615584.0      -603498.0      -591410.0      -579297.0      -567168.0
      -555033.0      -542872.0      -530713.0      -518532.0      -506337.0
      -494136.0      -481909.0      -469683.0      -457443.0      -445182.0
      -432920.0      -420650.0      -408371.0      -396095.0      -383817.0
      -371543.0      -359267.0      -346988.0      -334719.0      -322448.0
      -310183.0      -297916.0      -285656.0      -273412.0      -261171.0
      -248940.0      -236721.0      -224509.0      -212312.0      -200145.0
      -187992.0      -175852.0      -163739.0      -151639.0      -139564.0
      -127516.0      -115492.0      -103493.0      -91516.00      -79573.00
      -67669.00      -55788.00      -43939.00      -32124.00      -20343.00
      -8597.000       3118.000       14793.00       26445.00       38056.00
       49626.00       61177.00       72674.00       84138.00       95568.00
       106950.0       118295.0       129594.0       140856.0       152067.0
       163230.0       174353.0       185422.0       196439.0       207405.0
       218317.0       229156.0       239942.0       250676.0       261330.0
       271914.0       282436.0       292883.0       303246.0       313536.0
       323743.0       333871.0       343923.0       353891.0       363776.0
       373570.0       383295.0       392933.0       402474.0       411943.0
       421320.0       430627.0       439854.0       448996.0       458062.0
       467036.0       475938.0       484757.0       493493.0       502149.0
       510726.0       519221.0       527623.0       535964.0       544219.0
       552392.0       560493.0       568503.0       576428.0       584261.0
       592016.0       599673.0       607250.0       614752.0       622144.0
       629486.0       636743.0       643878.0       650939.0       657907.0
       664789.0       671597.0       678314.0       684960.0       691528.0
       697987.0       704366.0       710662.0       716856.0       722969.0
       728993.0       734928.0       740777.0       746559.0       752260.0
       757865.0       763399.0       768853.0       774231.0       779530.0
       784756.0       789915.0       794985.0       799986.0       804909.0
       809740.0       814510.0       819197.0       823799.0       828337.0
       832796.0       837181.0       841492.0       845740.0       849915.0
       854014.0       858044.0       861994.0       865877.0       869689.0
       873424.0       877083.0       880675.0       884200.0       887643.0
       891024.0       894335.0       897570.0       900748.0       903847.0
       906888.0       909876.0       912786.0       915629.0       918410.0
       921106.0       923729.0       926294.0       928792.0       931228.0
       933598.0       935908.0       938162.0       940351.0       942478.0
       944537.0       946518.0       948429.0       950277.0       952054.0
       953749.0       955385.0       956953.0       958446.0       959894.0
       961267.0       962570.0       963818.0       964978.0       966084.0
       967131.0       968092.0       969008.0       969853.0       970627.0
       971340.0       971988.0       972581.0       973114.0       973578.0
