     0.05000000      -12345.00      -12345.00   3.943240e+09      -12345.00
   0.0005380000       1859.951      -389.0196      -12345.00      -12345.00
      -12345.00      -12345.00      -12345.00      -12345.00      -12345.00
      -12345.00      -12345.00      -12345.00      -12345.00      -12345.00
      -12345.00      -12345.00      -12345.00      -12345.00      -12345.00
      -12345.00      -12345.00      -12345.00      -12345.00      -12345.00
      -12345.00      -19.93360       134.3600       366.0000       100.0000
      -42.72450       173.0647      -12345.00       22.00000      -12345.00
      -12345.00      -12345.00      -12345.00      -12345.00      -12345.00
      -12345.00      -12345.00      -12345.00      -12345.00      -12345.00
       4406.955       292.7408       133.7505       39.63445      -12345.00
      -12345.00      -12345.00       90.90000       90.00000      -12345.00
      -12345.00      -12345.00      -12345.00      -12345.00      -12345.00
      -12345.00      -12345.00      -12345.00      -12345.00      -12345.00
      2016       318        11         9        28
        19         6    -12345    -12345     37200
    -12345    -12345    -12345    -12345    -12345
         1    -12345    -12345    -12345    -12345
    -12345    -12345    -12345    -12345    -12345
    -12345    -12345    -12345    -12345    -12345
    -12345    -12345    -12345    -12345    -12345
         1    -12345    -12345    -12345    -12345
WRAB    South Island, Ne
00      -12345  -12345  
-12345  -12345  -12345  
-12345  -12345  -12345  
-12345  -12345  -12345  
-12345  -12345  -12345  
-12345  -12345  BH2     
II      -12345  Geotech 
[...]
       773846.0       774735.0       775354.0       775696.0       775760.0
       775544.0       775050.0       774254.0       773133.0       771683.0
       769900.0       767806.0       765405.0       762705.0       759725.0
       756457.0       752895.0       749037.0       744878.0       740422.0
       735687.0       730684.0       725411.0       719877.0       714091.0
       708043.0       701731.0       695164.0       688354.0       681324.0
       674102.0       666703.0       659125.0       651376.0       643453.0
       635339.0       627028.0       618529.0       609862.0       601038.0
       592054.0       582916.0       573628.0       564183.0       554588.0
       544861.0       535029.0       525106.0       515096.0       505013.0
       494843.0       484575.0       474221.0       463793.0       453294.0
       442714.0       432056.0       421335.0       410560.0       399735.0
       388868.0       377964.0       367013.0       356008.0       344949.0
       333834.0       322680.0       311484.0       300251.0       288983.0
       277661.0       266283.0       254871.0       243469.0       232088.0
       220730.0       209405.0       198115.0       186850.0       175610.0
       164416.0       153277.0       142208.0       131230.0       120346.0
       109571.0       98914.00       88378.00       77987.00       67760.00
       57711.00       47846.00       38172.00       28716.00       19502.00
       10571.00       1967.000      -6284.000      -14173.00      -21690.00
      -28815.00      -35534.00      -41835.00      -47684.00      -53058.00
      -57947.00      -62357.00      -66277.00      -69694.00      -72604.00
      -74980.00      -76791.00      -78025.00      -78655.00      -78673.00
      -78073.00      -76855.00      -75018.00      -72561.00      -69472.00
      -65731.00      -61350.00      -56332.00      -50675.00      -44386.00
      -37467.00      -29934.00      -21778.00      -12983.00      -3567.000
       6454.000       17066.00       28241.00       39952.00       52188.00
       64931.00       78162.00       91876.00       106055.0       120682.0
       135724.0       151127.0       166863.0       182913.0       199265.0
       215912.0       232849.0       250046.0       267448.0       285023.0
       302746.0       320624.0       338633.0       356731.0       374901.0
       393112.0       411345.0       429576.0       447790.0       465967.0
       484077.0       502126.0       520102.0       537979.0       555751.0
       573404.0       590947.0       608393.0       625740.0       642991.0
       660141.0       677176.0       694101.0       710929.0       727665.0
       744312.0       760872.0       777339.0       793699.0       809939.0
       826040.0       841989.0       857792.0       873447.0       888946.0
       904287.0       919468.0       934473.0       949290.0       963918.0
       978366.0       992625.0       1006677.       1020538.       1034213.
       1047705.       1061005.       1074088.       1086947.       1099565.
       1111941.       1124048.       1135851.       1147347.       1158521.
       1169367.       1179881.       1190049.       1199852.       1209258.
       1218240.       1226784.       1234876.       1242501.       1249644.
       1256308.       1262495.       1268187.       1273380.       1278052.
       1282181.       1285767.       1288783.       1291222.       1293060.
       1294293.       1294933.       1294966.       1294386.       1293199.
       1291418.       1289028.       1286001.       1282318.       1277962.
       1272940.       1267240.       1260842.       1253740.       1245920.
       1237379.       1228111.       1218133.       1207451.       1196052.
       1183918.       1171048.       1157440.       1143087.       1128001.
       1112190.       1095652.       1078366.       1060333.       1041586.
       1022150.       1002037.       981250.0       959774.0       937624.0
       914832.0       891417.0       867396.0       842771.0       817559.0
       791790.0       765472.0       738617.0       711212.0       683255.0
       654765.0       625771.0       596318.0       566413.0       536077.0
       505334.0       474194.0       442685.0       410832.0       378671.0
       346220.0       313476.0       280437.0       247120.0       213544.0
       179750.0       145768.0       111607.0       77296.00       42860.00
       8311.000      -26336.00      -61056.00      -95819.00      -130610.0
      -165421.0      -200220.0      -234985.0      -269688.0      -304313.0
      -338852.0      -373282.0      -407588.0      -441746.0      -475724.0
      -509495.0      -543037.0      -576328.0      -609344.0      -642071.0
      -674487.0      -706565.0      -738291.0      -769676.0      -800714.0
      -831397.0      -861712.0      -891640.0      -921182.0      -950341.0
      -979112.0      -1007489.      -1035461.      -1063014.      -1090151.
      -1116867.      -1143151.      -1169009.      -1194437.      -1219437.
      -1244024.      -1268206.      -1291988.      -1315364.      -1338330.
      -1360865.      -1382964.      -1404650.      -1425928.      -1446794.
      -1467230.      -1487227.      -1506782.      -1525884.      -1544532.
      -1562717.      -1580425.      -1597660.      -1614417.      -1630692.
      -1646471.      -1661742.      -1676567.      -1690916.      -1704766.
      -1718140.      -1731005.      -1743364.      -1755216.      -1766572.
      -1777433.      -1787780.      -1797613.      -1806936.      -1815767.
      -1824102.      -1831925.      -1839238.      -1846049.      -1852379.
      -1858246.      -1863654.      -1868612.      -1873118.      -1877159.
      -1880733.      -1883833.      -1886471.      -1888672.      -1890430.
      -1891742.      -1892613.      -1893042.      -1893025.      -1892540.
      -1891575.      -1890128.      -1888207.      -1885829.      -1882980.
      -1879641.      -1875817.      -1871506.      -1866701.      -1861410.
      -1855631.      -1849346.      -1842554.      -1835259.      -1827450.
      -1819116.      -1810244.      -1800838.      -1790903.      -1780419.
      -1769372.      -1757746.      -1745525.      -1732693.      -1719257.
      -1705210.      -1690543.      -1675264.      -1659377.      -1642879.
      -1625767.      -1608049.      -1589754.      -1570902.      -1551504.
      -1531566.      -1511084.      -1490072.      -1468547.      -1446519.
      -1424005.      -1401005.      -1377525.      -1353569.      -1329148.
      -1304294.      -1279020.      -1253340.      -1227268.      -1200816.
      -1173991.      -1146788.      -1119210.      -1091282.      -1063018.
      -1034435.      -1005560.      -976421.0      -947044.0      -917432.0
      -887608.0      -857594.0      -827404.0      -797062.0      -766574.0
      -735959.0      -705244.0      -674442.0      -643564.0      -612627.0
      -581641.0      -550632.0      -519617.0      -488604.0      -457627.0
      -426704.0      -395844.0      -365067.0      -334385.0      -303820.0
      -273379.0      -243055.0      -212852.0      -182792.0      -152897.0
      -123166.0      -93600.00      -64211.00      -34999.00      -5979.000
       22820.00       51385.00       79726.00       107850.0       135751.0
       163432.0       190896.0       218140.0       245138.0       271885.0
       298379.0       324607.0       350564.0       376239.0       401632.0
       426735.0       451541.0       476045.0       500239.0       524117.0
       547681.0       570932.0       593866.0       616487.0       638789.0
       660769.0       682420.0       703735.0       724715.0       745363.0
       765690.0       785691.0       805352.0       824651.0       843600.0
       862220.0       880514.0       898502.0       916194.0       933596.0
       950713.0       967539.0       984063.0       1000276.       1016182.
       1031784.       1047067.       1062023.       1076649.       1090954.
       1104943.       1118610.       1131950.       1144945.       1157584.
       1169868.       1181787.       1193336.       1204503.       1215281.
       1225682.       1235715.       1245369.       1254641.       1263528.
       1272029.       1280151.       1287900.       1295293.       1302339.
       1309048.       1315438.       1321503.       1327239.       1332654.
       1337756.       1342550.       1347048.       1351253.       1355177.
       1358823.       1362209.       1365366.       1368306.       1371048.
       1373606.       1375986.       1378203.       1380265.       1382195.
       1384008.       1385706.       1387308.       1388817.       1390243.
       1391609.       1392935.       1394248.       1395572.       1396909.
       1398268.       1399656.       1401091.       1402596.       1404189.
       1405894.       1407728.       1409701.       1411817.       1414089.
       1416523.       1419118.       1421894.       1424881.       1428095.
       1431550.       1435258.       1439214.       1443419.       1447881.
       1452607.       1457589.       1462815.       1468288.       1474004.
       1479963.       1486161.       1492581.       1499199.       1505989.
       1512946.       1520068.       1527347.       1534777.       1542340.
       1550013.       1557791.       1565658.       1573583.       1581542.
       1589519.       1597504.       1605493.       1613474.       1621421.
       1629300.       1637092.       1644790.       1652394.       1659907.
       1667316.       1674608.       1681767.       1688778.       1695626.
       1702296.       1708765.       1715023.       1721071.       1726889.
       1732490.       1737884.       1743048.       1747975.       1752649.
       1757060.       1761195.       1765037.       1768580.       1771806.
       1774716.       1777298.       1779535.       1781425.       1782941.
       1784075.       1784823.       1785173.       1785124.       1784674.
       1783824.       1782566.       1780905.       1778858.       1776420.
       1773589.       1770364.       1766742.       1762724.       1758302.
       1753467.       1748207.       1742503.       1736357.       1729774.
       1722750.       1715274.       1707351.       1698982.       1690167.
       1680911.       1671205.       1661052.       1650446.       1639401.
       1627925.       1616009.       1603663.       1590876.       1577642.
       1563959.       1549819.       1535241.       1520241.       1504826.
       1488990.       1472727.       1456041.       1438933.       1421406.
       1403447.       1385043.       1366198.       1346903.       1327170.
       1307003.       1286390.       1265320.       1243776.       1221768.
       1199296.       1176357.       1152958.       1129089.       1104732.
       1079872.       1054516.       1028663.       1002309.       975455.0
       948104.0       920255.0       891906.0       863070.0       833751.0
       803952.0       773656.0       742854.0       711549.0       679749.0
       647471.0       614727.0       581527.0       547879.0       513789.0
       479259.0       444292.0       408905.0       373111.0       336907.0
       300314.0       263356.0       226036.0       188381.0       150403.0
       112124.0       73569.00       34746.00      -4321.000      -43618.00
      -83127.00      -122837.0      -162729.0      -202778.0      -242974.0
      -283293.0      -323711.0      -364216.0      -404806.0      -445462.0
      -486146.0      -526834.0      -567505.0      -608150.0      -648761.0
      -689325.0      -729836.0      -770281.0      -810655.0      -850949.0
      -891155.0      -931268.0      -971280.0      -1011183.      -1050969.
      -1090621.      -1130118.      -1169445.      -1208601.      -1247591.
      -1286404.      -1325028.      -1363452.      -1401661.      -1439649.
      -1477402.      -1514908.      -1552147.      -1589099.      -1625759.
      -1662119.      -1698174.      -1733903.      -1769287.      -1804308.
      -1838940.      -1873177.      -1906995.      -1940380.      -1973334.
      -2005811.      -2037813.      -2069357.      -2100406.      -2130944.
      -2160992.      -2190598.      -2219672.      -2248202.      -2276246.
      -2303708.      -2330648.      -2357091.      -2382900.      -2408129.
      -2432848.      -2456953.      -2480451.      -2503417.      -2525794.
      -2547586.      -2568773.      -2589334.      -2609297.      -2628619.
      -2647294.      -2665335.      -2682720.      -2699445.      -2715556.
      -2731019.      -2745778.      -2759885.      -2773319.      -2786013.
      -2797985.      -2809246.      -2819769.      -2829534.      -2838507.
      -2846675.      -2854051.      -2860630.      -2866373.      -2871272.
      -2875352.      -2878593.      -2880986.      -2882541.      -2883254.
      -2883131.      -2882157.      -2880299.      -2877549.      -2873928.
      -2869427.      -2864026.      -2857725.      -2850515.      -2842400.
      -2833361.      -2823391.      -2812516.      -2800731.      -2788027.
      -2774412.      -2759894.      -2744484.      -2728190.      -2711019.
      -2692960.      -2674020.      -2654212.      -2633534.      -2612003.
      -2589630.      -2566418.      -2542388.      -2517530.      -2491840.
      -2465322.      -2437988.      -2409858.      -2380941.      -2351247.
      -2320787.      -2289559.      -2257592.      -2224927.      -2191570.
      -2157535.      -2122842.      -2087511.      -2051555.      -2014983.
      -1977823.      -1940096.      -1901815.      -1863000.      -1823677.
      -1783864.      -1743571.      -1702806.      -1661587.      -1619927.
      -1577831.      -1535319.      -1492414.      -1449141.      -1405515.
      -1361557.      -1317302.      -1272764.      -1227963.      -1182935.
      -1137702.      -1092291.      -1046740.      -1001065.      -955281.0
      -909416.0      -863485.0      -817503.0      -771479.0      -725437.0
      -679403.0      -633388.0      -587401.0      -541453.0      -495564.0
      -449736.0      -403981.0      -358314.0      -312744.0      -267292.0
      -221981.0      -176826.0      -131838.0      -87027.00      -42389.00
       2065.000       46303.00       90304.00       134055.0       177528.0
       220714.0       263619.0       306212.0       348466.0       390361.0
       431877.0       473003.0       513735.0       554069.0       593992.0
       633501.0       672592.0       711258.0       749497.0       787312.0
       824702.0       861668.0       898214.0       934338.0       970041.0
       1005317.       1040167.       1074583.       1108553.       1142065.
       1175110.       1207678.       1239758.       1271348.       1302439.
       1333028.       1363105.       1392666.       1421709.       1450231.
       1478236.       1505718.       1532660.       1559048.       1584869.
       1610115.       1634787.       1658893.       1682450.       1705470.
       1727952.       1749893.       1771301.       1792187.       1812548.
       1832395.       1851732.       1870563.       1888893.       1906717.
       1924029.       1940842.       1957175.       1973024.       1988391.
       2003277.       2017695.       2031651.       2045136.       2058151.
       2070693.       2082764.       2094372.       2105488.       2116087.
       2126160.       2135678.       2144637.       2153029.       2160844.
       2168096.       2174793.       2180937.       2186521.       2191544.
       2195996.       2199854.       2203122.       2205805.       2207901.
       2209397.       2210302.       2210626.       2210380.       2209589.
       2208260.       2206406.       2204029.       2201127.       2197704.
       2193766.       2189330.       2184398.       2178982.       2173096.
       2166740.       2159937.       2152691.       2144999.       2136866.
       2128295.       2119309.       2109930.       2100172.       2090059.
       2079604.       2068832.       2057749.       2046357.       2034659.
       2022657.       2010359.       1997773.       1984918.       1971804.
       1958450.       1944874.       1931084.       1917083.       1902863.
       1888439.       1873833.       1859060.       1844119.       1829006.
       1813716.       1798253.       1782642.       1766900.       1751034.
       1735038.       1718911.       1702652.       1686250.       1669700.
       1652998.       1636134.       1619119.       1601972.       1584699.
       1567312.       1549803.       1532164.       1514397.       1496516.
       1478539.       1460487.       1442357.       1424143.       1405856.
       1387503.       1369101.       1350676.       1332226.       1313748.
       1295260.       1276755.       1258237.       1239713.       1221175.
       1202649.       1184153.       1165697.       1147304.       1128988.
       1110751.       1092584.       1074495.       1056486.       1038558.
       1020726.       1003008.       985402.0       967894.0       950468.0
       933141.0       915923.0       898805.0       881783.0       864836.0
       847974.0       831199.0       814507.0       797902.0       781384.0
       764946.0       748570.0       732266.0       716027.0       699844.0
       683720.0       667634.0       651569.0       635514.0       619471.0
       603432.0       587363.0       571249.0       555072.0       538820.0
       522506.0       506147.0       489745.0       473268.0       456671.0
       439913.0       422985.0       405915.0       388699.0       371307.0
       353712.0       335899.0       317868.0       299615.0       281130.0
       262407.0       243428.0       224176.0       204659.0       184879.0
       164843.0       144548.0       123983.0       103164.0       82111.00
       60825.00       39302.00       17528.00      -4497.000      -26765.00
      -49252.00      -71939.00      -94816.00      -117887.0      -141144.0
      -164569.0      -188159.0      -211910.0      -235826.0      -259916.0
      -284186.0      -308637.0      -333262.0      -358064.0      -383048.0
      -408195.0      -433488.0      -458937.0      -484532.0      -510250.0
      -536095.0      -562065.0      -588146.0      -614340.0      -640636.0
      -667031.0      -693523.0      -720087.0      -746703.0      -773369.0
