     0.05000000      -12345.00      -12345.00   3.954070e+09      -12345.00
   0.0005380000       1859.951      -389.0196      -12345.00      -12345.00
      -12345.00      -12345.00      -12345.00      -12345.00      -12345.00
      -12345.00      -12345.00      -12345.00      -12345.00      -12345.00
      -12345.00      -12345.00      -12345.00      -12345.00      -12345.00
      -12345.00      -12345.00      -12345.00      -12345.00      -12345.00
      -12345.00      -19.93360       134.3600       366.0000       100.0000
      -42.72450       173.0647      -12345.00       22.00000      -12345.00
      -12345.00      -12345.00      -12345.00      -12345.00      -12345.00
      -12345.00      -12345.00      -12345.00      -12345.00      -12345.00
       4406.955       292.7408       133.7505       39.63445      -12345.00
      -12345.00      -12345.00       0.000000       0.000000      -12345.00
      -12345.00      -12345.00      -12345.00      -12345.00      -12345.00
      -12345.00      -12345.00      -12345.00      -12345.00      -12345.00
      2016       318        11         9        28
        19         6    -12345    -12345     37200
    -12345    -12345    -12345    -12345    -12345
         1    -12345    -12345    -12345    -12345
    -12345    -12345    -12345    -12345    -12345
    -12345    -12345    -12345    -12345    -12345
    -12345    -12345    -12345    -12345    -12345
         1    -12345    -12345    -12345    -12345
WRAB    South Island, Ne
00      -12345  -12345  
-12345  -12345  -12345  
-12345  -12345  -12345  
-12345  -12345  -12345  
-12345  -12345  -12345  
-12345  -12345  BHZ     
II      -12345  Geotech 
[...]
       721475.0       780066.0       838217.0       895964.0       953336.0
       1010312.       1066908.       1123154.       1179085.       1234692.
       1289920.       1344704.       1398988.       1452697.       1505719.
       1558007.       1609578.       1660491.       1710806.       1760536.
       1809688.       1858257.       1906253.       1953656.       2000427.
       2046553.       2091993.       2136683.       2180548.       2223541.
       2265667.       2306931.       2347358.       2386956.       2425648.
       2463422.       2500340.       2536425.       2571678.       2606036.
       2639412.       2671780.       2703168.       2733566.       2762901.
       2791136.       2818305.       2844463.       2869639.       2893843.
       2917069.       2939308.       2960564.       2980824.       3000041.
       3018132.       3035044.       3050809.       3065480.       3079096.
       3091602.       3102841.       3112730.       3121330.       3128727.
       3134919.       3139951.       3143930.       3146903.       3148857.
       3149680.       3149276.       3147658.       3144842.       3140793.
       3135491.       3128990.       3121326.       3112477.       3102410.
       3091130.       3078739.       3065336.       3050942.       3035505.
       3018988.       3001426.       2982849.       2963216.       2942417.
       2920418.       2897323.       2873264.       2848260.       2822290.
       2795393.       2767632.       2739031.       2709579.       2679296.
       2648229.       2616415.       2583797.       2550249.       2515709.
       2480184.       2443731.       2406413.       2368254.       2329257.
       2289462.       2248973.       2207835.       2166028.       2123532.
       2080335.       2036453.       1991865.       1946571.       1900636.
       1854115.       1807032.       1759354.       1711049.       1662148.
       1612728.       1562787.       1512283.       1461225.       1409644.
       1357599.       1305128.       1252208.       1198810.       1144931.
       1090575.       1035748.       980470.0       924771.0       868698.0
       812299.0       755609.0       698667.0       641512.0       584172.0
       526609.0       468766.0       410653.0       352268.0       293612.0
       234730.0       175651.0       116400.0       57012.00      -2489.000
      -62069.00      -121732.0      -181489.0      -241304.0      -301157.0
      -361019.0      -420834.0      -480560.0      -540228.0      -599890.0
      -659554.0      -719218.0      -778872.0      -838498.0      -898065.0
      -957550.0      -1016899.      -1076058.      -1135029.      -1193840.
      -1252519.      -1311010.      -1369226.      -1427145.      -1484794.
      -1542201.      -1599373.      -1656332.      -1713064.      -1769548.
      -1825783.      -1881743.      -1937401.      -1992711.      -2047617.
      -2102112.      -2156176.      -2209763.      -2262868.      -2315530.
      -2367783.      -2419627.      -2471050.      -2522023.      -2572489.
      -2622418.      -2671763.      -2720485.      -2768601.      -2816110.
      -2863002.      -2909281.      -2954983.      -3000169.      -3044845.
      -3088968.      -3132514.      -3175477.      -3217842.      -3259619.
      -3300806.      -3341382.      -3381360.      -3420727.      -3459477.
      -3497591.      -3535063.      -3571895.      -3608041.      -3643471.
      -3678150.      -3712088.      -3745345.      -3777918.      -3809794.
      -3840954.      -3871364.      -3901002.      -3929846.      -3957879.
      -3985123.      -4011590.      -4037286.      -4062185.      -4086211.
      -4109339.      -4131570.      -4152910.      -4173375.      -4192948.
      -4211620.      -4229386.      -4246260.      -4262287.      -4277454.
      -4291723.      -4305053.      -4317432.      -4328863.      -4339312.
      -4348753.      -4357171.      -4364539.      -4370854.      -4376156.
      -4380463.      -4383766.      -4386093.      -4387455.      -4387817.
      -4387148.      -4385403.      -4382583.      -4378710.      -4373732.
      -4367632.      -4360453.      -4352222.      -4342971.      -4332693.
      -4321352.      -4309001.      -4295673.      -4281359.      -4266056.
      -4249785.      -4232551.      -4214346.      -4195196.      -4175096.
      -4154060.      -4132115.      -4109249.      -4085470.      -4060805.
      -4035249.      -4008784.      -3981429.      -3953219.      -3924185.
      -3894371.      -3863772.      -3832363.      -3800149.      -3767163.
      -3733398.      -3698819.      -3663433.      -3627250.      -3590295.
      -3552593.      -3514157.      -3475026.      -3435224.      -3394760.
      -3353612.      -3311761.      -3269212.      -3225944.      -3181984.
      -3137414.      -3092286.      -3046610.      -3000372.      -2953574.
      -2906256.      -2858432.      -2810156.      -2761465.      -2712337.
      -2662755.      -2612726.      -2562292.      -2511441.      -2460188.
      -2408551.      -2356532.      -2304215.      -2251618.      -2198764.
      -2145680.      -2092355.      -2038787.      -1984974.      -1930952.
      -1876740.      -1822371.      -1767876.      -1713264.      -1658541.
      -1603669.      -1548608.      -1493375.      -1438051.      -1382702.
      -1327324.      -1271916.      -1216492.      -1161051.      -1105603.
      -1050157.      -994707.0      -939251.0      -883807.0      -828375.0
      -772954.0      -717564.0      -662220.0      -606921.0      -551695.0
      -496571.0      -441582.0      -386733.0      -332018.0      -277462.0
      -223034.0      -168711.0      -114498.0      -60405.00      -6456.000
       47337.00       100958.0       154393.0       207598.0       260542.0
       313243.0       365723.0       417978.0       469974.0       521711.0
       573182.0       624399.0       675371.0       726064.0       776467.0
       826559.0       876364.0       925908.0       975166.0       1024098.
       1072680.       1120908.       1168792.       1216341.       1263537.
       1310340.       1356712.       1402644.       1448170.       1493305.
       1538031.       1582340.       1626215.       1669631.       1712589.
       1755059.       1797008.       1838438.       1879369.       1919827.
       1959825.       1999363.       2038421.       2076980.       2115018.
       2152523.       2189473.       2225838.       2261633.       2296880.
       2331589.       2365761.       2399366.       2432378.       2464765.
       2496558.       2527790.       2558444.       2588506.       2617920.
       2646639.       2674661.       2702031.       2728772.       2754860.
       2780267.       2804958.       2828918.       2852134.       2874600.
       2896320.       2917276.       2937475.       2956902.       2975531.
       2993361.       3010377.       3026597.       3042043.       3056701.
       3070550.       3083561.       3095749.       3107119.       3117645.
       3127298.       3136048.       3143907.       3150869.       3156902.
       3162010.       3166208.       3169481.       3171797.       3173124.
       3173480.       3172906.       3171389.       3168919.       3165489.
       3161073.       3155646.       3149179.       3141642.       3133007.
       3123311.       3112575.       3100763.       3087876.       3073941.
       3058977.       3042992.       3025961.       3007843.       2988592.
       2968183.       2946631.       2923965.       2900187.       2875291.
       2849283.       2822198.       2794053.       2764848.       2734582.
       2703242.       2670863.       2637491.       2603120.       2567740.
       2531321.       2493857.       2455398.       2415960.       2375554.
       2334188.       2291872.       2248631.       2204479.       2159456.
       2113591.       2066904.       2019415.       1971129.       1922051.
       1872159.       1821444.       1769927.       1717652.       1664657.
       1610959.       1556596.       1501590.       1445953.       1389710.
       1332859.       1275408.       1217379.       1158772.       1099600.
       1039886.       979655.0       918939.0       857750.0       796118.0
       734079.0       671655.0       608836.0       545627.0       482046.0
       418110.0       353855.0       289314.0       224493.0       159404.0
       94054.00       28452.00      -37399.00      -103501.0      -169840.0
      -236400.0      -303149.0      -370064.0      -437126.0      -504310.0
      -571634.0      -639072.0      -706581.0      -774150.0      -841773.0
      -909476.0      -977277.0      -1045178.      -1113168.      -1181204.
      -1249259.      -1317301.      -1385316.      -1453297.      -1521209.
      -1589015.      -1656692.      -1724208.      -1791520.      -1858639.
      -1925590.      -1992383.      -2059034.      -2125524.      -2191802.
      -2257850.      -2323652.      -2389184.      -2454440.      -2519419.
      -2584117.      -2648513.      -2712564.      -2776235.      -2839525.
      -2902448.      -2965014.      -3027206.      -3089000.      -3150367.
      -3211259.      -3271640.      -3331511.      -3390863.      -3449670.
      -3507930.      -3565629.      -3622748.      -3679260.      -3735150.
      -3790433.      -3845118.      -3899197.      -3952639.      -4005424.
      -4057540.      -4108979.      -4159725.      -4209730.      -4258988.
      -4307499.      -4355216.      -4402120.      -4448215.      -4493487.
      -4537925.      -4581525.      -4624271.      -4666135.      -4707085.
      -4747114.      -4786210.      -4824336.      -4861477.      -4897640.
      -4932795.      -4966915.      -5000017.      -5032098.      -5063123.
      -5093063.      -5121899.      -5149626.      -5176244.      -5201767.
      -5226169.      -5249411.      -5271497.      -5292423.      -5312199.
      -5330819.      -5348280.      -5364573.      -5379640.      -5393453.
      -5405993.      -5417252.      -5427250.      -5435968.      -5443379.
      -5449477.      -5454244.      -5457671.      -5459751.      -5460471.
      -5459854.      -5457917.      -5454641.      -5450019.      -5444044.
      -5436692.      -5427933.      -5417743.      -5406108.      -5393030.
      -5378532.      -5362628.      -5345342.      -5326662.      -5306545.
      -5284976.      -5261935.      -5237429.      -5211468.      -5184035.
      -5155143.      -5124804.      -5093030.      -5059842.      -5025222.
      -4989145.      -4951654.      -4912773.      -4872488.      -4830786.
      -4787679.      -4743182.      -4697324.      -4650127.      -4601576.
      -4551678.      -4500441.      -4447865.      -4393967.      -4338752.
      -4282252.      -4224496.      -4165505.      -4105310.      -4043910.
      -3981311.      -3917536.      -3852618.      -3786584.      -3719443.
      -3651166.      -3581720.      -3511141.      -3439475.      -3366773.
      -3293091.      -3218456.      -3142883.      -3066367.      -2988911.
      -2910532.      -2831286.      -2751218.      -2670346.      -2588687.
      -2506253.      -2423100.      -2339291.      -2254870.      -2169867.
      -2084266.      -1998077.      -1911329.      -1824075.      -1736392.
      -1648342.      -1559981.      -1471331.      -1382406.      -1293228.
      -1203823.      -1114233.      -1024500.      -934664.0      -844775.0
      -754865.0      -664966.0      -575109.0      -485305.0      -395584.0
      -305993.0      -216552.0      -127300.0      -38278.00       50500.00
       138995.0       227187.0       315080.0       402640.0       489829.0
       576607.0       662932.0       748787.0       834135.0       918937.0
       1003171.       1086830.       1169923.       1252431.       1334325.
       1415590.       1496202.       1576130.       1655329.       1733769.
       1811439.       1888315.       1964380.       2039638.       2114066.
       2187635.       2260336.       2332111.       2402934.       2472798.
       2541691.       2609610.       2676500.       2742333.       2807117.
       2870849.       2933535.       2995173.       3055739.       3115199.
       3173545.       3230772.       3286883.       3341870.       3395705.
       3448377.       3499864.       3550134.       3599172.       3646956.
       3693497.       3738832.       3782958.       3825841.       3867434.
       3907713.       3946688.       3984361.       4020707.       4055725.
       4089379.       4121617.       4152425.       4181805.       4209768.
       4236324.       4261480.       4285248.       4307630.       4328605.
       4348185.       4366360.       4383088.       4398326.       4412041.
       4424248.       4434923.       4444025.       4451551.       4457494.
       4461894.       4464777.       4466108.       4465895.       4464146.
       4460853.       4456015.       4449578.       4441476.       4431705.
       4420315.       4407351.       4392812.       4376691.       4358975.
       4339649.       4318746.       4296267.       4272202.       4246577.
       4219427.       4190801.       4160673.       4128982.       4095733.
       4060950.       4024669.       3986904.       3947640.       3906895.
       3864711.       3821115.       3776104.       3729654.       3681778.
       3632480.       3581750.       3529625.       3476141.       3421297.
       3365113.       3307599.       3248762.       3188646.       3127299.
       3064748.       3000980.       2935994.       2869832.       2802530.
       2734092.       2664518.       2593831.       2522074.       2449298.
       2375560.       2300889.       2225295.       2148806.       2071480.
       1993357.       1914449.       1834750.       1754285.       1673111.
       1591258.       1508732.       1425541.       1341707.       1257273.
       1172288.       1086760.       1000692.       914113.0       827080.0
       739640.0       651802.0       563586.0       475027.0       386175.0
       297069.0       207721.0       118164.0       28449.00      -61365.00
      -151228.0      -241108.0      -331041.0      -421060.0      -511142.0
      -601283.0      -691468.0      -781635.0      -871693.0      -961556.0
      -1051171.      -1140538.      -1229644.      -1318426.      -1406853.
      -1494903.      -1582547.      -1669790.      -1756656.      -1843173.
      -1929328.      -2015073.      -2100330.      -2185009.      -2269055.
      -2352443.      -2435143.      -2517126.      -2598395.      -2678954.
      -2758752.      -2837730.      -2915871.      -2993162.      -3069589.
      -3145123.      -3219707.      -3293301.      -3365853.      -3437294.
      -3507595.      -3576738.      -3644712.      -3711524.      -3777176.
      -3841650.      -3904929.      -3966989.      -4027785.      -4087263.
      -4145387.      -4202158.      -4257593.      -4311672.      -4364358.
      -4415639.      -4465498.      -4513897.      -4560805.      -4606203.
      -4650071.      -4692385.      -4733126.      -4772277.      -4809841.
      -4845830.      -4880218.      -4912981.      -4944104.      -4973572.
      -5001370.      -5027477.      -5051899.      -5074666.      -5095801.
      -5115344.      -5133345.      -5149806.      -5164694.      -5177976.
      -5189651.      -5199721.      -5208154.      -5214932.      -5220050.
      -5223528.      -5225423.      -5225785.      -5224617.      -5221889.
      -5217588.      -5211742.      -5204366.      -5195462.      -5185005.
      -5172985.      -5159454.      -5144458.      -5128012.      -5110124.
      -5090793.      -5070019.      -5047834.      -5024261.      -4999294.
      -4972930.      -4945178.      -4916094.      -4885709.      -4854047.
      -4821120.      -4786910.      -4751426.      -4714684.      -4676717.
      -4637584.      -4597317.      -4555950.      -4513530.      -4470076.
      -4425582.      -4380055.      -4333497.      -4285920.      -4237344.
      -4187779.      -4137235.      -4085726.      -4033303.      -3980029.
      -3925945.      -3871054.      -3815348.      -3758830.      -3701506.
      -3643368.      -3584403.      -3524612.      -3464021.      -3402671.
      -3340591.      -3277800.      -3214336.      -3150251.      -3085570.
      -3020300.      -2954445.      -2888009.      -2821017.      -2753506.
      -2685513.      -2617071.      -2548218.      -2478990.      -2409392.
      -2339436.      -2269145.      -2198557.      -2127711.      -2056638.
      -1985357.      -1913882.      -1842253.      -1770516.      -1698692.
      -1626794.      -1554853.      -1482892.      -1410941.      -1339028.
      -1267155.      -1195341.      -1123612.      -1052029.      -980653.0
      -909495.0      -838589.0      -767953.0      -697595.0      -627538.0
      -557814.0      -488457.0      -419491.0      -350929.0      -282780.0
      -215054.0      -147768.0      -80954.00      -14645.00       51125.00
       116325.0       180924.0       244900.0       308227.0       370861.0
       432783.0       493990.0       554482.0       614221.0       673163.0
       731293.0       788586.0       845041.0       900638.0       955340.0
       1009131.       1061996.       1113930.       1164904.       1214881.
       1263844.       1311779.       1358670.       1404491.       1449244.
       1492949.       1535594.       1577171.       1617664.       1657058.
       1695343.       1732528.       1768629.       1803593.       1837379.
       1869957.       1901329.       1931527.       1960560.       1988451.
       2015225.       2040885.       2065437.       2088905.       2111305.
       2132636.       2152875.       2171972.       2189903.       2206664.
       2222287.       2236836.       2250350.       2262852.       2274331.
       2284791.       2294242.       2302673.       2310089.       2316463.
       2321775.       2326034.       2329248.       2331434.       2332614.
       2332790.       2331953.       2330121.       2327321.       2323561.
       2318837.       2313143.       2306487.       2298878.       2290318.
       2280808.       2270355.       2258994.       2246751.       2233642.
       2219687.       2204901.       2189307.       2172911.       2155707.
       2137686.       2118845.       2099193.       2078722.       2057439.
