     0.05000000      -12345.00      -12345.00   3.919140e+09      -12345.00
   0.0005380000       1859.951      -389.0196      -12345.00      -12345.00
      -12345.00      -12345.00      -12345.00      -12345.00      -12345.00
      -12345.00      -12345.00      -12345.00      -12345.00      -12345.00
      -12345.00      -12345.00      -12345.00      -12345.00      -12345.00
      -12345.00      -12345.00      -12345.00      -12345.00      -12345.00
      -12345.00      -19.93360       134.3600       366.0000       100.0000
      -42.72450       173.0647      -12345.00       22.00000      -12345.00
      -12345.00      -12345.00      -12345.00      -12345.00      -12345.00
      -12345.00      -12345.00      -12345.00      -12345.00      -12345.00
       4406.955       292.7408       133.7505       39.63445      -12345.00
      -12345.00      -12345.00      0.9000000       90.00000      -12345.00
      -12345.00      -12345.00      -12345.00      -12345.00      -12345.00
      -12345.00      -12345.00      -12345.00      -12345.00      -12345.00
      2016       318        11         9        28
        19         6    -12345    -12345     37200
    -12345    -12345    -12345    -12345    -12345
         1    -12345    -12345    -12345    -12345
    -12345    -12345    -12345    -12345    -12345
    -12345    -12345    -12345    -12345    -12345
    -12345    -12345    -12345    -12345    -12345
         1    -12345    -12345    -12345    -12345
WRAB    South Island, Ne
00      -12345  -12345  
-12345  -12345  -12345  
-12345  -12345  -12345  
-12345  -12345  -12345  
-12345  -12345  -12345  
-12345  -12345  BH1     
II      -12345  Geotech 
[...]
      -13683.00       14152.00       42108.00       70193.00       98394.00
       126700.0       155096.0       183564.0       212096.0       240686.0
       269316.0       297962.0       326633.0       355325.0       384021.0
       412713.0       441394.0       470050.0       498667.0       527236.0
       555739.0       584171.0       612525.0       640791.0       668967.0
       697029.0       724984.0       752831.0       780549.0       808144.0
       835606.0       862934.0       890127.0       917178.0       944084.0
       970842.0       997477.0       1023992.       1050383.       1076659.
       1102796.       1128765.       1154587.       1180271.       1205805.
       1231202.       1256454.       1281551.       1306496.       1331271.
       1355887.       1380344.       1404627.       1428724.       1452627.
       1476339.       1499873.       1523243.       1546444.       1569470.
       1592318.       1615000.       1637512.       1659863.       1682075.
       1704139.       1726053.       1747816.       1769425.       1790873.
       1812166.       1833292.       1854245.       1875041.       1895670.
       1916135.       1936421.       1956516.       1976435.       1996156.
       2015661.       2034952.       2054026.       2072856.       2091418.
       2109721.       2127770.       2145558.       2163044.       2180184.
       2196951.       2213334.       2229352.       2244989.       2260213.
       2275003.       2289318.       2303163.       2316545.       2329461.
       2341898.       2353832.       2365245.       2376133.       2386482.
       2396262.       2405430.       2413932.       2421756.       2428910.
       2435382.       2441166.       2446235.       2450595.       2454275.
       2457251.       2459488.       2460935.       2461551.       2461288.
       2460109.       2457999.       2454950.       2450975.       2446083.
       2440289.       2433594.       2425978.       2417425.       2407917.
       2397451.       2386029.       2373646.       2360293.       2345957.
       2330636.       2314329.       2297022.       2278717.       2259402.
       2239052.       2217671.       2195271.       2171897.       2147587.
       2122347.       2096173.       2069064.       2041002.       2011964.
       1981952.       1950961.       1919016.       1886168.       1852438.
       1817847.       1782418.       1746186.       1709193.       1671450.
       1632936.       1593650.       1553637.       1512942.       1471603.
       1429649.       1387069.       1343825.       1299894.       1255298.
       1210061.       1164215.       1117816.       1070922.       1023603.
       975869.0       927701.0       879113.0       830105.0       780669.0
       730814.0       680568.0       629946.0       578965.0       527664.0
       476069.0       424228.0       372184.0       319965.0       267579.0
       215034.0       162359.0       109582.0       56709.00       3729.000
      -49351.00      -102496.0      -155658.0      -208814.0      -261975.0
      -315139.0      -368261.0      -421299.0      -474234.0      -527064.0
      -579770.0      -632313.0      -684674.0      -736848.0      -788863.0
      -840764.0      -892564.0      -944244.0      -995760.0      -1047080.
      -1098198.      -1149093.      -1199731.      -1250070.      -1300076.
      -1349760.      -1399128.      -1448188.      -1496928.      -1545302.
      -1593269.      -1640806.      -1687918.      -1734595.      -1780815.
      -1826545.      -1871763.      -1916465.      -1960633.      -2004252.
      -2047279.      -2089651.      -2131351.      -2172397.      -2212783.
      -2252476.      -2291439.      -2329676.      -2367209.      -2404025.
      -2440083.      -2475343.      -2509763.      -2543284.      -2575872.
      -2607520.      -2638244.      -2668054.      -2696955.      -2724964.
      -2752053.      -2778206.      -2803411.      -2827617.      -2850798.
      -2872934.      -2894018.      -2914058.      -2933030.      -2950920.
      -2967719.      -2983408.      -2997947.      -3011294.      -3023433.
      -3034365.      -3044099.      -3052627.      -3059955.      -3066082.
      -3071009.      -3074722.      -3077170.      -3078327.      -3078175.
      -3076723.      -3073968.      -3069889.      -3064472.      -3057715.
      -3049649.      -3040293.      -3029648.      -3017710.      -3004464.
      -2989914.      -2974062.      -2956923.      -2938514.      -2918845.
      -2897929.      -2875781.      -2852415.      -2827843.      -2802068.
      -2775125.      -2747062.      -2717902.      -2687658.      -2656344.
      -2623996.      -2590633.      -2556251.      -2520868.      -2484510.
      -2447192.      -2408925.      -2369747.      -2329721.      -2288881.
      -2247216.      -2204744.      -2161502.      -2117518.      -2072816.
      -2027395.      -1981247.      -1934415.      -1886938.      -1838854.
      -1790185.      -1740933.      -1691128.      -1640781.      -1589906.
      -1538499.      -1486573.      -1434166.      -1381296.      -1327972.
      -1274213.      -1220041.      -1165457.      -1110453.      -1055052.
      -999292.0      -943201.0      -886811.0      -830162.0      -773268.0
      -716139.0      -658785.0      -601226.0      -543484.0      -485560.0
      -427451.0      -369177.0      -310755.0      -252209.0      -193568.0
      -134863.0      -76119.00      -17336.00       41479.00       100292.0
       159089.0       217878.0       276650.0       335384.0       394061.0
       452658.0       511133.0       569443.0       627577.0       685533.0
       743305.0       800878.0       858205.0       915243.0       971978.0
       1028373.       1084391.       1140035.       1195268.       1250059.
       1304420.       1358322.       1411745.       1464654.       1516997.
       1568732.       1619834.       1670291.       1720064.       1769117.
       1817409.       1864909.       1911567.       1957342.       2002218.
       2046165.       2089159.       2131171.       2172168.       2212148.
       2251104.       2289011.       2325848.       2361583.       2396204.
       2429709.       2462094.       2493363.       2523514.       2552545.
       2580439.       2607197.       2632799.       2657226.       2680477.
       2702565.       2723536.       2743406.       2762190.       2779901.
       2796522.       2812040.       2826450.       2839771.       2852017.
       2863188.       2873314.       2882393.       2890448.       2897488.
       2903500.       2908533.       2912582.       2915646.       2917740.
       2918873.       2919067.       2918299.       2916610.       2914014.
       2910510.       2906133.       2900881.       2894784.       2887867.
       2880138.       2871573.       2862175.       2851959.       2840920.
       2829088.       2816494.       2803160.       2789070.       2774210.
       2758576.       2742146.       2724928.       2706936.       2688191.
       2668724.       2648545.       2627666.       2606099.       2583859.
       2560993.       2537530.       2513453.       2488765.       2463491.
       2437654.       2411263.       2384324.       2356865.       2328908.
       2300474.       2271587.       2242285.       2212615.       2182607.
       2152277.       2121633.       2090673.       2059397.       2027836.
       1995987.       1963856.       1931479.       1898864.       1866041.
       1833032.       1799860.       1766561.       1733139.       1699597.
       1665916.       1632126.       1598289.       1564413.       1530486.
       1496514.       1462524.       1428527.       1394521.       1360487.
       1326413.       1292313.       1258199.       1224104.       1190069.
       1156100.       1122196.       1088337.       1054511.       1020717.
       986936.0       953161.0       919387.0       885662.0       852047.0
       818549.0       785163.0       751867.0       718647.0       685510.0
       652464.0       619520.0       586692.0       553970.0       521343.0
       488819.0       456408.0       424120.0       391948.0       359880.0
       327928.0       296119.0       264467.0       232956.0       201567.0
       170300.0       139147.0       108097.0       77162.00       46332.00
       15584.00      -15112.00      -45770.00      -76387.00      -106960.0
      -137471.0      -167906.0      -198257.0      -228522.0      -258694.0
      -288769.0      -318758.0      -348675.0      -378516.0      -408272.0
      -437957.0      -467589.0      -497169.0      -526695.0      -556169.0
      -585586.0      -614972.0      -644338.0      -673679.0      -703022.0
      -732377.0      -761733.0      -791072.0      -820386.0      -849683.0
      -878981.0      -908286.0      -937564.0      -966778.0      -995911.0
      -1024969.      -1053980.      -1082949.      -1111861.      -1140702.
      -1169466.      -1198145.      -1226723.      -1255209.      -1283595.
      -1311871.      -1340019.      -1368019.      -1395853.      -1423508.
      -1450999.      -1478295.      -1505369.      -1532205.      -1558785.
      -1585129.      -1611216.      -1637025.      -1662548.      -1687761.
      -1712663.      -1737244.      -1761473.      -1785342.      -1808832.
      -1831930.      -1854636.      -1876945.      -1898867.      -1920420.
      -1941623.      -1962469.      -1982928.      -2002977.      -2022596.
      -2041770.      -2060495.      -2078788.      -2096648.      -2114063.
      -2131054.      -2147652.      -2163876.      -2179714.      -2195129.
      -2210114.      -2224673.      -2238811.      -2252534.      -2265818.
      -2278618.      -2290911.      -2302719.      -2314086.      -2325000.
      -2335432.      -2345375.      -2354817.      -2363743.      -2372146.
      -2380031.      -2387404.      -2394258.      -2400586.      -2406386.
      -2411653.      -2416369.      -2420523.      -2424106.      -2427116.
      -2429572.      -2431479.      -2432829.      -2433622.      -2433861.
      -2433559.      -2432718.      -2431329.      -2429379.      -2426830.
      -2423694.      -2419984.      -2415674.      -2410753.      -2405227.
      -2399100.      -2392358.      -2384978.      -2376961.      -2368300.
      -2358968.      -2348980.      -2338350.      -2327064.      -2315140.
      -2302564.      -2289314.      -2275383.      -2260764.      -2245459.
      -2229453.      -2212749.      -2195378.      -2177346.      -2158654.
      -2139288.      -2119226.      -2098433.      -2076890.      -2054630.
      -2031668.      -2008010.      -1983661.      -1958610.      -1932863.
      -1906420.      -1879280.      -1851462.      -1822968.      -1793780.
      -1763896.      -1733341.      -1702152.      -1670344.      -1637908.
      -1604842.      -1571149.      -1536833.      -1501903.      -1466374.
      -1430270.      -1393599.      -1356357.      -1318543.      -1280179.
      -1241279.      -1201848.      -1161885.      -1121389.      -1080366.
      -1038835.      -996810.0      -954299.0      -911306.0      -867822.0
      -823859.0      -779445.0      -734604.0      -689345.0      -643676.0
      -597625.0      -551204.0      -504407.0      -457231.0      -409676.0
      -361759.0      -313503.0      -264920.0      -216027.0      -166847.0
      -117398.0      -67689.00      -17731.00       32453.00       82843.00
       133404.0       184096.0       234886.0       285759.0       336724.0
       387766.0       438852.0       489962.0       541087.0       592213.0
       643334.0       694433.0       745473.0       796442.0       847319.0
       898065.0       948640.0       999026.0       1049236.       1099270.
       1149115.       1198740.       1248110.       1297197.       1345987.
       1394470.       1442608.       1490379.       1537776.       1584781.
       1631376.       1677556.       1723309.       1768609.       1813457.
       1857847.       1901773.       1945252.       1988274.       2030807.
       2072829.       2114314.       2155235.       2195575.       2235328.
       2274490.       2313066.       2351067.       2388492.       2425328.
       2461538.       2497105.       2532050.       2566362.       2600008.
       2632962.       2665218.       2696766.       2727599.       2757703.
       2787056.       2815651.       2843483.       2870543.       2896832.
       2922338.       2947039.       2970929.       2994011.       3016252.
       3037632.       3058169.       3077849.       3096665.       3114608.
       3131659.       3147791.       3162977.       3177233.       3190571.
       3202994.       3214516.       3225116.       3234763.       3243450.
       3251191.       3257977.       3263800.       3268656.       3272524.
       3275388.       3277252.       3278136.       3278046.       3276976.
       3274924.       3271891.       3267880.       3262902.       3256957.
       3250029.       3242115.       3233209.       3223322.       3212459.
       3200617.       3187780.       3173937.       3159109.       3143315.
       3126548.       3108797.       3090071.       3070382.       3049742.
       3028154.       3005635.       2982202.       2957830.       2932521.
       2906294.       2879174.       2851161.       2822234.       2792397.
       2761647.       2729983.       2697445.       2664070.       2629860.
       2594825.       2559005.       2522439.       2485138.       2447111.
       2408356.       2368869.       2328669.       2287771.       2246160.
       2203833.       2160819.       2117156.       2072879.       2027994.
       1982495.       1936393.       1889716.       1842502.       1794758.
       1746493.       1697747.       1648557.       1598929.       1548843.
       1498294.       1447277.       1395787.       1343839.       1291475.
       1238728.       1185598.       1132089.       1078216.       1023986.
       969414.0       914532.0       859361.0       803900.0       748145.0
       692092.0       635755.0       579181.0       522395.0       465411.0
       408224.0       350829.0       293227.0       235409.0       177392.0
       119217.0       60930.00       2565.000      -55849.00      -114298.0
      -172778.0      -231279.0      -289777.0      -348241.0      -406656.0
      -465004.0      -523254.0      -581378.0      -639368.0      -697222.0
      -754922.0      -812443.0      -869777.0      -926895.0      -983784.0
      -1040428.      -1096783.      -1152840.      -1208587.      -1264014.
      -1319110.      -1373832.      -1428151.      -1482031.      -1535443.
      -1588374.      -1640788.      -1692666.      -1743984.      -1794709.
      -1844817.      -1894243.      -1942955.      -1990957.      -2038225.
      -2084753.      -2130533.      -2175527.      -2219705.      -2263038.
      -2305492.      -2347040.      -2387682.      -2427425.      -2466257.
      -2504163.      -2541130.      -2577160.      -2612248.      -2646390.
      -2679560.      -2711723.      -2742854.      -2772918.      -2801883.
      -2829745.      -2856509.      -2882177.      -2906742.      -2930191.
      -2952514.      -2973700.      -2993738.      -3012625.      -3030330.
      -3046837.      -3062150.      -3076269.      -3089194.      -3100914.
      -3111425.      -3120722.      -3128810.      -3135705.      -3141411.
      -3145923.      -3149248.      -3151386.      -3152338.      -3152137.
      -3150799.      -3148310.      -3144664.      -3139860.      -3133896.
      -3126790.      -3118575.      -3109264.      -3098857.      -3087355.
      -3074751.      -3061065.      -3046321.      -3030525.      -3013682.
      -2995793.      -2976864.      -2956937.      -2936030.      -2914139.
      -2891282.      -2867494.      -2842794.      -2817187.      -2790663.
      -2763207.      -2734834.      -2705567.      -2675416.      -2644408.
      -2612539.      -2579806.      -2546237.      -2511856.      -2476692.
      -2440755.      -2404032.      -2366531.      -2328255.      -2289203.
      -2249378.      -2208800.      -2167485.      -2125451.      -2082735.
      -2039356.      -1995328.      -1950643.      -1905297.      -1859316.
      -1812743.      -1765617.      -1717957.      -1669809.      -1621206.
      -1572156.      -1522701.      -1472855.      -1422626.      -1372035.
      -1321108.      -1269884.      -1218377.      -1166618.      -1114643.
      -1062457.      -1010063.      -957490.0      -904767.0      -851914.0
      -798955.0      -745918.0      -692826.0      -639689.0      -586522.0
      -533332.0      -480117.0      -426895.0      -373689.0      -320525.0
      -267424.0      -214427.0      -161565.0      -108858.0      -56353.00
      -4077.000       47956.00       99722.00       151178.0       202298.0
       253061.0       303415.0       353341.0       402833.0       451875.0
       500447.0       548543.0       596151.0       643241.0       689774.0
       735707.0       781001.0       825646.0       869635.0       912964.0
       955628.0       997602.0       1038890.       1079502.       1119440.
       1158699.       1197240.       1235031.       1272050.       1308286.
       1343749.       1378445.       1412364.       1445500.       1477856.
       1509424.       1540209.       1570211.       1599429.       1627850.
       1655478.       1682336.       1708417.       1733718.       1758246.
       1782000.       1804975.       1827167.       1848564.       1869174.
       1889015.       1908114.       1926483.       1944095.       1960944.
       1977043.       1992423.       2007097.       2021045.       2034254.
       2046734.       2058508.       2069592.       2080001.       2089743.
       2098826.       2107246.       2115006.       2122131.       2128622.
       2134483.       2139706.       2144303.       2148303.       2151712.
       2154545.       2156811.       2158531.       2159713.       2160342.
       2160406.       2159887.       2158786.       2157111.       2154886.
       2152136.       2148874.       2145133.       2140924.       2136235.
       2131079.       2125473.       2119405.       2112845.       2105797.
       2098274.       2090265.       2081782.       2072832.       2063409.
       2053517.       2043167.       2032354.       2021062.       2009299.
