     0.02500000      -12345.00      -12345.00   2.077450e+09      -12345.00
   0.0005380000       1859.976      -389.0196      -12345.00      -12345.00
      -12345.00      -12345.00      -12345.00      -12345.00      -12345.00
      -12345.00      -12345.00      -12345.00      -12345.00      -12345.00
      -12345.00      -12345.00      -12345.00      -12345.00      -12345.00
      -12345.00      -12345.00      -12345.00      -12345.00      -12345.00
      -12345.00      -19.93360       134.3600       366.0000       0.000000
      -42.72450       173.0647      -12345.00       22.00000      -12345.00
      -12345.00      -12345.00      -12345.00      -12345.00      -12345.00
      -12345.00      -12345.00      -12345.00      -12345.00      -12345.00
       4406.955       292.7408       133.7505       39.63445      -12345.00
      -12345.00      -12345.00       0.000000       0.000000      -12345.00
      -12345.00      -12345.00      -12345.00      -12345.00      -12345.00
      -12345.00      -12345.00      -12345.00      -12345.00      -12345.00
      2016       318        11         9        28
        19         6    -12345    -12345     74400
    -12345    -12345    -12345    -12345    -12345
         1    -12345    -12345    -12345    -12345
    -12345    -12345    -12345    -12345    -12345
    -12345    -12345    -12345    -12345    -12345
    -12345    -12345    -12345    -12345    -12345
         1    -12345    -12345    -12345    -12345
WRAB    South Island, Ne
10      -12345  -12345  
-12345  -12345  -12345  
-12345  -12345  -12345  
-12345  -12345  -12345  
-12345  -12345  -12345  
-12345  -12345  BHZ     
II      -12345  Nanometr
[...]
       1529467.       1539601.       1549667.       1559670.       1569610.
       1579480.       1589259.       1598975.       1608625.       1618193.
       1627652.       1637028.       1646353.       1655599.       1664773.
       1673883.       1682916.       1691870.       1700733.       1709486.
       1718155.       1726743.       1735248.       1743709.       1752088.
       1760374.       1768531.       1776544.       1784505.       1792428.
       1800293.       1808049.       1815685.       1823204.       1830608.
       1837957.       1845189.       1852326.       1859382.       1866336.
       1873216.       1879958.       1886603.       1893151.       1899582.
       1905947.       1912212.       1918363.       1924413.       1930369.
       1936222.       1941979.       1947658.       1953227.       1958671.
       1964028.       1969283.       1974416.       1979460.       1984378.
       1989183.       1993892.       1998445.       2002886.       2007244.
       2011490.       2015631.       2019658.       2023549.       2027322.
       2030952.       2034469.       2037899.       2041201.       2044392.
       2047462.       2050396.       2053176.       2055858.       2058436.
       2060867.       2063195.       2065394.       2067518.       2069498.
       2071244.       2072894.       2074470.       2075909.       2077246.
       2078482.       2079546.       2080460.       2081238.       2081860.
       2082375.       2082764.       2083004.       2083114.       2083081.
       2082878.       2082515.       2082011.       2081398.       2080668.
       2079792.       2078791.       2077623.       2076316.       2074856.
       2073232.       2071506.       2069603.       2067591.       2065439.
       2063100.       2060717.       2058176.       2055406.       2052513.
       2049465.       2046237.       2042888.       2039388.       2035729.
       2031952.       2028009.       2023905.       2019635.       2015188.
       2010588.       2005858.       2001021.       1996031.       1990888.
       1985602.       1980135.       1974465.       1968628.       1962673.
       1956590.       1950373.       1944018.       1937559.       1930950.
       1924195.       1917334.       1910277.       1903098.       1895803.
       1888329.       1880762.       1873046.       1865091.       1856988.
       1848784.       1840452.       1832008.       1823401.       1814633.
       1805719.       1796652.       1787473.       1778133.       1768653.
       1759109.       1749438.       1739635.       1729713.       1719630.
       1709451.       1699147.       1688701.       1678142.       1667363.
       1656449.       1645517.       1634481.       1623334.       1612076.
       1600698.       1589217.       1577582.       1565793.       1553886.
       1541857.       1529704.       1517443.       1505104.       1492676.
       1480136.       1467462.       1454680.       1441816.       1428830.
       1415741.       1402537.       1389234.       1375873.       1362383.
       1348816.       1335168.       1321393.       1307560.       1293620.
       1279560.       1265427.       1251210.       1236911.       1222523.
       1208058.       1193470.       1178783.       1164060.       1149222.
       1134305.       1119330.       1104232.       1089061.       1073819.
       1058478.       1043083.       1027656.       1012139.       996557.0
       980927.0       965198.0       949405.0       933552.0       917628.0
       901642.0       885583.0       869469.0       853302.0       837078.0
       820785.0       804445.0       788056.0       771595.0       755102.0
       738571.0       721972.0       705309.0       688631.0       671886.0
       655044.0       638184.0       621266.0       604301.0       587309.0
       570236.0       553105.0       535941.0       518712.0       501441.0
       484155.0       466817.0       449455.0       432054.0       414590.0
       397111.0       379614.0       362104.0       344573.0       326988.0
       309347.0       291671.0       273956.0       256214.0       238474.0
       220724.0       202946.0       185132.0       167251.0       149341.0
       131428.0       113471.0       95482.00       77478.00       59432.00
       41368.00       23309.00       5203.000      -12924.00      -31038.00
      -49190.00      -67346.00      -85498.00      -103679.0      -121855.0
      -140076.0      -158313.0      -176542.0      -194776.0      -212974.0
      -231169.0      -249260.0      -267361.0      -285656.0      -303972.0
      -322242.0      -340524.0      -358774.0      -376906.0      -394976.0
      -413102.0      -431251.0      -449442.0      -467700.0      -485899.0
      -503964.0      -522005.0      -540069.0      -558118.0      -576187.0
      -594279.0      -612399.0      -630528.0      -648593.0      -666593.0
      -684600.0      -702558.0      -720434.0      -738318.0      -756187.0
      -774061.0      -791943.0      -809759.0      -827530.0      -845294.0
      -863025.0      -880721.0      -898370.0      -915941.0      -933515.0
      -951130.0      -968708.0      -986187.0      -1003557.      -1020878.
      -1038209.      -1055531.      -1072831.      -1090119.      -1107301.
      -1124398.      -1141494.      -1158532.      -1175548.      -1192544.
      -1209454.      -1226281.      -1242977.      -1259612.      -1276223.
      -1292712.      -1309139.      -1325581.      -1342052.      -1358493.
      -1374783.      -1390940.      -1407038.      -1423117.      -1439179.
      -1455192.      -1471126.      -1486913.      -1502576.      -1518168.
      -1533672.      -1549155.      -1564619.      -1579966.      -1595206.
      -1610427.      -1625652.      -1640794.      -1655824.      -1670690.
      -1685402.      -1700106.      -1714683.      -1729159.      -1743635.
      -1758039.      -1772395.      -1786603.      -1800686.      -1814693.
      -1828572.      -1842372.      -1855998.      -1869404.      -1882733.
      -1896106.      -1909569.      -1922972.      -1936156.      -1949153.
      -1961975.      -1974659.      -1987266.      -1999799.      -2012332.
      -2024729.      -2036825.      -2048814.      -2060711.      -2072459.
      -2084198.      -2095841.      -2107357.      -2118789.      -2130068.
      -2141217.      -2152199.      -2163030.      -2173740.      -2184305.
      -2194707.      -2204994.      -2215236.      -2225320.      -2235254.
      -2245050.      -2254646.      -2264152.      -2273555.      -2282781.
      -2291907.      -2300902.      -2309700.      -2318367.      -2326888.
      -2335227.      -2343444.      -2351511.      -2359427.      -2367248.
      -2374900.      -2382417.      -2389827.      -2397121.      -2404250.
      -2411077.      -2417772.      -2424460.      -2431012.      -2437365.
      -2443476.      -2449359.      -2455083.      -2460710.      -2466236.
      -2471596.      -2476799.      -2481793.      -2486608.      -2491303.
      -2495764.      -2500077.      -2504274.      -2508255.      -2512090.
      -2515746.      -2519187.      -2522476.      -2525599.      -2528553.
      -2531317.      -2533897.      -2536335.      -2538598.      -2540681.
      -2542571.      -2544292.      -2545842.      -2547191.      -2548350.
      -2549315.      -2550157.      -2550832.      -2551277.      -2551582.
      -2551680.      -2551543.      -2551272.      -2550792.      -2550070.
      -2549193.      -2548139.      -2546889.      -2545431.      -2543758.
      -2541958.      -2539988.      -2537817.      -2535489.      -2532900.
      -2530116.      -2527169.      -2524001.      -2520699.      -2517164.
      -2513385.      -2509468.      -2505333.      -2500977.      -2496432.
      -2491715.      -2486799.      -2481640.      -2476308.      -2470783.
      -2465040.      -2459150.      -2453084.      -2446810.      -2440341.
      -2433623.      -2426687.      -2419570.      -2412267.      -2404795.
      -2397127.      -2389271.      -2381203.      -2372954.      -2364527.
      -2355867.      -2347042.      -2338022.      -2328789.      -2319364.
      -2309715.      -2299885.      -2289889.      -2279742.      -2269403.
      -2258828.      -2248097.      -2237165.      -2226010.      -2214700.
      -2203194.      -2191512.      -2179654.      -2167577.      -2155335.
      -2142951.      -2130363.      -2117575.      -2104626.      -2091482.
      -2078146.      -2064637.      -2050966.      -2037124.      -2023118.
      -2008946.      -1994552.      -1979987.      -1965264.      -1950350.
      -1935295.      -1920104.      -1904737.      -1889189.      -1873477.
      -1857586.      -1841554.      -1825369.      -1808989.      -1792444.
      -1775706.      -1758813.      -1741786.      -1724588.      -1707242.
      -1689714.      -1672013.      -1654206.      -1636240.      -1618123.
      -1599902.      -1581507.      -1562972.      -1544337.      -1525538.
      -1506580.      -1487503.      -1468301.      -1448923.      -1429392.
      -1409738.      -1389948.      -1370033.      -1349990.      -1329871.
      -1309632.      -1289245.      -1268739.      -1248106.      -1227373.
      -1206516.      -1185539.      -1164465.      -1143282.      -1121989.
      -1100542.      -1079009.      -1057497.      -1035932.      -1014246.
      -992362.0      -970246.0      -948073.0      -925947.0      -903769.0
      -881437.0      -859015.0      -836643.0      -814220.0      -791554.0
      -768796.0      -746032.0      -723221.0      -700411.0      -677594.0
      -654718.0      -631733.0      -608724.0      -585610.0      -562457.0
      -539389.0      -516192.0      -492892.0      -469569.0      -446089.0
      -422543.0      -399165.0      -375745.0      -352254.0      -328830.0
      -305340.0      -281972.0      -258524.0      -234820.0      -211161.0
      -187568.0      -164069.0      -140544.0      -116959.0      -93362.00
      -69733.00      -46168.00      -22538.00       1038.000       24589.00
       48315.00       71839.00       95351.00       119072.0       142636.0
       166130.0       189593.0       212954.0       236434.0       260017.0
       283376.0       306590.0       329883.0       353229.0       376582.0
       399887.0       423132.0       446283.0       469398.0       492460.0
       515440.0       538415.0       561318.0       584183.0       606989.0
       629694.0       652465.0       675220.0       697859.0       720396.0
       742845.0       765243.0       787604.0       809966.0       832203.0
       854394.0       876563.0       898570.0       920514.0       942382.0
       964191.0       985922.0       1007560.       1029159.       1050655.
       1072129.       1093535.       1114833.       1136024.       1157035.
       1177919.       1198714.       1219489.       1240207.       1260818.
       1281413.       1301906.       1322181.       1342349.       1362424.
       1382338.       1402198.       1422012.       1441710.       1461255.
       1480673.       1500078.       1519320.       1538356.       1557373.
       1576252.       1594888.       1613443.       1631964.       1650367.
       1668580.       1686634.       1704621.       1722502.       1740278.
       1757957.       1775485.       1792832.       1810030.       1827134.
       1844104.       1860956.       1877753.       1894411.       1910865.
       1927137.       1943230.       1959242.       1975121.       1990900.
       2006559.       2021971.       2037303.       2052491.       2067490.
       2082395.       2097124.       2111688.       2126136.       2140403.
       2154523.       2168568.       2182398.       2196023.       2209525.
       2222901.       2236226.       2249364.       2262228.       2274923.
       2287453.       2299844.       2312077.       2324131.       2336075.
       2347853.       2359460.       2370915.       2382208.       2393348.
       2404265.       2414962.       2425404.       2435694.       2445874.
       2455827.       2465667.       2475325.       2484768.       2494086.
       2503234.       2512248.       2521101.       2529660.       2537986.
       2546247.       2554331.       2562184.       2569894.       2577434.
       2584805.       2591999.       2599009.       2605805.       2612408.
       2618769.       2624880.       2630883.       2636733.       2642407.
       2647858.       2653029.       2658031.       2662843.       2667458.
       2671880.       2676034.       2679963.       2683742.       2687366.
       2690789.       2693994.       2697008.       2699839.       2702441.
       2704820.       2706967.       2708904.       2710694.       2712266.
       2713648.       2714826.       2715769.       2716515.       2716990.
       2717236.       2717307.       2717189.       2716861.       2716326.
       2715563.       2714539.       2713309.       2711867.       2710212.
       2708376.       2706345.       2704099.       2701621.       2698947.
       2696072.       2692991.       2689694.       2686169.       2682439.
       2678479.       2674297.       2669909.       2665329.       2660559.
       2655582.       2650406.       2645029.       2639458.       2633671.
       2627643.       2621394.       2614935.       2608281.       2601434.
       2594381.       2587135.       2579685.       2571997.       2564099.
       2556011.       2547684.       2539156.       2530480.       2521633.
       2512599.       2503354.       2493885.       2484217.       2474358.
       2464289.       2454036.       2443585.       2432905.       2422049.
       2410972.       2399691.       2388259.       2376623.       2364806.
       2352774.       2340507.       2328107.       2315569.       2302813.
       2289879.       2276751.       2263380.       2249833.       2236098.
       2222180.       2208100.       2193880.       2179507.       2164954.
       2150203.       2135230.       2120138.       2104875.       2089401.
       2073795.       2058024.       2042067.       2025954.       2009698.
       1993268.       1976670.       1959898.       1942973.       1925888.
       1908631.       1891247.       1873724.       1856066.       1838272.
       1820335.       1802270.       1784051.       1765681.       1747206.
       1728568.       1709775.       1690914.       1671903.       1652753.
       1633518.       1614123.       1594611.       1574996.       1555245.
       1535402.       1515438.       1495364.       1475210.       1454926.
       1434514.       1413999.       1393370.       1372623.       1351783.
       1330842.       1309796.       1288685.       1267493.       1246195.
       1224789.       1203285.       1181678.       1159976.       1138192.
       1116346.       1094419.       1072385.       1050310.       1028176.
       1005956.       983679.0       961285.0       938809.0       916308.0
       893761.0       871164.0       848506.0       825779.0       803003.0
       780171.0       757255.0       734283.0       711291.0       688264.0
       665169.0       642058.0       618929.0       595773.0       572622.0
       549407.0       526130.0       502832.0       479511.0       456147.0
       432737.0       409328.0       385911.0       362451.0       338917.0
       315336.0       291772.0       268201.0       244632.0       221076.0
       197513.0       173965.0       150393.0       126820.0       103274.0
       79690.00       56135.00       32595.00       9057.000      -14402.00
      -37814.00      -61205.00      -84597.00      -107967.0      -131314.0
      -154632.0      -177879.0      -201122.0      -224371.0      -247586.0
      -270767.0      -293982.0      -317188.0      -340293.0      -363371.0
      -386394.0      -409348.0      -432320.0      -455231.0      -478065.0
      -500867.0      -523625.0      -546321.0      -568900.0      -591442.0
      -613933.0      -636276.0      -658526.0      -680687.0      -702806.0
      -724971.0      -747159.0      -769272.0      -791205.0      -812888.0
      -834412.0      -855899.0      -877374.0      -898828.0      -920183.0
      -941474.0      -962710.0      -983778.0      -1004717.      -1025577.
      -1046326.      -1066964.      -1087478.      -1107867.      -1128156.
      -1148328.      -1168385.      -1188274.      -1207982.      -1227610.
      -1247168.      -1266599.      -1285836.      -1304897.      -1323856.
      -1342714.      -1361430.      -1379992.      -1398427.      -1416742.
      -1434907.      -1452899.      -1470773.      -1488502.      -1506030.
      -1523378.      -1540538.      -1557607.      -1574560.      -1591351.
      -1608032.      -1624518.      -1640822.      -1656964.      -1672922.
      -1688693.      -1704288.      -1719745.      -1735048.      -1750190.
      -1765150.      -1779928.      -1794478.      -1808818.      -1823039.
      -1837098.      -1851006.      -1864701.      -1878132.      -1891387.
      -1904470.      -1917343.      -1930032.      -1942567.      -1954890.
      -1966980.      -1978880.      -1990605.      -2002158.      -2013492.
      -2024554.      -2035429.      -2046174.      -2056708.      -2067038.
      -2077152.      -2087063.      -2096767.      -2106212.      -2115482.
      -2124533.      -2133383.      -2142062.      -2150473.      -2158677.
      -2166676.      -2174475.      -2182058.      -2189413.      -2196634.
      -2203632.      -2210438.      -2217097.      -2223494.      -2229710.
      -2235772.      -2241606.      -2247182.      -2252505.      -2257652.
      -2262634.      -2267428.      -2271993.      -2276328.      -2280470.
      -2284293.      -2287912.      -2291365.      -2294529.      -2297542.
      -2300402.      -2303140.      -2305710.      -2307997.      -2310002.
      -2311850.      -2313748.      -2315329.      -2316441.      -2317392.
      -2318152.      -2318778.      -2319258.      -2319511.      -2319671.
      -2319650.      -2319227.      -2318519.      -2317682.      -2316673.
      -2315538.      -2314182.      -2312583.      -2310832.      -2308876.
      -2306750.      -2304401.      -2301852.      -2299122.      -2296160.
      -2293065.      -2289800.      -2286302.      -2282630.      -2278780.
      -2274719.      -2270482.      -2266028.      -2261376.      -2256593.
