     0.02500000      -12345.00      -12345.00   2.040910e+09      -12345.00
   0.0005380000       1859.976      -389.0196      -12345.00      -12345.00
      -12345.00      -12345.00      -12345.00      -12345.00      -12345.00
      -12345.00      -12345.00      -12345.00      -12345.00      -12345.00
      -12345.00      -12345.00      -12345.00      -12345.00      -12345.00
      -12345.00      -12345.00      -12345.00      -12345.00      -12345.00
      -12345.00      -19.93360       134.3600       366.0000       0.000000
      -42.72450       173.0647      -12345.00       22.00000      -12345.00
      -12345.00      -12345.00      -12345.00      -12345.00      -12345.00
      -12345.00      -12345.00      -12345.00      -12345.00      -12345.00
       4406.955       292.7408       133.7505       39.63445      -12345.00
      -12345.00      -12345.00       329.0000       90.00000      -12345.00
      -12345.00      -12345.00      -12345.00      -12345.00      -12345.00
      -12345.00      -12345.00      -12345.00      -12345.00      -12345.00
      2016       318        11         9        28
        19         6    -12345    -12345     74400
    -12345    -12345    -12345    -12345    -12345
         1    -12345    -12345    -12345    -12345
    -12345    -12345    -12345    -12345    -12345
    -12345    -12345    -12345    -12345    -12345
    -12345    -12345    -12345    -12345    -12345
         1    -12345    -12345    -12345    -12345
WRAB    South Island, Ne
10      -12345  -12345  
-12345  -12345  -12345  
-12345  -12345  -12345  
-12345  -12345  -12345  
-12345  -12345  -12345  
-12345  -12345  BH1     
II      -12345  Nanometr
[...]
       1433505.       1438299.       1442992.       1447586.       1452063.
       1456439.       1460712.       1464884.       1468960.       1472929.
       1476807.       1480581.       1484252.       1487832.       1491320.
       1494716.       1498006.       1501203.       1504313.       1507326.
       1510247.       1513076.       1515813.       1518448.       1520983.
       1523418.       1525758.       1528004.       1530143.       1532189.
       1534136.       1535974.       1537726.       1539382.       1540941.
       1542416.       1543812.       1545112.       1546305.       1547407.
       1548410.       1549315.       1550124.       1550827.       1551436.
       1551931.       1552325.       1552628.       1552820.       1552922.
       1552926.       1552824.       1552627.       1552333.       1551950.
       1551478.       1550898.       1550218.       1549443.       1548573.
       1547615.       1546556.       1545419.       1544186.       1542857.
       1541448.       1539934.       1538333.       1536639.       1534853.
       1532980.       1531022.       1528974.       1526830.       1524600.
       1522278.       1519862.       1517353.       1514761.       1512074.
       1509310.       1506459.       1503519.       1500498.       1497381.
       1494188.       1490920.       1487574.       1484151.       1480653.
       1477085.       1473431.       1469704.       1465914.       1462036.
       1458089.       1454070.       1449963.       1445787.       1441529.
       1437187.       1432784.       1428298.       1423728.       1419092.
       1414382.       1409594.       1404727.       1399795.       1394797.
       1389720.       1384579.       1379378.       1374090.       1368736.
       1363329.       1357842.       1352292.       1346682.       1341005.
       1335265.       1329450.       1323568.       1317623.       1311607.
       1305547.       1299443.       1293281.       1287061.       1280787.
       1274462.       1268067.       1261618.       1255123.       1248562.
       1241951.       1235285.       1228570.       1221796.       1214964.
       1208079.       1201127.       1194126.       1187074.       1179971.
       1172809.       1165594.       1158326.       1150996.       1143637.
       1136224.       1128770.       1121284.       1113734.       1106152.
       1098520.       1090833.       1083100.       1075322.       1067499.
       1059612.       1051685.       1043711.       1035674.       1027594.
       1019451.       1011256.       1003011.       994713.0       986384.0
       978013.0       969603.0       961162.0       952681.0       944155.0
       935590.0       926980.0       918325.0       909634.0       900892.0
       892105.0       883265.0       874386.0       865471.0       856493.0
       847488.0       838440.0       829343.0       820211.0       811021.0
       801799.0       792530.0       783222.0       773882.0       764492.0
       755073.0       745607.0       736096.0       726552.0       716958.0
       707320.0       697642.0       687917.0       678156.0       668367.0
       658539.0       648675.0       638781.0       628844.0       618871.0
       608858.0       598802.0       588709.0       578562.0       568386.0
       558169.0       547903.0       537602.0       527267.0       516907.0
       506496.0       496042.0       485545.0       474993.0       464400.0
       453753.0       443070.0       432339.0       421549.0       410724.0
       399854.0       388935.0       377985.0       366995.0       355954.0
       344881.0       333770.0       322615.0       311434.0       300228.0
       288984.0       277705.0       266393.0       255052.0       243680.0
       232266.0       220831.0       209366.0       197864.0       186336.0
       174783.0       163200.0       151585.0       139940.0       128270.0
       116577.0       104866.0       93125.00       81362.00       69584.00
       57771.00       45936.00       34078.00       22193.00       10278.00
      -1671.000      -13639.00      -25637.00      -37667.00      -49710.00
      -61777.00      -73887.00      -86015.00      -98168.00      -110350.0
      -122540.0      -134760.0      -146992.0      -159246.0      -171526.0
      -183822.0      -196145.0      -208482.0      -220847.0      -233227.0
      -245614.0      -258016.0      -270427.0      -282846.0      -295266.0
      -307695.0      -320126.0      -332550.0      -344979.0      -357421.0
      -369870.0      -382312.0      -394763.0      -407223.0      -419669.0
      -432117.0      -444573.0      -457014.0      -469451.0      -481881.0
      -494311.0      -506731.0      -519144.0      -531551.0      -543944.0
      -556339.0      -568714.0      -581077.0      -593437.0      -605772.0
      -618103.0      -630416.0      -642695.0      -654954.0      -667196.0
      -679426.0      -691634.0      -703828.0      -716003.0      -728164.0
      -740295.0      -752382.0      -764454.0      -776487.0      -788481.0
      -800451.0      -812386.0      -824296.0      -836169.0      -847998.0
      -859798.0      -871562.0      -883272.0      -894944.0      -906574.0
      -918158.0      -929702.0      -941201.0      -952655.0      -964056.0
      -975405.0      -986703.0      -997940.0      -1009115.      -1020239.
      -1031304.      -1042302.      -1053234.      -1064104.      -1074913.
      -1085656.      -1096331.      -1106938.      -1117481.      -1127962.
      -1138373.      -1148729.      -1159022.      -1169243.      -1179406.
      -1189502.      -1199524.      -1209480.      -1219354.      -1229147.
      -1238866.      -1248490.      -1258037.      -1267501.      -1276867.
      -1286160.      -1295373.      -1304496.      -1313543.      -1322506.
      -1331383.      -1340173.      -1348872.      -1357504.      -1366040.
      -1374499.      -1382886.      -1391177.      -1399394.      -1407522.
      -1415556.      -1423498.      -1431344.      -1439097.      -1446764.
      -1454341.      -1461825.      -1469215.      -1476516.      -1483727.
      -1490838.      -1497859.      -1504787.      -1511598.      -1518307.
      -1524920.      -1531427.      -1537841.      -1544168.      -1550407.
      -1556548.      -1562578.      -1568516.      -1574349.      -1580081.
      -1585712.      -1591235.      -1596670.      -1601987.      -1607202.
      -1612317.      -1617325.      -1622241.      -1627048.      -1631760.
      -1636371.      -1640875.      -1645276.      -1649570.      -1653766.
      -1657859.      -1661845.      -1665735.      -1669514.      -1673191.
      -1676772.      -1680239.      -1683606.      -1686863.      -1690015.
      -1693058.      -1695989.      -1698832.      -1701560.      -1704184.
      -1706701.      -1709108.      -1711419.      -1713623.      -1715728.
      -1717725.      -1719621.      -1721425.      -1723118.      -1724713.
      -1726210.      -1727601.      -1728893.      -1730074.      -1731151.
      -1732122.      -1732981.      -1733735.      -1734389.      -1734937.
      -1735374.      -1735709.      -1735923.      -1736034.      -1736032.
      -1735913.      -1735699.      -1735380.      -1734949.      -1734415.
      -1733771.      -1733012.      -1732145.      -1731171.      -1730086.
      -1728887.      -1727581.      -1726154.      -1724612.      -1722971.
      -1721209.      -1719341.      -1717364.      -1715273.      -1713073.
      -1710751.      -1708332.      -1705797.      -1703140.      -1700375.
      -1697485.      -1694492.      -1691374.      -1688126.      -1684766.
      -1681283.      -1677691.      -1673978.      -1670156.      -1666226.
      -1662171.      -1658001.      -1653719.      -1649315.      -1644792.
      -1640168.      -1635424.      -1630565.      -1625595.      -1620502.
      -1615280.      -1609933.      -1604457.      -1598861.      -1593147.
      -1587303.      -1581358.      -1575292.      -1569102.      -1562790.
      -1556358.      -1549812.      -1543133.      -1536355.      -1529461.
      -1522451.      -1515326.      -1508070.      -1500718.      -1493239.
      -1485645.      -1477945.      -1470130.      -1462214.      -1454174.
      -1446033.      -1437781.      -1429396.      -1420914.      -1412321.
      -1403618.      -1394811.      -1385901.      -1376894.      -1367774.
      -1358553.      -1349242.      -1339829.      -1330307.      -1320682.
      -1310970.      -1301145.      -1291220.      -1281202.      -1271070.
      -1260853.      -1250544.      -1240147.      -1229657.      -1219065.
      -1208392.      -1197614.      -1186750.      -1175799.      -1164750.
      -1153623.      -1142414.      -1131117.      -1119746.      -1108289.
      -1096737.      -1085105.      -1073387.      -1061580.      -1049701.
      -1037750.      -1025702.      -1013575.      -1001380.      -989095.0
      -976737.0      -964306.0      -951789.0      -939206.0      -926547.0
      -913793.0      -900969.0      -888083.0      -875117.0      -862083.0
      -848971.0      -835764.0      -822507.0      -809183.0      -795783.0
      -782340.0      -768817.0      -755238.0      -741603.0      -727891.0
      -714130.0      -700302.0      -686421.0      -672477.0      -658458.0
      -644375.0      -630233.0      -616036.0      -601771.0      -587456.0
      -573096.0      -558670.0      -544185.0      -529657.0      -515071.0
      -500432.0      -485743.0      -471001.0      -456207.0      -441357.0
      -426463.0      -411525.0      -396531.0      -381505.0      -366435.0
      -351323.0      -336186.0      -321008.0      -305790.0      -290544.0
      -275262.0      -259953.0      -244614.0      -229240.0      -213852.0
      -198427.0      -182963.0      -167482.0      -151970.0      -136441.0
      -120902.0      -105332.0      -89742.00      -74139.00      -58516.00
      -42883.00      -27227.00      -11553.00       4137.000       19850.00
       35570.00       51311.00       67050.00       82795.00       98567.00
       114335.0       130112.0       145893.0       161676.0       177454.0
       193228.0       209012.0       224784.0       240553.0       256332.0
       272112.0       287880.0       303649.0       319417.0       335166.0
       350910.0       366635.0       382341.0       398033.0       413710.0
       429374.0       445014.0       460655.0       476273.0       491862.0
       507441.0       522981.0       538496.0       553986.0       569450.0
       584878.0       600265.0       615627.0       630949.0       646228.0
       661489.0       676715.0       691893.0       707042.0       722143.0
       737200.0       752222.0       767197.0       782137.0       797034.0
       811886.0       826702.0       841477.0       856203.0       870898.0
       885545.0       900134.0       914687.0       929176.0       943611.0
       957998.0       972313.0       986578.0       1000778.       1014921.
       1029009.       1043027.       1056999.       1070905.       1084747.
       1098534.       1112264.       1125930.       1139535.       1153090.
       1166576.       1179998.       1193352.       1206628.       1219832.
       1232971.       1246045.       1259049.       1271989.       1284857.
       1297648.       1310365.       1322993.       1335545.       1348016.
       1360397.       1372710.       1384935.       1397076.       1409144.
       1421125.       1433030.       1444845.       1456567.       1468212.
       1479760.       1491216.       1502572.       1513839.       1525014.
       1536083.       1547064.       1557947.       1568737.       1579419.
       1590001.       1600491.       1610873.       1621152.       1631321.
       1641380.       1651329.       1661168.       1670894.       1680501.
       1690010.       1699411.       1708684.       1717852.       1726910.
       1735841.       1744653.       1753348.       1761926.       1770371.
       1778688.       1786881.       1794950.       1802889.       1810703.
       1818396.       1825947.       1833377.       1840683.       1847846.
       1854892.       1861812.       1868589.       1875240.       1881749.
       1888121.       1894364.       1900464.       1906436.       1912271.
       1917964.       1923525.       1928945.       1934233.       1939373.
       1944367.       1949221.       1953938.       1958516.       1962932.
       1967217.       1971358.       1975350.       1979218.       1982931.
       1986506.       1989935.       1993219.       1996356.       1999344.
       2002189.       2004881.       2007446.       2009866.       2012141.
       2014279.       2016254.       2018100.       2019802.       2021337.
       2022740.       2023995.       2025083.       2026035.       2026845.
       2027499.       2028003.       2028349.       2028558.       2028608.
       2028502.       2028255.       2027842.       2027280.       2026565.
       2025711.       2024712.       2023567.       2022274.       2020808.
       2019205.       2017448.       2015537.       2013483.       2011271.
       2008912.       2006406.       2003756.       2000944.       1997992.
       1994910.       1991684.       1988308.       1984772.       1981101.
       1977278.       1973321.       1969225.       1964965.       1960571.
       1956040.       1951371.       1946557.       1941585.       1936481.
       1931223.       1925812.       1920274.       1914581.       1908741.
       1902762.       1896639.       1890385.       1883997.       1877485.
       1870832.       1864035.       1857107.       1850042.       1842852.
       1835535.       1828098.       1820540.       1812852.       1805032.
       1797088.       1789016.       1780817.       1772495.       1764041.
       1755472.       1746778.       1737957.       1729032.       1719982.
       1710805.       1701511.       1692098.       1682551.       1672886.
       1663106.       1653213.       1643213.       1633097.       1622868.
       1612519.       1602064.       1591491.       1580804.       1570013.
       1559107.       1548094.       1536984.       1525771.       1514435.
       1503012.       1491482.       1479831.       1468107.       1456283.
       1444368.       1432370.       1420276.       1408089.       1395793.
       1383416.       1370957.       1358397.       1345737.       1332989.
       1320148.       1307206.       1294161.       1281031.       1267811.
       1254495.       1241110.       1227635.       1214068.       1200409.
       1186661.       1172845.       1158931.       1144930.       1130854.
       1116687.       1102434.       1088107.       1073703.       1059223.
       1044685.       1030057.       1015349.       1000594.       985746.0
       970827.0       955841.0       940771.0       925645.0       910445.0
       895169.0       879822.0       864413.0       848946.0       833403.0
       817806.0       802143.0       786417.0       770637.0       754775.0
       738869.0       722898.0       706844.0       690745.0       674572.0
       658336.0       642037.0       625680.0       609280.0       592828.0
       576332.0       559783.0       543203.0       526578.0       509905.0
       493203.0       476451.0       459668.0       442840.0       425969.0
       409067.0       392120.0       375152.0       358154.0       341114.0
       324060.0       306981.0       289866.0       272727.0       255566.0
       238386.0       221189.0       203974.0       186734.0       169474.0
       152205.0       134919.0       117627.0       100320.0       83000.00
       65675.00       48332.00       30982.00       13623.00      -3743.000
      -21106.00      -38479.00      -55858.00      -73229.00      -90605.00
      -107979.0      -125347.0      -142713.0      -160073.0      -177435.0
      -194782.0      -212135.0      -229489.0      -246817.0      -264149.0
      -281453.0      -298736.0      -316009.0      -333243.0      -350465.0
      -367649.0      -384818.0      -401955.0      -419046.0      -436137.0
      -453181.0      -470189.0      -487167.0      -504104.0      -521005.0
      -537855.0      -554667.0      -571428.0      -588132.0      -604780.0
      -621361.0      -637896.0      -654376.0      -670797.0      -687166.0
      -703476.0      -719722.0      -735910.0      -752045.0      -768106.0
      -784102.0      -800042.0      -815903.0      -831696.0      -847417.0
      -863064.0      -878635.0      -894114.0      -909526.0      -924857.0
      -940100.0      -955270.0      -970349.0      -985358.0      -1000279.
      -1015106.      -1029863.      -1044524.      -1059102.      -1073591.
      -1087990.      -1102315.      -1116545.      -1130694.      -1144757.
      -1158726.      -1172607.      -1186389.      -1200080.      -1213674.
      -1227157.      -1240539.      -1253819.      -1266986.      -1280049.
      -1292990.      -1305819.      -1318548.      -1331153.      -1343647.
      -1356037.      -1368307.      -1380470.      -1392524.      -1404455.
      -1416275.      -1427970.      -1439537.      -1451008.      -1462339.
      -1473553.      -1484659.      -1495617.      -1506468.      -1517185.
      -1527762.      -1538213.      -1548527.      -1558720.      -1568770.
      -1578690.      -1588490.      -1598148.      -1607669.      -1617056.
      -1626300.      -1635412.      -1644382.      -1653208.      -1661903.
      -1670452.      -1678864.      -1687143.      -1695280.      -1703278.
      -1711144.      -1718867.      -1726448.      -1733888.      -1741191.
      -1748356.      -1755371.      -1762252.      -1768985.      -1775570.
      -1782018.      -1788323.      -1794492.      -1800522.      -1806403.
      -1812142.      -1817745.      -1823195.      -1828501.      -1833669.
      -1838676.      -1843542.      -1848274.      -1852856.      -1857302.
      -1861605.      -1865760.      -1869779.      -1873653.      -1877372.
      -1880954.      -1884390.      -1887673.      -1890812.      -1893799.
      -1896650.      -1899359.      -1901913.      -1904327.      -1906593.
      -1908707.      -1910675.      -1912495.      -1914164.      -1915689.
      -1917068.      -1918311.      -1919423.      -1920382.      -1921208.
      -1921899.      -1922430.      -1922832.      -1923102.      -1923231.
