     0.02500000      -12345.00      -12345.00   2.447790e+09      -12345.00
   0.0005380000       1859.976      -321.0196      -12345.00      -12345.00
      -12345.00      -12345.00      -12345.00      -12345.00      -12345.00
      -12345.00      -12345.00      -12345.00      -12345.00      -12345.00
      -12345.00      -12345.00      -12345.00      -12345.00      -12345.00
      -12345.00      -12345.00      -12345.00      -12345.00      -12345.00
      -12345.00      -13.90930      -171.7773       705.0000       1.000000
      -42.72450       173.0647      -12345.00       22.00000      -12345.00
      -12345.00      -12345.00      -12345.00      -12345.00      -12345.00
      -12345.00      -12345.00      -12345.00      -12345.00      -12345.00
       3508.554       29.02584       201.6047       31.55458      -12345.00
      -12345.00      -12345.00       0.000000       90.00000      -12345.00
      -12345.00      -12345.00      -12345.00      -12345.00      -12345.00
      -12345.00      -12345.00      -12345.00      -12345.00      -12345.00
      2016       318        11         8        20
        19         6    -12345    -12345     74400
    -12345    -12345    -12345    -12345    -12345
         1    -12345    -12345    -12345    -12345
    -12345    -12345    -12345    -12345    -12345
    -12345    -12345    -12345    -12345    -12345
    -12345    -12345    -12345    -12345    -12345
         1    -12345    -12345    -12345    -12345
AFI     South Island, Ne
10      -12345  -12345  
-12345  -12345  -12345  
-12345  -12345  -12345  
-12345  -12345  -12345  
-12345  -12345  -12345  
-12345  -12345  BH1     
IU      -12345  Streckei
[...]
       1567741.       1568534.       1569178.       1569742.       1570232.
       1570588.       1570872.       1571065.       1571161.       1571190.
       1571088.       1570927.       1570705.       1570342.       1569973.
       1569518.       1568931.       1568322.       1567598.       1566791.
       1565901.       1564916.       1563903.       1562722.       1561445.
       1560139.       1558646.       1557039.       1555361.       1553593.
       1551719.       1549693.       1547578.       1545333.       1542987.
       1540585.       1538066.       1535467.       1532772.       1529984.
       1527159.       1524282.       1521317.       1518283.       1515162.
       1511915.       1508635.       1505275.       1501792.       1498313.
       1494712.       1490962.       1487184.       1483321.       1479385.
       1475339.       1471191.       1467042.       1462742.       1458313.
       1453886.       1449318.       1444652.       1439950.       1435138.
       1430238.       1425233.       1420162.       1415000.       1409706.
       1404381.       1398956.       1393399.       1387772.       1382043.
       1376235.       1370337.       1364369.       1358334.       1352187.
       1345982.       1339704.       1333367.       1326939.       1320394.
       1313834.       1307183.       1300444.       1293715.       1286919.
       1280052.       1273152.       1266156.       1259069.       1251936.
       1244699.       1237379.       1229976.       1222469.       1214895.
       1207237.       1199536.       1191735.       1183784.       1175759.
       1167665.       1159483.       1151221.       1142866.       1134458.
       1126009.       1117463.       1108863.       1100195.       1091446.
       1082669.       1073840.       1064963.       1056024.       1047011.
       1037910.       1028681.       1019397.       1010094.       1000698.
       991255.0       981777.0       972193.0       962606.0       952977.0
       943254.0       933517.0       923735.0       913921.0       904066.0
       894178.0       884244.0       874237.0       864224.0       854180.0
       844089.0       833956.0       823728.0       813447.0       803122.0
       792723.0       782321.0       771869.0       761309.0       750707.0
       740068.0       729345.0       718550.0       707722.0       696855.0
       685989.0       675089.0       664122.0       653088.0       642002.0
       630915.0       619740.0       608542.0       597320.0       585983.0
       574631.0       563203.0       551751.0       540335.0       528783.0
       517179.0       505582.0       493957.0       482351.0       470671.0
       458910.0       447128.0       435306.0       423480.0       411652.0
       399789.0       387845.0       375821.0       363793.0       351712.0
       339563.0       327424.0       315232.0       302980.0       290729.0
       278438.0       266146.0       253867.0       241536.0       229175.0
       216818.0       204456.0       192088.0       179724.0       167379.0
       155050.0       142665.0       130289.0       117913.0       105471.0
       93097.00       80700.00       68241.00       55801.00       43319.00
       30855.00       18379.00       5843.000      -6650.000      -19173.00
      -31753.00      -44315.00      -56925.00      -69538.00      -82133.00
      -94801.00      -107445.0      -120097.0      -132809.0      -145505.0
      -158260.0      -171000.0      -183715.0      -196457.0      -209195.0
      -222022.0      -234836.0      -247636.0      -260511.0      -273341.0
      -286175.0      -299021.0      -311790.0      -324567.0      -337362.0
      -350118.0      -362857.0      -375570.0      -388251.0      -400920.0
      -413559.0      -426169.0      -438783.0      -451408.0      -463993.0
      -476563.0      -489190.0      -501816.0      -514446.0      -527103.0
      -539737.0      -552372.0      -564989.0      -577612.0      -590261.0
      -602861.0      -615429.0      -628008.0      -640553.0      -653062.0
      -665578.0      -678082.0      -690549.0      -702959.0      -715301.0
      -727663.0      -740018.0      -752348.0      -764678.0      -776935.0
      -789189.0      -801453.0      -813707.0      -825962.0      -838200.0
      -850457.0      -862670.0      -874855.0      -887035.0      -899205.0
      -911380.0      -923487.0      -935538.0      -947567.0      -959595.0
      -971593.0      -983565.0      -995518.0      -1007405.      -1019288.
      -1031149.      -1042978.      -1054782.      -1066547.      -1078329.
      -1090132.      -1101884.      -1113590.      -1125303.      -1136956.
      -1148574.      -1160183.      -1171766.      -1183322.      -1194796.
      -1206199.      -1217539.      -1228878.      -1240172.      -1251347.
      -1262495.      -1273592.      -1284586.      -1295531.      -1306406.
      -1317150.      -1327793.      -1338376.      -1348849.      -1359203.
      -1369518.      -1379764.      -1389878.      -1399931.      -1409882.
      -1419675.      -1429447.      -1439155.      -1448740.      -1458298.
      -1467758.      -1477146.      -1486470.      -1495661.      -1504805.
      -1513872.      -1522862.      -1531765.      -1540579.      -1549368.
      -1558026.      -1566610.      -1575121.      -1583500.      -1591813.
      -1600015.      -1608115.      -1616159.      -1624111.      -1631954.
      -1639764.      -1647497.      -1655088.      -1662611.      -1670069.
      -1677437.      -1684692.      -1691866.      -1698965.      -1705938.
      -1712816.      -1719588.      -1726272.      -1732892.      -1739399.
      -1745827.      -1752178.      -1758397.      -1764518.      -1770550.
      -1776467.      -1782299.      -1788036.      -1793699.      -1799271.
      -1804710.      -1810111.      -1815433.      -1820613.      -1825735.
      -1830694.      -1835504.      -1840326.      -1845022.      -1849595.
      -1854110.      -1858490.      -1862775.      -1866907.      -1870913.
      -1874894.      -1878728.      -1882437.      -1886080.      -1889597.
      -1893025.      -1896336.      -1899531.      -1902638.      -1905638.
      -1908576.      -1911402.      -1914092.      -1916710.      -1919211.
      -1921593.      -1923915.      -1926115.      -1928214.      -1930238.
      -1932154.      -1934018.      -1935744.      -1937336.      -1938868.
      -1940231.      -1941475.      -1942598.      -1943578.      -1944466.
      -1945215.      -1945863.      -1946357.      -1946755.      -1947110.
      -1947253.      -1947279.      -1947248.      -1947041.      -1946717.
      -1946291.      -1945758.      -1945127.      -1944315.      -1943408.
      -1942430.      -1941266.      -1940010.      -1938689.      -1937200.
      -1935581.      -1933860.      -1932019.      -1930058.      -1927954.
      -1925723.      -1923351.      -1920838.      -1918252.      -1915555.
      -1912741.      -1909835.      -1906787.      -1903607.      -1900348.
      -1897021.      -1893578.      -1890012.      -1886356.      -1882604.
      -1878749.      -1874824.      -1870839.      -1866752.      -1862601.
      -1858364.      -1854047.      -1849705.      -1845255.      -1840700.
      -1836064.      -1831351.      -1826614.      -1821814.      -1816899.
      -1811885.      -1806804.      -1801647.      -1796348.      -1790946.
      -1785518.      -1779960.      -1774288.      -1768565.      -1762726.
      -1756778.      -1750729.      -1744624.      -1738453.      -1732129.
      -1725712.      -1719236.      -1712703.      -1706123.      -1699471.
      -1692754.      -1685968.      -1679096.      -1672156.      -1665124.
      -1657982.      -1650761.      -1643475.      -1636125.      -1628664.
      -1621116.      -1613510.      -1605738.      -1597853.      -1589963.
      -1581967.      -1573826.      -1565573.      -1557193.      -1548710.
      -1540112.      -1531424.      -1522652.      -1513740.      -1504725.
      -1495599.      -1486359.      -1477072.      -1467697.      -1458179.
      -1448608.      -1438948.      -1429161.      -1419325.      -1409405.
      -1399402.      -1389279.      -1379031.      -1368729.      -1358313.
      -1347778.      -1337160.      -1326425.      -1315584.      -1304657.
      -1293594.      -1282414.      -1271131.      -1259714.      -1248219.
      -1236602.      -1224883.      -1213092.      -1201204.      -1189257.
      -1177173.      -1165031.      -1152845.      -1140528.      -1128188.
      -1115754.      -1103209.      -1090654.      -1078014.      -1065275.
      -1052434.      -1039502.      -1026503.      -1013370.      -1000157.
      -986901.0      -973525.0      -959994.0      -946383.0      -932731.0
      -919000.0      -905187.0      -891320.0      -877406.0      -863388.0
      -849323.0      -835248.0      -821076.0      -806849.0      -792575.0
      -778253.0      -763896.0      -749457.0      -734999.0      -720536.0
      -705986.0      -691373.0      -676760.0      -662118.0      -647424.0
      -632671.0      -617897.0      -603113.0      -588261.0      -573412.0
      -558523.0      -543551.0      -528578.0      -513586.0      -498533.0
      -483404.0      -468278.0      -453185.0      -438046.0      -422886.0
      -407671.0      -392388.0      -377148.0      -361870.0      -346538.0
      -331227.0      -315833.0      -300417.0      -285043.0      -269586.0
      -254078.0      -238571.0      -223009.0      -207419.0      -191837.0
      -176185.0      -160464.0      -144754.0      -129005.0      -113205.0
      -97414.00      -81614.00      -65754.00      -49882.00      -33977.00
      -18032.00      -2148.000       13777.00       29775.00       45698.00
       61625.00       77638.00       93597.00       109524.0       125555.0
       141620.0       157633.0       173637.0       189688.0       205729.0
       221741.0       237764.0       253772.0       269788.0       285814.0
       301798.0       317780.0       333749.0       349711.0       365655.0
       381545.0       397449.0       413300.0       429087.0       444881.0
       460624.0       476327.0       491976.0       507570.0       523159.0
       538687.0       554138.0       569559.0       584950.0       600251.0
       615510.0       630783.0       645984.0       661107.0       676175.0
       691188.0       706169.0       721120.0       736050.0       750944.0
       765785.0       780618.0       795435.0       810232.0       825014.0
       839733.0       854419.0       869024.0       883598.0       898161.0
       912624.0       927062.0       941463.0       955824.0       970136.0
       984354.0       998557.0       1012738.       1026812.       1040832.
       1054823.       1068720.       1082527.       1096281.       1110013.
       1123631.       1137158.       1150692.       1164099.       1177464.
       1190793.       1203994.       1217200.       1230359.       1243457.
       1256536.       1269536.       1282493.       1295425.       1308321.
       1321208.       1334002.       1346719.       1359412.       1372007.
       1384552.       1397031.       1409405.       1421729.       1433979.
       1446154.       1458257.       1470253.       1482180.       1494044.
       1505808.       1517530.       1529202.       1540799.       1552312.
       1563692.       1575039.       1586350.       1597544.       1608682.
       1619680.       1630523.       1641290.       1651949.       1662508.
       1672938.       1683256.       1693496.       1703563.       1713529.
       1723397.       1733105.       1742803.       1752385.       1761815.
       1771212.       1780443.       1789547.       1798602.       1807562.
       1816439.       1825206.       1833881.       1842501.       1850985.
       1859357.       1867652.       1875792.       1883802.       1891711.
       1899515.       1907207.       1914762.       1922239.       1929589.
       1936781.       1943924.       1950924.       1957724.       1964417.
       1970973.       1977392.       1983673.       1989777.       1995772.
       2001615.       2007263.       2012838.       2018287.       2023602.
       2028838.       2033911.       2038909.       2043778.       2048463.
       2053111.       2057620.       2062034.       2066355.       2070521.
       2074644.       2078620.       2082444.       2086185.       2089786.
       2093258.       2096604.       2099820.       2102967.       2105983.
       2108807.       2111498.       2114042.       2116459.       2118742.
       2120879.       2122910.       2124763.       2126455.       2128065.
       2129552.       2130873.       2132048.       2133085.       2133994.
       2134802.       2135450.       2135976.       2136394.       2136643.
       2136754.       2136743.       2136633.       2136402.       2136034.
       2135537.       2134895.       2134142.       2133276.       2132266.
       2131114.       2129854.       2128467.       2126954.       2125317.
       2123573.       2121705.       2119689.       2117555.       2115285.
       2112924.       2110442.       2107813.       2105096.       2102228.
       2099241.       2096173.       2092915.       2089495.       2085984.
       2082353.       2078556.       2074572.       2070482.       2066284.
       2061882.       2057361.       2052768.       2048040.       2043164.
       2038161.       2033104.       2027952.       2022636.       2017240.
       2011756.       2006113.       2000348.       1994420.       1988394.
       1982308.       1976061.       1969716.       1963238.       1956640.
       1949946.       1943075.       1936104.       1929054.       1921887.
       1914598.       1907207.       1899733.       1892148.       1884418.
       1876604.       1868745.       1860745.       1852638.       1844470.
       1836201.       1827862.       1819422.       1810868.       1802245.
       1793553.       1784763.       1775862.       1766919.       1757908.
       1748755.       1739533.       1730241.       1720847.       1711340.
       1701694.       1692023.       1682254.       1672324.       1662390.
       1652389.       1642241.       1632014.       1621710.       1611342.
       1600941.       1590457.       1579943.       1569382.       1558711.
       1548010.       1537235.       1526389.       1515519.       1504540.
       1493466.       1482356.       1471194.       1459965.       1448628.
       1437238.       1425822.       1414300.       1402740.       1391129.
       1379413.       1367671.       1355809.       1343865.       1331909.
       1319847.       1307762.       1295630.       1283412.       1271179.
       1258887.       1246537.       1234126.       1221657.       1209201.
       1196637.       1183976.       1171354.       1158611.       1145774.
       1132943.       1120006.       1106980.       1093891.       1080731.
       1067516.       1054217.       1040891.       1027535.       1014074.
       1000563.       987001.0       973398.0       959792.0       946107.0
       932378.0       918656.0       904855.0       891017.0       877155.0
       863243.0       849332.0       835370.0       821399.0       807442.0
       793426.0       779437.0       765419.0       751326.0       737263.0
       723129.0       708911.0       694736.0       680548.0       666293.0
       651981.0       637615.0       623221.0       608762.0       594241.0
       579680.0       565077.0       550497.0       535858.0       521186.0
       506528.0       491779.0       477053.0       462331.0       447542.0
       432803.0       418078.0       403326.0       388577.0       373810.0
       359026.0       344200.0       329339.0       314458.0       299561.0
       284661.0       269716.0       254723.0       239729.0       224705.0
       209620.0       194537.0       179452.0       164328.0       149191.0
       133999.0       118778.0       103614.0       88478.00       73327.00
       58150.00       42995.00       27864.00       12681.00      -2523.000
      -17687.00      -32839.00      -48008.00      -63192.00      -78311.00
      -93415.00      -108591.0      -123659.0      -138700.0      -153830.0
      -168851.0      -183845.0      -198850.0      -213819.0      -228807.0
      -243751.0      -258698.0      -273660.0      -288581.0      -303504.0
      -318390.0      -333231.0      -348100.0      -362902.0      -377666.0
      -392419.0      -407050.0      -421698.0      -436331.0      -450911.0
      -465509.0      -479973.0      -494440.0      -508926.0      -523314.0
      -537711.0      -552074.0      -566382.0      -580605.0      -594770.0
      -608931.0      -622998.0      -636983.0      -650925.0      -664796.0
      -678637.0      -692414.0      -706099.0      -719741.0      -733315.0
      -746843.0      -760353.0      -773791.0      -787161.0      -800495.0
      -813775.0      -826990.0      -840149.0      -853280.0      -866349.0
      -879305.0      -892229.0      -905135.0      -917930.0      -930647.0
      -943323.0      -955967.0      -968537.0      -980986.0      -993404.0
      -1005764.      -1018002.      -1030207.      -1042329.      -1054317.
      -1066257.      -1078101.      -1089902.      -1101639.      -1113196.
      -1124747.      -1136224.      -1147542.      -1158826.      -1170035.
      -1181152.      -1192159.      -1203068.      -1213930.      -1224669.
      -1235300.      -1245823.      -1256199.      -1266499.      -1276649.
      -1286693.      -1296718.      -1306592.      -1316369.      -1326110.
      -1335753.      -1345316.      -1354837.      -1364318.      -1373691.
      -1383026.      -1392388.      -1401635.      -1410773.      -1419920.
      -1428968.      -1437899.      -1446832.      -1455657.      -1464420.
      -1473177.      -1481786.      -1490335.      -1498813.      -1507158.
      -1515470.      -1523680.      -1531819.      -1539904.      -1547862.
      -1555821.      -1563661.      -1571373.      -1579106.      -1586711.
      -1594262.      -1601776.      -1609138.      -1616454.      -1623697.
      -1630835.      -1637924.      -1644949.      -1651927.      -1658832.
      -1665650.      -1672452.      -1679197.      -1685867.      -1692475.
      -1698956.      -1705413.      -1711844.      -1718164.      -1724455.
