     0.05000000      -12345.00      -12345.00   4.680340e+09      -12345.00
   0.0005330000       1859.951      -321.0195      -12345.00      -12345.00
      -12345.00      -12345.00      -12345.00      -12345.00      -12345.00
      -12345.00      -12345.00      -12345.00      -12345.00      -12345.00
      -12345.00      -12345.00      -12345.00      -12345.00      -12345.00
      -12345.00      -12345.00      -12345.00      -12345.00      -12345.00
      -12345.00      -13.90930      -171.7773       705.0000       1.000000
      -42.72450       173.0647      -12345.00       22.00000      -12345.00
      -12345.00      -12345.00      -12345.00      -12345.00      -12345.00
      -12345.00      -12345.00      -12345.00      -12345.00      -12345.00
       3508.554       29.02584       201.6047       31.55458      -12345.00
      -12345.00      -12345.00       0.000000       90.00000      -12345.00
      -12345.00      -12345.00      -12345.00      -12345.00      -12345.00
      -12345.00      -12345.00      -12345.00      -12345.00      -12345.00
      2016       318        11         8        20
        19         6    -12345    -12345     37200
    -12345    -12345    -12345    -12345    -12345
         1    -12345    -12345    -12345    -12345
    -12345    -12345    -12345    -12345    -12345
    -12345    -12345    -12345    -12345    -12345
    -12345    -12345    -12345    -12345    -12345
         1    -12345    -12345    -12345    -12345
AFI     South Island, Ne
00      -12345  -12345  
-12345  -12345  -12345  
-12345  -12345  -12345  
-12345  -12345  -12345  
-12345  -12345  -12345  
-12345  -12345  BH1     
IU      -12345  Streckei
[...]
       692458.0       676761.0       660891.0       644805.0       628523.0
       611984.0       595176.0       578161.0       560933.0       543689.0
       526340.0       508983.0       491837.0       474697.0       457704.0
       440858.0       424150.0       407668.0       391270.0       375017.0
       358873.0       342862.0       326957.0       310800.0       294505.0
       278221.0       261689.0       245081.0       228592.0       212150.0
       195883.0       179768.0       163771.0       147961.0       132412.0
       117079.0       101760.0       86663.00       71687.00       56695.00
       41814.00       26941.00       12120.00      -2699.000      -17484.00
      -32303.00      -47140.00      -61995.00      -77009.00      -91953.00
      -106953.0      -122066.0      -137128.0      -152161.0      -167110.0
      -182013.0      -196810.0      -211353.0      -225681.0      -239836.0
      -253810.0      -267676.0      -281479.0      -295187.0      -308849.0
      -322368.0      -335811.0      -349366.0      -362805.0      -376084.0
      -389192.0      -402046.0      -414689.0      -427162.0      -439406.0
      -451459.0      -463405.0      -475151.0      -486798.0      -498258.0
      -509483.0      -520467.0      -531242.0      -541913.0      -552221.0
      -562361.0      -572526.0      -582466.0      -592220.0      -601847.0
      -611437.0      -620929.0      -630203.0      -639410.0      -648514.0
      -657692.0      -667001.0      -676365.0      -685791.0      -695237.0
      -705017.0      -714957.0      -724837.0      -734911.0      -745074.0
      -755285.0      -765630.0      -776177.0      -786881.0      -797631.0
      -808402.0      -819116.0      -829718.0      -840268.0      -850747.0
      -861047.0      -871484.0      -882078.0      -892699.0      -903458.0
      -914211.0      -924966.0      -935664.0      -946268.0      -956701.0
      -966952.0      -977140.0      -987163.0      -997180.0      -1007290.
      -1017389.      -1027548.      -1037927.      -1048554.      -1059332.
      -1070338.      -1081472.      -1092814.      -1104484.      -1116113.
      -1127658.      -1139043.      -1150360.      -1161704.      -1172832.
      -1183896.      -1194902.      -1205809.      -1216735.      -1227698.
      -1238542.      -1249296.      -1260039.      -1270573.      -1280885.
      -1291086.      -1301198.      -1311081.      -1320692.      -1330242.
      -1339804.      -1349208.      -1358515.      -1367721.      -1376644.
      -1385375.      -1393951.      -1402166.      -1409908.      -1417412.
      -1424690.      -1431512.      -1438054.      -1444495.      -1450589.
      -1456346.      -1461989.      -1467350.      -1472475.      -1477404.
      -1482118.      -1486698.      -1491034.      -1495129.      -1498893.
      -1502488.      -1505934.      -1509047.      -1511951.      -1514675.
      -1517307.      -1519830.      -1522152.      -1524510.      -1526946.
      -1529219.      -1531411.      -1533510.      -1535351.      -1536924.
      -1538196.      -1539209.      -1540108.      -1540898.      -1541639.
      -1542423.      -1543235.      -1544189.      -1545183.      -1546162.
      -1547095.      -1548010.      -1549031.      -1550007.      -1550880.
      -1551617.      -1552304.      -1553004.      -1553730.      -1554533.
      -1555405.      -1556324.      -1557310.      -1558311.      -1559175.
      -1559967.      -1560522.      -1560753.      -1560654.      -1560223.
      -1559681.      -1559023.      -1558123.      -1556876.      -1555503.
      -1553937.      -1552014.      -1549911.      -1547320.      -1544297.
      -1541037.      -1537414.      -1533563.      -1529347.      -1524773.
      -1519868.      -1514553.      -1508948.      -1502901.      -1496439.
      -1489743.      -1482765.      -1475543.      -1468071.      -1460263.
      -1452246.      -1443858.      -1434979.      -1425815.      -1416109.
      -1405730.      -1394845.      -1383312.      -1371078.      -1358518.
      -1345628.      -1332189.      -1318506.      -1304448.      -1289952.
      -1275184.      -1259982.      -1244419.      -1228382.      -1211911.
      -1195024.      -1177456.      -1159275.      -1140422.      -1120913.
      -1100680.      -1079568.      -1057826.      -1035400.      -1012301.
      -988652.0      -964437.0      -939691.0      -914232.0      -888215.0
      -861734.0      -834559.0      -806882.0      -778809.0      -750108.0
      -720784.0      -690784.0      -660085.0      -628694.0      -596672.0
      -564113.0      -530988.0      -497457.0      -463453.0      -429118.0
      -394405.0      -359166.0      -323465.0      -287121.0      -250266.0
      -212843.0      -174845.0      -136453.0      -97570.00      -58285.00
      -18705.00       21331.00       61583.00       102003.0       142720.0
       183529.0       224506.0       265552.0       306618.0       347811.0
       389101.0       430357.0       471636.0       513198.0       554710.0
       596101.0       637547.0       678813.0       719879.0       760683.0
       801231.0       841495.0       881454.0       921326.0       960938.0
       1000351.       1039670.       1078789.       1117744.       1156434.
       1194867.       1232997.       1270584.       1307640.       1344141.
       1379981.       1415428.       1450529.       1485385.       1520029.
       1554368.       1588621.       1622682.       1656525.       1690044.
       1723250.       1756198.       1788749.       1821030.       1852941.
       1884565.       1915874.       1946717.       1977305.       2007501.
       2037347.       2066974.       2096221.       2125118.       2153584.
       2181626.       2209275.       2236540.       2263485.       2289951.
       2315910.       2341339.       2366273.       2390647.       2414581.
       2438074.       2460805.       2482918.       2504438.       2525458.
       2546022.       2566023.       2585615.       2604790.       2623418.
       2641717.       2659471.       2676592.       2693456.       2709734.
       2725517.       2740891.       2755685.       2769986.       2783689.
       2796827.       2809390.       2821438.       2832869.       2843640.
       2853906.       2863500.       2872440.       2880728.       2888301.
       2895317.       2901670.       2907397.       2912714.       2917343.
       2921366.       2924850.       2927608.       2929653.       2930845.
       2931349.       2930995.       2929769.       2927937.       2925403.
       2922248.       2918639.       2914486.       2909612.       2904245.
       2898251.       2891574.       2884342.       2876417.       2867911.
       2858695.       2848852.       2838443.       2827322.       2815582.
       2803132.       2790023.       2776177.       2761577.       2746422.
       2730569.       2714121.       2697071.       2679377.       2661257.
       2642714.       2623666.       2604018.       2583754.       2562753.
       2541139.       2518909.       2495855.       2472131.       2447784.
       2422838.       2397354.       2371342.       2344812.       2317917.
       2290441.       2262150.       2233415.       2204165.       2174447.
       2144331.       2113726.       2082856.       2051604.       2019904.
       1987904.       1955543.       1922536.       1889076.       1855245.
       1820837.       1785898.       1750477.       1714810.       1678731.
       1642138.       1605215.       1567815.       1529874.       1491636.
       1452951.       1413859.       1374642.       1334864.       1294750.
       1254478.       1213701.       1172408.       1130777.       1088805.
       1046343.       1003887.       961187.0       918056.0       874950.0
       831793.0       788456.0       744874.0       701176.0       657281.0
       613111.0       568783.0       524265.0       479434.0       434393.0
       389110.0       343633.0       297957.0       251894.0       205829.0
       159535.0       112802.0       65919.00       19018.00      -27855.00
      -74812.00      -121699.0      -168520.0      -215293.0      -262069.0
      -308915.0      -355915.0      -403166.0      -450476.0      -497916.0
      -545384.0      -592810.0      -640258.0      -687763.0      -735133.0
      -782260.0      -829491.0      -876667.0      -923772.0      -970959.0
      -1018270.      -1065551.      -1112792.      -1160093.      -1207151.
      -1254160.      -1301110.      -1347929.      -1394697.      -1441352.
      -1488065.      -1534815.      -1581413.      -1627869.      -1674305.
      -1720437.      -1766273.      -1811877.      -1857096.      -1901993.
      -1946360.      -1990147.      -2033332.      -2076024.      -2118217.
      -2159727.      -2200744.      -2241303.      -2281452.      -2321087.
      -2360175.      -2398847.      -2437011.      -2474733.      -2511851.
      -2548344.      -2584264.      -2619639.      -2654581.      -2688908.
      -2722719.      -2755967.      -2788571.      -2820544.      -2851857.
      -2882665.      -2912866.      -2942366.      -2971195.      -2999484.
      -3027103.      -3054184.      -3080696.      -3106326.      -3131368.
      -3155823.      -3179575.      -3202444.      -3224687.      -3246265.
      -3266904.      -3286945.      -3306284.      -3324982.      -3342984.
      -3360234.      -3376823.      -3392742.      -3408054.      -3422660.
      -3436442.      -3449291.      -3461400.      -3472598.      -3482879.
      -3492454.      -3501092.      -3508855.      -3515838.      -3521969.
      -3527188.      -3531604.      -3535226.      -3537907.      -3539740.
      -3540657.      -3540519.      -3539667.      -3537981.      -3535327.
      -3532059.      -3528030.      -3523196.      -3517706.      -3511612.
      -3504924.      -3497726.      -3489934.      -3481453.      -3472552.
      -3463042.      -3452799.      -3441879.      -3430221.      -3417898.
      -3404767.      -3390998.      -3376547.      -3361258.      -3345535.
      -3329355.      -3312583.      -3295203.      -3277101.      -3258336.
      -3239016.      -3218895.      -3197964.      -3176419.      -3153893.
      -3130449.      -3106268.      -3081185.      -3055268.      -3028600.
      -3001234.      -2973114.      -2944296.      -2914768.      -2884433.
      -2853305.      -2821310.      -2788531.      -2754856.      -2720222.
      -2684691.      -2648382.      -2611353.      -2573526.      -2535115.
      -2495951.      -2456074.      -2415566.      -2374241.      -2332159.
      -2289351.      -2245820.      -2201459.      -2156576.      -2111129.
      -2065071.      -2018556.      -1971490.      -1923951.      -1875949.
      -1827500.      -1778573.      -1729300.      -1679547.      -1629492.
      -1579084.      -1528167.      -1477019.      -1425337.      -1373434.
      -1321338.      -1268716.      -1215853.      -1162679.      -1109156.
      -1055314.      -1001052.      -946493.0      -891499.0      -836076.0
      -780439.0      -724420.0      -668077.0      -611471.0      -554625.0
      -497605.0      -440400.0      -383020.0      -325293.0      -267391.0
      -209415.0      -151281.0      -93101.00      -34798.00       23602.00
       81958.00       140254.0       198442.0       256514.0       314416.0
       372060.0       429624.0       486958.0       543879.0       600780.0
       657449.0       713774.0       770110.0       826371.0       882565.0
       938701.0       994678.0       1050396.       1105935.       1161307.
       1216406.       1271297.       1325905.       1380204.       1434143.
       1487689.       1540884.       1593715.       1646251.       1698500.
       1750551.       1802383.       1854066.       1905607.       1956799.
       2007641.       2058084.       2108147.       2157768.       2206878.
       2255546.       2303929.       2351901.       2399316.       2446394.
       2492928.       2538714.       2583773.       2628201.       2671861.
       2714740.       2757018.       2798616.       2839571.       2879830.
       2919533.       2958700.       2997278.       3035160.       3072199.
       3108594.       3144156.       3178954.       3213139.       3246334.
       3278626.       3309988.       3340292.       3369694.       3398096.
       3425772.       3452695.       3478739.       3504033.       3528592.
       3552558.       3575586.       3597820.       3619247.       3639713.
       3659562.       3678166.       3695742.       3712647.       3728349.
       3743179.       3757076.       3769892.       3781918.       3793013.
       3803043.       3812222.       3820589.       3827919.       3834397.
       3839990.       3844599.       3848371.       3851247.       3853148.
       3854226.       3854453.       3853703.       3852171.       3849553.
       3845925.       3841342.       3835584.       3828898.       3821197.
       3812624.       3803326.       3793178.       3782176.       3770208.
       3757242.       3743533.       3728957.       3713273.       3696757.
       3679417.       3661210.       3642208.       3622372.       3601796.
       3580534.       3558609.       3535987.       3512707.       3488919.
       3464514.       3439398.       3413575.       3386803.       3359207.
       3330987.       3301970.       3272281.       3242053.       3211377.
       3180224.       3148466.       3116186.       3083303.       3049862.
       3015900.       2981318.       2946256.       2910621.       2874281.
       2837436.       2800065.       2762240.       2723976.       2685187.
       2645963.       2606208.       2565974.       2525112.       2483574.
       2441463.       2398789.       2355640.       2311916.       2267778.
       2223284.       2178339.       2133027.       2087335.       2041360.
       1995182.       1948794.       1902064.       1854929.       1807489.
       1759676.       1711475.       1662695.       1613401.       1563876.
       1514017.       1463854.       1413437.       1362896.       1312294.
       1261431.       1210227.       1158705.       1106921.       1054832.
       1002243.       949421.0       896407.0       842970.0       789507.0
       735978.0       682277.0       628460.0       574420.0       520389.0
       466356.0       412115.0       357812.0       303654.0       249504.0
       195296.0       141039.0       86691.00       32422.00      -21825.00
      -75961.00      -129856.0      -183690.0      -237436.0      -290984.0
      -344484.0      -397886.0      -450950.0      -503781.0      -556260.0
      -608419.0      -660319.0      -711810.0      -763113.0      -814212.0
      -864989.0      -915541.0      -965761.0      -1015628.      -1065262.
      -1114513.      -1163433.      -1211989.      -1260107.      -1307835.
      -1355012.      -1401731.      -1448033.      -1493760.      -1538995.
      -1583771.      -1627957.      -1671630.      -1714667.      -1756878.
      -1798411.      -1839351.      -1879730.      -1919684.      -1959246.
      -1998461.      -2037480.      -2076115.      -2114298.      -2152102.
      -2189521.      -2226525.      -2262963.      -2298907.      -2334340.
      -2369305.      -2403871.      -2437932.      -2471575.      -2504777.
      -2537366.      -2569568.      -2601422.      -2632829.      -2664028.
      -2694692.      -2724941.      -2754914.      -2784252.      -2813029.
      -2841122.      -2868699.      -2895815.      -2922441.      -2948575.
      -2974159.      -2999293.      -3023633.      -3047497.      -3071040.
      -3094011.      -3116671.      -3138803.      -3160388.      -3181470.
      -3201738.      -3221149.      -3239754.      -3257292.      -3273834.
      -3289711.      -3304711.      -3318882.      -3332259.      -3344889.
      -3357051.      -3368569.      -3379360.      -3389533.      -3399015.
      -3407761.      -3415806.      -3423080.      -3429617.      -3435574.
      -3440839.      -3445482.      -3449622.      -3453094.      -3455981.
      -3458177.      -3459567.      -3460217.      -3460175.      -3459402.
      -3458046.      -3456355.      -3454038.      -3451209.      -3447934.
      -3443856.      -3439120.      -3433822.      -3427859.      -3421261.
      -3413932.      -3405873.      -3397055.      -3387399.      -3376956.
      -3365783.      -3353954.      -3341477.      -3328497.      -3314828.
      -3300458.      -3285527.      -3269832.      -3253351.      -3236062.
      -3218092.      -3199364.      -3179891.      -3159856.      -3139127.
      -3117774.      -3095708.      -3072851.      -3049331.      -3025004.
      -2999938.      -2974188.      -2947770.      -2920838.      -2893117.
      -2864789.      -2835980.      -2806411.      -2776484.      -2746130.
      -2715275.      -2684066.      -2652415.      -2620514.      -2588253.
      -2555511.      -2522185.      -2488208.      -2453669.      -2418559.
      -2382795.      -2346383.      -2309550.      -2272251.      -2234474.
      -2196470.      -2158070.      -2119305.      -2080333.      -2040986.
      -2001285.      -1961034.      -1920273.      -1878928.      -1836895.
      -1794390.      -1751130.      -1707276.      -1662921.      -1618029.
      -1572863.      -1527441.      -1481843.      -1436107.      -1390110.
      -1343764.      -1297299.      -1250547.      -1203279.      -1155847.
      -1108108.      -1059815.      -1011057.      -962008.0      -912728.0
      -863062.0      -813131.0      -762735.0      -711940.0      -661056.0
      -609713.0      -557992.0      -506135.0      -454000.0      -401512.0
      -348660.0      -295401.0      -241764.0      -187644.0      -133154.0
      -78457.00      -23296.00       32067.00       87697.00       143639.0
       199503.0       255494.0       311594.0       367792.0       424238.0
       480978.0       537765.0       594735.0       652034.0       709052.0
       766151.0       823393.0       880591.0       937949.0       995283.0
       1052680.       1109871.       1167071.       1224357.       1281391.
       1338387.       1395051.       1451413.       1507609.       1563201.
       1618363.       1673184.       1727427.       1781187.       1834358.
       1886922.       1938812.       1989984.       2040495.       2090189.
