     0.05000000      -12345.00      -12345.00   5.485640e+09      -12345.00
   0.0005330000       1859.951      -321.0195      -12345.00      -12345.00
      -12345.00      -12345.00      -12345.00      -12345.00      -12345.00
      -12345.00      -12345.00      -12345.00      -12345.00      -12345.00
      -12345.00      -12345.00      -12345.00      -12345.00      -12345.00
      -12345.00      -12345.00      -12345.00      -12345.00      -12345.00
      -12345.00      -13.90930      -171.7773       705.0000       1.000000
      -42.72450       173.0647      -12345.00       22.00000      -12345.00
      -12345.00      -12345.00      -12345.00      -12345.00      -12345.00
      -12345.00      -12345.00      -12345.00      -12345.00      -12345.00
       3508.554       29.02584       201.6047       31.55458      -12345.00
      -12345.00      -12345.00       0.000000       0.000000      -12345.00
      -12345.00      -12345.00      -12345.00      -12345.00      -12345.00
      -12345.00      -12345.00      -12345.00      -12345.00      -12345.00
      2016       318        11         8        20
        19         6    -12345    -12345     37200
    -12345    -12345    -12345    -12345    -12345
         1    -12345    -12345    -12345    -12345
    -12345    -12345    -12345    -12345    -12345
    -12345    -12345    -12345    -12345    -12345
    -12345    -12345    -12345    -12345    -12345
         1    -12345    -12345    -12345    -12345
AFI     South Island, Ne
00      -12345  -12345  
-12345  -12345  -12345  
-12345  -12345  -12345  
-12345  -12345  -12345  
-12345  -12345  -12345  
-12345  -12345  BHZ     
IU      -12345  Streckei
[...]
      -1406126.      -1404320.      -1402195.      -1399632.      -1396836.
      -1393847.      -1390599.      -1387059.      -1383258.      -1379166.
      -1375005.      -1370641.      -1365875.      -1360892.      -1355737.
      -1350320.      -1344559.      -1338600.      -1332415.      -1325761.
      -1318752.      -1311571.      -1304141.      -1296258.      -1288143.
      -1279981.      -1271787.      -1263376.      -1254615.      -1245856.
      -1236767.      -1227167.      -1217350.      -1207255.      -1196946.
      -1186505.      -1175771.      -1164868.      -1153920.      -1142542.
      -1130626.      -1118250.      -1105469.      -1092198.      -1078352.
      -1064081.      -1049328.      -1034163.      -1018727.      -1002788.
      -986409.0      -969839.0      -952862.0      -935446.0      -917755.0
      -899634.0      -881231.0      -862363.0      -842848.0      -823158.0
      -802792.0      -781887.0      -760589.0      -738618.0      -716477.0
      -693814.0      -670595.0      -647086.0      -623196.0      -598785.0
      -574074.0      -549098.0      -523594.0      -497837.0      -471555.0
      -444996.0      -418389.0      -391381.0      -364195.0      -336837.0
      -309235.0      -281389.0      -253426.0      -225363.0      -197022.0
      -168584.0      -140089.0      -111362.0      -82581.00      -53847.00
      -24836.00       4316.000       33427.00       62634.00       92018.00
       121507.0       150949.0       180413.0       209684.0       238765.0
       267831.0       296760.0       325523.0       354348.0       383252.0
       412103.0       441213.0       470370.0       499332.0       528429.0
       557647.0       586689.0       615809.0       644955.0       673699.0
       702509.0       731309.0       759985.0       788755.0       817460.0
       846215.0       874989.0       903605.0       932167.0       960782.0
       989247.0       1017671.       1045959.       1074141.       1102419.
       1130561.       1158603.       1186642.       1214607.       1242299.
       1270048.       1297862.       1325585.       1353412.       1381124.
       1408740.       1436268.       1463701.       1490935.       1517981.
       1545136.       1572190.       1598926.       1625463.       1651861.
       1677948.       1703736.       1729424.       1754973.       1780224.
       1805253.       1830245.       1855049.       1879343.       1903242.
       1926885.       1950136.       1973096.       1995665.       2017995.
       2040073.       2061587.       2082830.       2103914.       2124782.
       2145353.       2165555.       2185315.       2204814.       2223958.
       2242650.       2260876.       2278545.       2295993.       2312894.
       2329264.       2345418.       2361238.       2376555.       2391432.
       2405993.       2420023.       2433602.       2446633.       2459128.
       2471093.       2482342.       2493070.       2503223.       2512833.
       2521910.       2530353.       2538198.       2545461.       2552191.
       2558137.       2563622.       2568775.       2573072.       2576732.
       2579779.       2581955.       2583398.       2583928.       2583374.
       2581938.       2579659.       2576487.       2572403.       2567447.
       2561504.       2554687.       2547118.       2538555.       2529137.
       2518813.       2507450.       2495161.       2482041.       2468155.
       2453266.       2437456.       2421079.       2403899.       2385903.
       2367350.       2348099.       2328167.       2307538.       2286296.
       2264568.       2242173.       2219136.       2195414.       2171140.
       2146419.       2121013.       2095038.       2068607.       2041601.
       2013961.       1985902.       1957244.       1927807.       1897919.
       1867576.       1836860.       1805674.       1773948.       1741885.
       1709435.       1676627.       1643582.       1610324.       1576700.
       1542874.       1508798.       1474396.       1439982.       1405259.
       1370103.       1334607.       1298867.       1262930.       1226452.
       1189640.       1152710.       1115446.       1077744.       1039702.
       1001416.       962779.0       923812.0       884418.0       844650.0
       804843.0       764780.0       724401.0       683848.0       643169.0
       602427.0       561598.0       520788.0       479847.0       438890.0
       397845.0       356642.0       315543.0       274347.0       233160.0
       192032.0       150684.0       109306.0       68148.00       26729.00
      -14961.00      -56437.00      -97905.00      -139291.0      -180609.0
      -222017.0      -263308.0      -304489.0      -345482.0      -386409.0
      -427399.0      -468386.0      -509402.0      -550219.0      -590908.0
      -631612.0      -672194.0      -712674.0      -753002.0      -793148.0
      -833230.0      -873355.0      -913154.0      -952649.0      -992444.0
      -1031866.      -1070951.      -1110186.      -1149059.      -1187892.
      -1226339.      -1264357.      -1302420.      -1340088.      -1377349.
      -1414307.      -1451193.      -1487765.      -1524019.      -1560284.
      -1596193.      -1631811.      -1666918.      -1701367.      -1735503.
      -1769143.      -1802315.      -1835104.      -1867332.      -1899060.
      -1930254.      -1960765.      -1990636.      -2019896.      -2048539.
      -2076571.      -2104036.      -2130898.      -2156896.      -2182190.
      -2206799.      -2230704.      -2254093.      -2276828.      -2299037.
      -2320681.      -2341881.      -2362599.      -2382907.      -2402863.
      -2421875.      -2440115.      -2457804.      -2475058.      -2491777.
      -2507992.      -2523739.      -2539092.      -2554308.      -2568968.
      -2583457.      -2597537.      -2610938.      -2623971.      -2636345.
      -2648304.      -2659800.      -2670658.      -2680633.      -2690057.
      -2699095.      -2707426.      -2715229.      -2722504.      -2729580.
      -2736087.      -2742075.      -2747637.      -2752415.      -2756602.
      -2760203.      -2763096.      -2764958.      -2766281.      -2766945.
      -2766707.      -2765798.      -2763952.      -2761434.      -2758197.
      -2754249.      -2749659.      -2744326.      -2738490.      -2731926.
      -2724598.      -2716522.      -2707608.      -2698137.      -2687949.
      -2676940.      -2665280.      -2652823.      -2639599.      -2625987.
      -2611653.      -2596720.      -2581541.      -2565631.      -2549093.
      -2532002.      -2514387.      -2496189.      -2477402.      -2458244.
      -2438558.      -2418302.      -2397508.      -2376395.      -2354725.
      -2332376.      -2309451.      -2286006.      -2262032.      -2237402.
      -2212522.      -2187034.      -2161012.      -2134899.      -2108162.
      -2080884.      -2053530.      -2025910.      -1997950.      -1969707.
      -1941154.      -1912253.      -1882890.      -1853308.      -1823470.
      -1793231.      -1762670.      -1731953.      -1700948.      -1669672.
      -1638375.      -1606707.      -1574794.      -1542750.      -1510562.
      -1478219.      -1445625.      -1412829.      -1379607.      -1346020.
      -1312097.      -1277935.      -1243546.      -1208934.      -1174164.
      -1139201.      -1104160.      -1068715.      -1032885.      -996932.0
      -960874.0      -924628.0      -887962.0      -851217.0      -814450.0
      -777600.0      -740912.0      -704050.0      -666978.0      -629960.0
      -592831.0      -555657.0      -518523.0      -481330.0      -444252.0
      -407062.0      -369936.0      -332934.0      -295661.0      -258620.0
      -221663.0      -184613.0      -147658.0      -110795.0      -74140.00
      -37507.00      -1120.000       35090.00       71335.00       107483.0
       143753.0       180034.0       216194.0       252405.0       288647.0
       324729.0       360696.0       396754.0       432664.0       468351.0
       503821.0       539197.0       574679.0       610153.0       645666.0
       681085.0       716348.0       751431.0       786582.0       821589.0
       856193.0       890801.0       925120.0       959367.0       993484.0
       1027330.       1061260.       1094925.       1128396.       1161707.
       1194652.       1227408.       1260008.       1292235.       1324220.
       1356151.       1387814.       1419386.       1450817.       1481841.
       1512647.       1543058.       1572896.       1602357.       1631605.
       1660627.       1689267.       1717605.       1745668.       1773230.
       1800611.       1827863.       1854580.       1880923.       1907116.
       1933087.       1958482.       1983436.       2008185.       2032637.
       2056639.       2080120.       2103366.       2126282.       2148829.
       2171036.       2192888.       2214404.       2235509.       2256281.
       2276608.       2296267.       2315424.       2334137.       2352052.
       2369431.       2386443.       2402871.       2418732.       2434164.
       2449059.       2463332.       2477272.       2490588.       2503165.
       2515093.       2526284.       2536798.       2546497.       2555430.
       2563908.       2571793.       2578938.       2585519.       2591557.
       2597162.       2602185.       2606606.       2610509.       2613907.
       2616917.       2619392.       2621226.       2622394.       2623000.
       2623207.       2622945.       2622129.       2620911.       2619369.
       2617321.       2615047.       2612595.       2609502.       2606122.
       2602445.       2598254.       2593459.       2588097.       2582463.
       2576384.       2569861.       2562810.       2555567.       2547987.
       2539904.       2531419.       2522290.       2512976.       2503149.
       2492814.       2482203.       2471179.       2459870.       2448197.
       2436076.       2423365.       2410480.       2397047.       2382891.
       2368497.       2353445.       2337815.       2321880.       2305429.
       2288238.       2270485.       2252410.       2233692.       2214460.
       2194867.       2174555.       2153692.       2132367.       2110480.
       2087976.       2064853.       2041198.       2016754.       1991857.
       1966713.       1940844.       1914487.       1887726.       1860347.
       1832534.       1804301.       1775581.       1746342.       1716764.
       1686692.       1656066.       1625125.       1593555.       1561565.
       1529262.       1496619.       1463668.       1430199.       1396433.
       1362342.       1327672.       1292537.       1257133.       1221073.
       1184476.       1147700.       1110598.       1073484.       1036128.
       998655.0       961250.0       923473.0       885529.0       847500.0
       809435.0       771118.0       732754.0       694464.0       655913.0
       617297.0       578508.0       539810.0       501018.0       461822.0
       422799.0       383720.0       344498.0       305570.0       266799.0
       228041.0       189510.0       151321.0       113290.0       75386.00
       37428.00      -547.0000      -38315.00      -76022.00      -113701.0
      -151524.0      -189183.0      -226649.0      -264354.0      -301755.0
      -339122.0      -376618.0      -413863.0      -451128.0      -488341.0
      -525513.0      -562392.0      -599112.0      -635798.0      -672203.0
      -708510.0      -744610.0      -780614.0      -816526.0      -852017.0
      -887357.0      -922722.0      -957732.0      -992507.0      -1027274.
      -1061807.      -1096003.      -1130103.      -1164191.      -1198071.
      -1231897.      -1265540.      -1298982.      -1332498.      -1365853.
      -1399003.      -1431907.      -1464763.      -1497544.      -1529841.
      -1562149.      -1594330.      -1626092.      -1657852.      -1689509.
      -1720866.      -1751797.      -1782411.      -1812708.      -1842627.
      -1872389.      -1901854.      -1931140.      -1960430.      -1989389.
      -2018033.      -2046367.      -2074285.      -2102046.      -2129339.
      -2156018.      -2182624.      -2208810.      -2234392.      -2259691.
      -2284477.      -2308688.      -2332216.      -2355097.      -2377627.
      -2399826.      -2421432.      -2442599.      -2463265.      -2483184.
      -2502758.      -2521666.      -2540030.      -2558011.      -2575487.
      -2592520.      -2608800.      -2624570.      -2639799.      -2654384.
      -2668221.      -2681375.      -2693996.      -2706121.      -2717861.
      -2728914.      -2739292.      -2749218.      -2758504.      -2766995.
      -2774846.      -2782008.      -2788633.      -2794578.      -2799932.
      -2804889.      -2808941.      -2812450.      -2815466.      -2817778.
      -2819546.      -2820486.      -2820610.      -2820011.      -2818495.
      -2816487.      -2814216.      -2811238.      -2807714.      -2803562.
      -2798967.      -2794036.      -2788402.      -2782315.      -2775540.
      -2768121.      -2760116.      -2751228.      -2741474.      -2730979.
      -2719964.      -2708306.      -2695979.      -2683069.      -2669658.
      -2655732.      -2641000.      -2625542.      -2609498.      -2592739.
      -2575468.      -2557593.      -2538907.      -2519678.      -2499885.
      -2479562.      -2458729.      -2437127.      -2414891.      -2392030.
      -2368396.      -2344124.      -2319197.      -2293520.      -2267119.
      -2239967.      -2212014.      -2183266.      -2153665.      -2123305.
      -2092287.      -2060621.      -2028363.      -1995603.      -1962482.
      -1928826.      -1894423.      -1859552.      -1824324.      -1788561.
      -1752319.      -1715586.      -1678397.      -1640732.      -1602557.
      -1564068.      -1525105.      -1485605.      -1445660.      -1405252.
      -1364430.      -1323158.      -1281541.      -1239531.      -1197199.
      -1154632.      -1111675.      -1068472.      -1024924.      -981120.0
      -937204.0      -892867.0      -848204.0      -803279.0      -758093.0
      -712693.0      -667038.0      -621245.0      -575214.0      -528950.0
      -482582.0      -435930.0      -388976.0      -342109.0      -295142.0
      -247863.0      -200534.0      -153170.0      -105822.0      -58355.00
      -10774.00       36912.00       84629.00       132129.0       179757.0
       227593.0       275573.0       323761.0       371921.0       420150.0
       468382.0       516409.0       564165.0       611295.0       658069.0
       704539.0       750559.0       796352.0       841920.0       887454.0
       932814.0       978002.0       1023000.       1067647.       1111855.
       1155570.       1198960.       1241528.       1283488.       1324882.
       1365503.       1405851.       1445483.       1484535.       1523032.
       1560899.       1598217.       1634553.       1670313.       1705484.
       1739966.       1773694.       1806604.       1839028.       1870742.
       1901828.       1932349.       1962005.       1990910.       2019312.
       2047239.       2074339.       2100647.       2126453.       2151647.
       2176240.       2200217.       2223643.       2246616.       2268927.
       2290422.       2311130.       2331159.       2350477.       2369099.
       2387192.       2404802.       2421839.       2438428.       2454636.
       2470220.       2485274.       2499694.       2513420.       2526472.
       2538570.       2549950.       2560731.       2570858.       2580368.
       2589262.       2597453.       2604907.       2612040.       2618695.
       2624715.       2630204.       2634903.       2639192.       2642958.
       2645935.       2648281.       2649921.       2651046.       2651360.
       2650842.       2649824.       2648088.       2645561.       2642298.
       2638128.       2633007.       2627284.       2621030.       2614092.
       2606658.       2598933.       2590672.       2581603.       2571945.
       2561683.       2550708.       2539102.       2526654.       2513382.
       2499533.       2485073.       2469828.       2453860.       2437394.
       2420583.       2403387.       2385513.       2367062.       2348199.
       2328705.       2308593.       2287959.       2266790.       2245055.
       2222667.       2199824.       2176471.       2152440.       2127997.
       2102991.       2077385.       2051208.       2024427.       1997428.
       1970114.       1942409.       1914435.       1886134.       1857654.
       1828708.       1799298.       1769592.       1739308.       1708713.
       1677853.       1646800.       1615571.       1583942.       1552161.
       1520063.       1487547.       1454682.       1421305.       1387548.
       1353479.       1319005.       1284134.       1248925.       1213606.
       1178334.       1142961.       1107522.       1072019.       1036389.
       1000611.       964677.0       928730.0       892597.0       856304.0
       819863.0       783258.0       746642.0       709752.0       672861.0
       636071.0       599263.0       562645.0       526153.0       489893.0
       453790.0       417790.0       381948.0       346118.0       310236.0
       274216.0       238174.0       202146.0       166048.0       130110.0
       94187.00       58362.00       22826.00      -12628.00      -47824.00
      -82869.00      -117721.0      -152367.0      -187097.0      -221758.0
      -256437.0      -291204.0      -325906.0      -360626.0      -395377.0
      -429975.0      -464398.0      -498676.0      -532623.0      -566463.0
      -600242.0      -633655.0      -666897.0      -699679.0      -732028.0
      -764304.0      -796334.0      -828154.0      -859783.0      -891168.0
      -922221.0      -953040.0      -983449.0      -1013480.      -1043254.
      -1072494.      -1101434.      -1129955.      -1157820.      -1185338.
      -1212478.      -1239184.      -1265602.      -1291556.      -1317083.
      -1342419.      -1367416.      -1391950.      -1416009.      -1439428.
      -1462422.      -1485043.      -1506996.      -1528450.      -1549273.
      -1569595.      -1589576.      -1608912.      -1627780.      -1646141.
      -1664138.      -1681554.      -1698085.      -1714206.      -1729555.
      -1744184.      -1758397.      -1771881.      -1784832.      -1797079.
