     0.02500000      -12345.00      -12345.00   2.447790e+09      -12345.00
   0.0005380000       1859.976      -321.0196      -12345.00      -12345.00
      -12345.00      -12345.00      -12345.00      -12345.00      -12345.00
      -12345.00      -12345.00      -12345.00      -12345.00      -12345.00
      -12345.00      -12345.00      -12345.00      -12345.00      -12345.00
      -12345.00      -12345.00      -12345.00      -12345.00      -12345.00
      -12345.00      -13.90930      -171.7773       705.0000       1.000000
      -42.72450       173.0647      -12345.00       22.00000      -12345.00
      -12345.00      -12345.00      -12345.00      -12345.00      -12345.00
      -12345.00      -12345.00      -12345.00      -12345.00      -12345.00
       3508.554       29.02584       201.6047       31.55458      -12345.00
      -12345.00      -12345.00       90.00000       90.00000      -12345.00
      -12345.00      -12345.00      -12345.00      -12345.00      -12345.00
      -12345.00      -12345.00      -12345.00      -12345.00      -12345.00
      2016       318        11         8        20
        19         6    -12345    -12345     74400
    -12345    -12345    -12345    -12345    -12345
         1    -12345    -12345    -12345    -12345
    -12345    -12345    -12345    -12345    -12345
    -12345    -12345    -12345    -12345    -12345
    -12345    -12345    -12345    -12345    -12345
         1    -12345    -12345    -12345    -12345
AFI     South Island, Ne
10      -12345  -12345  
-12345  -12345  -12345  
-12345  -12345  -12345  
-12345  -12345  -12345  
-12345  -12345  -12345  
-12345  -12345  BH2     
IU      -12345  Streckei
[...]
       333160.0       331156.0       329168.0       327186.0       325182.0
       323176.0       321129.0       319066.0       317018.0       314931.0
       312842.0       310770.0       308661.0       306548.0       304468.0
       302355.0       300231.0       298154.0       296066.0       294006.0
       292012.0       290010.0       288007.0       286007.0       283978.0
       281970.0       279952.0       277936.0       275947.0       273932.0
       271878.0       269827.0       267798.0       265696.0       263571.0
       261485.0       259359.0       257196.0       255044.0       252889.0
       250723.0       248542.0       246327.0       244113.0       241919.0
       239712.0       237485.0       235252.0       232978.0       230670.0
       228388.0       226107.0       223807.0       221523.0       219215.0
       216884.0       214546.0       212204.0       209892.0       207582.0
       205273.0       202960.0       200611.0       198245.0       195870.0
       193430.0       190981.0       188550.0       186069.0       183560.0
       181052.0       178551.0       176059.0       173559.0       171081.0
       168606.0       166116.0       163672.0       161236.0       158824.0
       156405.0       154009.0       151669.0       149317.0       147036.0
       144775.0       142509.0       140314.0       138100.0       135880.0
       133743.0       131636.0       129536.0       127467.0       125423.0
       123375.0       121326.0       119266.0       117248.0       115278.0
       113279.0       111284.0       109280.0       107268.0       105272.0
       103257.0       101211.0       99206.00       97217.00       95173.00
       93125.00       91094.00       89079.00       87076.00       85111.00
       83129.00       81135.00       79231.00       77327.00       75423.00
       73599.00       71788.00       69965.00       68141.00       66350.00
       64566.00       62808.00       61124.00       59444.00       57771.00
       56121.00       54530.00       52951.00       51329.00       49752.00
       48220.00       46670.00       45145.00       43654.00       42165.00
       40717.00       39275.00       37818.00       36410.00       35002.00
       33555.00       32137.00       30712.00       29309.00       27933.00
       26511.00       25073.00       23655.00       22195.00       20687.00
       19214.00       17727.00       16225.00       14708.00       13110.00
       11467.00       9815.000       8159.000       6510.000       4829.000
       3130.000       1447.000      -243.0000      -1938.000      -3614.000
      -5259.000      -6887.000      -8521.000      -10150.00      -11752.00
      -13378.00      -15000.00      -16606.00      -18198.00      -19776.00
      -21371.00      -22946.00      -24528.00      -26081.00      -27626.00
      -29197.00      -30776.00      -32383.00      -33971.00      -35571.00
      -37224.00      -38873.00      -40554.00      -42261.00      -43959.00
      -45661.00      -47321.00      -48956.00      -50629.00      -52338.00
      -54011.00      -55730.00      -57481.00      -59227.00      -61049.00
      -62840.00      -64623.00      -66439.00      -68260.00      -70126.00
      -72012.00      -73921.00      -75837.00      -77770.00      -79745.00
      -81693.00      -83663.00      -85675.00      -87689.00      -89681.00
      -91675.00      -93674.00      -95663.00      -97683.00      -99681.00
      -101711.0      -103776.0      -105789.0      -107782.0      -109814.0
      -111815.0      -113792.0      -115853.0      -117884.0      -119905.0
      -121946.0      -123952.0      -126025.0      -128106.0      -130124.0
      -132135.0      -134135.0      -136146.0      -138158.0      -140223.0
      -142332.0      -144358.0      -146393.0      -148497.0      -150573.0
      -152683.0      -154920.0      -157190.0      -159460.0      -161752.0
      -164050.0      -166405.0      -168796.0      -171175.0      -173624.0
      -176105.0      -178573.0      -181080.0      -183634.0      -186256.0
      -188926.0      -191626.0      -194340.0      -197097.0      -199914.0
      -202755.0      -205630.0      -208548.0      -211533.0      -214565.0
      -217594.0      -220678.0      -223877.0      -227111.0      -230363.0
      -233627.0      -236883.0      -240228.0      -243644.0      -247070.0
      -250558.0      -254095.0      -257661.0      -261225.0      -264807.0
      -268508.0      -272268.0      -276047.0      -279886.0      -283761.0
      -287699.0      -291696.0      -295681.0      -299763.0      -303903.0
      -308016.0      -312207.0      -316403.0      -320616.0      -324921.0
      -329277.0      -333660.0      -338048.0      -342419.0      -346803.0
      -351236.0      -355681.0      -360129.0      -364613.0      -369121.0
      -373640.0      -378170.0      -382715.0      -387268.0      -391858.0
      -396471.0      -401033.0      -405612.0      -410215.0      -414832.0
      -419427.0      -423987.0      -428606.0      -433203.0      -437765.0
      -442351.0      -446906.0      -451447.0      -456033.0      -460562.0
      -465037.0      -469526.0      -473983.0      -478441.0      -482897.0
      -487282.0      -491619.0      -495892.0      -500139.0      -504414.0
      -508617.0      -512800.0      -516998.0      -521140.0      -525266.0
      -529361.0      -533395.0      -537435.0      -541468.0      -545493.0
      -549496.0      -553446.0      -557415.0      -561350.0      -565257.0
      -569199.0      -573077.0      -576927.0      -580803.0      -584606.0
      -588415.0      -592215.0      -595937.0      -599662.0      -603343.0
      -607007.0      -610675.0      -614289.0      -617851.0      -621373.0
      -624925.0      -628451.0      -631881.0      -635344.0      -638789.0
      -642172.0      -645570.0      -648933.0      -652259.0      -655566.0
      -658836.0      -662127.0      -665406.0      -668630.0      -671863.0
      -675048.0      -678216.0      -681368.0      -684488.0      -687633.0
      -690758.0      -693855.0      -696943.0      -700047.0      -703145.0
      -706216.0      -709306.0      -712419.0      -715517.0      -718620.0
      -721717.0      -724821.0      -727964.0      -731068.0      -734137.0
      -737195.0      -740257.0      -743330.0      -746330.0      -749293.0
      -752242.0      -755146.0      -758086.0      -760997.0      -763847.0
      -766719.0      -769601.0      -772443.0      -775241.0      -778053.0
      -780877.0      -783681.0      -786442.0      -789178.0      -791893.0
      -794567.0      -797225.0      -799864.0      -802452.0      -804985.0
      -807447.0      -809909.0      -812388.0      -814800.0      -817172.0
      -819522.0      -821824.0      -824057.0      -826292.0      -828507.0
      -830645.0      -832735.0      -834810.0      -836894.0      -838916.0
      -840884.0      -842846.0      -844781.0      -846655.0      -848457.0
      -850273.0      -852081.0      -853805.0      -855513.0      -857194.0
      -858807.0      -860362.0      -861934.0      -863491.0      -864965.0
      -866459.0      -867916.0      -869340.0      -870792.0      -872146.0
      -873468.0      -874804.0      -876041.0      -877308.0      -878567.0
      -879697.0      -880816.0      -881913.0      -882947.0      -883897.0
      -884779.0      -885615.0      -886329.0      -886990.0      -887617.0
      -888150.0      -888675.0      -889167.0      -889602.0      -890007.0
      -890372.0      -890705.0      -890980.0      -891210.0      -891397.0
      -891548.0      -891634.0      -891669.0      -891679.0      -891643.0
      -891579.0      -891470.0      -891282.0      -891039.0      -890755.0
      -890391.0      -889962.0      -889499.0      -888962.0      -888369.0
      -887745.0      -887020.0      -886217.0      -885360.0      -884447.0
      -883470.0      -882422.0      -881306.0      -880088.0      -878810.0
      -877491.0      -876125.0      -874660.0      -873104.0      -871523.0
      -869857.0      -868094.0      -866285.0      -864372.0      -862378.0
      -860324.0      -858180.0      -855964.0      -853622.0      -851195.0
      -848724.0      -846093.0      -843355.0      -840595.0      -837703.0
      -834745.0      -831727.0      -828607.0      -825430.0      -822127.0
      -818761.0      -815318.0      -811761.0      -808166.0      -804488.0
      -800720.0      -796918.0      -793045.0      -789132.0      -785198.0
      -781179.0      -777104.0      -773030.0      -768914.0      -764739.0
      -760541.0      -756331.0      -752095.0      -747822.0      -743536.0
      -739186.0      -734789.0      -730323.0      -725796.0      -721249.0
      -716623.0      -711970.0      -707261.0      -702496.0      -697689.0
      -692774.0      -687827.0      -682837.0      -677735.0      -672584.0
      -667371.0      -662071.0      -656696.0      -651271.0      -645802.0
      -640266.0      -634663.0      -628991.0      -623215.0      -617351.0
      -611450.0      -605475.0      -599442.0      -593329.0      -587135.0
      -580860.0      -574511.0      -568113.0      -561632.0      -555096.0
      -548456.0      -541716.0      -534945.0      -528069.0      -521100.0
      -514047.0      -506902.0      -499718.0      -492405.0      -484992.0
      -477515.0      -469920.0      -462263.0      -454527.0      -446688.0
      -438757.0      -430775.0      -422710.0      -414516.0      -406242.0
      -397890.0      -389427.0      -380867.0      -372229.0      -363521.0
      -354719.0      -345822.0      -336866.0      -327847.0      -318738.0
      -309564.0      -300295.0      -290911.0      -281507.0      -272011.0
      -262406.0      -252728.0      -242939.0      -233130.0      -223302.0
      -213405.0      -203445.0      -193422.0      -183365.0      -173265.0
      -163103.0      -152952.0      -142745.0      -132442.0      -122117.0
      -111739.0      -101339.0      -90905.00      -80382.00      -69824.00
      -59154.00      -48410.00      -37725.00      -26949.00      -16072.00
      -5159.000       5799.000       16800.00       27840.00       38894.00
       50024.00       61185.00       72342.00       83568.00       94819.00
       106086.0       117435.0       128785.0       140121.0       151513.0
       162924.0       174366.0       185871.0       197346.0       208818.0
       220301.0       231788.0       243365.0       254940.0       266489.0
       278046.0       289577.0       301107.0       312649.0       324191.0
       335704.0       347194.0       358711.0       370204.0       381634.0
       393055.0       404438.0       415817.0       427222.0       438592.0
       449937.0       461243.0       472470.0       483710.0       494943.0
       506097.0       517233.0       528345.0       539403.0       550420.0
       561424.0       572370.0       583236.0       594086.0       604893.0
       615627.0       626321.0       636908.0       647398.0       657841.0
       668227.0       678586.0       688897.0       699130.0       709279.0
       719357.0       729374.0       739336.0       749242.0       759071.0
       768818.0       778517.0       788106.0       797588.0       807025.0
       816366.0       825621.0       834767.0       843846.0       852887.0
       861842.0       870681.0       879376.0       888000.0       896578.0
       905072.0       913484.0       921781.0       929954.0       938049.0
       946084.0       954007.0       961835.0       969641.0       977369.0
       985001.0       992510.0       999891.0       1007192.       1014411.
       1021553.       1028653.       1035678.       1042545.       1049351.
       1056068.       1062654.       1069215.       1075695.       1082111.
       1088467.       1094697.       1100870.       1107002.       1113083.
       1119059.       1124938.       1130786.       1136560.       1142271.
       1147889.       1153398.       1158840.       1164243.       1169546.
       1174754.       1179921.       1184959.       1189893.       1194760.
       1199540.       1204263.       1208915.       1213494.       1217998.
       1222390.       1226669.       1230899.       1235097.       1239153.
       1243145.       1247125.       1250996.       1254805.       1258542.
       1262227.       1265844.       1269347.       1272789.       1276181.
       1279474.       1282650.       1285774.       1288865.       1291846.
       1294709.       1297510.       1300231.       1302847.       1305382.
       1307830.       1310159.       1312402.       1314532.       1316563.
       1318525.       1320360.       1322113.       1323789.       1325317.
       1326754.       1328131.       1329382.       1330532.       1331603.
       1332601.       1333495.       1334260.       1334956.       1335567.
       1336074.       1336468.       1336716.       1336889.       1336965.
       1336896.       1336770.       1336533.       1336187.       1335794.
       1335274.       1334656.       1333985.       1333201.       1332370.
       1331468.       1330422.       1329307.       1328091.       1326806.
       1325450.       1323953.       1322357.       1320647.       1318827.
       1316926.       1314895.       1312771.       1310565.       1308224.
       1305794.       1303276.       1300654.       1297958.       1295175.
       1292305.       1289377.       1286344.       1283227.       1280047.
       1276782.       1273447.       1270039.       1266544.       1262943.
       1259270.       1255509.       1251665.       1247714.       1243655.
       1239524.       1235270.       1230921.       1226498.       1221968.
       1217330.       1212592.       1207790.       1202883.       1197891.
       1192864.       1187725.       1182540.       1177293.       1171928.
       1166511.       1161019.       1155455.       1149855.       1144199.
       1138492.       1132719.       1126847.       1120952.       1114991.
       1108926.       1102852.       1096717.       1090479.       1084188.
       1077801.       1071350.       1064858.       1058307.       1051736.
       1045094.       1038372.       1031587.       1024738.       1017802.
       1010778.       1003719.       996612.0       989405.0       982141.0
       974821.0       967412.0       959994.0       952526.0       945002.0
       937467.0       929842.0       922179.0       914519.0       906822.0
       899080.0       891250.0       883416.0       875539.0       867587.0
       859642.0       851556.0       843404.0       835225.0       826927.0
       818609.0       810228.0       801737.0       793158.0       784518.0
       775870.0       767151.0       758366.0       749538.0       740633.0
       731740.0       722821.0       713802.0       704755.0       695705.0
       686580.0       677415.0       668239.0       659007.0       649717.0
       640416.0       631092.0       621703.0       612298.0       602867.0
       593426.0       584000.0       574521.0       565023.0       555570.0
       546120.0       536676.0       527228.0       517768.0       508337.0
       498895.0       489468.0       480084.0       470678.0       461298.0
       451976.0       442654.0       433344.0       424064.0       414841.0
       405602.0       396349.0       387169.0       378004.0       368847.0
       359696.0       350534.0       341407.0       332353.0       323276.0
       314181.0       305167.0       296188.0       287231.0       278293.0
       269385.0       260529.0       251686.0       242888.0       234125.0
       225371.0       216664.0       208009.0       199407.0       190812.0
       182246.0       173745.0       165291.0       156835.0       148382.0
       139992.0       131639.0       123309.0       115006.0       106749.0
       98498.00       90259.00       82075.00       73939.00       65851.00
       57776.00       49714.00       41675.00       33658.00       25696.00
       17720.00       9733.000       1831.000      -6072.000      -13993.00
      -21875.00      -29727.00      -37581.00      -45396.00      -53185.00
      -60972.00      -68706.00      -76474.00      -84216.00      -91883.00
      -99577.00      -107254.0      -114871.0      -122508.0      -130146.0
      -137701.0      -145221.0      -152738.0      -160207.0      -167671.0
      -175105.0      -182477.0      -189818.0      -197151.0      -204468.0
      -211740.0      -219029.0      -226288.0      -233544.0      -240816.0
      -248022.0      -255187.0      -262268.0      -269336.0      -276426.0
      -283429.0      -290393.0      -297349.0      -304264.0      -311116.0
      -317912.0      -324695.0      -331426.0      -338128.0      -344806.0
      -351458.0      -358120.0      -364748.0      -371331.0      -377897.0
      -384450.0      -390955.0      -397458.0      -403960.0      -410384.0
      -416782.0      -423185.0      -429541.0      -435896.0      -442215.0
      -448443.0      -454641.0      -460771.0      -466852.0      -472921.0
      -478897.0      -484779.0      -490656.0      -496456.0      -502115.0
      -507727.0      -513344.0      -518866.0      -524286.0      -529719.0
      -535122.0      -540420.0      -545651.0      -550889.0      -556108.0
      -561244.0      -566308.0      -571331.0      -576317.0      -581259.0
      -586170.0      -591025.0      -595793.0      -600526.0      -605225.0
      -609866.0      -614467.0      -619029.0      -623525.0      -627972.0
      -632419.0      -636790.0      -641136.0      -645441.0      -649653.0
      -653871.0      -658004.0      -662070.0      -666104.0      -670041.0
      -673912.0      -677755.0      -681578.0      -685317.0      -688963.0
      -692630.0      -696313.0      -699929.0      -703471.0      -706985.0
      -710511.0      -714033.0      -717501.0      -720961.0      -724404.0
      -727761.0      -731117.0      -734481.0      -737842.0      -741190.0
      -744509.0      -747829.0      -751108.0      -754344.0      -757570.0
      -760762.0      -763894.0      -766966.0      -770014.0      -773083.0
      -776097.0      -779117.0      -782178.0      -785182.0      -788169.0
      -791121.0      -794033.0      -796980.0      -799940.0      -802894.0
      -805846.0      -808762.0      -811647.0      -814486.0      -817268.0
      -820028.0      -822770.0      -825466.0      -828168.0      -830886.0
