     0.02500000      -12345.00      -12345.00   2.447790e+09      -12345.00
   0.0005380000       1859.976      -321.0196      -12345.00      -12345.00
      -12345.00      -12345.00      -12345.00      -12345.00      -12345.00
      -12345.00      -12345.00      -12345.00      -12345.00      -12345.00
      -12345.00      -12345.00      -12345.00      -12345.00      -12345.00
      -12345.00      -12345.00      -12345.00      -12345.00      -12345.00
      -12345.00      -13.90930      -171.7773       705.0000       1.000000
      -42.72450       173.0647      -12345.00       22.00000      -12345.00
      -12345.00      -12345.00      -12345.00      -12345.00      -12345.00
      -12345.00      -12345.00      -12345.00      -12345.00      -12345.00
       3508.554       29.02584       201.6047       31.55458      -12345.00
      -12345.00      -12345.00       0.000000       0.000000      -12345.00
      -12345.00      -12345.00      -12345.00      -12345.00      -12345.00
      -12345.00      -12345.00      -12345.00      -12345.00      -12345.00
      2016       318        11         8        20
        19         6    -12345    -12345     74400
    -12345    -12345    -12345    -12345    -12345
         1    -12345    -12345    -12345    -12345
    -12345    -12345    -12345    -12345    -12345
    -12345    -12345    -12345    -12345    -12345
    -12345    -12345    -12345    -12345    -12345
         1    -12345    -12345    -12345    -12345
AFI     South Island, Ne
10      -12345  -12345  
-12345  -12345  -12345  
-12345  -12345  -12345  
-12345  -12345  -12345  
-12345  -12345  -12345  
-12345  -12345  BHZ     
IU      -12345  Streckei
[...]
      -1220299.      -1217843.      -1215236.      -1212550.      -1209829.
      -1207075.      -1204239.      -1201289.      -1198236.      -1195142.
      -1191978.      -1188697.      -1185335.      -1181879.      -1178370.
      -1174784.      -1171136.      -1167414.      -1163576.      -1159697.
      -1155705.      -1151628.      -1147520.      -1143289.      -1138965.
      -1134582.      -1130146.      -1125698.      -1121144.      -1116476.
      -1111802.      -1107038.      -1102277.      -1097525.      -1092614.
      -1087649.      -1082643.      -1077551.      -1072410.      -1067202.
      -1061940.      -1056649.      -1051289.      -1045853.      -1040350.
      -1034793.      -1029212.      -1023585.      -1017919.      -1012180.
      -1006363.      -1000542.      -994636.0      -988642.0      -982667.0
      -976652.0      -970593.0      -964458.0      -958218.0      -951969.0
      -945638.0      -939236.0      -932803.0      -926252.0      -919706.0
      -913153.0      -906451.0      -899678.0      -892915.0      -886143.0
      -879303.0      -872381.0      -865415.0      -858409.0      -851387.0
      -844362.0      -837251.0      -830126.0      -822953.0      -815646.0
      -808416.0      -801176.0      -793885.0      -786621.0      -779252.0
      -771887.0      -764539.0      -757125.0      -749709.0      -742252.0
      -734751.0      -727262.0      -719700.0      -712063.0      -704466.0
      -696848.0      -689173.0      -681502.0      -673802.0      -666044.0
      -658275.0      -650502.0      -642683.0      -634853.0      -627012.0
      -619118.0      -611203.0      -603313.0      -595430.0      -587511.0
      -579583.0      -571625.0      -563611.0      -555583.0      -547561.0
      -539545.0      -531475.0      -523400.0      -515380.0      -507306.0
      -499204.0      -491073.0      -482932.0      -474828.0      -466618.0
      -458395.0      -450173.0      -441872.0      -433568.0      -425219.0
      -416879.0      -408512.0      -400112.0      -391742.0      -383301.0
      -374857.0      -366471.0      -358019.0      -349528.0      -341103.0
      -332644.0      -324161.0      -315688.0      -307161.0      -298590.0
      -289966.0      -281362.0      -272761.0      -264131.0      -255517.0
      -246913.0      -238280.0      -229584.0      -220869.0      -212140.0
      -203433.0      -194750.0      -186022.0      -177305.0      -168636.0
      -159962.0      -151315.0      -142701.0      -134010.0      -125303.0
      -116632.0      -107968.0      -99335.00      -90686.00      -82031.00
      -73404.00      -64763.00      -56111.00      -47510.00      -38909.00
      -30303.00      -21722.00      -13135.00      -4596.000       3961.000
       12560.00       21080.00       29550.00       38049.00       46575.00
       55108.00       63597.00       72045.00       80492.00       88905.00
       97330.00       105746.0       114140.0       122549.0       130896.0
       139229.0       147530.0       155798.0       164076.0       172294.0
       180485.0       188665.0       196835.0       204962.0       213065.0
       221157.0       229251.0       237327.0       245372.0       253464.0
       261527.0       269586.0       277632.0       285615.0       293639.0
       301647.0       309634.0       317654.0       325620.0       333561.0
       341480.0       349356.0       357284.0       365182.0       373029.0
       380901.0       388713.0       396491.0       404238.0       411944.0
       419653.0       427291.0       434975.0       442689.0       450323.0
       458014.0       465685.0       473304.0       480970.0       488580.0
       496156.0       503730.0       511257.0       518783.0       526257.0
       533742.0       541293.0       548727.0       556081.0       563458.0
       570781.0       578101.0       585409.0       592632.0       599861.0
       607070.0       614277.0       621458.0       628530.0       635643.0
       642745.0       649822.0       656896.0       663887.0       670874.0
       677856.0       684784.0       691657.0       698522.0       705354.0
       712101.0       718817.0       725569.0       732289.0       738880.0
       745476.0       752054.0       758566.0       765086.0       771557.0
       778021.0       784468.0       790827.0       797209.0       803608.0
       809918.0       816225.0       822457.0       828614.0       834815.0
       840940.0       846983.0       852975.0       858898.0       864746.0
       870544.0       876352.0       882106.0       887792.0       893501.0
       899140.0       904713.0       910291.0       915767.0       921226.0
       926668.0       932027.0       937339.0       942582.0       947854.0
       953094.0       958258.0       963417.0       968487.0       973507.0
       978491.0       983413.0       988360.0       993276.0       998100.0
       1002928.       1007683.       1012306.       1016921.       1021513.
       1026072.       1030573.       1035037.       1039493.       1043845.
       1048119.       1052360.       1056564.       1060737.       1064880.
       1068946.       1072980.       1076985.       1080898.       1084810.
       1088681.       1092492.       1096285.       1099985.       1103646.
       1107281.       1110851.       1114399.       1117906.       1121331.
       1124667.       1127945.       1131150.       1134277.       1137386.
       1140420.       1143353.       1146209.       1148991.       1151740.
       1154413.       1157011.       1159553.       1162018.       1164434.
       1166783.       1169066.       1171318.       1173518.       1175607.
       1177635.       1179616.       1181515.       1183419.       1185264.
       1186992.       1188636.       1190177.       1191663.       1193093.
       1194400.       1195635.       1196820.       1197892.       1198866.
       1199731.       1200526.       1201259.       1201877.       1202472.
       1202996.       1203419.       1203807.       1204090.       1204321.
       1204513.       1204590.       1204631.       1204622.       1204546.
       1204458.       1204229.       1203941.       1203649.       1203230.
       1202782.       1202266.       1201684.       1201104.       1200440.
       1199711.       1198940.       1198099.       1197186.       1196173.
       1195075.       1193960.       1192774.       1191491.       1190209.
       1188897.       1187477.       1186004.       1184497.       1182925.
       1181324.       1179674.       1177977.       1176258.       1174482.
       1172639.       1170791.       1168962.       1167088.       1165138.
       1163128.       1161058.       1158972.       1156905.       1154787.
       1152551.       1150309.       1148049.       1145642.       1143174.
       1140700.       1138163.       1135597.       1133018.       1130334.
       1127646.       1124932.       1122084.       1119238.       1116369.
       1113456.       1110511.       1107526.       1104505.       1101388.
       1098248.       1095089.       1091835.       1088535.       1085204.
       1081792.       1078356.       1074879.       1071325.       1067755.
       1064126.       1060469.       1056780.       1053019.       1049253.
       1045476.       1041638.       1037747.       1033835.       1029887.
       1025849.       1021730.       1017611.       1013508.       1009353.
       1005091.       1000732.       996348.0       991939.0       987475.0
       982962.0       978396.0       973719.0       968993.0       964274.0
       959486.0       954677.0       949784.0       944824.0       939795.0
       934642.0       929516.0       924328.0       919061.0       913802.0
       908434.0       903004.0       897544.0       892005.0       886486.0
       880903.0       875173.0       869396.0       863589.0       857741.0
       851826.0       845858.0       839842.0       833762.0       827613.0
       821355.0       815073.0       808768.0       802342.0       795853.0
       789320.0       782685.0       775993.0       769337.0       762647.0
       755876.0       749033.0       742089.0       735144.0       728183.0
       721123.0       714029.0       706874.0       699642.0       692411.0
       685118.0       677799.0       670422.0       662948.0       655493.0
       647972.0       640390.0       632791.0       625174.0       617516.0
       609701.0       601875.0       594107.0       586236.0       578300.0
       570332.0       562285.0       554210.0       546124.0       538014.0
       529854.0       521668.0       513480.0       505240.0       496947.0
       488597.0       480255.0       471898.0       463455.0       455002.0
       446507.0       437972.0       429367.0       420703.0       412046.0
       403332.0       394588.0       385787.0       376892.0       367969.0
       359035.0       350071.0       341093.0       332115.0       323104.0
       314097.0       305130.0       296127.0       287062.0       278049.0
       269056.0       260046.0       251050.0       241985.0       232907.0
       223843.0       214748.0       205671.0       196609.0       187565.0
       178494.0       169381.0       160273.0       151165.0       142116.0
       133073.0       123981.0       114922.0       105835.0       96727.00
       87623.00       78492.00       69443.00       60381.00       51278.00
       42232.00       33119.00       23998.00       14894.00       5784.000
      -3264.000      -12337.00      -21440.00      -30511.00      -39555.00
      -48546.00      -57519.00      -66476.00      -75382.00      -84308.00
      -93210.00      -102046.0      -110836.0      -119576.0      -128307.0
      -137009.0      -145681.0      -154319.0      -162940.0      -171579.0
      -180237.0      -188867.0      -197442.0      -206022.0      -214547.0
      -223052.0      -231570.0      -240053.0      -248595.0      -257116.0
      -265580.0      -274067.0      -282496.0      -290873.0      -299292.0
      -307699.0      -316094.0      -324460.0      -332750.0      -341093.0
      -349432.0      -357731.0      -366014.0      -374246.0      -382515.0
      -390761.0      -398964.0      -407194.0      -415391.0      -423557.0
      -431712.0      -439795.0      -447847.0      -455895.0      -463923.0
      -471953.0      -479908.0      -487811.0      -495726.0      -503620.0
      -511489.0      -519304.0      -527097.0      -534884.0      -542630.0
      -550347.0      -558051.0      -565703.0      -573292.0      -580859.0
      -588416.0      -595974.0      -603507.0      -610977.0      -618363.0
      -625749.0      -633163.0      -640516.0      -647852.0      -655161.0
      -662394.0      -669603.0      -676803.0      -683942.0      -691091.0
      -698255.0      -705342.0      -712428.0      -719501.0      -726553.0
      -733590.0      -740575.0      -747534.0      -754434.0      -761370.0
      -768330.0      -775200.0      -782084.0      -788948.0      -795739.0
      -802525.0      -809271.0      -815969.0      -822654.0      -829369.0
      -836057.0      -842654.0      -849219.0      -855732.0      -862242.0
      -868793.0      -875281.0      -881717.0      -888104.0      -894440.0
      -900801.0      -907171.0      -913466.0      -919733.0      -926010.0
      -932180.0      -938258.0      -944356.0      -950413.0      -956365.0
      -962313.0      -968226.0      -974057.0      -979865.0      -985652.0
      -991431.0      -997159.0      -1002799.      -1008400.      -1014117.
      -1019783.      -1025281.      -1030923.      -1036467.      -1041804.
      -1047292.      -1052735.      -1057973.      -1063217.      -1068516.
      -1073753.      -1078890.      -1084003.      -1089015.      -1093914.
      -1098882.      -1103808.      -1108667.      -1113495.      -1118149.
      -1122830.      -1127509.      -1132014.      -1136543.      -1141013.
      -1145355.      -1149676.      -1153894.      -1158012.      -1162060.
      -1166015.      -1169940.      -1173827.      -1177666.      -1181442.
      -1185128.      -1188828.      -1192414.      -1195894.      -1199411.
      -1202813.      -1206101.      -1209341.      -1212513.      -1215647.
      -1218722.      -1221671.      -1224551.      -1227405.      -1230207.
      -1232966.      -1235621.      -1238213.      -1240816.      -1243330.
      -1245726.      -1248053.      -1250325.      -1252518.      -1254645.
      -1256730.      -1258709.      -1260605.      -1262484.      -1264209.
      -1265814.      -1267432.      -1268926.      -1270362.      -1271751.
      -1273046.      -1274360.      -1275593.      -1276716.      -1277804.
      -1278804.      -1279702.      -1280553.      -1281349.      -1282086.
      -1282747.      -1283294.      -1283756.      -1284131.      -1284463.
      -1284710.      -1284833.      -1284930.      -1284964.      -1284911.
      -1284778.      -1284549.      -1284299.      -1283993.      -1283606.
      -1283172.      -1282577.      -1281924.      -1281263.      -1280474.
      -1279688.      -1278804.      -1277790.      -1276790.      -1275694.
      -1274511.      -1273240.      -1271837.      -1270362.      -1268811.
      -1267151.      -1265420.      -1263584.      -1261640.      -1259696.
      -1257720.      -1255700.      -1253609.      -1251446.      -1249227.
      -1246904.      -1244527.      -1242102.      -1239613.      -1237081.
      -1234521.      -1231912.      -1229233.      -1226469.      -1223638.
      -1220794.      -1217884.      -1214857.      -1211755.      -1208616.
      -1205402.      -1202123.      -1198755.      -1195246.      -1191676.
      -1188015.      -1184235.      -1180398.      -1176547.      -1172596.
      -1168544.      -1164460.      -1160289.      -1156089.      -1151799.
      -1147426.      -1143022.      -1138555.      -1134066.      -1129472.
      -1124825.      -1120106.      -1115233.      -1110340.      -1105405.
      -1100342.      -1095257.      -1090086.      -1084810.      -1079557.
      -1074219.      -1068783.      -1063281.      -1057700.      -1052060.
      -1046356.      -1040598.      -1034764.      -1028898.      -1022982.
      -1016989.      -1010973.      -1004865.      -998647.0      -992390.0
      -986073.0      -979677.0      -973234.0      -966682.0      -960047.0
      -953390.0      -946615.0      -939784.0      -932922.0      -925939.0
      -918909.0      -911814.0      -904579.0      -897290.0      -889973.0
      -882546.0      -874997.0      -867401.0      -859745.0      -851942.0
      -844075.0      -836137.0      -828108.0      -820053.0      -811880.0
      -803633.0      -795382.0      -787028.0      -778615.0      -770182.0
      -761674.0      -753156.0      -744611.0      -735998.0      -727351.0
      -718618.0      -709811.0      -700941.0      -692047.0      -683157.0
      -674156.0      -665128.0      -656121.0      -646981.0      -637789.0
      -628617.0      -619360.0      -610059.0      -600719.0      -591276.0
      -581841.0      -572345.0      -562756.0      -553191.0      -543566.0
      -533885.0      -524181.0      -514393.0      -504584.0      -494746.0
      -484827.0      -474922.0      -464960.0      -454921.0      -444890.0
      -434815.0      -424695.0      -414536.0      -404383.0      -394200.0
      -383945.0      -373677.0      -363410.0      -353107.0      -342769.0
      -332432.0      -322055.0      -311659.0      -301249.0      -290780.0
      -280316.0      -269837.0      -259309.0      -248802.0      -238319.0
      -227779.0      -217147.0      -206516.0      -195915.0      -185276.0
      -174645.0      -163999.0      -153269.0      -142553.0      -131833.0
      -121094.0      -110355.0      -99560.00      -88811.00      -78052.00
      -67223.00      -56419.00      -45605.00      -34795.00      -23986.00
      -13102.00      -2252.000       8583.000       19506.00       30395.00
       41268.00       52140.00       63009.00       73910.00       84804.00
       95705.00       106592.0       117491.0       128367.0       139195.0
       150052.0       160885.0       171698.0       182567.0       193438.0
       204245.0       215095.0       225953.0       236739.0       247536.0
       258280.0       269008.0       279772.0       290548.0       301312.0
       312065.0       322865.0       333668.0       344461.0       355259.0
       366021.0       376772.0       387572.0       398311.0       409028.0
       419779.0       430427.0       441041.0       451637.0       462137.0
       472557.0       482892.0       493154.0       503427.0       513665.0
       523773.0       533858.0       543943.0       553915.0       563834.0
       573811.0       583721.0       593582.0       603488.0       613302.0
       623091.0       632885.0       642600.0       652312.0       661968.0
       671558.0       681101.0       690581.0       699994.0       709323.0
       718608.0       727851.0       737003.0       746033.0       754960.0
       763825.0       772651.0       781356.0       789923.0       798451.0
       806939.0       815361.0       823716.0       831969.0       840123.0
       848218.0       856228.0       864186.0       872041.0       879796.0
       887531.0       895167.0       902699.0       910089.0       917363.0
       924622.0       931783.0       938858.0       945867.0       952781.0
       959626.0       966319.0       972909.0       979479.0       985919.0
       992294.0       998614.0       1004807.       1010940.       1016983.
       1022953.       1028881.       1034681.       1040376.       1045981.
       1051466.       1056915.       1062301.       1067584.       1072877.
       1078062.       1083074.       1088019.       1092885.       1097695.
       1102409.       1107051.       1111639.       1116116.       1120568.
       1124945.       1129182.       1133391.       1137529.       1141603.
       1145663.       1149611.       1153476.       1157267.       1160919.
       1164459.       1167916.       1171345.       1174696.       1177878.
       1181020.       1184115.       1187064.       1189972.       1192836.
       1195614.       1198331.       1200977.       1203595.       1206128.
       1208583.       1211044.       1213432.       1215728.       1217965.
       1220138.       1222258.       1224295.       1226236.       1228123.
