     0.05000000      -12345.00      -12345.00   4.611770e+09      -12345.00
   0.0005330000       1859.951      -321.0195      -12345.00      -12345.00
      -12345.00      -12345.00      -12345.00      -12345.00      -12345.00
      -12345.00      -12345.00      -12345.00      -12345.00      -12345.00
      -12345.00      -12345.00      -12345.00      -12345.00      -12345.00
      -12345.00      -12345.00      -12345.00      -12345.00      -12345.00
      -12345.00      -13.90930      -171.7773       705.0000       1.000000
      -42.72450       173.0647      -12345.00       22.00000      -12345.00
      -12345.00      -12345.00      -12345.00      -12345.00      -12345.00
      -12345.00      -12345.00      -12345.00      -12345.00      -12345.00
       3508.554       29.02584       201.6047       31.55458      -12345.00
      -12345.00      -12345.00       90.00000       90.00000      -12345.00
      -12345.00      -12345.00      -12345.00      -12345.00      -12345.00
      -12345.00      -12345.00      -12345.00      -12345.00      -12345.00
      2016       318        11         8        20
        19         6    -12345    -12345     37200
    -12345    -12345    -12345    -12345    -12345
         1    -12345    -12345    -12345    -12345
    -12345    -12345    -12345    -12345    -12345
    -12345    -12345    -12345    -12345    -12345
    -12345    -12345    -12345    -12345    -12345
         1    -12345    -12345    -12345    -12345
AFI     South Island, Ne
00      -12345  -12345  
-12345  -12345  -12345  
-12345  -12345  -12345  
-12345  -12345  -12345  
-12345  -12345  -12345  
-12345  -12345  BH2     
IU      -12345  Streckei
[...]
      -376227.0      -397105.0      -417985.0      -438738.0      -459646.0
      -480309.0      -500792.0      -521152.0      -541485.0      -561680.0
      -581490.0      -601137.0      -620517.0      -639854.0      -659074.0
      -678048.0      -696813.0      -715259.0      -733395.0      -751143.0
      -768540.0      -785377.0      -801843.0      -817984.0      -833670.0
      -849200.0      -864422.0      -879312.0      -894073.0      -908726.0
      -923232.0      -937516.0      -951669.0      -965789.0      -979839.0
      -993958.0      -1008135.      -1022347.      -1036667.      -1050971.
      -1065386.      -1079833.      -1094258.      -1108968.      -1123710.
      -1138289.      -1152875.      -1167434.      -1181954.      -1196431.
      -1210850.      -1225085.      -1239113.      -1253028.      -1266612.
      -1279844.      -1292665.      -1305076.      -1317173.      -1328807.
      -1340151.      -1351060.      -1361445.      -1371408.      -1380935.
      -1390154.      -1398932.      -1407371.      -1415306.      -1422665.
      -1429695.      -1436247.      -1442265.      -1447766.      -1452790.
      -1457423.      -1461654.      -1465481.      -1468980.      -1472151.
      -1475003.      -1477593.      -1479700.      -1481436.      -1482913.
      -1483732.      -1484226.      -1484383.      -1484010.      -1483268.
      -1481995.      -1480326.      -1478329.      -1476096.      -1473475.
      -1470599.      -1467672.      -1464599.      -1461393.      -1457875.
      -1454051.      -1449981.      -1445614.      -1440818.      -1435851.
      -1430727.      -1425395.      -1420160.      -1414793.      -1409305.
      -1403751.      -1398149.      -1392611.      -1387069.      -1381646.
      -1376236.      -1370781.      -1365334.      -1359807.      -1354224.
      -1348430.      -1342379.      -1336207.      -1329886.      -1323564.
      -1317224.      -1310766.      -1304231.      -1297584.      -1290933.
      -1284126.      -1277019.      -1269683.      -1262056.      -1254105.
      -1245824.      -1237286.      -1228409.      -1219215.      -1209816.
      -1200062.      -1190068.      -1179843.      -1169425.      -1158956.
      -1148233.      -1137381.      -1126361.      -1115162.      -1103962.
      -1092526.      -1080929.      -1069352.      -1057678.      -1045777.
      -1033882.      -1022077.      -1010238.      -998379.0      -986515.0
      -974686.0      -962794.0      -950909.0      -938858.0      -926702.0
      -914458.0      -901910.0      -889273.0      -876346.0      -863228.0
      -849948.0      -836350.0      -822808.0      -809316.0      -795692.0
      -782094.0      -768560.0      -754970.0      -741331.0      -727709.0
      -714154.0      -700483.0      -686692.0      -672752.0      -658610.0
      -644388.0      -630099.0      -615855.0      -601461.0      -586883.0
      -572423.0      -557836.0      -542990.0      -528191.0      -513211.0
      -498067.0      -482848.0      -467530.0      -452256.0      -436810.0
      -421460.0      -406109.0      -390742.0      -375534.0      -360149.0
      -344805.0      -329544.0      -314251.0      -299049.0      -283937.0
      -268736.0      -253628.0      -238590.0      -223577.0      -208830.0
      -194130.0      -179675.0      -165455.0      -151320.0      -137407.0
      -123723.0      -110268.0      -96867.00      -83616.00      -70592.00
      -57482.00      -44205.00      -31032.00      -18027.00      -5037.000
       7993.000       20933.00       33795.00       46645.00       59393.00
       71961.00       84417.00       96828.00       109211.0       121648.0
       133884.0       145886.0       157943.0       169891.0       181697.0
       193570.0       205525.0       217643.0       229824.0       242003.0
       254383.0       266823.0       279385.0       292121.0       304831.0
       317523.0       330096.0       342502.0       354738.0       366979.0
       379230.0       391466.0       403810.0       416166.0       428652.0
       441304.0       454144.0       467183.0       480466.0       493921.0
       507432.0       521163.0       534882.0       548541.0       562232.0
       575859.0       589586.0       603379.0       617204.0       631068.0
       644872.0       658637.0       672334.0       685940.0       699348.0
       712597.0       725803.0       738870.0       751755.0       764448.0
       776835.0       788949.0       800896.0       812402.0       823520.0
       834387.0       844869.0       855174.0       865244.0       875093.0
       884736.0       893937.0       902782.0       911222.0       919218.0
       926856.0       934166.0       940987.0       947331.0       953480.0
       959089.0       964164.0       968942.0       973218.0       977232.0
       980895.0       984216.0       987280.0       989786.0       991955.0
       993710.0       994973.0       995883.0       996509.0       996975.0
       997003.0       996757.0       996378.0       995611.0       994581.0
       993336.0       991860.0       990080.0       988008.0       985954.0
       983783.0       981328.0       978768.0       976021.0       973165.0
       970153.0       966812.0       963277.0       959661.0       955976.0
       952235.0       948647.0       945090.0       941485.0       937945.0
       934517.0       931164.0       927663.0       924209.0       920915.0
       917615.0       914343.0       911046.0       907603.0       904158.0
       900724.0       897174.0       893623.0       889981.0       886198.0
       882447.0       878768.0       874970.0       871039.0       867298.0
       863537.0       859681.0       855860.0       851895.0       847920.0
       843886.0       839832.0       835722.0       831380.0       826821.0
       822076.0       817358.0       812374.0       807268.0       802204.0
       797002.0       791857.0       786584.0       781369.0       776374.0
       771497.0       766783.0       762217.0       757808.0       753495.0
       749262.0       745051.0       740847.0       736582.0       732213.0
       727772.0       723183.0       718500.0       713659.0       708705.0
       703740.0       698666.0       693550.0       688358.0       683205.0
       678047.0       672697.0       667314.0       661823.0       656170.0
       650466.0       644669.0       638818.0       632955.0       627100.0
       621446.0       615949.0       610385.0       604775.0       599201.0
       593585.0       587823.0       581934.0       575927.0       569792.0
       563592.0       557270.0       550861.0       544468.0       537893.0
       531153.0       524424.0       517653.0       510751.0       503812.0
       496962.0       490065.0       482937.0       475633.0       468188.0
       460541.0       452890.0       445283.0       437654.0       430140.0
       422717.0       415391.0       408258.0       401358.0       394579.0
       387892.0       381453.0       375214.0       368956.0       362767.0
       356709.0       350631.0       344509.0       338307.0       332158.0
       325901.0       319589.0       313449.0       307324.0       301340.0
       295579.0       289983.0       284365.0       278898.0       273681.0
       268578.0       263678.0       258835.0       254101.0       249508.0
       245008.0       240661.0       236346.0       231994.0       227698.0
       223427.0       219052.0       214503.0       209886.0       205195.0
       200162.0       194903.0       189571.0       184174.0       178737.0
       173351.0       168086.0       162881.0       157641.0       152439.0
       147307.0       142145.0       137073.0       131953.0       126706.0
       121362.0       115847.0       110166.0       104531.0       98982.00
       93315.00       87536.00       81495.00       75397.00       69242.00
       62851.00       56302.00       49597.00       42799.00       35856.00
       28886.00       21930.00       14901.00       7765.000       628.0000
      -6405.000      -13541.00      -20763.00      -27932.00      -35246.00
      -42529.00      -49642.00      -56954.00      -64389.00      -71745.00
      -79318.00      -87335.00      -95610.00      -104010.0      -112667.0
      -121613.0      -130677.0      -140081.0      -149882.0      -159945.0
      -170287.0      -180958.0      -192004.0      -203315.0      -215152.0
      -227274.0      -239543.0      -252269.0      -265377.0      -278741.0
      -292368.0      -306503.0      -321023.0      -335920.0      -351209.0
      -366818.0      -382725.0      -398912.0      -415579.0      -432391.0
      -449291.0      -466410.0      -483736.0      -501289.0      -518942.0
      -536805.0      -554729.0      -572723.0      -590779.0      -608865.0
      -627019.0      -645132.0      -663296.0      -681256.0      -699197.0
      -717123.0      -734638.0      -752029.0      -769312.0      -786480.0
      -803548.0      -820379.0      -837205.0      -853980.0      -870584.0
      -887196.0      -903726.0      -920112.0      -936459.0      -952590.0
      -968592.0      -984508.0      -1000168.      -1015751.      -1031195.
      -1046498.      -1061721.      -1076781.      -1091758.      -1106683.
      -1121520.      -1136173.      -1150768.      -1165368.      -1179916.
      -1194463.      -1209113.      -1223804.      -1238543.      -1253397.
      -1268120.      -1282854.      -1297435.      -1311772.      -1326123.
      -1340367.      -1354555.      -1368660.      -1382735.      -1396739.
      -1410502.      -1424165.      -1437576.      -1450622.      -1463631.
      -1476418.      -1488883.      -1501171.      -1513153.      -1524963.
      -1536578.      -1547965.      -1559074.      -1569950.      -1580691.
      -1591092.      -1601258.      -1611257.      -1621080.      -1630797.
      -1640283.      -1649539.      -1658654.      -1667493.      -1675965.
      -1684078.      -1691688.      -1698769.      -1705471.      -1711881.
      -1718069.      -1723965.      -1729560.      -1734835.      -1739737.
      -1744450.      -1748817.      -1752719.      -1756266.      -1759368.
      -1762073.      -1764314.      -1766021.      -1767335.      -1768084.
      -1768328.      -1768157.      -1767428.      -1766237.      -1764434.
      -1762050.      -1759105.      -1755479.      -1751166.      -1746099.
      -1740435.      -1734207.      -1727351.      -1719812.      -1711659.
      -1702972.      -1693772.      -1684191.      -1674223.      -1663920.
      -1653326.      -1642491.      -1631476.      -1620109.      -1608287.
      -1596056.      -1583451.      -1570424.      -1556895.      -1542854.
      -1528294.      -1513151.      -1497514.      -1481449.      -1464747.
      -1447420.      -1429623.      -1411247.      -1392202.      -1372667.
      -1352518.      -1331713.      -1310279.      -1288110.      -1265342.
      -1241782.      -1217518.      -1192609.      -1166963.      -1140668.
      -1113604.      -1085757.      -1057202.      -1027958.      -998040.0
      -967546.0      -936288.0      -904394.0      -871808.0      -838451.0
      -804760.0      -770557.0      -735811.0      -700721.0      -665241.0
      -629198.0      -592774.0      -555880.0      -518287.0      -480379.0
      -441864.0      -402806.0      -363474.0      -323626.0      -283467.0
      -242923.0      -201928.0      -160758.0      -119230.0      -77313.00
      -35337.00       6948.000       49562.00       92173.00       134937.0
       177768.0       220656.0       263605.0       306373.0       349210.0
       392143.0       434878.0       477509.0       520084.0       562466.0
       604718.0       646769.0       688537.0       730137.0       771223.0
       811853.0       852369.0       892503.0       932200.0       971556.0
       1010586.       1049108.       1087133.       1124688.       1161624.
       1198255.       1234235.       1269538.       1304531.       1338830.
       1372504.       1405676.       1438431.       1470662.       1502075.
       1532994.       1563504.       1593410.       1622630.       1651379.
       1679747.       1707543.       1734985.       1761947.       1788416.
       1814490.       1839955.       1864983.       1889505.       1913376.
       1936667.       1959503.       1981862.       2003591.       2024783.
       2045493.       2065729.       2085538.       2104893.       2123729.
       2142029.       2159766.       2177009.       2193676.       2209692.
       2225121.       2239874.       2253917.       2267283.       2279999.
       2291985.       2303265.       2313908.       2323900.       2333191.
       2341835.       2349687.       2356701.       2363026.       2368609.
       2373586.       2377827.       2381514.       2384658.       2386992.
       2388796.       2389844.       2390032.       2389527.       2388233.
       2386165.       2383393.       2379945.       2375915.       2371281.
       2365989.       2360164.       2353697.       2346560.       2338786.
       2330236.       2320935.       2310908.       2300132.       2288662.
       2276553.       2263887.       2250671.       2236806.       2222437.
       2207675.       2192391.       2176590.       2160289.       2143507.
       2126138.       2108157.       2089816.       2071033.       2051662.
       2031685.       2011161.       1990133.       1968505.       1946471.
       1924074.       1901227.       1878109.       1854601.       1830671.
       1806397.       1781512.       1756038.       1730084.       1703407.
       1676189.       1648552.       1620382.       1591884.       1562985.
       1533682.       1504021.       1473959.       1443574.       1412802.
       1381779.       1350527.       1319113.       1287707.       1256223.
       1224639.       1193077.       1161637.       1130064.       1098594.
       1067221.       1035793.       1004545.       973147.0       941869.0
       910648.0       879455.0       848505.0       817551.0       786847.0
       756204.0       725778.0       695570.0       665451.0       635605.0
       605745.0       576096.0       546621.0       517217.0       487996.0
       458955.0       430073.0       401184.0       372432.0       343762.0
       315073.0       286471.0       258002.0       229639.0       201172.0
       172719.0       144518.0       116340.0       88229.00       60315.00
       32462.00       4827.000      -22702.00      -50196.00      -77658.00
      -105158.0      -132345.0      -159331.0      -186231.0      -212877.0
      -239299.0      -265485.0      -291502.0      -317461.0      -343339.0
      -369041.0      -394690.0      -420245.0      -445580.0      -470889.0
      -495986.0      -520708.0      -545165.0      -569269.0      -592936.0
      -616129.0      -638900.0      -661382.0      -683532.0      -705344.0
      -726963.0      -748212.0      -769128.0      -789830.0      -810143.0
      -830130.0      -849866.0      -869254.0      -888418.0      -907344.0
      -925886.0      -944159.0      -961942.0      -979362.0      -996465.0
      -1013194.      -1029863.      -1046221.      -1062437.      -1078610.
      -1094499.      -1110257.      -1126008.      -1141675.      -1157167.
      -1172486.      -1187473.      -1202204.      -1216905.      -1231617.
      -1246172.      -1260521.      -1275029.      -1289514.      -1303689.
      -1317671.      -1331423.      -1345115.      -1358648.      -1372082.
      -1385512.      -1398643.      -1411786.      -1424927.      -1437852.
      -1450777.      -1463519.      -1475983.      -1488269.      -1500234.
      -1511809.      -1523093.      -1534092.      -1544717.      -1554970.
      -1564816.      -1574389.      -1583746.      -1592731.      -1601409.
      -1609781.      -1617627.      -1625145.      -1632375.      -1638985.
      -1645202.      -1650954.      -1656285.      -1661436.      -1666393.
      -1671050.      -1675377.      -1679544.      -1683377.      -1686913.
      -1690038.      -1692786.      -1695184.      -1697104.      -1698839.
      -1700280.      -1701437.      -1702327.      -1702954.      -1703401.
      -1703499.      -1703344.      -1703076.      -1702557.      -1701587.
      -1700344.      -1698729.      -1696553.      -1694063.      -1691160.
      -1687785.      -1683974.      -1679745.      -1675185.      -1670249.
      -1664908.      -1659206.      -1653203.      -1646692.      -1639723.
      -1632425.      -1624789.      -1616846.      -1608445.      -1599661.
      -1590437.      -1580728.      -1570575.      -1559844.      -1548631.
      -1536931.      -1524785.      -1512195.      -1499102.      -1485657.
      -1471729.      -1457362.      -1442561.      -1427231.      -1411644.
      -1395606.      -1379052.      -1362135.      -1344819.      -1327219.
      -1309214.      -1290776.      -1271940.      -1252636.      -1232802.
      -1212540.      -1191904.      -1170801.      -1149483.      -1128021.
      -1106368.      -1084600.      -1062832.      -1041065.      -1019081.
      -996951.0      -974756.0      -952357.0      -929822.0      -907281.0
      -884744.0      -862164.0      -839478.0      -816859.0      -794359.0
      -771887.0      -749529.0      -727313.0      -705210.0      -683104.0
      -661075.0      -639283.0      -617510.0      -595702.0      -574020.0
      -552482.0      -530802.0      -509016.0      -487374.0      -465684.0
      -444050.0      -422453.0      -400946.0      -379575.0      -358295.0
      -337447.0      -316867.0      -296345.0      -275994.0      -256025.0
      -236248.0      -216541.0      -197199.0      -178038.0      -159019.0
      -140195.0      -121625.0      -103399.0      -85161.00      -67142.00
      -49762.00      -32702.00      -16014.00       225.0000       16194.00
       31656.00       46697.00       61267.00       75326.00       89359.00
       103124.0       116457.0       129601.0       142544.0       155264.0
       167609.0       179865.0       192025.0       203822.0       215498.0
       226847.0       237937.0       248983.0       259789.0       270399.0
       280655.0       290770.0       300792.0       310546.0       320121.0
       329446.0       338740.0       347671.0       356096.0       364373.0
       372230.0       379613.0       386772.0       393546.0       399815.0
