     0.05000000      -12345.00      -12345.00   3.348730e+09      -12345.00
   0.0005380000       1859.951      -399.0196      -12345.00      -12345.00
      -12345.00      -12345.00      -12345.00      -12345.00      -12345.00
      -12345.00      -12345.00      -12345.00      -12345.00      -12345.00
      -12345.00      -12345.00      -12345.00      -12345.00      -12345.00
      -12345.00      -12345.00      -12345.00      -12345.00      -12345.00
      -12345.00      -66.27920       110.5354       5.000000       5.000000
      -42.72450       173.0647      -12345.00       22.00000      -12345.00
      -12345.00      -12345.00      -12345.00      -12345.00      -12345.00
      -12345.00      -12345.00      -12345.00      -12345.00      -12345.00
       4548.781       213.2367       86.72720       40.90998      -12345.00
      -12345.00      -12345.00       90.00000       90.00000      -12345.00
      -12345.00      -12345.00      -12345.00      -12345.00      -12345.00
      -12345.00      -12345.00      -12345.00      -12345.00      -12345.00
      2016       318        11         9        38
        19         6    -12345    -12345     37200
    -12345    -12345    -12345    -12345    -12345
         1    -12345    -12345    -12345    -12345
    -12345    -12345    -12345    -12345    -12345
    -12345    -12345    -12345    -12345    -12345
    -12345    -12345    -12345    -12345    -12345
         1    -12345    -12345    -12345    -12345
CASY    South Island, Ne
00      -12345  -12345  
-12345  -12345  -12345  
-12345  -12345  -12345  
-12345  -12345  -12345  
-12345  -12345  -12345  
-12345  -12345  BH2     
IU      -12345  Streckei
[...]
       861840.0       832294.0       802472.0       772365.0       742074.0
       711541.0       680757.0       649743.0       618523.0       587090.0
       555456.0       523595.0       491568.0       459565.0       427284.0
       394839.0       362482.0       329903.0       297259.0       264540.0
       231766.0       199013.0       166202.0       133324.0       100487.0
       67732.00       34745.00       2034.000      -30663.00      -63599.00
      -96179.00      -128877.0      -161481.0      -193902.0      -226410.0
      -258764.0      -291083.0      -323208.0      -355301.0      -387294.0
      -419077.0      -450925.0      -482500.0      -513937.0      -545320.0
      -576468.0      -607531.0      -638447.0      -669224.0      -699825.0
      -730258.0      -760441.0      -790306.0      -820056.0      -849508.0
      -878747.0      -907764.0      -936458.0      -965031.0      -993340.0
      -1021435.      -1049274.      -1076832.      -1104094.      -1130967.
      -1157550.      -1183822.      -1209867.      -1235547.      -1260844.
      -1285905.      -1310606.      -1334872.      -1358785.      -1382343.
      -1405432.      -1428184.      -1450497.      -1472343.      -1493847.
      -1514834.      -1535368.      -1555503.      -1575138.      -1594333.
      -1613137.      -1631470.      -1649320.      -1666705.      -1683587.
      -1700092.      -1716128.      -1731500.      -1746420.      -1760784.
      -1774575.      -1787922.      -1800619.      -1812757.      -1824367.
      -1835413.      -1845947.      -1855905.      -1865307.      -1874230.
      -1882590.      -1890331.      -1897477.      -1904060.      -1910100.
      -1915543.      -1920384.      -1924637.      -1928366.      -1931547.
      -1934157.      -1936267.      -1937861.      -1938820.      -1939227.
      -1939176.      -1938466.      -1937240.      -1935601.      -1933435.
      -1930702.      -1927405.      -1923645.      -1919345.      -1914587.
      -1909377.      -1903632.      -1897361.      -1890625.      -1883498.
      -1875753.      -1867528.      -1858869.      -1849571.      -1839752.
      -1829449.      -1818633.      -1807366.      -1795660.      -1783461.
      -1770807.      -1757665.      -1744010.      -1729919.      -1715263.
      -1700062.      -1684385.      -1668225.      -1651632.      -1634587.
      -1617060.      -1599058.      -1580724.      -1561879.      -1542528.
      -1522871.      -1502632.      -1482117.      -1461120.      -1439586.
      -1417988.      -1395674.      -1373059.      -1350280.      -1326959.
      -1303501.      -1279548.      -1255232.      -1230684.      -1205764.
      -1180633.      -1155068.      -1129237.      -1103136.      -1076635.
      -1050040.      -1023202.      -996150.0      -968900.0      -941377.0
      -913659.0      -885558.0      -857265.0      -828742.0      -800049.0
      -771293.0      -742225.0      -713023.0      -683587.0      -653962.0
      -624223.0      -594246.0      -564167.0      -533956.0      -503557.0
      -473023.0      -442418.0      -411648.0      -380688.0      -349605.0
      -318399.0      -287086.0      -255611.0      -223975.0      -192356.0
      -160667.0      -128829.0      -96973.00      -65031.00      -33124.00
      -1260.000       30717.00       62626.00       94555.00       126693.0
       158790.0       190796.0       222849.0       254886.0       286879.0
       318826.0       350668.0       382420.0       414161.0       445783.0
       477313.0       508778.0       540015.0       571200.0       602231.0
       633135.0       664036.0       694675.0       725152.0       755408.0
       785497.0       815473.0       845194.0       874730.0       903995.0
       933060.0       961942.0       990565.0       1019052.       1047299.
       1075196.       1102863.       1130252.       1157413.       1184369.
       1210956.       1237249.       1263273.       1289036.       1314343.
       1339224.       1363874.       1388146.       1412110.       1435706.
       1458939.       1481772.       1504271.       1526376.       1547961.
       1569183.       1589880.       1610181.       1629975.       1649246.
       1668225.       1686671.       1704695.       1722257.       1739199.
       1755757.       1771766.       1787208.       1802260.       1816716.
       1830651.       1844067.       1856921.       1869354.       1881161.
       1892358.       1903122.       1913316.       1922874.       1931867.
       1940325.       1948231.       1955560.       1962260.       1968492.
       1974168.       1979183.       1983715.       1987630.       1990983.
       1993769.       1995963.       1997634.       1998627.       1998987.
       1998753.       1997949.       1996591.       1994459.       1991726.
       1988511.       1984603.       1980027.       1974822.       1969053.
       1962559.       1955446.       1947827.       1939442.       1930521.
       1921015.       1910851.       1900153.       1888795.       1876839.
       1864312.       1851195.       1837535.       1823363.       1808521.
       1793224.       1777437.       1760956.       1744093.       1726704.
       1708851.       1690538.       1671721.       1652508.       1632714.
       1612432.       1591647.       1570244.       1548376.       1526092.
       1503274.       1480046.       1456413.       1432225.       1407617.
       1382602.       1357129.       1331228.       1304934.       1278318.
       1251275.       1223850.       1196108.       1167985.       1139624.
       1110916.       1081904.       1052682.       1023024.       993133.0
       963027.0       932568.0       901929.0       870999.0       839792.0
       808285.0       776490.0       744633.0       712421.0       680009.0
       647620.0       614936.0       582186.0       549262.0       516064.0
       482888.0       449448.0       415909.0       382368.0       348625.0
       314881.0       280935.0       246847.0       212709.0       178437.0
       144136.0       109756.0       75391.00       41041.00       6708.000
      -27695.00      -62111.00      -96272.00      -130416.0      -164562.0
      -198601.0      -232638.0      -266528.0      -300302.0      -334016.0
      -367645.0      -401223.0      -434594.0      -467791.0      -500963.0
      -534065.0      -566978.0      -599688.0      -632282.0      -664580.0
      -696652.0      -728542.0      -760103.0      -791598.0      -822834.0
      -853752.0      -884483.0      -914863.0      -944946.0      -974741.0
      -1004373.      -1033631.      -1062568.      -1091335.      -1119717.
      -1147908.      -1175772.      -1203180.      -1230330.      -1257110.
      -1283540.      -1309718.      -1335408.      -1360644.      -1385524.
      -1410050.      -1434204.      -1457878.      -1481194.      -1504180.
      -1526748.      -1548821.      -1570433.      -1591666.      -1612371.
      -1632645.      -1652440.      -1671718.      -1690567.      -1708842.
      -1726674.      -1743975.      -1760813.      -1777153.      -1793081.
      -1808668.      -1823537.      -1838110.      -1852191.      -1865551.
      -1878508.      -1890946.      -1902757.      -1914025.      -1924825.
      -1934990.      -1944695.      -1953866.      -1962435.      -1970524.
      -1978025.      -1985083.      -1991531.      -1997400.      -2002794.
      -2007581.      -2011865.      -2015595.      -2018729.      -2021309.
      -2023358.      -2024802.      -2025657.      -2025886.      -2025623.
      -2024800.      -2023279.      -2021385.      -2018804.      -2015607.
      -2011909.      -2007549.      -2002696.      -1997163.      -1991082.
      -1984357.      -1976995.      -1969135.      -1960528.      -1951398.
      -1941740.      -1931417.      -1920590.      -1909211.      -1897221.
      -1884698.      -1871581.      -1857897.      -1843647.      -1828873.
      -1813564.      -1797599.      -1781191.      -1764236.      -1746769.
      -1728958.      -1710622.      -1691777.      -1672413.      -1652608.
      -1632353.      -1611649.      -1590589.      -1568970.      -1546821.
      -1524274.      -1501176.      -1477611.      -1453620.      -1429059.
      -1404135.      -1378773.      -1352918.      -1326754.      -1300085.
      -1272955.      -1245502.      -1217651.      -1189337.      -1160652.
      -1131580.      -1102034.      -1072130.      -1041803.      -1011038.
      -979899.0      -948421.0      -916559.0      -884333.0      -851798.0
      -818941.0      -785803.0      -752287.0      -718508.0      -684457.0
      -650189.0      -615774.0      -581044.0      -546164.0      -511086.0
      -475847.0      -440419.0      -404779.0      -369184.0      -333423.0
      -297596.0      -261762.0      -225778.0      -189778.0      -153638.0
      -117401.0      -81057.00      -44617.00      -8213.000       28256.00
       64619.00       101036.0       137597.0       174044.0       210561.0
       246951.0       283330.0       319789.0       356089.0       392455.0
       428710.0       464906.0       500998.0       536946.0       572891.0
       608714.0       644452.0       680026.0       715639.0       750949.0
       786090.0       821407.0       856345.0       891232.0       925977.0
       960444.0       994943.0       1029140.       1063029.       1096839.
       1130332.       1163350.       1196164.       1228600.       1260682.
       1292510.       1323897.       1355038.       1385794.       1416224.
       1446317.       1475988.       1505379.       1534258.       1562931.
       1591251.       1619021.       1646401.       1673209.       1699756.
       1725797.       1751289.       1776318.       1800836.       1824983.
       1848446.       1871546.       1894109.       1916009.       1937482.
       1958288.       1978575.       1998235.       2017363.       2036013.
       2053982.       2071401.       2088214.       2104462.       2120195.
       2135270.       2149698.       2163547.       2176721.       2189168.
       2201020.       2212331.       2223021.       2233020.       2242408.
       2251099.       2259151.       2266595.       2273261.       2279215.
       2284427.       2288895.       2292597.       2295545.       2297800.
       2299307.       2300038.       2300041.       2299282.       2297653.
       2295273.       2292149.       2288203.       2283555.       2278109.
       2271868.       2264977.       2257380.       2249008.       2239927.
       2230180.       2219651.       2208394.       2196440.       2183740.
       2170234.       2155984.       2141059.       2125383.       2108986.
       2091763.       2073820.       2055220.       2035886.       2015832.
       1995070.       1973643.       1951448.       1928607.       1905116.
       1880891.       1855979.       1830376.       1804151.       1777266.
       1749679.       1721391.       1692454.       1662812.       1632511.
       1601554.       1570015.       1537968.       1505185.       1471964.
       1438179.       1403756.       1368939.       1333466.       1297497.
       1261056.       1224100.       1186591.       1148563.       1110031.
       1070997.       1031613.       991634.0       951286.0       910565.0
       869435.0       827916.0       786004.0       743858.0       701208.0
       658337.0       615128.0       571533.0       527742.0       483606.0
       439214.0       394505.0       349597.0       304412.0       259068.0
       213603.0       167852.0       121946.0       75913.00       29805.00
      -16395.00      -62723.00      -109099.0      -155458.0      -201746.0
      -247920.0      -294309.0      -340469.0      -386426.0      -432623.0
      -478371.0      -524159.0      -569838.0      -615149.0      -660545.0
      -705548.0      -750458.0      -795194.0      -839542.0      -883640.0
      -927511.0      -971177.0      -1014420.      -1057466.      -1100196.
      -1142517.      -1184450.      -1225956.      -1267141.      -1307884.
      -1348203.      -1388065.      -1427466.      -1466350.      -1504726.
      -1542595.      -1579950.      -1616860.      -1653151.      -1688871.
      -1724044.      -1758624.      -1792647.      -1826082.      -1858955.
      -1891139.      -1922735.      -1953622.      -1983806.      -2013482.
      -2042238.      -2070310.      -2097711.      -2124283.      -2150141.
      -2175263.      -2199591.      -2223023.      -2245774.      -2267628.
      -2288709.      -2309026.      -2328407.      -2346968.      -2364640.
      -2381574.      -2397617.      -2412754.      -2427187.      -2440717.
      -2453334.      -2465313.      -2476385.      -2486566.      -2495964.
      -2504372.      -2511936.      -2518541.      -2524307.      -2529186.
      -2533026.      -2535963.      -2537926.      -2539045.      -2539211.
      -2538375.      -2536662.      -2533951.      -2530346.      -2525907.
      -2520570.      -2514450.      -2507487.      -2499629.      -2490967.
      -2481403.      -2470978.      -2459719.      -2447592.      -2434606.
      -2420670.      -2405903.      -2390316.      -2373898.      -2356597.
      -2338524.      -2319683.      -2299954.      -2279538.      -2258293.
      -2236265.      -2213430.      -2189821.      -2165614.      -2140538.
      -2114770.      -2088399.      -2061160.      -2033209.      -2004605.
      -1975297.      -1945342.      -1914749.      -1883577.      -1851715.
      -1819234.      -1786136.      -1752432.      -1718332.      -1683632.
      -1648255.      -1612177.      -1575535.      -1538499.      -1500907.
      -1462675.      -1423887.      -1384593.      -1344741.      -1304413.
      -1263713.      -1222693.      -1181156.      -1139221.      -1097046.
      -1054387.      -1011478.      -968376.0      -924976.0      -881357.0
      -837304.0      -792849.0      -748149.0      -703185.0      -658027.0
      -612579.0      -566887.0      -521022.0      -474937.0      -428885.0
      -382671.0      -336334.0      -290092.0      -243687.0      -197161.0
      -150642.0      -104132.0      -57432.00      -10804.00       35672.00
       82245.00       128638.0       175015.0       221415.0       267651.0
       313974.0       360220.0       406135.0       451840.0       497341.0
       542589.0       587641.0       632538.0       677130.0       721391.0
       765321.0       808945.0       852266.0       895215.0       937749.0
       979813.0       1021599.       1063053.       1104084.       1144642.
       1184843.       1224732.       1264076.       1303049.       1341611.
       1379632.       1417107.       1454013.       1490383.       1526274.
       1561761.       1596602.       1630888.       1664754.       1697932.
       1730594.       1762714.       1794201.       1825234.       1855708.
       1885629.       1914936.       1943556.       1971519.       1998688.
       2025144.       2050879.       2075927.       2100299.       2123900.
       2146925.       2169192.       2190744.       2211729.       2231915.
       2251385.       2270217.       2288308.       2305528.       2321986.
       2337692.       2352509.       2366474.       2379640.       2392031.
       2403576.       2414361.       2424325.       2433385.       2441605.
       2448924.       2455553.       2461374.       2466274.       2470320.
       2473356.       2475573.       2476875.       2477244.       2476801.
       2475439.       2473342.       2470330.       2466393.       2461688.
       2456034.       2449619.       2442376.       2434153.       2425147.
       2415339.       2404558.       2392931.       2380564.       2367314.
       2353265.       2338356.       2322593.       2306054.       2288696.
       2270589.       2251725.       2232185.       2211943.       2190929.
       2169200.       2146653.       2123392.       2099460.       2074732.
       2049309.       2023100.       1996187.       1968631.       1940332.
       1911338.       1881676.       1851426.       1820566.       1788966.
       1756661.       1723840.       1690406.       1656343.       1621683.
       1586404.       1550527.       1514024.       1476976.       1439346.
       1401211.       1362610.       1323514.       1283946.       1243910.
       1203492.       1162590.       1121241.       1079531.       1037434.
       995015.0       952164.0       908909.0       865257.0       821208.0
       776944.0       732329.0       687361.0       642181.0       596710.0
       550917.0       504867.0       458739.0       412421.0       365818.0
       319237.0       272519.0       225708.0       178991.0       132215.0
       85463.00       38713.00      -8023.000      -54715.00      -101379.0
      -147915.0      -194223.0      -240527.0      -286751.0      -332633.0
      -378498.0      -424130.0      -469466.0      -514660.0      -559468.0
      -604125.0      -648616.0      -692800.0      -736761.0      -780542.0
      -824116.0      -867285.0      -910172.0      -952834.0      -995115.0
      -1037075.      -1078673.      -1119887.      -1160762.      -1201134.
      -1241194.      -1280794.      -1319790.      -1358431.      -1396402.
      -1433858.      -1470808.      -1507148.      -1542936.      -1578014.
      -1612533.      -1646371.      -1679538.      -1712140.      -1744039.
      -1775247.      -1805776.      -1835656.      -1864796.      -1893167.
      -1920837.      -1947731.      -1973787.      -1999001.      -2023516.
      -2047230.      -2070164.      -2092389.      -2113769.      -2134389.
      -2154213.      -2173278.      -2191576.      -2208962.      -2225573.
      -2241334.      -2256178.      -2270119.      -2283147.      -2295437.
      -2306774.      -2317235.      -2326785.      -2335342.      -2343075.
      -2349809.      -2355625.      -2360441.      -2364354.      -2367340.
      -2369288.      -2370381.      -2370445.      -2369632.      -2367966.
      -2365336.      -2361837.      -2357448.      -2352230.      -2346071.
      -2339060.      -2331180.      -2322350.      -2312794.      -2302312.
      -2290939.      -2278803.      -2265779.      -2251942.      -2237165.
      -2221584.      -2205207.      -2187862.      -2169711.      -2150786.
      -2131111.      -2110618.      -2089340.      -2067297.      -2044518.
