     0.05000000      -12345.00      -12345.00   3.358800e+09      -12345.00
   0.0005380000       1859.951      -399.0196      -12345.00      -12345.00
      -12345.00      -12345.00      -12345.00      -12345.00      -12345.00
      -12345.00      -12345.00      -12345.00      -12345.00      -12345.00
      -12345.00      -12345.00      -12345.00      -12345.00      -12345.00
      -12345.00      -12345.00      -12345.00      -12345.00      -12345.00
      -12345.00      -66.27920       110.5354       5.000000       5.000000
      -42.72450       173.0647      -12345.00       22.00000      -12345.00
      -12345.00      -12345.00      -12345.00      -12345.00      -12345.00
      -12345.00      -12345.00      -12345.00      -12345.00      -12345.00
       4548.781       213.2367       86.72720       40.90998      -12345.00
      -12345.00      -12345.00       0.000000       90.00000      -12345.00
      -12345.00      -12345.00      -12345.00      -12345.00      -12345.00
      -12345.00      -12345.00      -12345.00      -12345.00      -12345.00
      2016       318        11         9        38
        19         6    -12345    -12345     37200
    -12345    -12345    -12345    -12345    -12345
         1    -12345    -12345    -12345    -12345
    -12345    -12345    -12345    -12345    -12345
    -12345    -12345    -12345    -12345    -12345
    -12345    -12345    -12345    -12345    -12345
         1    -12345    -12345    -12345    -12345
CASY    South Island, Ne
00      -12345  -12345  
-12345  -12345  -12345  
-12345  -12345  -12345  
-12345  -12345  -12345  
-12345  -12345  -12345  
-12345  -12345  BH1     
IU      -12345  Streckei
[...]
      -816038.0      -825266.0      -834216.0      -842986.0      -851703.0
      -860111.0      -868313.0      -876384.0      -884171.0      -891644.0
      -898701.0      -905849.0      -912874.0      -919824.0      -926753.0
      -933354.0      -940177.0      -946826.0      -953222.0      -959526.0
      -965619.0      -971601.0      -977411.0      -983231.0      -989042.0
      -994585.0      -999933.0      -1005118.      -1010163.      -1015201.
      -1019981.      -1024612.      -1029004.      -1033243.      -1037565.
      -1041712.      -1045805.      -1049670.      -1053391.      -1057119.
      -1060773.      -1064486.      -1068020.      -1071428.      -1074765.
      -1077841.      -1080812.      -1083669.      -1086356.      -1088978.
      -1091444.      -1093793.      -1096085.      -1098226.      -1100333.
      -1102408.      -1104318.      -1106179.      -1108017.      -1109743.
      -1111297.      -1112721.      -1114140.      -1115278.      -1116163.
      -1117020.      -1117643.      -1118077.      -1118388.      -1118615.
      -1118664.      -1118458.      -1118148.      -1117700.      -1116971.
      -1116030.      -1115087.      -1114091.      -1112862.      -1111337.
      -1109760.      -1107924.      -1105944.      -1103941.      -1101580.
      -1099269.      -1096722.      -1093792.      -1090806.      -1087551.
      -1084148.      -1080348.      -1076272.      -1072159.      -1067507.
      -1062950.      -1058427.      -1053569.      -1048710.      -1043568.
      -1038395.      -1032972.      -1027226.      -1021563.      -1015768.
      -1009673.      -1003429.      -997091.0      -990562.0      -983939.0
      -976974.0      -969821.0      -962607.0      -955156.0      -947757.0
      -940169.0      -932341.0      -924443.0      -916303.0      -908003.0
      -899505.0      -890768.0      -881904.0      -872875.0      -863493.0
      -853940.0      -844202.0      -834226.0      -824036.0      -813476.0
      -803003.0      -792402.0      -781503.0      -770492.0      -759216.0
      -747924.0      -736413.0      -724665.0      -712903.0      -700935.0
      -688848.0      -676665.0      -664304.0      -651755.0      -639025.0
      -626173.0      -613103.0      -599806.0      -586308.0      -572615.0
      -558721.0      -544628.0      -530204.0      -515465.0      -500746.0
      -485902.0      -470805.0      -455475.0      -439874.0      -424107.0
      -408217.0      -392182.0      -375837.0      -359335.0      -342760.0
      -325893.0      -308849.0      -291685.0      -274274.0      -256701.0
      -238958.0      -220971.0      -202709.0      -184183.0      -165546.0
      -146768.0      -127784.0      -108623.0      -89316.00      -69833.00
      -50284.00      -30572.00      -10660.00       9328.000       29477.00
       49577.00       69883.00       90318.00       110806.0       131489.0
       152041.0       172854.0       193832.0       214878.0       236091.0
       257235.0       278433.0       299671.0       320979.0       342186.0
       363380.0       384631.0       405714.0       426828.0       448006.0
       469198.0       490258.0       511323.0       532408.0       553318.0
       574255.0       595134.0       616090.0       636851.0       657415.0
       678139.0       698723.0       719389.0       739926.0       760280.0
       780743.0       801028.0       821272.0       841403.0       861224.0
       880931.0       900598.0       920125.0       939564.0       958955.0
       978141.0       997264.0       1016261.       1034971.       1053605.
       1072044.       1090253.       1108318.       1126118.       1143629.
       1160827.       1177684.       1194193.       1210389.       1226263.
       1241807.       1257022.       1271981.       1286549.       1300601.
       1314484.       1328140.       1341439.       1354336.       1366795.
       1378884.       1390526.       1401761.       1412518.       1423038.
       1433294.       1443164.       1452739.       1461822.       1470572.
       1478965.       1486853.       1494339.       1501515.       1508351.
       1514770.       1520839.       1526609.       1531951.       1536836.
       1541414.       1545557.       1549214.       1552483.       1555326.
       1557700.       1559631.       1561259.       1562440.       1563214.
       1563664.       1563447.       1562809.       1561921.       1560562.
       1558790.       1556516.       1553771.       1550721.       1547282.
       1543376.       1538973.       1534171.       1529050.       1523502.
       1517538.       1511131.       1504214.       1496840.       1489070.
       1480899.       1472309.       1463391.       1454085.       1444317.
       1434252.       1423754.       1412810.       1401564.       1389807.
       1377551.       1364893.       1351846.       1338390.       1324524.
       1310267.       1295612.       1280608.       1265196.       1249460.
       1233428.       1216979.       1200192.       1183076.       1165547.
       1147681.       1129480.       1110956.       1092149.       1072953.
       1053513.       1033832.       1013753.       993419.0       972827.0
       951968.0       930880.0       909483.0       887907.0       866091.0
       843909.0       821572.0       799095.0       776439.0       753704.0
       730793.0       707693.0       684546.0       661251.0       637731.0
       614089.0       590269.0       566310.0       542292.0       518110.0
       493881.0       469513.0       444930.0       420313.0       395398.0
       370428.0       345492.0       320329.0       295172.0       269803.0
       244326.0       218947.0       193458.0       167887.0       142333.0
       116749.0       91137.00       65543.00       39879.00       14276.00
      -11355.00      -36958.00      -62420.00      -87880.00      -113276.0
      -138612.0      -163801.0      -188882.0      -213838.0      -238621.0
      -263276.0      -287778.0      -312134.0      -336249.0      -360243.0
      -384106.0      -407793.0      -431375.0      -454784.0      -478096.0
      -501271.0      -524317.0      -547173.0      -569875.0      -592512.0
      -614937.0      -637242.0      -659281.0      -681133.0      -702872.0
      -724345.0      -745615.0      -766511.0      -787294.0      -807992.0
      -828368.0      -848546.0      -868445.0      -888106.0      -907482.0
      -926598.0      -945466.0      -963925.0      -982211.0      -1000269.
      -1017929.      -1035351.      -1052364.      -1068960.      -1085298.
      -1101245.      -1116808.      -1132078.      -1146986.      -1161497.
      -1175707.      -1189548.      -1203027.      -1216167.      -1228907.
      -1241306.      -1253409.      -1265181.      -1276461.      -1287366.
      -1297862.      -1307929.      -1317663.      -1327027.      -1336132.
      -1344882.      -1353348.      -1361433.      -1369198.      -1376712.
      -1383806.      -1390724.      -1397327.      -1403621.      -1409659.
      -1415337.      -1420706.      -1425734.      -1430527.      -1434927.
      -1438938.      -1442679.      -1446052.      -1449088.      -1451813.
      -1454198.      -1456154.      -1457762.      -1459026.      -1459778.
      -1460128.      -1460132.      -1459679.      -1458808.      -1457548.
      -1455896.      -1453957.      -1451570.      -1448747.      -1445568.
      -1441991.      -1438110.      -1433733.      -1429009.      -1423911.
      -1418337.      -1412536.      -1406239.      -1399556.      -1392613.
      -1385194.      -1377471.      -1369383.      -1360879.      -1352126.
      -1343029.      -1333541.      -1323821.      -1313807.      -1303429.
      -1292801.      -1281887.      -1270688.      -1259191.      -1247469.
      -1235482.      -1223172.      -1210760.      -1198001.      -1184871.
      -1171505.      -1157842.      -1144004.      -1129914.      -1115574.
      -1100975.      -1086124.      -1071025.      -1055676.      -1040107.
      -1024206.      -1008060.      -991735.0      -975168.0      -958323.0
      -941288.0      -924029.0      -906464.0      -888764.0      -870856.0
      -852693.0      -834434.0      -815904.0      -797168.0      -778360.0
      -759260.0      -740006.0      -720670.0      -701166.0      -681528.0
      -661664.0      -641569.0      -621371.0      -601030.0      -580457.0
      -559786.0      -539002.0      -518062.0      -497033.0      -475928.0
      -454759.0      -433450.0      -412041.0      -390442.0      -368750.0
      -347093.0      -325274.0      -303298.0      -281227.0      -259069.0
      -236741.0      -214364.0      -191908.0      -169291.0      -146610.0
      -123842.0      -101042.0      -78148.00      -55185.00      -32285.00
      -9354.000       13677.00       36711.00       59756.00       82824.00
       105879.0       128867.0       151816.0       174749.0       197619.0
       220503.0       243339.0       266167.0       288981.0       311748.0
       334539.0       357292.0       380060.0       402694.0       425259.0
       447741.0       470151.0       492557.0       514748.0       537030.0
       559177.0       581152.0       603180.0       625005.0       646770.0
       668454.0       689957.0       711352.0       732688.0       753858.0
       774846.0       795729.0       816436.0       837116.0       857570.0
       877689.0       897827.0       917703.0       937301.0       956746.0
       975871.0       994766.0       1013522.       1032027.       1050252.
       1068324.       1085980.       1103406.       1120545.       1137520.
       1154328.       1170604.       1186894.       1202768.       1218340.
       1233788.       1248730.       1263591.       1278032.       1292065.
       1305989.       1319549.       1332809.       1345777.       1358427.
       1370739.       1382687.       1394319.       1405642.       1416612.
       1427221.       1437559.       1447509.       1457091.       1466304.
       1475134.       1483623.       1491701.       1499490.       1506933.
       1514043.       1520785.       1527123.       1533125.       1538689.
       1543922.       1548681.       1553007.       1557010.       1560532.
       1563636.       1566337.       1568677.       1570584.       1572083.
       1573141.       1573711.       1573885.       1573516.       1572744.
       1571499.       1569584.       1567248.       1564448.       1561006.
       1557050.       1552677.       1547722.       1542198.       1536260.
       1529735.       1522662.       1515077.       1506855.       1498204.
       1489031.       1479264.       1469021.       1458240.       1446951.
       1435158.       1422851.       1410040.       1396717.       1382927.
       1368654.       1353853.       1338621.       1322874.       1306672.
       1290032.       1272843.       1255330.       1237319.       1218776.
       1199928.       1180607.       1160822.       1140623.       1119958.
       1098873.       1077391.       1055493.       1033151.       1010446.
       987367.0       963851.0       940032.0       915872.0       891263.0
       866254.0       840919.0       815223.0       789108.0       762676.0
       735937.0       708934.0       681670.0       654050.0       626156.0
       597956.0       569524.0       540868.0       511866.0       482648.0
       453179.0       423462.0       393623.0       363597.0       333356.0
       302964.0       272404.0       241667.0       210817.0       179892.0
       148814.0       117616.0       86385.00       55078.00       23662.00
      -7851.000      -39386.00      -71023.00      -102712.0      -134306.0
      -166055.0      -197798.0      -229413.0      -261127.0      -292665.0
      -324211.0      -355844.0      -387263.0      -418698.0      -450121.0
      -481464.0      -512692.0      -543711.0      -574661.0      -605426.0
      -635956.0      -666363.0      -696582.0      -726598.0      -756376.0
      -786021.0      -815438.0      -844550.0      -873590.0      -902203.0
      -930480.0      -958612.0      -986392.0      -1013935.      -1041074.
      -1067806.      -1094174.      -1120043.      -1145547.      -1170738.
      -1195473.      -1219777.      -1243642.      -1267051.      -1289964.
      -1312423.      -1334489.      -1355954.      -1377004.      -1397594.
      -1417599.      -1437172.      -1456158.      -1474580.      -1492539.
      -1509989.      -1526868.      -1543236.      -1559106.      -1574380.
      -1589141.      -1603382.      -1616984.      -1630015.      -1642443.
      -1654294.      -1665689.      -1676505.      -1686763.      -1696453.
      -1705562.      -1714136.      -1722048.      -1729332.      -1736060.
      -1742177.      -1747640.      -1752516.      -1756833.      -1760544.
      -1763694.      -1766239.      -1768107.      -1769411.      -1770108.
      -1770187.      -1769724.      -1768594.      -1766884.      -1764551.
      -1761585.      -1758052.      -1753861.      -1749038.      -1743562.
      -1737504.      -1730832.      -1723516.      -1715558.      -1706957.
      -1697798.      -1688014.      -1677555.      -1666492.      -1654909.
      -1642686.      -1629828.      -1616398.      -1602336.      -1587685.
      -1572462.      -1556695.      -1540370.      -1523506.      -1506129.
      -1488222.      -1469786.      -1450826.      -1431377.      -1411357.
      -1390845.      -1369877.      -1348396.      -1326428.      -1303984.
      -1281126.      -1257812.      -1234003.      -1209769.      -1185142.
      -1160103.      -1134753.      -1108992.      -1082844.      -1056371.
      -1029518.      -1002409.      -974821.0      -947023.0      -918930.0
      -890399.0      -861716.0      -832584.0      -803316.0      -773801.0
      -743944.0      -713998.0      -683715.0      -653298.0      -622695.0
      -591907.0      -561012.0      -529858.0      -498649.0      -467296.0
      -435749.0      -404195.0      -372496.0      -340727.0      -308978.0
      -277160.0      -245407.0      -213641.0      -181773.0      -149956.0
      -118186.0      -86498.00      -54913.00      -23351.00       8072.000
       39300.00       70486.00       101578.0       132372.0       163097.0
       193729.0       224047.0       254304.0       284358.0       314130.0
       343690.0       372883.0       401938.0       430814.0       459308.0
       487657.0       515707.0       543466.0       571094.0       598277.0
       625210.0       651923.0       678264.0       704369.0       730040.0
       755326.0       780318.0       804936.0       829253.0       853178.0
       876620.0       899653.0       922453.0       944793.0       966604.0
       988139.0       1009048.       1029527.       1049620.       1069099.
       1088107.       1106551.       1124557.       1142050.       1158967.
       1175404.       1191347.       1206737.       1221544.       1235796.
       1249486.       1262696.       1275314.       1287383.       1299001.
       1310079.       1320631.       1330631.       1340072.       1349021.
       1357374.       1365168.       1372491.       1379301.       1385678.
       1391501.       1396817.       1401770.       1406135.       1409982.
       1413489.       1416374.       1418693.       1420575.       1421894.
       1422788.       1423186.       1423066.       1422478.       1421321.
       1419760.       1417783.       1415340.       1412397.       1408903.
       1405028.       1400653.       1395851.       1390588.       1384840.
       1378713.       1372098.       1365079.       1357520.       1349538.
       1341213.       1332497.       1323420.       1313917.       1304170.
       1294048.       1283524.       1272639.       1261344.       1249822.
       1237918.       1225612.       1212937.       1199871.       1186482.
       1172656.       1158500.       1144106.       1129446.       1114491.
       1099224.       1083741.       1067944.       1051866.       1035591.
       1018911.       1001996.       984904.0       967491.0       949884.0
       931973.0       913771.0       895346.0       876608.0       857658.0
       838568.0       819314.0       799847.0       780137.0       760255.0
       740231.0       719974.0       699550.0       678994.0       658209.0
       637358.0       616362.0       595195.0       574081.0       552757.0
       531242.0       509667.0       488006.0       466338.0       444539.0
       422731.0       401012.0       379252.0       357360.0       335469.0
       313657.0       291781.0       269938.0       248150.0       226336.0
       204522.0       182688.0       160931.0       139053.0       117226.0
       95555.00       73722.00       52109.00       30463.00       8779.000
      -12620.00      -34087.00      -55412.00      -76598.00      -97795.00
      -118915.0      -140018.0      -161007.0      -181887.0      -202657.0
      -223292.0      -243840.0      -264232.0      -284453.0      -304557.0
      -324448.0      -344083.0      -363653.0      -383091.0      -402303.0
      -421361.0      -440306.0      -459081.0      -477613.0      -495916.0
      -514031.0      -531966.0      -549524.0      -566841.0      -583910.0
      -600612.0      -617156.0      -633339.0      -649168.0      -664770.0
      -680001.0      -694974.0      -709709.0      -724142.0      -738234.0
      -752041.0      -765550.0      -778646.0      -791510.0      -804007.0
      -816140.0      -828039.0      -839551.0      -850736.0      -861599.0
      -872122.0      -882217.0      -891951.0      -901384.0      -910435.0
      -919173.0      -927591.0      -935675.0      -943382.0      -950739.0
      -957902.0      -964712.0      -971023.0      -977093.0      -982846.0
      -988218.0      -993286.0      -997990.0      -1002353.      -1006318.
      -1009874.      -1013085.      -1015978.      -1018504.      -1020703.
      -1022578.      -1024128.      -1025299.      -1026079.      -1026519.
      -1026539.      -1026168.      -1025446.      -1024403.      -1022940.
      -1021106.      -1018914.      -1016325.      -1013342.      -1009890.
      -1006215.      -1002171.      -997726.0      -992945.0      -987763.0
      -982283.0      -976269.0      -969990.0      -963437.0      -956348.0
      -948931.0      -941232.0      -933283.0      -924924.0      -916252.0
