     0.02500000      -12345.00      -12345.00   3.262830e+10      -12345.00
   0.0005380000       1859.976      -323.0196      -12345.00      -12345.00
      -12345.00      -12345.00      -12345.00      -12345.00      -12345.00
      -12345.00      -12345.00      -12345.00      -12345.00      -12345.00
      -12345.00      -12345.00      -12345.00      -12345.00      -12345.00
      -12345.00      -12345.00      -12345.00      -12345.00      -12345.00
      -12345.00      -20.08820       146.2545       320.0000       37.00000
      -42.72450       173.0647      -12345.00       22.00000      -12345.00
      -12345.00      -12345.00      -12345.00      -12345.00      -12345.00
      -12345.00      -12345.00      -12345.00      -12345.00      -12345.00
       3546.971       306.6562       141.0269       31.90009      -12345.00
      -12345.00      -12345.00       90.00000       90.00000      -12345.00
      -12345.00      -12345.00      -12345.00      -12345.00      -12345.00
      -12345.00      -12345.00      -12345.00      -12345.00      -12345.00
      2016       318        11         8        22
        19         6    -12345    -12345     74400
    -12345    -12345    -12345    -12345    -12345
         1    -12345    -12345    -12345    -12345
    -12345    -12345    -12345    -12345    -12345
    -12345    -12345    -12345    -12345    -12345
    -12345    -12345    -12345    -12345    -12345
         1    -12345    -12345    -12345    -12345
CTAO    South Island, Ne
10      -12345  -12345  
-12345  -12345  -12345  
-12345  -12345  -12345  
-12345  -12345  -12345  
-12345  -12345  -12345  
-12345  -12345  BH2     
IU      -12345  Streckei
[...]
   2.643012e+07   2.641482e+07   2.639775e+07   2.637895e+07   2.635856e+07
   2.633660e+07   2.631299e+07   2.628785e+07   2.626110e+07   2.623261e+07
   2.620263e+07   2.617122e+07   2.613827e+07   2.610374e+07   2.606766e+07
   2.603018e+07   2.599129e+07   2.595088e+07   2.590891e+07   2.586540e+07
   2.582045e+07   2.577414e+07   2.572644e+07   2.567723e+07   2.562652e+07
   2.557440e+07   2.552093e+07   2.546602e+07   2.540962e+07   2.535178e+07
   2.529253e+07   2.523196e+07   2.517004e+07   2.510675e+07   2.504196e+07
   2.497567e+07   2.490803e+07   2.483907e+07   2.476870e+07   2.469675e+07
   2.462338e+07   2.454864e+07   2.447242e+07   2.439487e+07   2.431590e+07
   2.423542e+07   2.415368e+07   2.407062e+07   2.398617e+07   2.390036e+07
   2.381317e+07   2.372468e+07   2.363492e+07   2.354371e+07   2.345119e+07
   2.335740e+07   2.326225e+07   2.316580e+07   2.306794e+07   2.296873e+07
   2.286827e+07   2.276640e+07   2.266313e+07   2.255852e+07   2.245262e+07
   2.234531e+07   2.223658e+07   2.212662e+07   2.201532e+07   2.190262e+07
   2.178864e+07   2.167330e+07   2.155652e+07   2.143850e+07   2.131924e+07
   2.119858e+07   2.107666e+07   2.095340e+07   2.082866e+07   2.070264e+07
   2.057525e+07   2.044652e+07   2.031642e+07   2.018475e+07   2.005159e+07
   1.991711e+07   1.978132e+07   1.964404e+07   1.950534e+07   1.936525e+07
   1.922370e+07   1.908087e+07   1.893665e+07   1.879100e+07   1.864394e+07
   1.849549e+07   1.834587e+07   1.819487e+07   1.804249e+07   1.788874e+07
   1.773345e+07   1.757685e+07   1.741888e+07   1.725945e+07   1.709860e+07
   1.693622e+07   1.677240e+07   1.660723e+07   1.644051e+07   1.627227e+07
   1.610251e+07   1.593119e+07   1.575852e+07   1.558428e+07   1.540841e+07
   1.523120e+07   1.505255e+07   1.487242e+07   1.469090e+07   1.450784e+07
   1.432330e+07   1.413736e+07   1.394987e+07   1.376097e+07   1.357065e+07
   1.337873e+07   1.318548e+07   1.299094e+07   1.279495e+07   1.259760e+07
   1.239882e+07   1.219862e+07   1.199708e+07   1.179410e+07   1.158972e+07
   1.138391e+07   1.117662e+07   1.096800e+07   1.075803e+07   1.054673e+07
   1.033397e+07   1.011967e+07       9904072.       9687099.       9468645.
       9248880.       9027875.       8805580.       8581880.       8356835.
       8130466.       7902784.       7673780.       7443401.       7211855.
       6979065.       6745026.       6509771.       6273214.       6035584.
       5796778.       5556797.       5315812.       5073787.       4830726.
       4586616.       4341636.       4095762.       3848868.       3601035.
       3352338.       3102920.       2852769.       2601893.       2350299.
       2097972.       1845062.       1591585.       1337580.       1083067.
       828000.0       572472.0       316667.0       60538.00      -196072.0
      -453003.0      -710166.0      -967482.0      -1224945.      -1482723.
      -1740621.      -1998584.      -2256568.      -2514487.      -2772576.
      -3030641.      -3288508.      -3546297.      -3803906.      -4061346.
      -4318698.      -4575732.      -4832343.      -5088740.      -5344801.
      -5600485.      -5855859.      -6110784.      -6365219.      -6619067.
      -6872456.      -7125452.      -7377972.      -7629950.      -7881210.
      -8131846.      -8381866.      -8631128.      -8879595.      -9127307.
      -9374333.      -9620637.      -9866214.  -1.011099e+07  -1.035490e+07
  -1.059798e+07  -1.084014e+07  -1.108142e+07  -1.132184e+07  -1.156141e+07
  -1.180003e+07  -1.203748e+07  -1.227395e+07  -1.250957e+07  -1.274413e+07
  -1.297757e+07  -1.320982e+07  -1.344092e+07  -1.367100e+07  -1.389999e+07
  -1.412774e+07  -1.435435e+07  -1.457976e+07  -1.480386e+07  -1.502681e+07
  -1.524855e+07  -1.546898e+07  -1.568820e+07  -1.590610e+07  -1.612260e+07
  -1.633777e+07  -1.655154e+07  -1.676385e+07  -1.697480e+07  -1.718438e+07
  -1.739255e+07  -1.759921e+07  -1.780431e+07  -1.800799e+07  -1.821018e+07
  -1.841087e+07  -1.861006e+07  -1.880774e+07  -1.900402e+07  -1.919887e+07
  -1.939216e+07  -1.958396e+07  -1.977422e+07  -1.996287e+07  -2.015004e+07
  -2.033561e+07  -2.051960e+07  -2.070208e+07  -2.088289e+07  -2.106213e+07
  -2.123992e+07  -2.141617e+07  -2.159082e+07  -2.176371e+07  -2.193493e+07
  -2.210466e+07  -2.227272e+07  -2.243904e+07  -2.260368e+07  -2.276660e+07
  -2.292784e+07  -2.308748e+07  -2.324546e+07  -2.340172e+07  -2.355617e+07
  -2.370885e+07  -2.385985e+07  -2.400906e+07  -2.415650e+07  -2.430235e+07
  -2.444647e+07  -2.458885e+07  -2.472951e+07  -2.486840e+07  -2.500571e+07
  -2.514132e+07  -2.527516e+07  -2.540742e+07  -2.553803e+07  -2.566709e+07
  -2.579448e+07  -2.592006e+07  -2.604406e+07  -2.616656e+07  -2.628749e+07
  -2.640676e+07  -2.652445e+07  -2.664066e+07  -2.675528e+07  -2.686837e+07
  -2.697977e+07  -2.708956e+07  -2.719786e+07  -2.730452e+07  -2.740979e+07
  -2.751355e+07  -2.761571e+07  -2.771638e+07  -2.781549e+07  -2.791324e+07
  -2.800954e+07  -2.810426e+07  -2.819758e+07  -2.828954e+07  -2.838014e+07
  -2.846938e+07  -2.855722e+07  -2.864368e+07  -2.872886e+07  -2.881286e+07
  -2.889567e+07  -2.897714e+07  -2.905736e+07  -2.913647e+07  -2.921435e+07
  -2.929107e+07  -2.936653e+07  -2.944072e+07  -2.951386e+07  -2.958585e+07
  -2.965661e+07  -2.972617e+07  -2.979451e+07  -2.986171e+07  -2.992789e+07
  -2.999291e+07  -3.005672e+07  -3.011942e+07  -3.018087e+07  -3.024126e+07
  -3.030071e+07  -3.035895e+07  -3.041606e+07  -3.047206e+07  -3.052695e+07
  -3.058084e+07  -3.063366e+07  -3.068538e+07  -3.073600e+07  -3.078553e+07
  -3.083397e+07  -3.088134e+07  -3.092767e+07  -3.097297e+07  -3.101715e+07
  -3.106026e+07  -3.110239e+07  -3.114350e+07  -3.118364e+07  -3.122280e+07
  -3.126090e+07  -3.129802e+07  -3.133416e+07  -3.136935e+07  -3.140370e+07
  -3.143716e+07  -3.146964e+07  -3.150116e+07  -3.153176e+07  -3.156144e+07
  -3.159036e+07  -3.161850e+07  -3.164572e+07  -3.167210e+07  -3.169779e+07
  -3.172266e+07  -3.174674e+07  -3.177010e+07  -3.179279e+07  -3.181478e+07
  -3.183594e+07  -3.185635e+07  -3.187602e+07  -3.189509e+07  -3.191354e+07
  -3.193112e+07  -3.194796e+07  -3.196412e+07  -3.197961e+07  -3.199446e+07
  -3.200852e+07  -3.202176e+07  -3.203431e+07  -3.204618e+07  -3.205725e+07
  -3.206749e+07  -3.207689e+07  -3.208547e+07  -3.209331e+07  -3.210038e+07
  -3.210647e+07  -3.211161e+07  -3.211593e+07  -3.211941e+07  -3.212206e+07
  -3.212369e+07  -3.212432e+07  -3.212402e+07  -3.212274e+07  -3.212052e+07
  -3.211727e+07  -3.211306e+07  -3.210777e+07  -3.210126e+07  -3.209379e+07
  -3.208526e+07  -3.207567e+07  -3.206499e+07  -3.205306e+07  -3.203995e+07
  -3.202579e+07  -3.201056e+07  -3.199411e+07  -3.197648e+07  -3.195774e+07
  -3.193802e+07  -3.191722e+07  -3.189521e+07  -3.187211e+07  -3.184776e+07
  -3.182238e+07  -3.179618e+07  -3.176876e+07  -3.174016e+07  -3.171057e+07
  -3.167995e+07  -3.164843e+07  -3.161570e+07  -3.158172e+07  -3.154676e+07
  -3.151063e+07  -3.147328e+07  -3.143466e+07  -3.139476e+07  -3.135366e+07
  -3.131137e+07  -3.126778e+07  -3.122282e+07  -3.117660e+07  -3.112889e+07
  -3.107970e+07  -3.102916e+07  -3.097727e+07  -3.092414e+07  -3.086951e+07
  -3.081329e+07  -3.075570e+07  -3.069668e+07  -3.063620e+07  -3.057425e+07
  -3.051083e+07  -3.044608e+07  -3.037989e+07  -3.031208e+07  -3.024282e+07
  -3.017217e+07  -3.009999e+07  -3.002632e+07  -2.995113e+07  -2.987433e+07
  -2.979592e+07  -2.971595e+07  -2.963448e+07  -2.955158e+07  -2.946701e+07
  -2.938066e+07  -2.929273e+07  -2.920330e+07  -2.911226e+07  -2.901947e+07
  -2.892506e+07  -2.882906e+07  -2.873135e+07  -2.863197e+07  -2.853091e+07
  -2.842816e+07  -2.832376e+07  -2.821771e+07  -2.811004e+07  -2.800075e+07
  -2.788974e+07  -2.777715e+07  -2.766313e+07  -2.754738e+07  -2.743000e+07
  -2.731112e+07  -2.719048e+07  -2.706839e+07  -2.694483e+07  -2.681956e+07
  -2.669272e+07  -2.656428e+07  -2.643420e+07  -2.630260e+07  -2.616942e+07
  -2.603461e+07  -2.589813e+07  -2.575998e+07  -2.562020e+07  -2.547884e+07
  -2.533579e+07  -2.519105e+07  -2.504474e+07  -2.489673e+07  -2.474703e+07
  -2.459567e+07  -2.444274e+07  -2.428825e+07  -2.413200e+07  -2.397414e+07
  -2.381483e+07  -2.365407e+07  -2.349179e+07  -2.332787e+07  -2.316230e+07
  -2.299520e+07  -2.282663e+07  -2.265664e+07  -2.248529e+07  -2.231234e+07
  -2.213778e+07  -2.196193e+07  -2.178468e+07  -2.160598e+07  -2.142577e+07
  -2.124405e+07  -2.106102e+07  -2.087662e+07  -2.069083e+07  -2.050362e+07
  -2.031489e+07  -2.012489e+07  -1.993365e+07  -1.974097e+07  -1.954689e+07
  -1.935137e+07  -1.915445e+07  -1.895632e+07  -1.875693e+07  -1.855630e+07
  -1.835442e+07  -1.815115e+07  -1.794666e+07  -1.774109e+07  -1.753436e+07
  -1.732632e+07  -1.711697e+07  -1.690648e+07  -1.669504e+07  -1.648257e+07
  -1.626891e+07  -1.605401e+07  -1.583805e+07  -1.562118e+07  -1.540333e+07
  -1.518431e+07  -1.496406e+07  -1.474282e+07  -1.452066e+07  -1.429762e+07
  -1.407358e+07  -1.384834e+07  -1.362223e+07  -1.339527e+07  -1.316741e+07
  -1.293882e+07  -1.270934e+07  -1.247897e+07  -1.224777e+07  -1.201574e+07
  -1.178295e+07  -1.154941e+07  -1.131506e+07  -1.107995e+07  -1.084418e+07
  -1.060774e+07  -1.037068e+07  -1.013290e+07      -9894455.      -9655537.
      -9416093.      -9176159.      -8935708.      -8694708.      -8453419.
      -8211694.      -7969501.      -7727018.      -7484134.      -7240928.
      -6997387.      -6753525.      -6509483.      -6265063.      -6020224.
      -5775108.      -5529735.      -5284060.      -5038166.      -4792084.
      -4545622.      -4298904.      -4051926.      -3804669.      -3557289.
      -3309574.      -3061601.      -2813462.      -2564951.      -2316153.
      -2067162.      -1817859.      -1568297.      -1318587.      -1068672.
      -818586.0      -568201.0      -317631.0      -66992.00       183892.0
       434804.0       685979.0       937455.0       1188821.       1440413.
       1692235.       1944095.       2196096.       2448144.       2700236.
       2952407.       3204631.       3456866.       3709159.       3961441.
       4213639.       4465904.       4718141.       4970417.       5222747.
       5474967.       5727255.       5979614.       6231954.       6484191.
       6736343.       6988562.       7240683.       7492634.       7744514.
       7996223.       8247706.       8499142.       8750462.       9001415.
       9252125.       9502536.       9752576.   1.000241e+07   1.025195e+07
   1.050130e+07   1.075030e+07   1.099880e+07   1.124706e+07   1.149489e+07
   1.174231e+07   1.198931e+07   1.223581e+07   1.248204e+07   1.272777e+07
   1.297292e+07   1.321764e+07   1.346195e+07   1.370588e+07   1.394935e+07
   1.419229e+07   1.443460e+07   1.467638e+07   1.491769e+07   1.515836e+07
   1.539851e+07   1.563799e+07   1.587676e+07   1.611486e+07   1.635231e+07
   1.658912e+07   1.682505e+07   1.706023e+07   1.729477e+07   1.752849e+07
   1.776143e+07   1.799365e+07   1.822502e+07   1.845537e+07   1.868478e+07
   1.891328e+07   1.914079e+07   1.936727e+07   1.959270e+07   1.981729e+07
   2.004085e+07   2.026309e+07   2.048429e+07   2.070432e+07   2.092324e+07
   2.114108e+07   2.135758e+07   2.157292e+07   2.178707e+07   2.200003e+07
   2.221183e+07   2.242227e+07   2.263154e+07   2.283968e+07   2.304651e+07
   2.325224e+07   2.345687e+07   2.366015e+07   2.386209e+07   2.406285e+07
   2.426237e+07   2.446054e+07   2.465734e+07   2.485284e+07   2.504704e+07
   2.523982e+07   2.543131e+07   2.562139e+07   2.580991e+07   2.599693e+07
   2.618249e+07   2.636667e+07   2.654934e+07   2.673038e+07   2.690986e+07
   2.708775e+07   2.726392e+07   2.743839e+07   2.761124e+07   2.778237e+07
   2.795171e+07   2.811940e+07   2.828524e+07   2.844919e+07   2.861141e+07
   2.877172e+07   2.893010e+07   2.908654e+07   2.924105e+07   2.939376e+07
   2.954441e+07   2.969289e+07   2.983948e+07   2.998408e+07   3.012668e+07
   3.026733e+07   3.040581e+07   3.054223e+07   3.067663e+07   3.080889e+07
   3.093896e+07   3.106681e+07   3.119259e+07   3.131641e+07   3.143800e+07
   3.155730e+07   3.167454e+07   3.178959e+07   3.190242e+07   3.201302e+07
   3.212144e+07   3.222780e+07   3.233178e+07   3.243344e+07   3.253304e+07
   3.263048e+07   3.272565e+07   3.281848e+07   3.290910e+07   3.299753e+07
   3.308358e+07   3.316726e+07   3.324873e+07   3.332791e+07   3.340484e+07
   3.347957e+07   3.355185e+07   3.362186e+07   3.368962e+07   3.375486e+07
   3.381775e+07   3.387846e+07   3.393689e+07   3.399290e+07   3.404661e+07
   3.409815e+07   3.414754e+07   3.419460e+07   3.423928e+07   3.428172e+07
   3.432197e+07   3.436005e+07   3.439590e+07   3.442947e+07   3.446098e+07
   3.449050e+07   3.451777e+07   3.454281e+07   3.456575e+07   3.458658e+07
   3.460530e+07   3.462191e+07   3.463648e+07   3.464900e+07   3.465935e+07
   3.466774e+07   3.467409e+07   3.467829e+07   3.468065e+07   3.468110e+07
   3.467949e+07   3.467582e+07   3.467017e+07   3.466272e+07   3.465330e+07
   3.464183e+07   3.462841e+07   3.461310e+07   3.459575e+07   3.457639e+07
   3.455508e+07   3.453180e+07   3.450667e+07   3.447952e+07   3.445035e+07
   3.441929e+07   3.438620e+07   3.435103e+07   3.431387e+07   3.427464e+07
   3.423333e+07   3.419018e+07   3.414494e+07   3.409760e+07   3.404826e+07
   3.399680e+07   3.394342e+07   3.388784e+07   3.383016e+07   3.377062e+07
   3.370902e+07   3.364537e+07   3.357953e+07   3.351158e+07   3.344171e+07
   3.336972e+07   3.329574e+07   3.321980e+07   3.314175e+07   3.306162e+07
   3.297964e+07   3.289574e+07   3.280986e+07   3.272210e+07   3.263242e+07
   3.254088e+07   3.244740e+07   3.235214e+07   3.225512e+07   3.215606e+07
   3.205524e+07   3.195274e+07   3.184835e+07   3.174203e+07   3.163384e+07
   3.152401e+07   3.141246e+07   3.129896e+07   3.118363e+07   3.106674e+07
   3.094820e+07   3.082784e+07   3.070573e+07   3.058187e+07   3.045636e+07
   3.032925e+07   3.020050e+07   3.007013e+07   2.993820e+07   2.980461e+07
   2.966942e+07   2.953266e+07   2.939432e+07   2.925451e+07   2.911299e+07
   2.896990e+07   2.882530e+07   2.867903e+07   2.853124e+07   2.838170e+07
   2.823056e+07   2.807800e+07   2.792383e+07   2.776804e+07   2.761055e+07
   2.745143e+07   2.729087e+07   2.712881e+07   2.696513e+07   2.679976e+07
   2.663296e+07   2.646473e+07   2.629490e+07   2.612336e+07   2.595021e+07
   2.577573e+07   2.559975e+07   2.542219e+07   2.524313e+07   2.506236e+07
   2.488012e+07   2.469638e+07   2.451098e+07   2.432422e+07   2.413610e+07
   2.394645e+07   2.375525e+07   2.356245e+07   2.336824e+07   2.317266e+07
   2.297556e+07   2.277697e+07   2.257709e+07   2.237599e+07   2.217359e+07
   2.196980e+07   2.176458e+07   2.155807e+07   2.135040e+07   2.114148e+07
   2.093125e+07   2.071976e+07   2.050714e+07   2.029349e+07   2.007859e+07
   1.986254e+07   1.964538e+07   1.942717e+07   1.920803e+07   1.898758e+07
   1.876594e+07   1.854347e+07   1.832005e+07   1.809554e+07   1.786985e+07
   1.764314e+07   1.741579e+07   1.718757e+07   1.695806e+07   1.672746e+07
   1.649608e+07   1.626399e+07   1.603090e+07   1.579655e+07   1.556135e+07
   1.532550e+07   1.508875e+07   1.485096e+07   1.461221e+07   1.437256e+07
   1.413208e+07   1.389079e+07   1.364845e+07   1.340526e+07   1.316117e+07
   1.291609e+07   1.267017e+07   1.242330e+07   1.217565e+07   1.192724e+07
   1.167794e+07   1.142766e+07   1.117641e+07   1.092454e+07   1.067204e+07
   1.041863e+07   1.016427e+07       9909200.       9653687.       9397620.
       9140706.       8883023.       8624914.       8366462.       8107469.
       7847855.       7587746.       7327308.       7066684.       6805668.
       6544351.       6282905.       6021198.       5759420.       5497494.
       5235350.       4973280.       4711344.       4449477.       4187770.
       3926285.       3665007.       3403985.       3143096.       2882486.
       2622436.       2362940.       2103894.       1845165.       1586911.
       1329421.       1072611.       816246.0       560578.0       305672.0
       51453.00      -202018.0      -454841.0      -706794.0      -957772.0
      -1207893.      -1457295.      -1705900.      -1953444.      -2199947.
      -2445508.      -2690069.      -2933493.      -3175939.      -3417380.
      -3657766.      -3897110.      -4135180.      -4372294.      -4608461.
      -4843298.      -5076872.      -5309299.      -5540654.      -5771033.
      -6000308.      -6228322.      -6455288.      -6681304.      -6906227.
      -7129966.      -7352578.      -7574190.      -7794854.      -8014341.
      -8232678.      -8450061.      -8666280.      -8881445.      -9095523.
      -9308568.      -9520725.      -9731726.      -9941644.  -1.015055e+07
  -1.035836e+07  -1.056512e+07  -1.077090e+07  -1.097563e+07  -1.117929e+07
  -1.138194e+07  -1.158360e+07  -1.178433e+07  -1.198396e+07  -1.218265e+07
  -1.238036e+07  -1.257687e+07  -1.277243e+07  -1.296708e+07  -1.316089e+07
  -1.335372e+07  -1.354544e+07  -1.373644e+07  -1.392649e+07  -1.411545e+07
  -1.430356e+07  -1.449087e+07  -1.467744e+07  -1.486307e+07  -1.504771e+07
  -1.523159e+07  -1.541470e+07  -1.559688e+07  -1.577806e+07  -1.595843e+07
  -1.613800e+07  -1.631666e+07  -1.649446e+07  -1.667124e+07  -1.684706e+07
  -1.702208e+07  -1.719622e+07  -1.736941e+07  -1.754163e+07  -1.771305e+07
  -1.788371e+07  -1.805318e+07  -1.822146e+07  -1.838897e+07  -1.855572e+07
  -1.872147e+07  -1.888593e+07  -1.904920e+07  -1.921161e+07  -1.937320e+07
  -1.953382e+07  -1.969314e+07  -1.985110e+07  -2.000798e+07  -2.016396e+07
  -2.031885e+07  -2.047238e+07  -2.062465e+07  -2.077567e+07  -2.092560e+07
  -2.107445e+07  -2.122200e+07  -2.136847e+07  -2.151367e+07  -2.165743e+07
  -2.180015e+07  -2.194171e+07  -2.208206e+07  -2.222122e+07  -2.235908e+07
  -2.249572e+07  -2.263125e+07  -2.276562e+07  -2.289876e+07  -2.303064e+07
  -2.316132e+07  -2.329085e+07  -2.341926e+07  -2.354637e+07  -2.367213e+07
  -2.379675e+07  -2.392037e+07  -2.404287e+07  -2.416395e+07  -2.428376e+07
  -2.440256e+07  -2.452024e+07  -2.463668e+07  -2.475174e+07  -2.486554e+07
  -2.497831e+07  -2.509006e+07  -2.520055e+07  -2.530971e+07  -2.541765e+07
  -2.552438e+07  -2.563005e+07  -2.573452e+07  -2.583768e+07  -2.593956e+07
  -2.604012e+07  -2.613966e+07  -2.623810e+07  -2.633520e+07  -2.643098e+07
  -2.652560e+07  -2.661920e+07  -2.671153e+07  -2.680248e+07  -2.689220e+07
