     0.02500000      -12345.00      -12345.00   3.262830e+10      -12345.00
   0.0005380000       1859.976      -323.0196      -12345.00      -12345.00
      -12345.00      -12345.00      -12345.00      -12345.00      -12345.00
      -12345.00      -12345.00      -12345.00      -12345.00      -12345.00
      -12345.00      -12345.00      -12345.00      -12345.00      -12345.00
      -12345.00      -12345.00      -12345.00      -12345.00      -12345.00
      -12345.00      -20.08820       146.2545       320.0000       37.00000
      -42.72450       173.0647      -12345.00       22.00000      -12345.00
      -12345.00      -12345.00      -12345.00      -12345.00      -12345.00
      -12345.00      -12345.00      -12345.00      -12345.00      -12345.00
       3546.971       306.6562       141.0269       31.90009      -12345.00
      -12345.00      -12345.00       0.000000       0.000000      -12345.00
      -12345.00      -12345.00      -12345.00      -12345.00      -12345.00
      -12345.00      -12345.00      -12345.00      -12345.00      -12345.00
      2016       318        11         8        22
        19         6    -12345    -12345     74400
    -12345    -12345    -12345    -12345    -12345
         1    -12345    -12345    -12345    -12345
    -12345    -12345    -12345    -12345    -12345
    -12345    -12345    -12345    -12345    -12345
    -12345    -12345    -12345    -12345    -12345
         1    -12345    -12345    -12345    -12345
CTAO    South Island, Ne
10      -12345  -12345  
-12345  -12345  -12345  
-12345  -12345  -12345  
-12345  -12345  -12345  
-12345  -12345  -12345  
-12345  -12345  BHZ     
IU      -12345  Streckei
[...]
   2.829339e+07   2.818961e+07   2.808479e+07   2.797888e+07   2.787196e+07
   2.776410e+07   2.765529e+07   2.754532e+07   2.743431e+07   2.732235e+07
   2.720924e+07   2.709499e+07   2.697986e+07   2.686371e+07   2.674639e+07
   2.662823e+07   2.650902e+07   2.638870e+07   2.626763e+07   2.614564e+07
   2.602262e+07   2.589862e+07   2.577363e+07   2.564773e+07   2.552089e+07
   2.539303e+07   2.526410e+07   2.513405e+07   2.500324e+07   2.487156e+07
   2.473858e+07   2.460456e+07   2.446973e+07   2.433393e+07   2.419713e+07
   2.405930e+07   2.392048e+07   2.378083e+07   2.364018e+07   2.349842e+07
   2.335573e+07   2.321212e+07   2.306767e+07   2.292228e+07   2.277589e+07
   2.262862e+07   2.248039e+07   2.233130e+07   2.218145e+07   2.203072e+07
   2.187908e+07   2.172670e+07   2.157351e+07   2.141938e+07   2.126449e+07
   2.110893e+07   2.095265e+07   2.079559e+07   2.063775e+07   2.047934e+07
   2.032006e+07   2.015994e+07   1.999932e+07   1.983794e+07   1.967578e+07
   1.951305e+07   1.934956e+07   1.918535e+07   1.902054e+07   1.885505e+07
   1.868898e+07   1.852220e+07   1.835476e+07   1.818685e+07   1.801824e+07
   1.784891e+07   1.767903e+07   1.750858e+07   1.733755e+07   1.716589e+07
   1.699359e+07   1.682066e+07   1.664698e+07   1.647274e+07   1.629798e+07
   1.612251e+07   1.594662e+07   1.577033e+07   1.559338e+07   1.541602e+07
   1.523829e+07   1.505988e+07   1.488091e+07   1.470168e+07   1.452218e+07
   1.434229e+07   1.416198e+07   1.398127e+07   1.380018e+07   1.361869e+07
   1.343686e+07   1.325457e+07   1.307180e+07   1.288882e+07   1.270552e+07
   1.252162e+07   1.233745e+07   1.215303e+07   1.196800e+07   1.178262e+07
   1.159693e+07   1.141084e+07   1.122438e+07   1.103734e+07   1.084988e+07
   1.066211e+07   1.047390e+07   1.028519e+07   1.009586e+07       9906101.
       9716043.       9525385.       9334084.       9142318.       8950086.
       8757349.       8564051.       8370075.       8175504.       7980438.
       7784888.       7588792.       7391939.       7194555.       6996836.
       6798402.       6599197.       6399520.       6199388.       5998621.
       5797134.       5594995.       5392249.       5188816.       4984769.
       4780161.       4574767.       4368670.       4162000.       3954558.
       3746439.       3537679.       3328126.       3117820.       2906767.
       2695071.       2482820.       2269860.       2056122.       1841649.
       1626532.       1410830.       1194477.       977379.0       759636.0
       541324.0       322190.0       102399.0      -117884.0      -339049.0
      -560986.0      -783580.0      -1006929.      -1230914.      -1455706.
      -1681232.      -1907434.      -2134466.      -2362032.      -2590182.
      -2819064.      -3048505.      -3278694.      -3509514.      -3740663.
      -3972425.      -4204762.      -4437458.      -4670701.      -4904400.
      -5138377.      -5372751.      -5607549.      -5842698.      -6078133.
      -6313854.      -6549879.      -6786177.      -7022726.      -7259471.
      -7496378.      -7733622.      -7971167.      -8208674.      -8446298.
      -8684202.      -8922207.      -9160418.      -9398785.      -9637124.
      -9875585.  -1.011426e+07  -1.035297e+07  -1.059153e+07  -1.083004e+07
  -1.106869e+07  -1.130712e+07  -1.154522e+07  -1.178340e+07  -1.202148e+07
  -1.225929e+07  -1.249689e+07  -1.273417e+07  -1.297135e+07  -1.320837e+07
  -1.344487e+07  -1.368100e+07  -1.391690e+07  -1.415244e+07  -1.438754e+07
  -1.462232e+07  -1.485650e+07  -1.508995e+07  -1.532314e+07  -1.555587e+07
  -1.578761e+07  -1.601876e+07  -1.624949e+07  -1.647938e+07  -1.670851e+07
  -1.693687e+07  -1.716422e+07  -1.739074e+07  -1.761649e+07  -1.784117e+07
  -1.806470e+07  -1.828726e+07  -1.850884e+07  -1.872925e+07  -1.894840e+07
  -1.916627e+07  -1.938297e+07  -1.959850e+07  -1.981268e+07  -2.002550e+07
  -2.023699e+07  -2.044739e+07  -2.065658e+07  -2.086424e+07  -2.107058e+07
  -2.127569e+07  -2.147952e+07  -2.168210e+07  -2.188328e+07  -2.208309e+07
  -2.228171e+07  -2.247902e+07  -2.267502e+07  -2.286963e+07  -2.306278e+07
  -2.325474e+07  -2.344538e+07  -2.363439e+07  -2.382200e+07  -2.400836e+07
  -2.419330e+07  -2.437687e+07  -2.455909e+07  -2.473979e+07  -2.491902e+07
  -2.509686e+07  -2.527320e+07  -2.544793e+07  -2.562122e+07  -2.579298e+07
  -2.596305e+07  -2.613166e+07  -2.629872e+07  -2.646414e+07  -2.662798e+07
  -2.679006e+07  -2.695049e+07  -2.710956e+07  -2.726703e+07  -2.742255e+07
  -2.757656e+07  -2.772932e+07  -2.788034e+07  -2.802957e+07  -2.817731e+07
  -2.832342e+07  -2.846778e+07  -2.861051e+07  -2.875165e+07  -2.889107e+07
  -2.902876e+07  -2.916484e+07  -2.929925e+07  -2.943189e+07  -2.956282e+07
  -2.969216e+07  -2.981999e+07  -2.994613e+07  -3.007034e+07  -3.019282e+07
  -3.031386e+07  -3.043320e+07  -3.055073e+07  -3.066675e+07  -3.078110e+07
  -3.089371e+07  -3.100472e+07  -3.111398e+07  -3.122160e+07  -3.132762e+07
  -3.143195e+07  -3.153448e+07  -3.163531e+07  -3.173468e+07  -3.183230e+07
  -3.192807e+07  -3.202236e+07  -3.211519e+07  -3.220633e+07  -3.229582e+07
  -3.238367e+07  -3.246978e+07  -3.255437e+07  -3.263750e+07  -3.271876e+07
  -3.279821e+07  -3.287624e+07  -3.295263e+07  -3.302723e+07  -3.310026e+07
  -3.317168e+07  -3.324134e+07  -3.330939e+07  -3.337580e+07  -3.344038e+07
  -3.350328e+07  -3.356480e+07  -3.362467e+07  -3.368265e+07  -3.373907e+07
  -3.379403e+07  -3.384732e+07  -3.389893e+07  -3.394905e+07  -3.399784e+07
  -3.404510e+07  -3.409066e+07  -3.413465e+07  -3.417708e+07  -3.421806e+07
  -3.425775e+07  -3.429585e+07  -3.433234e+07  -3.436759e+07  -3.440154e+07
  -3.443403e+07  -3.446497e+07  -3.449442e+07  -3.452277e+07  -3.454976e+07
  -3.457505e+07  -3.459895e+07  -3.462168e+07  -3.464295e+07  -3.466298e+07
  -3.468197e+07  -3.469952e+07  -3.471556e+07  -3.473033e+07  -3.474395e+07
  -3.475619e+07  -3.476694e+07  -3.477664e+07  -3.478500e+07  -3.479169e+07
  -3.479719e+07  -3.480133e+07  -3.480386e+07  -3.480518e+07  -3.480517e+07
  -3.480381e+07  -3.480110e+07  -3.479686e+07  -3.479134e+07  -3.478440e+07
  -3.477587e+07  -3.476598e+07  -3.475484e+07  -3.474225e+07  -3.472806e+07
  -3.471248e+07  -3.469558e+07  -3.467716e+07  -3.465706e+07  -3.463551e+07
  -3.461256e+07  -3.458796e+07  -3.456187e+07  -3.453445e+07  -3.450542e+07
  -3.447484e+07  -3.444308e+07  -3.440980e+07  -3.437474e+07  -3.433826e+07
  -3.430054e+07  -3.426136e+07  -3.422042e+07  -3.417791e+07  -3.413404e+07
  -3.408862e+07  -3.404166e+07  -3.399322e+07  -3.394323e+07  -3.389173e+07
  -3.383883e+07  -3.378450e+07  -3.372845e+07  -3.367073e+07  -3.361152e+07
  -3.355060e+07  -3.348815e+07  -3.342408e+07  -3.335822e+07  -3.329078e+07
  -3.322163e+07  -3.315070e+07  -3.307814e+07  -3.300383e+07  -3.292769e+07
  -3.284981e+07  -3.277020e+07  -3.268887e+07  -3.260581e+07  -3.252095e+07
  -3.243440e+07  -3.234599e+07  -3.225572e+07  -3.216395e+07  -3.207045e+07
  -3.197505e+07  -3.187799e+07  -3.177910e+07  -3.167829e+07  -3.157576e+07
  -3.147141e+07  -3.136512e+07  -3.125705e+07  -3.114706e+07  -3.103515e+07
  -3.092149e+07  -3.080604e+07  -3.068876e+07  -3.056954e+07  -3.044842e+07
  -3.032548e+07  -3.020065e+07  -3.007400e+07  -2.994556e+07  -2.981531e+07
  -2.968335e+07  -2.954948e+07  -2.941373e+07  -2.927634e+07  -2.913720e+07
  -2.899625e+07  -2.885356e+07  -2.870902e+07  -2.856267e+07  -2.841473e+07
  -2.826508e+07  -2.811347e+07  -2.796023e+07  -2.780553e+07  -2.764899e+07
  -2.749058e+07  -2.733065e+07  -2.716925e+07  -2.700621e+07  -2.684141e+07
  -2.667490e+07  -2.650683e+07  -2.633720e+07  -2.616595e+07  -2.599313e+07
  -2.581879e+07  -2.564293e+07  -2.546555e+07  -2.528680e+07  -2.510670e+07
  -2.492496e+07  -2.474157e+07  -2.455699e+07  -2.437125e+07  -2.418418e+07
  -2.399572e+07  -2.380570e+07  -2.361439e+07  -2.342201e+07  -2.322840e+07
  -2.303355e+07  -2.283744e+07  -2.264014e+07  -2.244170e+07  -2.224205e+07
  -2.204140e+07  -2.183986e+07  -2.163715e+07  -2.143318e+07  -2.122817e+07
  -2.102224e+07  -2.081531e+07  -2.060723e+07  -2.039817e+07  -2.018815e+07
  -1.997701e+07  -1.976487e+07  -1.955159e+07  -1.933730e+07  -1.912238e+07
  -1.890647e+07  -1.868949e+07  -1.847165e+07  -1.825294e+07  -1.803358e+07
  -1.781332e+07  -1.759214e+07  -1.737048e+07  -1.714809e+07  -1.692499e+07
  -1.670133e+07  -1.647686e+07  -1.625198e+07  -1.602683e+07  -1.580115e+07
  -1.557496e+07  -1.534828e+07  -1.512112e+07  -1.489363e+07  -1.466568e+07
  -1.443722e+07  -1.420830e+07  -1.397874e+07  -1.374874e+07  -1.351838e+07
  -1.328746e+07  -1.305619e+07  -1.282473e+07  -1.259254e+07  -1.235948e+07
  -1.212633e+07  -1.189320e+07  -1.165943e+07  -1.142487e+07  -1.118986e+07
  -1.095468e+07  -1.071928e+07  -1.048329e+07  -1.024673e+07  -1.000991e+07
      -9772711.      -9535034.      -9296844.      -9058213.      -8819252.
      -8579771.      -8339632.      -8098925.      -7857851.      -7616556.
      -7374830.      -7132265.      -6889103.      -6645943.      -6402559.
      -6158455.      -5913763.      -5668959.      -5424118.      -5178709.
      -4932600.      -4686322.      -4440175.      -4193851.      -3946922.
      -3699523.      -3452145.      -3204822.      -2957191.      -2709114.
      -2460821.      -2212508.      -1964038.      -1715221.      -1466182.
      -1217139.      -967901.0      -718167.0      -468153.0      -218283.0
       31613.00       281951.0       532629.0       783247.0       1033811.
       1284803.       1536068.       1787174.       2038495.       2290290.
       2542213.       2794065.       3046087.       3298501.       3551169.
       3803785.       4056323.       4309205.       4562428.       4815591.
       5068795.       5322168.       5575762.       5829537.       6083380.
       6337485.       6591655.       6845778.       7100149.       7354699.
       7609305.       7863859.       8118304.       8372910.       8627552.
       8881879.       9136299.       9390837.       9645045.       9899211.
   1.015333e+07   1.040717e+07   1.066090e+07   1.091457e+07   1.116800e+07
   1.142103e+07   1.167386e+07   1.192658e+07   1.217889e+07   1.243061e+07
   1.268189e+07   1.293290e+07   1.318354e+07   1.343360e+07   1.368306e+07
   1.393222e+07   1.418101e+07   1.442909e+07   1.467658e+07   1.492361e+07
   1.517024e+07   1.541631e+07   1.566161e+07   1.590629e+07   1.615056e+07
   1.639442e+07   1.663761e+07   1.688001e+07   1.712196e+07   1.736366e+07
   1.760486e+07   1.784537e+07   1.808533e+07   1.832486e+07   1.856414e+07
   1.880283e+07   1.904064e+07   1.927803e+07   1.951511e+07   1.975138e+07
   1.998692e+07   2.022202e+07   2.045643e+07   2.068995e+07   2.092280e+07
   2.115502e+07   2.138631e+07   2.161661e+07   2.184613e+07   2.207487e+07
   2.230259e+07   2.252928e+07   2.275505e+07   2.297989e+07   2.320361e+07
   2.342593e+07   2.364720e+07   2.386764e+07   2.408677e+07   2.430446e+07
   2.452106e+07   2.473666e+07   2.495085e+07   2.516355e+07   2.537510e+07
   2.558548e+07   2.579446e+07   2.600210e+07   2.620865e+07   2.641396e+07
   2.661767e+07   2.682006e+07   2.702134e+07   2.722123e+07   2.741951e+07
   2.761624e+07   2.781178e+07   2.800603e+07   2.819848e+07   2.838931e+07
   2.857890e+07   2.876701e+07   2.895315e+07   2.913746e+07   2.932034e+07
   2.950158e+07   2.968097e+07   2.985864e+07   3.003471e+07   3.020907e+07
   3.038160e+07   3.055230e+07   3.072108e+07   3.088818e+07   3.105368e+07
   3.121722e+07   3.137880e+07   3.153860e+07   3.169663e+07   3.185285e+07
   3.200716e+07   3.215960e+07   3.230996e+07   3.245820e+07   3.260461e+07
   3.274926e+07   3.289183e+07   3.303228e+07   3.317081e+07   3.330750e+07
   3.344223e+07   3.357480e+07   3.370544e+07   3.383424e+07   3.396086e+07
   3.408550e+07   3.420838e+07   3.432917e+07   3.444791e+07   3.456466e+07
   3.467937e+07   3.479210e+07   3.490283e+07   3.501170e+07   3.511868e+07
   3.522358e+07   3.532653e+07   3.542759e+07   3.552668e+07   3.562380e+07
   3.571896e+07   3.581223e+07   3.590350e+07   3.599264e+07   3.607995e+07
   3.616540e+07   3.624876e+07   3.633010e+07   3.640945e+07   3.648688e+07
   3.656242e+07   3.663596e+07   3.670761e+07   3.677721e+07   3.684474e+07
   3.691046e+07   3.697415e+07   3.703576e+07   3.709552e+07   3.715340e+07
   3.720945e+07   3.726370e+07   3.731608e+07   3.736664e+07   3.741538e+07
   3.746225e+07   3.750742e+07   3.755090e+07   3.759272e+07   3.763293e+07
   3.767140e+07   3.770816e+07   3.774331e+07   3.777682e+07   3.780871e+07
   3.783911e+07   3.786795e+07   3.789513e+07   3.792082e+07   3.794506e+07
   3.796763e+07   3.798887e+07   3.800874e+07   3.802670e+07   3.804320e+07
   3.805852e+07   3.807234e+07   3.808459e+07   3.809524e+07   3.810453e+07
   3.811244e+07   3.811864e+07   3.812327e+07   3.812649e+07   3.812834e+07
   3.812864e+07   3.812736e+07   3.812482e+07   3.812092e+07   3.811540e+07
   3.810842e+07   3.810016e+07   3.809054e+07   3.807944e+07   3.806700e+07
   3.805330e+07   3.803806e+07   3.802132e+07   3.800343e+07   3.798420e+07
   3.796348e+07   3.794150e+07   3.791829e+07   3.789375e+07   3.786778e+07
   3.784035e+07   3.781164e+07   3.778169e+07   3.775032e+07   3.771766e+07
   3.768380e+07   3.764854e+07   3.761201e+07   3.757422e+07   3.753507e+07
   3.749471e+07   3.745302e+07   3.740990e+07   3.736544e+07   3.731968e+07
   3.727273e+07   3.722455e+07   3.717491e+07   3.712388e+07   3.707157e+07
   3.701784e+07   3.696291e+07   3.690662e+07   3.684890e+07   3.679010e+07
   3.672970e+07   3.666778e+07   3.660464e+07   3.654003e+07   3.647395e+07
   3.640630e+07   3.633730e+07   3.626684e+07   3.619460e+07   3.612098e+07
   3.604590e+07   3.596911e+07   3.589079e+07   3.581110e+07   3.572988e+07
   3.564693e+07   3.556243e+07   3.547648e+07   3.538888e+07   3.529954e+07
   3.520854e+07   3.511598e+07   3.502167e+07   3.492562e+07   3.482806e+07
   3.472887e+07   3.462789e+07   3.452510e+07   3.442076e+07   3.431511e+07
   3.420768e+07   3.409843e+07   3.398781e+07   3.387546e+07   3.376146e+07
   3.364600e+07   3.352882e+07   3.341007e+07   3.328962e+07   3.316747e+07
   3.304393e+07   3.291872e+07   3.279166e+07   3.266314e+07   3.253297e+07
   3.240115e+07   3.226788e+07   3.213274e+07   3.199582e+07   3.185740e+07
   3.171735e+07   3.157553e+07   3.143207e+07   3.128712e+07   3.114042e+07
   3.099206e+07   3.084242e+07   3.069130e+07   3.053851e+07   3.038420e+07
   3.022852e+07   3.007147e+07   2.991314e+07   2.975324e+07   2.959183e+07
   2.942932e+07   2.926537e+07   2.909985e+07   2.893308e+07   2.876480e+07
   2.859494e+07   2.842386e+07   2.825143e+07   2.807754e+07   2.790243e+07
   2.772602e+07   2.754828e+07   2.736929e+07   2.718916e+07   2.700799e+07
   2.682561e+07   2.664209e+07   2.645763e+07   2.627207e+07   2.608553e+07
   2.589800e+07   2.570924e+07   2.551962e+07   2.532923e+07   2.513775e+07
   2.494537e+07   2.475218e+07   2.455797e+07   2.436304e+07   2.416746e+07
   2.397078e+07   2.377303e+07   2.357450e+07   2.337551e+07   2.317579e+07
   2.297473e+07   2.277288e+07   2.257073e+07   2.236779e+07   2.216392e+07
   2.195942e+07   2.175447e+07   2.154878e+07   2.134207e+07   2.113490e+07
   2.092738e+07   2.071890e+07   2.050950e+07   2.029971e+07   2.008962e+07
   1.987876e+07   1.966677e+07   1.945420e+07   1.924158e+07   1.902820e+07
   1.881358e+07   1.859857e+07   1.838332e+07   1.816722e+07   1.795024e+07
   1.773261e+07   1.751469e+07   1.729620e+07   1.707666e+07   1.685658e+07
   1.663642e+07   1.641576e+07   1.619413e+07   1.597190e+07   1.574976e+07
   1.552723e+07   1.530364e+07   1.507967e+07   1.485597e+07   1.463203e+07
   1.440730e+07   1.418210e+07   1.395710e+07   1.373192e+07   1.350585e+07
   1.327969e+07   1.305404e+07   1.282803e+07   1.260119e+07   1.237426e+07
   1.214786e+07   1.192132e+07   1.169402e+07   1.146654e+07   1.123947e+07
   1.101230e+07   1.078460e+07   1.055686e+07   1.032956e+07   1.010220e+07
       9874318.       9646712.       9419769.       9192557.       8964866.
       8737715.       8511297.       8284612.       8057525.       7831038.
       7605244.       7379239.       7153011.       6927423.       6702614.
       6477758.       6252599.       6028026.       5804460.       5581100.
       5357536.       5134571.       4912425.       4690332.       4468298.
       4246922.       4026137.       3805351.       3584637.       3364656.
       3145227.       2925777.       2706526.       2487945.       2269884.
       2051895.       1834089.       1616850.       1399989.       1183244.
       966733.0       750543.0       534745.0       319291.0       104177.0
      -110535.0      -325026.0      -539251.0      -753115.0      -966645.0
      -1179788.      -1392650.      -1605187.      -1817305.      -2029052.
      -2240522.      -2451917.      -2662863.      -2873105.      -3083074.
      -3292779.      -3502101.      -3711016.      -3919420.      -4127453.
      -4335130.      -4542374.      -4749217.      -4955673.      -5161734.
      -5367441.      -5572884.      -5777927.      -5982360.      -6186318.
      -6390030.      -6593258.      -6795785.      -6997983.      -7199903.
      -7401096.      -7601573.      -7801640.      -8001236.      -8200120.
      -8398391.      -8596299.      -8793603.      -8990189.      -9186328.
      -9381888.      -9576896.      -9771444.      -9965194.  -1.015832e+07
  -1.035092e+07  -1.054265e+07  -1.073386e+07  -1.092464e+07  -1.111440e+07
  -1.130335e+07  -1.149210e+07  -1.168024e+07  -1.186720e+07  -1.205345e+07
  -1.223946e+07  -1.242474e+07  -1.260898e+07  -1.279260e+07  -1.297597e+07
  -1.315864e+07  -1.334051e+07  -1.352186e+07  -1.370255e+07  -1.388264e+07
  -1.406235e+07  -1.424152e+07  -1.441986e+07  -1.459732e+07  -1.477429e+07
  -1.495094e+07  -1.512678e+07  -1.530182e+07  -1.547642e+07  -1.565043e+07
  -1.582345e+07  -1.599574e+07  -1.616777e+07  -1.633913e+07  -1.650941e+07
  -1.667909e+07  -1.684828e+07  -1.701653e+07  -1.718386e+07  -1.735087e+07
  -1.751731e+07  -1.768254e+07  -1.784702e+07  -1.801119e+07  -1.817475e+07
  -1.833738e+07  -1.849926e+07  -1.866077e+07  -1.882151e+07  -1.898108e+07
  -1.913999e+07  -1.929833e+07  -1.945581e+07  -1.961239e+07  -1.976826e+07
  -1.992368e+07  -2.007817e+07  -2.023161e+07  -2.038462e+07  -2.053715e+07
  -2.068866e+07  -2.083914e+07  -2.098923e+07  -2.113879e+07  -2.128706e+07
