     0.02500000      -12345.00      -12345.00   2.447790e+09      -12345.00
   0.0005380000       1859.976      -399.0196      -12345.00      -12345.00
      -12345.00      -12345.00      -12345.00      -12345.00      -12345.00
      -12345.00      -12345.00      -12345.00      -12345.00      -12345.00
      -12345.00      -12345.00      -12345.00      -12345.00      -12345.00
      -12345.00      -12345.00      -12345.00      -12345.00      -12345.00
      -12345.00      -66.27920       110.5354       5.000000       5.000000
      -42.72450       173.0647      -12345.00       22.00000      -12345.00
      -12345.00      -12345.00      -12345.00      -12345.00      -12345.00
      -12345.00      -12345.00      -12345.00      -12345.00      -12345.00
       4548.781       213.2367       86.72720       40.90998      -12345.00
      -12345.00      -12345.00       0.000000       0.000000      -12345.00
      -12345.00      -12345.00      -12345.00      -12345.00      -12345.00
      -12345.00      -12345.00      -12345.00      -12345.00      -12345.00
      2016       318        11         9        38
        19         6    -12345    -12345     74400
    -12345    -12345    -12345    -12345    -12345
         1    -12345    -12345    -12345    -12345
    -12345    -12345    -12345    -12345    -12345
    -12345    -12345    -12345    -12345    -12345
    -12345    -12345    -12345    -12345    -12345
         1    -12345    -12345    -12345    -12345
CASY    South Island, Ne
10      -12345  -12345  
-12345  -12345  -12345  
-12345  -12345  -12345  
-12345  -12345  -12345  
-12345  -12345  -12345  
-12345  -12345  BHZ     
IU      -12345  Streckei
[...]
      -1151169.      -1163595.      -1175931.      -1188185.      -1200353.
      -1212450.      -1224493.      -1236464.      -1248339.      -1260107.
      -1271797.      -1283414.      -1294920.      -1306336.      -1317687.
      -1328988.      -1340223.      -1351343.      -1362359.      -1373303.
      -1384137.      -1394811.      -1405399.      -1415948.      -1426404.
      -1436752.      -1446989.      -1457114.      -1467142.      -1477091.
      -1486948.      -1496728.      -1506408.      -1515956.      -1525426.
      -1534806.      -1544086.      -1553257.      -1562326.      -1571324.
      -1580214.      -1589028.      -1597759.      -1606387.      -1614927.
      -1623377.      -1631729.      -1639905.      -1647963.      -1655959.
      -1663847.      -1671627.      -1679295.      -1686887.      -1694370.
      -1701736.      -1709015.      -1716170.      -1723236.      -1730209.
      -1737040.      -1743773.      -1750413.      -1756943.      -1763353.
      -1769651.      -1775837.      -1781902.      -1787822.      -1793604.
      -1799292.      -1804820.      -1810231.      -1815573.      -1820728.
      -1825742.      -1830671.      -1835465.      -1840096.      -1844580.
      -1848950.      -1853211.      -1857366.      -1861367.      -1865219.
      -1868969.      -1872590.      -1876043.      -1879366.      -1882593.
      -1885650.      -1888552.      -1891343.      -1893989.      -1896529.
      -1898951.      -1901206.      -1903328.      -1905328.      -1907181.
      -1908922.      -1910537.      -1911979.      -1913312.      -1914547.
      -1915619.      -1916543.      -1917339.      -1917988.      -1918510.
      -1918889.      -1919129.      -1919272.      -1919297.      -1919205.
      -1919012.      -1918590.      -1917935.      -1917364.      -1916744.
      -1915711.      -1914526.      -1913360.      -1912056.      -1910649.
      -1909132.      -1907426.      -1905589.      -1903616.      -1901578.
      -1899491.      -1897149.      -1894637.      -1892090.      -1889405.
      -1886544.      -1883534.      -1880418.      -1877183.      -1873816.
      -1870338.      -1866672.      -1862875.      -1858970.      -1854927.
      -1850792.      -1846499.      -1842071.      -1837546.      -1832907.
      -1828153.      -1823282.      -1818288.      -1813116.      -1807849.
      -1802497.      -1796963.      -1791300.      -1785505.      -1779585.
      -1773581.      -1767422.      -1761112.      -1754660.      -1748083.
      -1741415.      -1734582.      -1727619.      -1720569.      -1713350.
      -1705986.      -1698505.      -1690891.      -1683144.      -1675259.
      -1667258.      -1659136.      -1650900.      -1642544.      -1634067.
      -1625508.      -1616790.      -1607918.      -1598970.      -1589898.
      -1580715.      -1571420.      -1561950.      -1552346.      -1542650.
      -1532843.      -1522907.      -1512824.      -1502627.      -1492355.
      -1481979.      -1471436.      -1460731.      -1449963.      -1439123.
      -1428133.      -1417041.      -1405858.      -1394559.      -1383156.
      -1371648.      -1360049.      -1348321.      -1336463.      -1324538.
      -1312511.      -1300372.      -1288165.      -1275850.      -1263421.
      -1250889.      -1238259.      -1225574.      -1212820.      -1199955.
      -1186974.      -1173894.      -1160738.      -1147508.      -1134196.
      -1120805.      -1107321.      -1093760.      -1080098.      -1066323.
      -1052485.      -1038578.      -1024570.      -1010455.      -996261.0
      -982018.0      -967727.0      -953366.0      -938912.0      -924366.0
      -909765.0      -895135.0      -880427.0      -865608.0      -850738.0
      -835847.0      -820877.0      -805852.0      -790786.0      -775624.0
      -760425.0      -745189.0      -729885.0      -714567.0      -699200.0
      -683753.0      -668247.0      -652723.0      -637162.0      -621486.0
      -605755.0      -590009.0      -574192.0      -558310.0      -542381.0
      -526375.0      -510318.0      -494269.0      -478147.0      -461975.0
      -445825.0      -429582.0      -413298.0      -397005.0      -380666.0
      -364320.0      -347908.0      -331475.0      -315014.0      -298477.0
      -281936.0      -265356.0      -248708.0      -232027.0      -215296.0
      -198521.0      -181730.0      -164884.0      -147981.0      -131048.0
      -114097.0      -97121.00      -80095.00      -63043.00      -45965.00
      -28860.00      -11716.00       5461.000       22637.00       39818.00
       56992.00       74194.00       91432.00       108683.0       125979.0
       143291.0       160593.0       177923.0       195263.0       212590.0
       229939.0       247279.0       264577.0       281879.0       299203.0
       316496.0       333772.0       351085.0       368383.0       385626.0
       402842.0       420058.0       437244.0       454377.0       471484.0
       488565.0       505650.0       522712.0       539735.0       556763.0
       573758.0       590715.0       607639.0       624494.0       641295.0
       658074.0       674828.0       691540.0       708185.0       724757.0
       741302.0       757810.0       774239.0       790604.0       806934.0
       823215.0       839423.0       855574.0       871673.0       887714.0
       903685.0       919614.0       935501.0       951318.0       967077.0
       982772.0       998379.0       1013898.       1029364.       1044769.
       1060098.       1075341.       1090496.       1105612.       1120655.
       1135618.       1150525.       1165339.       1180093.       1194800.
       1209388.       1223907.       1238378.       1252739.       1267051.
       1281291.       1295443.       1309530.       1323504.       1337401.
       1351216.       1364936.       1378588.       1392102.       1405555.
       1418956.       1432173.       1445331.       1458417.       1471415.
       1484417.       1497277.       1510023.       1522709.       1535368.
       1547880.       1560128.       1572486.       1584797.       1596790.
       1608743.       1620609.       1632335.       1643998.       1655502.
       1666957.       1678336.       1689410.       1700412.       1711473.
       1722367.       1733059.       1743605.       1754048.       1764367.
       1774540.       1784582.       1794463.       1804239.       1813925.
       1823492.       1832935.       1842255.       1851529.       1860642.
       1869555.       1878400.       1887108.       1895662.       1904078.
       1912352.       1920511.       1928519.       1936394.       1944121.
       1951698.       1959176.       1966514.       1973699.       1980747.
       1987657.       1994455.       2001134.       2007678.       2014070.
       2020296.       2026408.       2032427.       2038280.       2043954.
       2049496.       2054911.       2060176.       2065278.       2070247.
       2075071.       2079729.       2084231.       2088572.       2092769.
       2096858.       2100804.       2104558.       2108168.       2111641.
       2114970.       2118114.       2121091.       2123959.       2126629.
       2129150.       2131543.       2133742.       2135797.       2137674.
       2139387.       2140969.       2142395.       2143697.       2144838.
       2145778.       2146563.       2147198.       2147664.       2147955.
       2148078.       2148034.       2147824.       2147438.       2146864.
       2146157.       2145300.       2144248.       2143022.       2141622.
       2140061.       2138345.       2136485.       2134432.       2132183.
       2129754.       2127114.       2124354.       2121450.       2118343.
       2115060.       2111610.       2108033.       2104300.       2100411.
       2096387.       2092213.       2087870.       2083350.       2078692.
       2073874.       2068862.       2063709.       2058428.       2052947.
       2047311.       2041550.       2035626.       2029546.       2023279.
       2016887.       2010397.       2003718.       1996842.       1989840.
       1982728.       1975473.       1968077.       1960544.       1952853.
       1945005.       1937015.       1928862.       1920548.       1912119.
       1903552.       1894860.       1886080.       1877167.       1868098.
       1858873.       1849536.       1840105.       1830518.       1820777.
       1810871.       1800846.       1790722.       1780409.       1769980.
       1759462.       1748766.       1737894.       1726875.       1715720.
       1704436.       1693059.       1681561.       1669910.       1658124.
       1646193.       1634115.       1621925.       1609619.       1597161.
       1584550.       1571826.       1559003.       1546042.       1532941.
       1519733.       1506404.       1492901.       1479256.       1465525.
       1451668.       1437676.       1423559.       1409329.       1394956.
       1380437.       1365811.       1351034.       1336105.       1321076.
       1305963.       1290735.       1275399.       1259981.       1244480.
       1228891.       1213178.       1197366.       1181480.       1165501.
       1149403.       1133195.       1116891.       1100504.       1084022.
       1067433.       1050766.       1033969.       1017059.       1000075.
       982991.0       965842.0       948619.0       931295.0       913884.0
       896420.0       878899.0       861277.0       843563.0       825794.0
       807952.0       790050.0       772110.0       754085.0       735984.0
       717836.0       699643.0       681402.0       663107.0       644757.0
       626358.0       607926.0       589422.0       570831.0       552206.0
       533567.0       514885.0       496119.0       477300.0       458473.0
       439613.0       420721.0       401805.0       382816.0       363800.0
       344804.0       325762.0       306675.0       287594.0       268465.0
       249275.0       230058.0       210815.0       191546.0       172222.0
       152868.0       133478.0       114045.0       94609.00       75161.00
       55675.00       36135.00       16619.00      -2902.000      -22457.00
      -41993.00      -61581.00      -81203.00      -100821.0      -120441.0
      -140048.0      -159688.0      -179331.0      -198967.0      -218612.0
      -238220.0      -257833.0      -277456.0      -297038.0      -316567.0
      -336071.0      -355622.0      -375174.0      -394661.0      -414107.0
      -433506.0      -452884.0      -472262.0      -491581.0      -510786.0
      -529938.0      -549119.0      -568272.0      -587400.0      -606499.0
      -625468.0      -644390.0      -663306.0      -682149.0      -700960.0
      -719707.0      -738365.0      -756977.0      -775483.0      -793897.0
      -812357.0      -830815.0      -849172.0      -867459.0      -885648.0
      -903774.0      -921905.0      -939992.0      -957999.0      -975919.0
      -993763.0      -1011547.      -1029283.      -1046932.      -1064463.
      -1081940.      -1099336.      -1116626.      -1133849.      -1150955.
      -1167963.      -1184922.      -1201822.      -1218641.      -1235322.
      -1251861.      -1268284.      -1284629.      -1300923.      -1317143.
      -1333250.      -1349181.      -1364974.      -1380752.      -1396498.
      -1412142.      -1427643.      -1443019.      -1458319.      -1473529.
      -1488625.      -1503564.      -1518389.      -1533136.      -1547746.
      -1562217.      -1576534.      -1590719.      -1604817.      -1618812.
      -1632637.      -1646282.      -1659843.      -1673294.      -1686578.
      -1699749.      -1712825.      -1725774.      -1738577.      -1751250.
      -1763785.      -1776160.      -1788418.      -1800531.      -1812488.
      -1824340.      -1836006.      -1847527.      -1858906.      -1870109.
      -1881223.      -1892175.      -1902954.      -1913607.      -1924089.
      -1934412.      -1944625.      -1954693.      -1964571.      -1974313.
      -1983905.      -1993307.      -2002561.      -2011662.      -2020601.
      -2029417.      -2038072.      -2046507.      -2054795.      -2062969.
      -2070975.      -2078821.      -2086501.      -2093959.      -2101220.
      -2108359.      -2115373.      -2122232.      -2128926.      -2135451.
      -2141788.      -2147993.      -2154095.      -2159980.      -2165682.
      -2171274.      -2176697.      -2181894.      -2186876.      -2191691.
      -2196367.      -2200912.      -2205302.      -2209479.      -2213437.
      -2217264.      -2220975.      -2224564.      -2228005.      -2231200.
      -2234184.      -2237032.      -2239744.      -2242278.      -2244607.
      -2246745.      -2248687.      -2250491.      -2252175.      -2253653.
      -2254935.      -2256069.      -2257063.      -2257893.      -2258554.
      -2259027.      -2259307.      -2259457.      -2259445.      -2259238.
      -2258853.      -2258282.      -2257520.      -2256568.      -2255449.
      -2254169.      -2252717.      -2251100.      -2249302.      -2247308.
      -2245149.      -2242835.      -2240362.      -2237699.      -2234874.
      -2231946.      -2228835.      -2225512.      -2222049.      -2218458.
      -2214704.      -2210769.      -2206660.      -2202384.      -2197960.
      -2193386.      -2188642.      -2183748.      -2178708.      -2173502.
      -2168128.      -2162561.      -2156829.      -2150967.      -2144974.
      -2138806.      -2132457.      -2125960.      -2119299.      -2112510.
      -2105553.      -2098399.      -2091121.      -2083697.      -2076087.
      -2068325.      -2060439.      -2052403.      -2044208.      -2035853.
      -2027346.      -2018679.      -2009843.      -2000876.      -1991757.
      -1982483.      -1973046.      -1963408.      -1953620.      -1943672.
      -1933555.      -1923334.      -1912956.      -1902390.      -1891687.
      -1880816.      -1869806.      -1858671.      -1847381.      -1835974.
      -1824424.      -1812732.      -1800914.      -1788950.      -1776885.
      -1764699.      -1752331.      -1739853.      -1727278.      -1714531.
      -1701670.      -1688715.      -1675615.      -1662389.      -1649006.
      -1635442.      -1621778.      -1608041.      -1594182.      -1580177.
      -1566077.      -1551890.      -1537497.      -1522944.      -1508293.
      -1493487.      -1478626.      -1463670.      -1448562.      -1433355.
      -1417950.      -1402452.      -1386938.      -1371270.      -1355504.
      -1339604.      -1323536.      -1307413.      -1291190.      -1274836.
      -1258386.      -1241877.      -1225273.      -1208516.      -1191667.
      -1174739.      -1157703.      -1140578.      -1123370.      -1106042.
      -1088615.      -1071137.      -1053591.      -1035951.      -1018222.
      -1000443.      -982611.0      -964737.0      -946808.0      -928801.0
      -910756.0      -892658.0      -874473.0      -856244.0      -837986.0
      -819643.0      -801221.0      -782756.0      -764269.0      -745700.0
      -727036.0      -708393.0      -689686.0      -670855.0      -652038.0
      -633203.0      -614271.0      -595303.0      -576309.0      -557275.0
      -538233.0      -519114.0      -499895.0      -480665.0      -461455.0
      -442227.0      -422943.0      -403585.0      -384175.0      -364763.0
      -345301.0      -325802.0      -306366.0      -286870.0      -267291.0
      -247726.0      -228115.0      -208510.0      -188917.0      -169239.0
      -149529.0      -129812.0      -110068.0      -90315.00      -70492.00
      -50618.00      -30784.00      -10923.00       8951.000       28823.00
       48735.00       68639.00       88523.00       108371.0       128235.0
       148127.0       168006.0       187882.0       207703.0       227498.0
       247324.0       267173.0       286984.0       306693.0       326387.0
       346108.0       365769.0       385416.0       405077.0       424663.0
       444198.0       463663.0       483046.0       502451.0       521844.0
       541183.0       560476.0       579709.0       598906.0       618017.0
       637049.0       656124.0       675230.0       694247.0       713118.0
       731925.0       750740.0       769513.0       788213.0       806820.0
       825328.0       843785.0       862150.0       880422.0       898629.0
       916757.0       934808.0       952749.0       970603.0       988395.0
       1006120.       1023757.       1041261.       1058695.       1076083.
       1093433.       1110724.       1127855.       1144859.       1161814.
       1178722.       1195541.       1212250.       1228873.       1245396.
       1261788.       1278061.       1294264.       1310381.       1326398.
       1342336.       1358134.       1373790.       1389367.       1404861.
       1420283.       1435622.       1450802.       1465898.       1480900.
       1495738.       1510496.       1525147.       1539693.       1554137.
       1568411.       1582555.       1596654.       1610676.       1624495.
       1638186.       1651801.       1665280.       1678639.       1691834.
       1704914.       1717949.       1730876.       1743607.       1756188.
       1768716.       1781048.       1793201.       1805308.       1817217.
       1828932.       1840557.       1852014.       1863264.       1874381.
       1885356.       1896156.       1906832.       1917367.       1927719.
       1937911.       1947961.       1957889.       1967730.       1977451.
       1986959.       1996261.       2005447.       2014530.       2023492.
       2032333.       2040937.       2049285.       2057501.       2065589.
       2073530.       2081315.       2088926.       2096352.       2103609.
       2110728.       2117682.       2124505.       2131194.       2137717.
       2144043.       2150148.       2156101.       2161880.       2167467.
       2172862.       2178041.       2183067.       2187918.       2192564.
       2197054.       2201372.       2205495.       2209421.       2213167.
       2216735.       2220137.       2223410.       2226473.       2229322.
       2232032.       2234544.       2236842.       2239007.       2241021.
       2242823.       2244423.       2245840.       2247089.       2248171.
       2249078.       2249802.       2250370.       2250763.       2250950.
       2250974.       2250817.       2250486.       2250013.       2249347.
