     0.02500000      -12345.00      -12345.00   3.262830e+10      -12345.00
   0.0005380000       1859.976      -323.0196      -12345.00      -12345.00
      -12345.00      -12345.00      -12345.00      -12345.00      -12345.00
      -12345.00      -12345.00      -12345.00      -12345.00      -12345.00
      -12345.00      -12345.00      -12345.00      -12345.00      -12345.00
      -12345.00      -12345.00      -12345.00      -12345.00      -12345.00
      -12345.00      -20.08820       146.2545       320.0000       37.00000
      -42.72450       173.0647      -12345.00       22.00000      -12345.00
      -12345.00      -12345.00      -12345.00      -12345.00      -12345.00
      -12345.00      -12345.00      -12345.00      -12345.00      -12345.00
       3546.971       306.6562       141.0269       31.90009      -12345.00
      -12345.00      -12345.00       0.000000       90.00000      -12345.00
      -12345.00      -12345.00      -12345.00      -12345.00      -12345.00
      -12345.00      -12345.00      -12345.00      -12345.00      -12345.00
      2016       318        11         8        22
        19         6    -12345    -12345     74400
    -12345    -12345    -12345    -12345    -12345
         1    -12345    -12345    -12345    -12345
    -12345    -12345    -12345    -12345    -12345
    -12345    -12345    -12345    -12345    -12345
    -12345    -12345    -12345    -12345    -12345
         1    -12345    -12345    -12345    -12345
CTAO    South Island, Ne
10      -12345  -12345  
-12345  -12345  -12345  
-12345  -12345  -12345  
-12345  -12345  -12345  
-12345  -12345  -12345  
-12345  -12345  BH1     
IU      -12345  Streckei
[...]
   3.079810e+07   3.082022e+07   3.084017e+07   3.085849e+07   3.087500e+07
   3.088931e+07   3.090161e+07   3.091228e+07   3.092120e+07   3.092796e+07
   3.093273e+07   3.093589e+07   3.093729e+07   3.093669e+07   3.093430e+07
   3.093019e+07   3.092423e+07   3.091639e+07   3.090671e+07   3.089536e+07
   3.088245e+07   3.086785e+07   3.085152e+07   3.083347e+07   3.081368e+07
   3.079232e+07   3.076944e+07   3.074489e+07   3.071862e+07   3.069074e+07
   3.066130e+07   3.063024e+07   3.059743e+07   3.056290e+07   3.052686e+07
   3.048934e+07   3.045023e+07   3.040932e+07   3.036677e+07   3.032274e+07
   3.027703e+07   3.022966e+07   3.018056e+07   3.012974e+07   3.007738e+07
   3.002343e+07   2.996780e+07   2.991067e+07   2.985215e+07   2.979198e+07
   2.973026e+07   2.966721e+07   2.960267e+07   2.953662e+07   2.946914e+07
   2.940029e+07   2.932996e+07   2.925811e+07   2.918493e+07   2.911033e+07
   2.903422e+07   2.895667e+07   2.887764e+07   2.879711e+07   2.871510e+07
   2.863160e+07   2.854656e+07   2.845996e+07   2.837182e+07   2.828212e+07
   2.819093e+07   2.809814e+07   2.800373e+07   2.790769e+07   2.780996e+07
   2.771064e+07   2.760962e+07   2.750690e+07   2.740261e+07   2.729664e+07
   2.718881e+07   2.707916e+07   2.696784e+07   2.685480e+07   2.674019e+07
   2.662395e+07   2.650585e+07   2.638605e+07   2.626464e+07   2.614146e+07
   2.601655e+07   2.588992e+07   2.576169e+07   2.563178e+07   2.549997e+07
   2.536647e+07   2.523120e+07   2.509416e+07   2.495566e+07   2.481551e+07
   2.467348e+07   2.452958e+07   2.438393e+07   2.423673e+07   2.408769e+07
   2.393675e+07   2.378421e+07   2.362997e+07   2.347400e+07   2.331619e+07
   2.315658e+07   2.299553e+07   2.283281e+07   2.266830e+07   2.250222e+07
   2.233456e+07   2.216524e+07   2.199417e+07   2.182164e+07   2.164770e+07
   2.147207e+07   2.129483e+07   2.111617e+07   2.093599e+07   2.075422e+07
   2.057104e+07   2.038661e+07   2.020087e+07   2.001344e+07   1.982452e+07
   1.963451e+07   1.944299e+07   1.924990e+07   1.905560e+07   1.886013e+07
   1.866332e+07   1.846495e+07   1.826522e+07   1.806426e+07   1.786194e+07
   1.765832e+07   1.745353e+07   1.724763e+07   1.704051e+07   1.683193e+07
   1.662213e+07   1.641136e+07   1.619932e+07   1.598591e+07   1.577149e+07
   1.555604e+07   1.533924e+07   1.512120e+07   1.490217e+07   1.468194e+07
   1.446046e+07   1.423786e+07   1.401403e+07   1.378910e+07   1.356308e+07
   1.333586e+07   1.310761e+07   1.287814e+07   1.264751e+07   1.241591e+07
   1.218323e+07   1.194965e+07   1.171505e+07   1.147930e+07   1.124254e+07
   1.100489e+07   1.076645e+07   1.052703e+07   1.028662e+07   1.004531e+07
       9803073.       9560048.       9316256.       9071681.       8826240.
       8580050.       8333344.       8085956.       7837794.       7589072.
       7340038.       7090543.       6840431.       6590114.       6339566.
       6088476.       5837100.       5585552.       5333745.       5081592.
       4829059.       4576341.       4323437.       4070268.       3816859.
       3563253.       3309501.       3055457.       2801226.       2547201.
       2293061.       2038595.       1784122.       1529712.       1275291.
       1020808.       766457.0       512234.0       258093.0       4107.000
      -249846.0      -503567.0      -756953.0      -1010144.      -1263164.
      -1515865.      -1768137.      -2020223.      -2271940.      -2523037.
      -2773877.      -3024418.      -3274252.      -3523542.      -3772510.
      -4020931.      -4268712.      -4515915.      -4762582.      -5008697.
      -5254132.      -5498875.      -5742936.      -5986335.      -6229117.
      -6471118.      -6712388.      -6953085.      -7192901.      -7431851.
      -7670181.      -7907811.      -8144629.      -8380705.      -8616106.
      -8850564.      -9084291.      -9317452.      -9549708.      -9781217.
  -1.001203e+07  -1.024207e+07  -1.047129e+07  -1.069953e+07  -1.092701e+07
  -1.115381e+07  -1.137978e+07  -1.160467e+07  -1.182840e+07  -1.205154e+07
  -1.227401e+07  -1.249529e+07  -1.271553e+07  -1.293501e+07  -1.315370e+07
  -1.337128e+07  -1.358761e+07  -1.380314e+07  -1.401791e+07  -1.423145e+07
  -1.444385e+07  -1.465532e+07  -1.486581e+07  -1.507521e+07  -1.528337e+07
  -1.549036e+07  -1.569646e+07  -1.590153e+07  -1.610528e+07  -1.630790e+07
  -1.650951e+07  -1.670994e+07  -1.690909e+07  -1.710716e+07  -1.730448e+07
  -1.750064e+07  -1.769518e+07  -1.788852e+07  -1.808123e+07  -1.827287e+07
  -1.846290e+07  -1.865177e+07  -1.883986e+07  -1.902684e+07  -1.921244e+07
  -1.939694e+07  -1.958058e+07  -1.976291e+07  -1.994372e+07  -2.012364e+07
  -2.030289e+07  -2.048073e+07  -2.065696e+07  -2.083238e+07  -2.100710e+07
  -2.118034e+07  -2.135207e+07  -2.152296e+07  -2.169312e+07  -2.186184e+07
  -2.202904e+07  -2.219541e+07  -2.236097e+07  -2.252506e+07  -2.268766e+07
  -2.284937e+07  -2.301010e+07  -2.316939e+07  -2.332725e+07  -2.348422e+07
  -2.364035e+07  -2.379497e+07  -2.394808e+07  -2.410022e+07  -2.425143e+07
  -2.440127e+07  -2.454969e+07  -2.469711e+07  -2.484358e+07  -2.498874e+07
  -2.513255e+07  -2.527535e+07  -2.541710e+07  -2.555764e+07  -2.569694e+07
  -2.583507e+07  -2.597217e+07  -2.610807e+07  -2.624265e+07  -2.637616e+07
  -2.650864e+07  -2.663980e+07  -2.676970e+07  -2.689868e+07  -2.702657e+07
  -2.715301e+07  -2.727817e+07  -2.740236e+07  -2.752550e+07  -2.764734e+07
  -2.776802e+07  -2.788757e+07  -2.800582e+07  -2.812288e+07  -2.823889e+07
  -2.835380e+07  -2.846749e+07  -2.857992e+07  -2.869115e+07  -2.880146e+07
  -2.891065e+07  -2.901836e+07  -2.912482e+07  -2.923027e+07  -2.933473e+07
  -2.943794e+07  -2.953991e+07  -2.964079e+07  -2.974044e+07  -2.983893e+07
  -2.993627e+07  -3.003243e+07  -3.012756e+07  -3.022152e+07  -3.031422e+07
  -3.040580e+07  -3.049635e+07  -3.058573e+07  -3.067388e+07  -3.076106e+07
  -3.084718e+07  -3.093205e+07  -3.101568e+07  -3.109822e+07  -3.117978e+07
  -3.126021e+07  -3.133936e+07  -3.141727e+07  -3.149397e+07  -3.156961e+07
  -3.164408e+07  -3.171726e+07  -3.178932e+07  -3.186018e+07  -3.192975e+07
  -3.199817e+07  -3.206539e+07  -3.213136e+07  -3.219627e+07  -3.225996e+07
  -3.232223e+07  -3.238324e+07  -3.244306e+07  -3.250163e+07  -3.255887e+07
  -3.261480e+07  -3.266948e+07  -3.272275e+07  -3.277469e+07  -3.282532e+07
  -3.287454e+07  -3.292239e+07  -3.296885e+07  -3.301402e+07  -3.305790e+07
  -3.310019e+07  -3.314106e+07  -3.318070e+07  -3.321877e+07  -3.325528e+07
  -3.329061e+07  -3.332449e+07  -3.335657e+07  -3.338722e+07  -3.341662e+07
  -3.344431e+07  -3.347018e+07  -3.349467e+07  -3.351780e+07  -3.353927e+07
  -3.355909e+07  -3.357746e+07  -3.359413e+07  -3.360896e+07  -3.362249e+07
  -3.363468e+07  -3.364502e+07  -3.365346e+07  -3.366031e+07  -3.366578e+07
  -3.366946e+07  -3.367125e+07  -3.367144e+07  -3.366995e+07  -3.366672e+07
  -3.366170e+07  -3.365497e+07  -3.364646e+07  -3.363595e+07  -3.362370e+07
  -3.360985e+07  -3.359411e+07  -3.357628e+07  -3.355650e+07  -3.353494e+07
  -3.351150e+07  -3.348598e+07  -3.345843e+07  -3.342896e+07  -3.339760e+07
  -3.336435e+07  -3.332903e+07  -3.329158e+07  -3.325227e+07  -3.321133e+07
  -3.316847e+07  -3.312340e+07  -3.307647e+07  -3.302773e+07  -3.297701e+07
  -3.292423e+07  -3.286954e+07  -3.281298e+07  -3.275436e+07  -3.269378e+07
  -3.263133e+07  -3.256687e+07  -3.250035e+07  -3.243192e+07  -3.236151e+07
  -3.228916e+07  -3.221503e+07  -3.213901e+07  -3.206099e+07  -3.198107e+07
  -3.189942e+07  -3.181600e+07  -3.173069e+07  -3.164350e+07  -3.155453e+07
  -3.146373e+07  -3.137116e+07  -3.127686e+07  -3.118066e+07  -3.108268e+07
  -3.098302e+07  -3.088149e+07  -3.077821e+07  -3.067317e+07  -3.056646e+07
  -3.045815e+07  -3.034793e+07  -3.023590e+07  -3.012206e+07  -3.000632e+07
  -2.988883e+07  -2.976951e+07  -2.964830e+07  -2.952514e+07  -2.940013e+07
  -2.927329e+07  -2.914440e+07  -2.901352e+07  -2.888083e+07  -2.874633e+07
  -2.860981e+07  -2.847124e+07  -2.833077e+07  -2.818834e+07  -2.804378e+07
  -2.789723e+07  -2.774884e+07  -2.759847e+07  -2.744598e+07  -2.729148e+07
  -2.713504e+07  -2.697656e+07  -2.681609e+07  -2.665359e+07  -2.648895e+07
  -2.632239e+07  -2.615399e+07  -2.598358e+07  -2.581104e+07  -2.563659e+07
  -2.546025e+07  -2.528192e+07  -2.510174e+07  -2.491977e+07  -2.473573e+07
  -2.454975e+07  -2.436217e+07  -2.417266e+07  -2.398106e+07  -2.378786e+07
  -2.359312e+07  -2.339643e+07  -2.319794e+07  -2.299810e+07  -2.279662e+07
  -2.259331e+07  -2.238851e+07  -2.218219e+07  -2.197418e+07  -2.176471e+07
  -2.155380e+07  -2.134138e+07  -2.112758e+07  -2.091233e+07  -2.069551e+07
  -2.047726e+07  -2.025770e+07  -2.003657e+07  -1.981400e+07  -1.959030e+07
  -1.936513e+07  -1.913847e+07  -1.891061e+07  -1.868142e+07  -1.845090e+07
  -1.821920e+07  -1.798636e+07  -1.775224e+07  -1.751690e+07  -1.728054e+07
  -1.704305e+07  -1.680436e+07  -1.656463e+07  -1.632388e+07  -1.608210e+07
  -1.583928e+07  -1.559542e+07  -1.535045e+07  -1.510451e+07  -1.485777e+07
  -1.461002e+07  -1.436114e+07  -1.411115e+07  -1.386016e+07  -1.360828e+07
  -1.335531e+07  -1.310138e+07  -1.284662e+07  -1.259088e+07  -1.233416e+07
  -1.207662e+07  -1.181852e+07  -1.155971e+07  -1.129992e+07  -1.103948e+07
  -1.077850e+07  -1.051691e+07  -1.025474e+07      -9992001.      -9728736.
      -9464951.      -9200627.      -8935958.      -8671044.      -8405606.
      -8139828.      -7873953.      -7607815.      -7341242.      -7074336.
      -6807528.      -6540652.      -6273457.      -6006267.      -5739125.
      -5471925.      -5204833.      -4937967.      -4671199.      -4404474.
      -4137992.      -3871704.      -3605575.      -3339893.      -3074472.
      -2809213.      -2544352.      -2279917.      -2015789.      -1751849.
      -1488419.      -1225484.      -962712.0      -700358.0      -438591.0
      -177207.0       83734.00       344102.0       604058.0       863549.0
       1122551.       1381015.       1638795.       1896085.       2152955.
       2409268.       2665037.       2920324.       3174984.       3429088.
       3682722.       3935877.       4188579.       4440601.       4692095.
       4943178.       5193682.       5443823.       5693476.       5942407.
       6190992.       6439246.       6686828.       6933922.       7180668.
       7426883.       7672542.       7917763.       8162451.       8406519.
       8650152.       8893425.       9136262.       9378567.       9620355.
       9861802.   1.010289e+07   1.034350e+07   1.058376e+07   1.082351e+07
   1.106266e+07   1.130160e+07   1.154024e+07   1.177840e+07   1.201600e+07
   1.225299e+07   1.248959e+07   1.272579e+07   1.296155e+07   1.319675e+07
   1.343140e+07   1.366564e+07   1.389945e+07   1.413294e+07   1.436590e+07
   1.459820e+07   1.483011e+07   1.506163e+07   1.529272e+07   1.552337e+07
   1.575344e+07   1.598314e+07   1.621245e+07   1.644113e+07   1.666936e+07
   1.689734e+07   1.712476e+07   1.735149e+07   1.757762e+07   1.780325e+07
   1.802842e+07   1.825288e+07   1.847682e+07   1.870039e+07   1.892308e+07
   1.914512e+07   1.936682e+07   1.958786e+07   1.980806e+07   2.002765e+07
   2.024676e+07   2.046500e+07   2.068243e+07   2.089934e+07   2.111545e+07
   2.133070e+07   2.154522e+07   2.175900e+07   2.197182e+07   2.218363e+07
   2.239466e+07   2.260475e+07   2.281367e+07   2.302170e+07   2.322872e+07
   2.343456e+07   2.363937e+07   2.384302e+07   2.404552e+07   2.424705e+07
   2.444735e+07   2.464630e+07   2.484406e+07   2.504066e+07   2.523598e+07
   2.542994e+07   2.562265e+07   2.581405e+07   2.600398e+07   2.619248e+07
   2.637974e+07   2.656570e+07   2.675011e+07   2.693297e+07   2.711453e+07
   2.729462e+07   2.747285e+07   2.764954e+07   2.782499e+07   2.799873e+07
   2.817062e+07   2.834084e+07   2.850951e+07   2.867634e+07   2.884121e+07
   2.900440e+07   2.916588e+07   2.932539e+07   2.948299e+07   2.963887e+07
   2.979278e+07   2.994465e+07   3.009467e+07   3.024267e+07   3.038842e+07
   3.053206e+07   3.067387e+07   3.081364e+07   3.095091e+07   3.108587e+07
   3.121890e+07   3.134972e+07   3.147802e+07   3.160383e+07   3.172746e+07
   3.184891e+07   3.196781e+07   3.208435e+07   3.219873e+07   3.231066e+07
   3.241996e+07   3.252667e+07   3.263116e+07   3.273326e+07   3.283253e+07
   3.292932e+07   3.302402e+07   3.311631e+07   3.320583e+07   3.329288e+07
   3.337764e+07   3.345979e+07   3.353925e+07   3.361628e+07   3.369096e+07
   3.376305e+07   3.383253e+07   3.389944e+07   3.396375e+07   3.402567e+07
   3.408516e+07   3.414195e+07   3.419604e+07   3.424769e+07   3.429697e+07
   3.434366e+07   3.438765e+07   3.442908e+07   3.446810e+07   3.450464e+07
   3.453854e+07   3.456994e+07   3.459891e+07   3.462526e+07   3.464914e+07
   3.467068e+07   3.468964e+07   3.470612e+07   3.472044e+07   3.473239e+07
   3.474175e+07   3.474853e+07   3.475300e+07   3.475526e+07   3.475508e+07
   3.475256e+07   3.474769e+07   3.474031e+07   3.473071e+07   3.471894e+07
   3.470496e+07   3.468865e+07   3.467000e+07   3.464915e+07   3.462613e+07
   3.460107e+07   3.457390e+07   3.454453e+07   3.451320e+07   3.447989e+07
   3.444460e+07   3.440738e+07   3.436824e+07   3.432724e+07   3.428444e+07
   3.423988e+07   3.419350e+07   3.414546e+07   3.409586e+07   3.404458e+07
   3.399147e+07   3.393675e+07   3.388070e+07   3.382308e+07   3.376368e+07
   3.370278e+07   3.364052e+07   3.357659e+07   3.351099e+07   3.344398e+07
   3.337557e+07   3.330577e+07   3.323457e+07   3.316191e+07   3.308761e+07
   3.301196e+07   3.293513e+07   3.285661e+07   3.277647e+07   3.269519e+07
   3.261260e+07   3.252842e+07   3.244300e+07   3.235642e+07   3.226824e+07
   3.217864e+07   3.208797e+07   3.199592e+07   3.190238e+07   3.180758e+07
   3.171165e+07   3.161432e+07   3.151544e+07   3.141537e+07   3.131411e+07
   3.121136e+07   3.110722e+07   3.100183e+07   3.089526e+07   3.078749e+07
   3.067845e+07   3.056819e+07   3.045681e+07   3.034420e+07   3.023039e+07
   3.011542e+07   2.999925e+07   2.988200e+07   2.976351e+07   2.964382e+07
   2.952311e+07   2.940116e+07   2.927797e+07   2.915364e+07   2.902826e+07
   2.890184e+07   2.877415e+07   2.864535e+07   2.851535e+07   2.838407e+07
   2.825181e+07   2.811844e+07   2.798372e+07   2.784785e+07   2.771104e+07
   2.757304e+07   2.743366e+07   2.729304e+07   2.715122e+07   2.700836e+07
   2.686445e+07   2.671904e+07   2.657225e+07   2.642464e+07   2.627581e+07
   2.612541e+07   2.597398e+07   2.582148e+07   2.566759e+07   2.551256e+07
   2.535656e+07   2.519926e+07   2.504058e+07   2.488087e+07   2.472021e+07
   2.455825e+07   2.439516e+07   2.423122e+07   2.406609e+07   2.389972e+07
   2.373248e+07   2.356421e+07   2.339473e+07   2.322424e+07   2.305292e+07
   2.288060e+07   2.270722e+07   2.253298e+07   2.235782e+07   2.218167e+07
   2.200463e+07   2.182688e+07   2.164843e+07   2.146900e+07   2.128868e+07
   2.110781e+07   2.092618e+07   2.074351e+07   2.056017e+07   2.037626e+07
   2.019162e+07   2.000616e+07   1.982002e+07   1.963328e+07   1.944563e+07
   1.925713e+07   1.906810e+07   1.887837e+07   1.868765e+07   1.849617e+07
   1.830422e+07   1.811150e+07   1.791798e+07   1.772378e+07   1.752862e+07
   1.733282e+07   1.713671e+07   1.693986e+07   1.674212e+07   1.654393e+07
   1.634526e+07   1.614576e+07   1.594562e+07   1.574493e+07   1.554374e+07
   1.534196e+07   1.513935e+07   1.493622e+07   1.473257e+07   1.452829e+07
   1.432351e+07   1.411811e+07   1.391210e+07   1.370546e+07   1.349821e+07
   1.329061e+07   1.308259e+07   1.287380e+07   1.266422e+07   1.245421e+07
   1.224380e+07   1.203287e+07   1.182142e+07   1.160931e+07   1.139667e+07
   1.118373e+07   1.097032e+07   1.075626e+07   1.054178e+07   1.032689e+07
   1.011144e+07       9895646.       9679401.       9462640.       9245596.
       9027927.       8809688.       8591206.       8372264.       8152775.
       7932935.       7712766.       7491982.       7270765.       7049358.
       6827457.       6605123.       6382501.       6159574.       5936212.
       5712406.       5488376.       5264021.       5039439.       4814703.
       4589572.       4364079.       4138465.       3912724.       3686616.
       3460282.       3233790.       3007027.       2780056.       2552949.
       2325791.       2098515.       1871163.       1643732.       1416186.
       1188728.       961161.0       733459.0       505965.0       278560.0
       51083.00      -176282.0      -403372.0      -630327.0      -857178.0
      -1083832.      -1310242.      -1536431.      -1762630.      -1988614.
      -2214105.      -2439450.      -2664702.      -2889701.      -3114513.
      -3339039.      -3563297.      -3787361.      -4011144.      -4234694.
      -4458057.      -4681198.      -4904162.      -5126925.      -5349368.
      -5571527.      -5793436.      -6015011.      -6236227.      -6457201.
      -6677929.      -6898253.      -7118234.      -7337718.      -7556688.
      -7775217.      -7993157.      -8210710.      -8427724.      -8643975.
      -8859558.      -9074471.      -9288715.      -9502254.      -9715043.
      -9927089.  -1.013850e+07  -1.034918e+07  -1.055896e+07  -1.076796e+07
  -1.097629e+07  -1.118386e+07  -1.139062e+07  -1.159659e+07  -1.180178e+07
  -1.200620e+07  -1.220985e+07  -1.241292e+07  -1.261526e+07  -1.281664e+07
  -1.301726e+07  -1.321731e+07  -1.341658e+07  -1.361495e+07  -1.381254e+07
  -1.400950e+07  -1.420562e+07  -1.440085e+07  -1.459540e+07  -1.478922e+07
  -1.498236e+07  -1.517472e+07  -1.536614e+07  -1.555698e+07  -1.574719e+07
  -1.593664e+07  -1.612545e+07  -1.631358e+07  -1.650100e+07  -1.668775e+07
  -1.687369e+07  -1.705888e+07  -1.724345e+07  -1.742725e+07  -1.761027e+07
  -1.779260e+07  -1.797422e+07  -1.815500e+07  -1.833485e+07  -1.851384e+07
  -1.869188e+07  -1.886893e+07  -1.904521e+07  -1.922052e+07  -1.939464e+07
  -1.956782e+07  -1.974011e+07  -1.991130e+07  -2.008143e+07  -2.025061e+07
  -2.041881e+07  -2.058601e+07  -2.075218e+07  -2.091733e+07  -2.108159e+07
  -2.124468e+07  -2.140666e+07  -2.156774e+07  -2.172790e+07  -2.188719e+07
  -2.204522e+07  -2.220204e+07  -2.235806e+07  -2.251316e+07  -2.266729e+07
  -2.282037e+07  -2.297234e+07  -2.312337e+07  -2.327348e+07  -2.342266e+07
  -2.357082e+07  -2.371791e+07  -2.386414e+07  -2.400950e+07  -2.415373e+07
  -2.429698e+07  -2.443946e+07  -2.458091e+07  -2.472137e+07  -2.486096e+07
