     0.05000000      -12345.00      -12345.00   4.135580e+09      -12345.00
   0.0005380000       1859.951      -323.0196      -12345.00      -12345.00
      -12345.00      -12345.00      -12345.00      -12345.00      -12345.00
      -12345.00      -12345.00      -12345.00      -12345.00      -12345.00
      -12345.00      -12345.00      -12345.00      -12345.00      -12345.00
      -12345.00      -12345.00      -12345.00      -12345.00      -12345.00
      -12345.00      -20.08820       146.2545       320.0000       37.00000
      -42.72450       173.0647      -12345.00       22.00000      -12345.00
      -12345.00      -12345.00      -12345.00      -12345.00      -12345.00
      -12345.00      -12345.00      -12345.00      -12345.00      -12345.00
       3546.971       306.6562       141.0269       31.90009      -12345.00
      -12345.00      -12345.00       90.00000       90.00000      -12345.00
      -12345.00      -12345.00      -12345.00      -12345.00      -12345.00
      -12345.00      -12345.00      -12345.00      -12345.00      -12345.00
      2016       318        11         8        22
        19         6    -12345    -12345     37200
    -12345    -12345    -12345    -12345    -12345
         1    -12345    -12345    -12345    -12345
    -12345    -12345    -12345    -12345    -12345
    -12345    -12345    -12345    -12345    -12345
    -12345    -12345    -12345    -12345    -12345
         1    -12345    -12345    -12345    -12345
CTAO    South Island, Ne
00      -12345  -12345  
-12345  -12345  -12345  
-12345  -12345  -12345  
-12345  -12345  -12345  
-12345  -12345  -12345  
-12345  -12345  BH2     
IU      -12345  Streckei
[...]
       424454.0       405115.0       385904.0       366802.0       347825.0
       328969.0       310192.0       291474.0       272769.0       254097.0
       235412.0       216741.0       198010.0       179266.0       160496.0
       141644.0       122751.0       103794.0       84827.00       65726.00
       46606.00       27530.00       8396.000      -10684.00      -29777.00
      -48834.00      -67882.00      -86927.00      -105886.0      -124865.0
      -143769.0      -162591.0      -181313.0      -199965.0      -218604.0
      -237124.0      -255587.0      -273982.0      -292211.0      -310305.0
      -328213.0      -345856.0      -363295.0      -380416.0      -397240.0
      -413790.0      -429966.0      -445867.0      -461376.0      -476589.0
      -491519.0      -505991.0      -520210.0      -534071.0      -547536.0
      -560655.0      -573380.0      -585791.0      -597763.0      -609334.0
      -620540.0      -631391.0      -641859.0      -651948.0      -661721.0
      -671129.0      -680241.0      -689012.0      -697470.0      -705626.0
      -713426.0      -720929.0      -728111.0      -734992.0      -741605.0
      -747909.0      -753925.0      -759663.0      -765122.0      -770333.0
      -775236.0      -779888.0      -784335.0      -788452.0      -792337.0
      -795990.0      -799343.0      -802443.0      -805215.0      -807727.0
      -809871.0      -811648.0      -813194.0      -814389.0      -815314.0
      -816020.0      -816463.0      -816740.0      -816879.0      -816854.0
      -816785.0      -816678.0      -816515.0      -816415.0      -816299.0
      -816252.0      -816298.0      -816343.0      -816519.0      -816772.0
      -817051.0      -817445.0      -817954.0      -818501.0      -819149.0
      -819905.0      -820746.0      -821773.0      -822903.0      -824195.0
      -825678.0      -827327.0      -829206.0      -831264.0      -833565.0
      -836114.0      -838874.0      -841916.0      -845221.0      -848767.0
      -852678.0      -856885.0      -861393.0      -866270.0      -871394.0
      -876859.0      -882611.0      -888631.0      -894954.0      -901518.0
      -908408.0      -915590.0      -923068.0      -930894.0      -939024.0
      -947472.0      -956244.0      -965281.0      -974612.0      -984247.0
      -994113.0      -1004257.      -1014603.      -1025138.      -1035931.
      -1046834.      -1057909.      -1069158.      -1080485.      -1091916.
      -1103396.      -1114933.      -1126490.      -1138030.      -1149543.
      -1160992.      -1172375.      -1183716.      -1194941.      -1206026.
      -1216997.      -1227768.      -1238370.      -1248763.      -1258931.
      -1268870.      -1278487.      -1287799.      -1296772.      -1305380.
      -1313600.      -1321383.      -1328753.      -1335679.      -1342124.
      -1348171.      -1353815.      -1359040.      -1363902.      -1368385.
      -1372526.      -1376361.      -1379866.      -1383071.      -1386016.
      -1388649.      -1390992.      -1393071.      -1394859.      -1396414.
      -1397696.      -1398697.      -1399489.      -1400042.      -1400344.
      -1400438.      -1400323.      -1399983.      -1399425.      -1398642.
      -1397627.      -1396411.      -1394958.      -1393306.      -1391467.
      -1389376.      -1387088.      -1384524.      -1381708.      -1378686.
      -1375404.      -1371933.      -1368230.      -1364345.      -1360263.
      -1355958.      -1351478.      -1346752.      -1341798.      -1336568.
      -1331105.      -1325365.      -1319291.      -1312952.      -1306311.
      -1299386.      -1292197.      -1284743.      -1276997.      -1268991.
      -1260694.      -1252065.      -1243128.      -1233817.      -1224102.
      -1213995.      -1203415.      -1192353.      -1180816.      -1168701.
      -1156051.      -1142778.      -1128885.      -1114398.      -1099164.
      -1083341.      -1066858.      -1049611.      -1031807.      -1013350.
      -994259.0      -974640.0      -954431.0      -933712.0      -912426.0
      -890646.0      -868384.0      -845583.0      -822353.0      -798622.0
      -774451.0      -749839.0      -724769.0      -699365.0      -673529.0
      -647246.0      -620629.0      -593638.0      -566255.0      -538563.0
      -510580.0      -482326.0      -453832.0      -425080.0      -396101.0
      -366964.0      -337612.0      -308091.0      -278444.0      -248604.0
      -218711.0      -188746.0      -158627.0      -128457.0      -98287.00
      -68019.00      -37648.00      -7224.000       23265.00       53864.00
       84576.00       115338.0       146285.0       177314.0       208462.0
       239746.0       271100.0       302669.0       334279.0       366044.0
       397960.0       429973.0       462155.0       494451.0       527010.0
       559724.0       592677.0       625910.0       659320.0       692985.0
       726842.0       760905.0       795196.0       829646.0       864289.0
       899134.0       934132.0       969330.0       1004743.       1040334.
       1076064.       1112038.       1148168.       1184372.       1220813.
       1257325.       1293969.       1330784.       1367659.       1404663.
       1441783.       1479054.       1516384.       1553833.       1591381.
       1629064.       1666863.       1704692.       1742772.       1780792.
       1818917.       1857202.       1895400.       1933779.       1972021.
       2010259.       2048575.       2086778.       2124992.       2163051.
       2201026.       2238758.       2276330.       2313827.       2351075.
       2388073.       2424843.       2461429.       2497685.       2533694.
       2569334.       2604679.       2639684.       2674169.       2708279.
       2741827.       2774803.       2807225.       2839035.       2870134.
       2900578.       2930379.       2959419.       2987676.       3015132.
       3041916.       3067756.       3092852.       3117145.       3140421.
       3163008.       3184550.       3205247.       3225103.       3243947.
       3261991.       3279119.       3295320.       3310527.       3324915.
       3338348.       3350781.       3362367.       3372940.       3382586.
       3391283.       3399037.       3405844.       3411726.       3416823.
       3421001.       3424399.       3427012.       3428869.       3430041.
       3430394.       3430099.       3429037.       3427328.       3424950.
       3421798.       3418044.       3413561.       3408425.       3402622.
       3396114.       3388989.       3381175.       3372632.       3363461.
       3353593.       3342991.       3331730.       3319766.       3307142.
       3293830.       3279872.       3265225.       3249903.       3233958.
       3217273.       3199938.       3181909.       3163162.       3143756.
       3123639.       3102836.       3081352.       3059194.       3036343.
       3012767.       2988477.       2963451.       2937685.       2911186.
       2883931.       2855964.       2827263.       2797818.       2767703.
       2736828.       2705180.       2672807.       2639638.       2605685.
       2570928.       2535346.       2498946.       2461733.       2423709.
       2384879.       2345248.       2304749.       2263441.       2221337.
       2178426.       2134730.       2090200.       2044862.       1998676.
       1951697.       1903919.       1855265.       1805855.       1755656.
       1704655.       1652855.       1600308.       1547031.       1492964.
       1438232.       1382734.       1326615.       1269919.       1212521.
       1154574.       1096109.       1037128.       977635.0       917681.0
       857337.0       796659.0       735521.0       674138.0       612535.0
       550525.0       488383.0       426048.0       363518.0       300938.0
       238271.0       175463.0       112732.0       49981.00      -12830.00
      -75424.00      -138078.0      -200584.0      -262897.0      -325150.0
      -387125.0      -448972.0      -510558.0      -571876.0      -632959.0
      -693764.0      -754256.0      -814370.0      -874177.0      -933518.0
      -992538.0      -1051100.      -1109232.      -1166948.      -1223987.
      -1280740.      -1336907.      -1392433.      -1447494.      -1501898.
      -1555780.      -1608980.      -1661611.      -1713616.      -1765041.
      -1815808.      -1865861.      -1915429.      -1964167.      -2012234.
      -2059681.      -2106440.      -2152389.      -2197619.      -2242270.
      -2286039.      -2329041.      -2371280.      -2412860.      -2453669.
      -2493622.      -2532951.      -2571496.      -2609312.      -2646541.
      -2682902.      -2718583.      -2753665.      -2787946.      -2821611.
      -2854499.      -2886813.      -2918461.      -2949351.      -2979763.
      -3009433.      -3038535.      -3067087.      -3095095.      -3122628.
      -3149487.      -3175896.      -3201903.      -3227261.      -3252072.
      -3276548.      -3300443.      -3323782.      -3346709.      -3369167.
      -3391160.      -3412600.      -3433664.      -3454232.      -3474304.
      -3493962.      -3513083.      -3531851.      -3550141.      -3568003.
      -3585458.      -3602468.      -3619146.      -3635397.      -3651290.
      -3666835.      -3682003.      -3696944.      -3711563.      -3725796.
      -3739806.      -3753485.      -3766821.      -3779877.      -3792593.
      -3805010.      -3817050.      -3828677.      -3840013.      -3850939.
      -3861408.      -3871488.      -3881118.      -3890252.      -3898919.
      -3907131.      -3914759.      -3921903.      -3928546.      -3934584.
      -3940119.      -3945150.      -3949666.      -3953640.      -3957083.
      -3960064.      -3962554.      -3964533.      -3965914.      -3966690.
      -3966941.      -3966519.      -3965465.      -3963716.      -3961305.
      -3958231.      -3954349.      -3949838.      -3944596.      -3938628.
      -3931930.      -3924485.      -3916301.      -3907293.      -3897573.
      -3887021.      -3875633.      -3863460.      -3850438.      -3836595.
      -3821859.      -3806291.      -3789882.      -3772616.      -3754563.
      -3735644.      -3715897.      -3695334.      -3673914.      -3651667.
      -3628564.      -3604589.      -3579738.      -3554004.      -3527377.
      -3499861.      -3471486.      -3442199.      -3412045.      -3381109.
      -3349241.      -3316549.      -3283088.      -3248755.      -3213633.
      -3177668.      -3140914.      -3103363.      -3064990.      -3025858.
      -2985933.      -2945205.      -2903665.      -2861431.      -2818478.
      -2774746.      -2730306.      -2685173.      -2639374.      -2592889.
      -2545755.      -2497940.      -2449492.      -2400403.      -2350683.
      -2300442.      -2249508.      -2198099.      -2146152.      -2093612.
      -2040622.      -1987058.      -1933136.      -1878710.      -1823930.
      -1768805.      -1713213.      -1657376.      -1601179.      -1544698.
      -1487825.      -1430708.      -1373317.      -1315479.      -1257538.
      -1199196.      -1140527.      -1081635.      -1022368.      -962962.0
      -903153.0      -843106.0      -782869.0      -722302.0      -661555.0
      -600492.0      -539255.0      -477797.0      -416173.0      -354334.0
      -292296.0      -230144.0      -167758.0      -105294.0      -42512.00
       20372.00       83300.00       146500.0       209679.0       273029.0
       336474.0       399848.0       463317.0       526781.0       590281.0
       653777.0       717191.0       780531.0       843887.0       907144.0
       970329.0       1033515.       1096490.       1159406.       1222081.
       1284699.       1347088.       1409180.       1471219.       1532811.
       1594337.       1655342.       1716043.       1776616.       1836459.
       1896116.       1955260.       2013951.       2072370.       2130173.
       2187504.       2244541.       2301084.       2357102.       2412631.
       2467528.       2522177.       2576068.       2629247.       2682068.
       2734102.       2785544.       2836183.       2886067.       2935315.
       2983705.       3031344.       3078053.       3123937.       3169074.
       3213166.       3256440.       3298712.       3340008.       3380589.
       3419997.       3458532.       3496071.       3532543.       3568124.
       3602534.       3636136.       3668622.       3699981.       3730419.
       3759726.       3788017.       3815170.       3841255.       3866254.
       3890233.       3913211.       3934941.       3955767.       3975608.
       3994324.       4012130.       4028864.       4044579.       4059381.
       4073239.       4086097.       4098057.       4109030.       4119096.
       4128288.       4136449.       4143774.       4150131.       4155538.
       4160078.       4163674.       4166236.       4167829.       4168456.
       4168064.       4166724.       4164373.       4161046.       4156647.
       4151255.       4144906.       4137495.       4129156.       4119869.
       4109533.       4098347.       4086232.       4073161.       4059222.
       4044281.       4028469.       4011741.       3994124.       3975639.
       3956237.       3936007.       3914887.       3892933.       3870180.
       3846503.       3822006.       3796642.       3770342.       3743245.
       3715229.       3686326.       3656571.       3625947.       3594428.
       3562022.       3528785.       3494626.       3459564.       3423631.
       3386836.       3349160.       3310610.       3271193.       3230956.
       3189935.       3148084.       3105452.       3062059.       3017921.
       2973048.       2927471.       2881189.       2834187.       2786532.
       2738190.       2689216.       2639580.       2589298.       2538422.
       2486893.       2434732.       2381921.       2328562.       2274529.
       2219870.       2164635.       2108730.       2052291.       1995190.
       1937533.       1879318.       1820530.       1761292.       1701539.
       1641389.       1580792.       1519817.       1458541.       1396959.
       1335150.       1273113.       1210912.       1148636.       1086263.
       1023857.       961525.0       899181.0       836994.0       774834.0
       712829.0       651137.0       589499.0       528143.0       467048.0
       406287.0       345793.0       285629.0       225848.0       166324.0
       107343.0       48689.00      -9609.000      -67415.00      -124999.0
      -182159.0      -238844.0      -295362.0      -351400.0      -407035.0
      -462404.0      -517309.0      -571958.0      -626210.0      -680125.0
      -733686.0      -786926.0      -839832.0      -892298.0      -944631.0
      -996494.0      -1048038.      -1099442.      -1150356.      -1201122.
      -1251675.      -1301778.      -1351743.      -1401387.      -1450682.
      -1499830.      -1548532.      -1596995.      -1645136.      -1692954.
      -1740515.      -1787515.      -1834378.      -1880736.      -1926601.
      -1972263.      -2017299.      -2061968.      -2106143.      -2149865.
      -2193112.      -2235846.      -2278297.      -2320016.      -2361393.
      -2402359.      -2442664.      -2482687.      -2522118.      -2561082.
      -2599605.      -2637678.      -2675202.      -2712204.      -2748900.
      -2784930.      -2820522.      -2855647.      -2890203.      -2924261.
      -2957845.      -2990969.      -3023454.      -3055465.      -3086861.
      -3117744.      -3148092.      -3177742.      -3206791.      -3235222.
      -3263056.      -3290116.      -3316467.      -3342224.      -3367163.
      -3391290.      -3414787.      -3437549.      -3459483.      -3480747.
      -3501317.      -3521052.      -3540133.      -3558485.      -3575991.
      -3592734.      -3608837.      -3624137.      -3638648.      -3652615.
      -3665693.      -3678165.      -3689902.      -3700925.      -3711460.
      -3721184.      -3730401.      -3738973.      -3746896.      -3754209.
      -3760889.      -3766955.      -3772361.      -3777272.      -3781556.
      -3785248.      -3788385.      -3790942.      -3792870.      -3794249.
      -3795007.      -3795060.      -3794541.      -3793312.      -3791377.
      -3788802.      -3785557.      -3781548.      -3776864.      -3771528.
      -3765441.      -3758692.      -3751252.      -3743169.      -3734403.
      -3724961.      -3714857.      -3704049.      -3692636.      -3680483.
      -3667686.      -3654325.      -3640214.      -3625457.      -3610145.
      -3594148.      -3577550.      -3560386.      -3542546.      -3524173.
      -3505220.      -3485666.      -3465577.      -3444873.      -3423617.
      -3401753.      -3379190.      -3356021.      -3332182.      -3307678.
      -3282478.      -3256574.      -3230006.      -3202649.      -3174652.
      -3145894.      -3116367.      -3086119.      -3055124.      -3023430.
      -2990935.      -2957740.      -2923722.      -2889005.      -2853558.
      -2817277.      -2780295.      -2742516.      -2703986.      -2664700.
      -2624717.      -2583979.      -2542540.      -2500417.      -2457590.
      -2414158.      -2370009.      -2325325.      -2279969.      -2234021.
      -2187600.      -2140470.      -2092921.      -2044816.      -1996151.
      -1947025.      -1897397.      -1847471.      -1797070.      -1746340.
      -1695310.      -1643903.      -1592257.      -1540280.      -1488087.
      -1435610.      -1382910.      -1330073.      -1276957.      -1223826.
      -1170572.      -1117181.      -1063838.      -1010361.      -956912.0
      -903503.0      -850126.0      -796860.0      -743546.0      -690358.0
      -637205.0      -584037.0      -531022.0      -478030.0      -425099.0
      -372145.0      -319171.0      -266281.0      -213449.0      -160594.0
      -107840.0      -55177.00      -2439.000       50040.00       102371.0
       154631.0       206588.0       258398.0       309950.0       361224.0
       412242.0       462892.0       513322.0       563413.0       613179.0
       662653.0       711611.0       760252.0       808579.0       856449.0
       903971.0       951066.0       997616.0       1043860.       1089661.
       1134829.       1179667.       1224036.       1267899.       1311292.
       1354210.       1396604.       1438457.       1479921.       1520810.
