     0.02500000      -12345.00      -12345.00   2.447790e+09      -12345.00
   0.0005380000       1859.976      -399.0196      -12345.00      -12345.00
      -12345.00      -12345.00      -12345.00      -12345.00      -12345.00
      -12345.00      -12345.00      -12345.00      -12345.00      -12345.00
      -12345.00      -12345.00      -12345.00      -12345.00      -12345.00
      -12345.00      -12345.00      -12345.00      -12345.00      -12345.00
      -12345.00      -66.27920       110.5354       5.000000       5.000000
      -42.72450       173.0647      -12345.00       22.00000      -12345.00
      -12345.00      -12345.00      -12345.00      -12345.00      -12345.00
      -12345.00      -12345.00      -12345.00      -12345.00      -12345.00
       4548.781       213.2367       86.72720       40.90998      -12345.00
      -12345.00      -12345.00       90.00000       90.00000      -12345.00
      -12345.00      -12345.00      -12345.00      -12345.00      -12345.00
      -12345.00      -12345.00      -12345.00      -12345.00      -12345.00
      2016       318        11         9        38
        19         6    -12345    -12345     74400
    -12345    -12345    -12345    -12345    -12345
         1    -12345    -12345    -12345    -12345
    -12345    -12345    -12345    -12345    -12345
    -12345    -12345    -12345    -12345    -12345
    -12345    -12345    -12345    -12345    -12345
         1    -12345    -12345    -12345    -12345
CASY    South Island, Ne
10      -12345  -12345  
-12345  -12345  -12345  
-12345  -12345  -12345  
-12345  -12345  -12345  
-12345  -12345  -12345  
-12345  -12345  BH2     
IU      -12345  Streckei
[...]
      -608725.0      -620357.0      -631948.0      -643462.0      -654938.0
      -666391.0      -677776.0      -689089.0      -700325.0      -711512.0
      -722663.0      -733737.0      -744755.0      -755721.0      -766628.0
      -777506.0      -788327.0      -799082.0      -809764.0      -820377.0
      -830952.0      -841459.0      -851906.0      -862284.0      -872553.0
      -882779.0      -892945.0      -903009.0      -913030.0      -923004.0
      -932939.0      -942799.0      -952532.0      -962191.0      -971808.0
      -981437.0      -990957.0      -1000322.      -1009716.      -1019056.
      -1028300.      -1037504.      -1046569.      -1055515.      -1064443.
      -1073326.      -1082111.      -1090817.      -1099425.      -1107952.
      -1116436.      -1124847.      -1133202.      -1141432.      -1149512.
      -1157559.      -1165530.      -1173380.      -1181166.      -1188895.
      -1196552.      -1204093.      -1211524.      -1218884.      -1226168.
      -1233382.      -1240525.      -1247563.      -1254510.      -1261390.
      -1268182.      -1274876.      -1281463.      -1287943.      -1294342.
      -1300667.      -1306889.      -1313009.      -1319012.      -1324927.
      -1330786.      -1336515.      -1342135.      -1347686.      -1353136.
      -1358483.      -1363694.      -1368805.      -1373850.      -1378775.
      -1383609.      -1388358.      -1392978.      -1397489.      -1401938.
      -1406304.      -1410542.      -1414693.      -1418778.      -1422802.
      -1426726.      -1430477.      -1434144.      -1437772.      -1441321.
      -1444751.      -1448017.      -1451198.      -1454286.      -1457244.
      -1460138.      -1462940.      -1465606.      -1468132.      -1470569.
      -1472928.      -1475171.      -1477321.      -1479342.      -1481256.
      -1483061.      -1484768.      -1486434.      -1487944.      -1489314.
      -1490616.      -1491820.      -1492934.      -1493934.      -1494804.
      -1495592.      -1496310.      -1496905.      -1497387.      -1497756.
      -1498007.      -1498179.      -1498263.      -1498233.      -1498070.
      -1497823.      -1497485.      -1497032.      -1496521.      -1495855.
      -1495050.      -1494209.      -1493225.      -1492130.      -1490968.
      -1489676.      -1488290.      -1486787.      -1485145.      -1483425.
      -1481584.      -1479608.      -1477565.      -1475462.      -1473255.
      -1470871.      -1468335.      -1465763.      -1463159.      -1460432.
      -1457541.      -1454533.      -1451432.      -1448251.      -1444957.
      -1441541.      -1438036.      -1434413.      -1430686.      -1426876.
      -1422932.      -1418876.      -1414737.      -1410471.      -1406116.
      -1401637.      -1396999.      -1392311.      -1387517.      -1382574.
      -1377551.      -1372403.      -1367175.      -1361866.      -1356417.
      -1350879.      -1345237.      -1339491.      -1333658.      -1327721.
      -1321703.      -1315570.      -1309327.      -1303002.      -1296565.
      -1290044.      -1283436.      -1276692.      -1269863.      -1262940.
      -1255911.      -1248818.      -1241597.      -1234300.      -1226931.
      -1219431.      -1211833.      -1204115.      -1196373.      -1188545.
      -1180561.      -1172543.      -1164417.      -1156237.      -1148049.
      -1139711.      -1131297.      -1122845.      -1114269.      -1105602.
      -1096858.      -1088053.      -1079174.      -1070171.      -1061179.
      -1052100.      -1042845.      -1033645.      -1024389.      -1014993.
      -1005535.      -995964.0      -986322.0      -976621.0      -966838.0
      -956995.0      -947055.0      -937005.0      -926909.0      -916754.0
      -906502.0      -896202.0      -885790.0      -875268.0      -864749.0
      -854164.0      -843498.0      -832768.0      -821924.0      -811035.0
      -800138.0      -789174.0      -778090.0      -766932.0      -755729.0
      -744447.0      -733139.0      -721787.0      -710349.0      -698853.0
      -687287.0      -675653.0      -663960.0      -652226.0      -640448.0
      -628568.0      -616630.0      -604644.0      -592581.0      -580480.0
      -568317.0      -556079.0      -543769.0      -531405.0      -519001.0
      -506537.0      -494027.0      -481453.0      -468838.0      -456184.0
      -443450.0      -430673.0      -417882.0      -405041.0      -392122.0
      -379197.0      -366254.0      -353226.0      -340140.0      -327020.0
      -313902.0      -300749.0      -287516.0      -274267.0      -261037.0
      -247793.0      -234515.0      -221174.0      -207813.0      -194472.0
      -181087.0      -167685.0      -154264.0      -140818.0      -127382.0
      -113922.0      -100457.0      -86967.00      -73435.00      -59917.00
      -46438.00      -32961.00      -19472.00      -5976.000       7537.000
       20994.00       34433.00       47923.00       61399.00       74841.00
       88274.00       101734.0       115215.0       128681.0       142132.0
       155573.0       169043.0       182523.0       195975.0       209434.0
       222875.0       236264.0       249662.0       263066.0       276400.0
       289686.0       303009.0       316353.0       329670.0       342976.0
       356251.0       369484.0       382720.0       395949.0       409123.0
       422261.0       435383.0       448503.0       461620.0       474691.0
       487723.0       500732.0       513740.0       526740.0       539668.0
       552560.0       565451.0       578302.0       591096.0       603856.0
       616605.0       629299.0       641957.0       654601.0       667227.0
       679811.0       692308.0       704825.0       717250.0       729693.0
       742084.0       754355.0       766977.0       778953.0       790811.0
       803580.0       815599.0       827461.0       839858.0       851741.0
       863633.0       875697.0       887572.0       899375.0       911126.0
       922899.0       934658.0       946292.0       957920.0       969511.0
       980866.0       992299.0       1003785.       1015016.       1026289.
       1037480.       1048453.       1059446.       1070393.       1081237.
       1091975.       1102658.       1113281.       1123796.       1134264.
       1144628.       1154920.       1165169.       1175291.       1185357.
       1195361.       1205242.       1215099.       1224882.       1234533.
       1244122.       1253640.       1263061.       1272424.       1281709.
       1290840.       1299913.       1308992.       1317964.       1326848.
       1335659.       1344305.       1352864.       1361388.       1369760.
       1378015.       1386186.       1394279.       1402381.       1410347.
       1418073.       1425758.       1433411.       1440902.       1448285.
       1455585.       1462811.       1469947.       1476917.       1483774.
       1490544.       1497205.       1503851.       1510366.       1516645.
       1522859.       1529017.       1535054.       1540969.       1546743.
       1552398.       1557952.       1563407.       1568721.       1573886.
       1578985.       1584014.       1588899.       1593673.       1598316.
       1602803.       1607235.       1611535.       1615687.       1619779.
       1623723.       1627548.       1631309.       1634939.       1638434.
       1641792.       1645040.       1648187.       1651168.       1654040.
       1656849.       1659462.       1661893.       1664252.       1666491.
       1668634.       1670674.       1672550.       1674363.       1676078.
       1677606.       1678984.       1680262.       1681447.       1682487.
       1683395.       1684184.       1684848.       1685408.       1685852.
       1686131.       1686251.       1686243.       1686112.       1685844.
       1685407.       1684864.       1684192.       1683324.       1682332.
       1681235.       1680005.       1678599.       1677084.       1675461.
       1673631.       1671689.       1669628.       1667397.       1665063.
       1662591.       1659939.       1657132.       1654205.       1651120.
       1647876.       1644533.       1641041.       1637390.       1633615.
       1629703.       1625656.       1621475.       1617151.       1612661.
       1608046.       1603349.       1598517.       1593532.       1588436.
       1583218.       1577841.       1572344.       1566723.       1560985.
       1555156.       1549160.       1542995.       1536751.       1530378.
       1523835.       1517211.       1510475.       1503560.       1496509.
       1489320.       1482004.       1474593.       1467040.       1459358.
       1451565.       1443641.       1435601.       1427388.       1419052.
       1410610.       1401982.       1393288.       1384513.       1375546.
       1366471.       1357310.       1348009.       1338567.       1329012.
       1319357.       1309595.       1299693.       1289653.       1279509.
       1269249.       1258894.       1248436.       1237853.       1227138.
       1216296.       1205370.       1194316.       1183132.       1171863.
       1160486.       1149004.       1137407.       1125706.       1113900.
       1101951.       1089892.       1077739.       1065471.       1053087.
       1040603.       1027991.       1015269.       1002476.       989548.0
       976500.0       963406.0       950234.0       936955.0       923585.0
       910091.0       896496.0       882855.0       869148.0       855370.0
       841455.0       827410.0       813352.0       799231.0       785036.0
       770731.0       756267.0       741808.0       727296.0       712642.0
       697961.0       683221.0       668367.0       653420.0       638403.0
       623335.0       608169.0       592915.0       577621.0       562224.0
       546773.0       531306.0       515773.0       500131.0       484352.0
       468590.0       452843.0       436993.0       421060.0       405076.0
       389092.0       373039.0       356895.0       340733.0       324528.0
       308309.0       292039.0       275679.0       259301.0       242877.0
       226436.0       210000.0       193430.0       176804.0       160253.0
       143635.0       126961.0       110294.0       93540.00       76784.00
       60020.00       43170.00       26329.00       9482.000      -7409.000
      -24288.00      -41235.00      -58215.00      -75085.00      -92012.00
      -109019.0      -125994.0      -142987.0      -159988.0      -177006.0
      -194014.0      -211002.0      -228020.0      -245011.0      -261971.0
      -278946.0      -295934.0      -312913.0      -329853.0      -346810.0
      -363737.0      -380583.0      -397426.0      -414238.0      -430992.0
      -447706.0      -464463.0      -481254.0      -497929.0      -514493.0
      -531011.0      -547564.0      -564157.0      -580673.0      -597052.0
      -613365.0      -629696.0      -646017.0      -662275.0      -678431.0
      -694517.0      -710587.0      -726619.0      -742621.0      -758544.0
      -774332.0      -790123.0      -805907.0      -821546.0      -837163.0
      -852728.0      -868153.0      -883538.0      -898812.0      -914045.0
      -929281.0      -944387.0      -959425.0      -974370.0      -989215.0
      -1004047.      -1018789.      -1033451.      -1048041.      -1062521.
      -1076914.      -1091185.      -1105365.      -1119469.      -1133472.
      -1147418.      -1161270.      -1174995.      -1188623.      -1202158.
      -1215615.      -1228966.      -1242177.      -1255293.      -1268332.
      -1281241.      -1294006.      -1306663.      -1319236.      -1331684.
      -1344022.      -1356281.      -1368390.      -1380391.      -1392319.
      -1404105.      -1415735.      -1427248.      -1438657.      -1449929.
      -1461104.      -1472144.      -1483032.      -1493859.      -1504548.
      -1515079.      -1525510.      -1535809.      -1545987.      -1556032.
      -1565934.      -1575710.      -1585337.      -1594843.      -1604218.
      -1613424.      -1622495.      -1631453.      -1640295.      -1648932.
      -1657394.      -1665769.      -1673956.      -1681988.      -1689933.
      -1697676.      -1705246.      -1712740.      -1720047.      -1727176.
      -1734192.      -1741043.      -1747727.      -1754218.      -1760562.
      -1766779.      -1772823.      -1778698.      -1784410.      -1789975.
      -1795389.      -1800664.      -1805758.      -1810640.      -1815350.
      -1819935.      -1824378.      -1828621.      -1832690.      -1836638.
      -1840442.      -1844034.      -1847465.      -1850748.      -1853853.
      -1856826.      -1859641.      -1862294.      -1864771.      -1867051.
      -1869196.      -1871249.      -1873174.      -1874881.      -1876404.
      -1877760.      -1878961.      -1880049.      -1880949.      -1881638.
      -1882161.      -1882555.      -1882783.      -1882804.      -1882663.
      -1882359.      -1881926.      -1881317.      -1880469.      -1879499.
      -1878337.      -1876948.      -1875450.      -1873782.      -1871910.
      -1869878.      -1867677.      -1865331.      -1862809.      -1860051.
      -1857147.      -1854117.      -1850871.      -1847456.      -1843887.
      -1840135.      -1836246.      -1832187.      -1827972.      -1823619.
      -1819107.      -1814455.      -1809653.      -1804689.      -1799561.
      -1794300.      -1788900.      -1783328.      -1777602.      -1771724.
      -1765690.      -1759495.      -1753157.      -1746684.      -1740029.
      -1733234.      -1726304.      -1719199.      -1711955.      -1704514.
      -1696920.      -1689211.      -1681325.      -1673324.      -1665168.
      -1656863.      -1648428.      -1639802.      -1631068.      -1622180.
      -1613153.      -1604054.      -1594758.      -1585301.      -1575751.
      -1566054.      -1556228.      -1546292.      -1536178.      -1525933.
      -1515617.      -1505117.      -1494428.      -1483662.      -1472821.
      -1461858.      -1450748.      -1439497.      -1428114.      -1416616.
      -1405038.      -1393355.      -1381536.      -1369571.      -1357464.
      -1345253.      -1332943.      -1320518.      -1307980.      -1295324.
      -1282555.      -1269693.      -1256746.      -1243659.      -1230493.
      -1217275.      -1203896.      -1190419.      -1176869.      -1163182.
      -1149415.      -1135575.      -1121598.      -1107532.      -1093424.
      -1079239.      -1065003.      -1050673.      -1036205.      -1021647.
      -1006983.      -992195.0      -977304.0      -962326.0      -947308.0
      -932246.0      -917101.0      -901853.0      -886515.0      -871111.0
      -855586.0      -839960.0      -824298.0      -808549.0      -792710.0
      -776797.0      -760791.0      -744728.0      -728663.0      -712510.0
      -696244.0      -680034.0      -663780.0      -647359.0      -630917.0
      -614455.0      -597950.0      -581414.0      -564798.0      -548137.0
      -531435.0      -514709.0      -497979.0      -481219.0      -464437.0
      -447628.0      -430789.0      -413935.0      -397054.0      -380083.0
      -363044.0      -345979.0      -328880.0      -311765.0      -294602.0
      -277407.0      -260214.0      -243021.0      -225802.0      -208532.0
      -191223.0      -173894.0      -156585.0      -139261.0      -121885.0
      -104535.0      -87198.00      -69835.00      -52529.00      -35216.00
      -17849.00      -531.0000       16758.00       34025.00       51258.00
       68510.00       85789.00       103068.0       120315.0       137526.0
       154726.0       171906.0       189075.0       206269.0       223464.0
       240592.0       257630.0       274646.0       291673.0       308689.0
       325685.0       342613.0       359479.0       376341.0       393188.0
       409984.0       426715.0       443439.0       460169.0       476852.0
       493534.0       510200.0       526739.0       543196.0       559619.0
       575964.0       592247.0       608469.0       624637.0       640734.0
       656752.0       672721.0       688631.0       704518.0       720336.0
       736054.0       751726.0       767268.0       782720.0       798123.0
       813436.0       828705.0       843854.0       858924.0       873962.0
       888857.0       903652.0       918369.0       932974.0       947512.0
       961946.0       976271.0       990584.0       1004788.       1018873.
       1032907.       1046791.       1060582.       1074299.       1087908.
       1101480.       1114950.       1128271.       1141518.       1154701.
       1167759.       1180725.       1193604.       1206347.       1219018.
       1231548.       1243937.       1256232.       1268389.       1280453.
       1292390.       1304203.       1315924.       1327569.       1339114.
       1350508.       1361795.       1372927.       1383952.       1394924.
       1405752.       1416484.       1427068.       1437485.       1447856.
       1458088.       1468176.       1478178.       1488036.       1497819.
       1507478.       1516985.       1526423.       1535729.       1544912.
       1553992.       1562950.       1571780.       1580430.       1588963.
       1597394.       1605625.       1613707.       1621650.       1629418.
       1637110.       1644663.       1651978.       1659192.       1666313.
       1673251.       1680072.       1686733.       1693255.       1699709.
       1705972.       1712069.       1718078.       1723909.       1729636.
       1735275.       1740700.       1746009.       1751194.       1756218.
       1761145.       1765886.       1770489.       1774969.       1779311.
       1783513.       1787484.       1791329.       1795051.       1798602.
       1802021.       1805234.       1808289.       1811223.       1813960.
       1816555.       1819020.       1821301.       1823430.       1825422.
       1827260.       1828959.       1830502.       1831876.       1833088.
       1834132.       1835019.       1835748.       1836312.       1836699.
       1836943.       1837072.       1837050.       1836888.       1836558.
       1836048.       1835387.       1834550.       1833542.       1832361.
       1830999.       1829497.       1827828.       1825984.       1823974.
       1821774.       1819440.       1816961.       1814322.       1811544.
       1808564.       1805444.       1802222.       1798826.       1795243.
