     0.05000000      -12345.00      -12345.00   4.187590e+09      -12345.00
   0.0005380000       1859.951      -323.0196      -12345.00      -12345.00
      -12345.00      -12345.00      -12345.00      -12345.00      -12345.00
      -12345.00      -12345.00      -12345.00      -12345.00      -12345.00
      -12345.00      -12345.00      -12345.00      -12345.00      -12345.00
      -12345.00      -12345.00      -12345.00      -12345.00      -12345.00
      -12345.00      -20.08820       146.2545       320.0000       37.00000
      -42.72450       173.0647      -12345.00       22.00000      -12345.00
      -12345.00      -12345.00      -12345.00      -12345.00      -12345.00
      -12345.00      -12345.00      -12345.00      -12345.00      -12345.00
       3546.971       306.6562       141.0269       31.90009      -12345.00
      -12345.00      -12345.00       0.000000       90.00000      -12345.00
      -12345.00      -12345.00      -12345.00      -12345.00      -12345.00
      -12345.00      -12345.00      -12345.00      -12345.00      -12345.00
      2016       318        11         8        22
        19         6    -12345    -12345     37200
    -12345    -12345    -12345    -12345    -12345
         1    -12345    -12345    -12345    -12345
    -12345    -12345    -12345    -12345    -12345
    -12345    -12345    -12345    -12345    -12345
    -12345    -12345    -12345    -12345    -12345
         1    -12345    -12345    -12345    -12345
CTAO    South Island, Ne
00      -12345  -12345  
-12345  -12345  -12345  
-12345  -12345  -12345  
-12345  -12345  -12345  
-12345  -12345  -12345  
-12345  -12345  BH1     
IU      -12345  Streckei
[...]
       950233.0       965225.0       979973.0       994503.0       1008761.
       1022845.       1036679.       1050334.       1063750.       1076967.
       1090041.       1102870.       1115540.       1128024.       1140376.
       1152517.       1164412.       1176158.       1187678.       1199003.
       1210134.       1221035.       1231694.       1242115.       1252289.
       1262193.       1271862.       1281260.       1290407.       1299286.
       1307907.       1316243.       1324268.       1332057.       1339509.
       1346735.       1353650.       1360212.       1366488.       1372376.
       1377965.       1383114.       1387942.       1392402.       1396400.
       1400087.       1403277.       1406080.       1408461.       1410353.
       1411831.       1412822.       1413354.       1413429.       1413021.
       1412146.       1410880.       1409164.       1407067.       1404595.
       1401723.       1398547.       1394965.       1391043.       1386753.
       1382044.       1377018.       1371595.       1365791.       1359606.
       1353038.       1346114.       1338764.       1331067.       1323005.
       1314548.       1305741.       1296568.       1287026.       1277110.
       1266840.       1256218.       1245275.       1233983.       1222349.
       1210442.       1198255.       1185740.       1172910.       1159803.
       1146413.       1132718.       1118692.       1104327.       1089511.
       1074291.       1058682.       1042560.       1026014.       1008990.
       991430.0       973380.0       954809.0       935740.0       916137.0
       895954.0       875255.0       853972.0       832048.0       809536.0
       786387.0       762558.0       738113.0       712998.0       687223.0
       660860.0       633820.0       606164.0       577927.0       549056.0
       519620.0       489591.0       458966.0       427750.0       395902.0
       363550.0       330583.0       296994.0       262881.0       228185.0
       193020.0       157335.0       121165.0       84524.00       47370.00
       9834.000      -28137.00      -66520.00      -105279.0      -144460.0
      -183939.0      -223786.0      -263950.0      -304361.0      -345140.0
      -386156.0      -427324.0      -468714.0      -510223.0      -551742.0
      -593415.0      -635052.0      -676637.0      -718172.0      -759545.0
      -800833.0      -841894.0      -882886.0      -923624.0      -964093.0
      -1004418.      -1044434.      -1084246.      -1123686.      -1162917.
      -1201854.      -1240350.      -1278614.      -1316493.      -1353976.
      -1391057.      -1427797.      -1464088.      -1499969.      -1535468.
      -1570447.      -1605098.      -1639317.      -1673042.      -1706419.
      -1739386.      -1771868.      -1803929.      -1835520.      -1866642.
      -1897230.      -1927279.      -1956876.      -1985846.      -2014320.
      -2042262.      -2069621.      -2096484.      -2122764.      -2148507.
      -2173657.      -2198269.      -2222318.      -2245747.      -2268625.
      -2290862.      -2312477.      -2333469.      -2353775.      -2373515.
      -2392579.      -2410966.      -2428770.      -2445878.      -2462386.
      -2478233.      -2493505.      -2508167.      -2522199.      -2535678.
      -2548501.      -2560769.      -2572377.      -2583371.      -2593796.
      -2603497.      -2612532.      -2620979.      -2628649.      -2635664.
      -2641999.      -2647561.      -2652568.      -2656831.      -2660398.
      -2663244.      -2665374.      -2666761.      -2667312.      -2667197.
      -2666227.      -2664443.      -2661975.      -2658657.      -2654572.
      -2649799.      -2644157.      -2637751.      -2630582.      -2622540.
      -2613755.      -2604129.      -2593680.      -2582381.      -2570263.
      -2557329.      -2543483.      -2528908.      -2513430.      -2497137.
      -2480099.      -2462153.      -2443489.      -2423974.      -2403620.
      -2382547.      -2360651.      -2337995.      -2314620.      -2290486.
      -2265589.      -2239958.      -2213539.      -2186374.      -2158410.
      -2129641.      -2100172.      -2069905.      -2038934.      -2007257.
      -1974895.      -1941931.      -1908242.      -1873939.      -1838991.
      -1803335.      -1767095.      -1730157.      -1692538.      -1654307.
      -1615340.      -1575706.      -1535414.      -1494419.      -1452762.
      -1410423.      -1367473.      -1323879.      -1279627.      -1234810.
      -1189430.      -1143424.      -1096803.      -1049675.      -1001907.
      -953620.0      -904795.0      -855320.0      -805442.0      -755028.0
      -704196.0      -652834.0      -601033.0      -548909.0      -496139.0
      -443081.0      -389574.0      -335644.0      -281327.0      -226538.0
      -171495.0      -115954.0      -60140.00      -4013.000       52405.00
       108938.0       165723.0       222639.0       279662.0       336800.0
       394017.0       451282.0       508554.0       565835.0       623106.0
       680283.0       737375.0       794349.0       851224.0       907923.0
       964443.0       1020897.       1077032.       1132968.       1188758.
       1244288.       1299661.       1354775.       1409751.       1464533.
       1519079.       1573444.       1627558.       1681590.       1735364.
       1788908.       1842294.       1895414.       1948251.       2000824.
       2053120.       2105080.       2156876.       2208229.       2259284.
       2310021.       2360316.       2410318.       2459916.       2509170.
       2557884.       2606279.       2654167.       2701635.       2748721.
       2795199.       2841264.       2886685.       2931617.       2975896.
       3019593.       3062731.       3105161.       3146969.       3188019.
       3228353.       3267975.       3306895.       3344872.       3382054.
       3418495.       3453928.       3488519.       3522262.       3555153.
       3587186.       3618320.       3648695.       3678265.       3706965.
       3734834.       3761912.       3788130.       3813566.       3838167.
       3861818.       3884736.       3906653.       3927698.       3948000.
       3967288.       3985710.       4003138.       4019678.       4035306.
       4049880.       4063595.       4076336.       4088105.       4098912.
       4108813.       4117764.       4125759.       4132978.       4139148.
       4144509.       4149079.       4152653.       4155541.       4157531.
       4158695.       4159074.       4158534.       4157289.       4155160.
       4152186.       4148432.       4143724.       4138238.       4131933.
       4124832.       4117010.       4108380.       4099008.       4088886.
       4077989.       4066319.       4053925.       4040695.       4026630.
       4011804.       3996124.       3979594.       3962165.       3943879.
       3924686.       3904526.       3883500.       3861564.       3838709.
       3814943.       3790258.       3764656.       3738090.       3710619.
       3682243.       3652890.       3622591.       3591345.       3559141.
       3525988.       3491897.       3456923.       3421030.       3384227.
       3346571.       3308031.       3268642.       3228433.       3187414.
       3145611.       3102973.       3059571.       3015430.       2970431.
       2924704.       2878270.       2831063.       2783160.       2734526.
       2685209.       2635185.       2584466.       2533039.       2480880.
       2428058.       2374520.       2320340.       2265478.       2209959.
       2153852.       2097115.       2039799.       1981927.       1923473.
       1864527.       1805100.       1745224.       1684967.       1624283.
       1563393.       1502226.       1440679.       1378911.       1316913.
       1254582.       1192064.       1129387.       1066443.       1003349.
       940116.0       876826.0       813415.0       749976.0       686439.0
       622883.0       559478.0       496022.0       432626.0       369364.0
       306280.0       243271.0       180407.0       117808.0       55365.00
      -6863.000      -68907.00      -130636.0      -192092.0      -253384.0
      -314331.0      -375093.0      -435591.0      -495801.0      -555797.0
      -615412.0      -674696.0      -733704.0      -792482.0      -850803.0
      -908756.0      -966395.0      -1023564.      -1080421.      -1136850.
      -1192783.      -1248329.      -1303441.      -1358040.      -1412215.
      -1465976.      -1519229.      -1572030.      -1624452.      -1676278.
      -1727705.      -1778700.      -1829144.      -1879219.      -1928789.
      -1977921.      -2026475.      -2074754.      -2122462.      -2169552.
      -2216482.      -2262628.      -2308324.      -2353614.      -2398378.
      -2442645.      -2486260.      -2529601.      -2572328.      -2614519.
      -2656231.      -2697490.      -2738288.      -2778484.      -2818306.
      -2857500.      -2896233.      -2934450.      -2972177.      -3009360.
      -3046031.      -3082280.      -3117898.      -3153082.      -3187645.
      -3221773.      -3255411.      -3288470.      -3321041.      -3353049.
      -3384662.      -3415616.      -3446109.      -3476215.      -3505658.
      -3534670.      -3563136.      -3591027.      -3618449.      -3645314.
      -3671517.      -3697233.      -3722478.      -3747011.      -3771077.
      -3794527.      -3817275.      -3839428.      -3861043.      -3881944.
      -3902094.      -3921717.      -3940620.      -3958834.      -3976351.
      -3993118.      -4009066.      -4024423.      -4038933.      -4052576.
      -4065675.      -4077724.      -4089104.      -4099712.      -4109293.
      -4118218.      -4126135.      -4133105.      -4139339.      -4144501.
      -4148689.      -4151972.      -4154192.      -4155482.      -4155729.
      -4154954.      -4153266.      -4150606.      -4146883.      -4142174.
      -4136460.      -4129672.      -4121916.      -4113143.      -4103343.
      -4092589.      -4080897.      -4068181.      -4054558.      -4039966.
      -4024433.      -4007955.      -3990504.      -3972240.      -3952922.
      -3932648.      -3911427.      -3889143.      -3865888.      -3841568.
      -3816237.      -3789858.      -3762379.      -3733842.      -3704215.
      -3673506.      -3641715.      -3608792.      -3574782.      -3539709.
      -3503530.      -3466285.      -3427984.      -3388628.      -3348254.
      -3306862.      -3264476.      -3221178.      -3176929.      -3131759.
      -3085727.      -3038812.      -2991088.      -2942485.      -2893032.
      -2842790.      -2791730.      -2739879.      -2687241.      -2633907.
      -2579826.      -2525075.      -2469685.      -2413567.      -2356814.
      -2299437.      -2241415.      -2182698.      -2123355.      -2063403.
      -2002794.      -1941699.      -1880066.      -1817913.      -1755349.
      -1692307.      -1628909.      -1565141.      -1501101.      -1436693.
      -1371981.      -1307186.      -1242007.      -1176762.      -1111393.
      -1045889.      -980450.0      -914799.0      -849225.0      -783632.0
      -718014.0      -652570.0      -587001.0      -521465.0      -456132.0
      -390805.0      -325571.0      -260482.0      -195458.0      -130541.0
      -65740.00      -1042.000       63609.00       128099.0       192527.0
       256816.0       321006.0       385263.0       449367.0       513415.0
       577196.0       641051.0       704890.0       768371.0       831999.0
       895582.0       959085.0       1022504.       1085824.       1149046.
       1212109.       1275173.       1338126.       1400981.       1463724.
       1526487.       1589075.       1651435.       1713944.       1776149.
       1838255.       1900296.       1962045.       2023699.       2085122.
       2146419.       2207438.       2268238.       2328804.       2389052.
       2449030.       2508544.       2567777.       2626693.       2684913.
       2742826.       2800379.       2857142.       2913589.       2969374.
       3024604.       3079411.       3133378.       3186832.       3239512.
       3291623.       3342936.       3393337.       3443117.       3491982.
       3540112.       3587285.       3633478.       3678760.       3723153.
       3766397.       3808631.       3849874.       3889737.       3928794.
       3966620.       4003105.       4038590.       4072937.       4105991.
       4137856.       4168576.       4197943.       4226278.       4253246.
       4278965.       4303491.       4326735.       4348760.       4369432.
       4389052.       4407214.       4424225.       4440081.       4454482.
       4467856.       4479932.       4490906.       4500653.       4509102.
       4516523.       4522693.       4527778.       4531750.       4534613.
       4536521.       4537373.       4537175.       4536110.       4534209.
       4531351.       4527621.       4523166.       4517851.       4511616.
       4504706.       4496975.       4488450.       4479239.       4469156.
       4458328.       4446801.       4434507.       4421465.       4407734.
       4393284.       4378076.       4362142.       4345491.       4328103.
       4310023.       4291296.       4271887.       4251825.       4231092.
       4209724.       4187687.       4164979.       4141667.       4117662.
       4093005.       4067699.       4041710.       4015068.       3987719.
       3959691.       3930970.       3901542.       3871418.       3840579.
       3809061.       3776855.       3743965.       3710394.       3676191.
       3641347.       3605856.       3569759.       3533035.       3495749.
       3457899.       3419520.       3380627.       3341205.       3301318.
       3260942.       3220097.       3178780.       3136979.       3094665.
       3051902.       3008650.       2964876.       2920705.       2876045.
       2830992.       2785501.       2739520.       2693216.       2646423.
       2599215.       2551672.       2503610.       2455211.       2406421.
       2357131.       2307536.       2257506.       2207121.       2156394.
       2105233.       2053736.       2001864.       1949725.       1897191.
       1844170.       1790924.       1737370.       1683397.       1629116.
       1574540.       1519646.       1464442.       1409023.       1353360.
       1297375.       1241148.       1184722.       1128097.       1071282.
       1014304.       957163.0       899925.0       842570.0       785110.0
       727637.0       670090.0       612566.0       554981.0       497352.0
       439773.0       382091.0       324499.0       266871.0       209141.0
       151503.0       93789.00       36152.00      -21457.00      -78991.00
      -136363.0      -193747.0      -250956.0      -307900.0      -364573.0
      -421086.0      -477352.0      -533323.0      -589054.0      -644480.0
      -699685.0      -754582.0      -809230.0      -863669.0      -917787.0
      -971687.0      -1025292.      -1078525.      -1131584.      -1184428.
      -1236935.      -1289258.      -1341303.      -1393056.      -1444700.
      -1495907.      -1546904.      -1597646.      -1647828.      -1697835.
      -1747345.      -1796388.      -1845174.      -1893438.      -1941290.
      -1988731.      -2035818.      -2082470.      -2128570.      -2174363.
      -2219690.      -2264568.      -2309152.      -2353255.      -2396957.
      -2440218.      -2483142.      -2525693.      -2567717.      -2609495.
      -2650815.      -2691793.      -2732396.      -2772521.      -2812351.
      -2851706.      -2890800.      -2929334.      -2967503.      -3005399.
      -3042675.      -3079735.      -3116294.      -3152376.      -3188032.
      -3223321.      -3258199.      -3292489.      -3326462.      -3359848.
      -3392877.      -3425345.      -3457256.      -3488900.      -3519820.
      -3550333.      -3580251.      -3609531.      -3638519.      -3666790.
      -3694498.      -3721737.      -3748296.      -3774293.      -3799830.
      -3824810.      -3849065.      -3872731.      -3895754.      -3918206.
      -3940087.      -3961120.      -3981487.      -4001181.      -4020095.
      -4038213.      -4055493.      -4072106.      -4087780.      -4102613.
      -4116660.      -4129641.      -4141811.      -4152981.      -4163126.
      -4172268.      -4180426.      -4187583.      -4193580.      -4198581.
      -4202505.      -4205419.      -4207244.      -4208022.      -4207835.
      -4206568.      -4204289.      -4200937.      -4196637.      -4191332.
      -4184994.      -4177649.      -4169240.      -4159912.      -4149573.
      -4138229.      -4125927.      -4112581.      -4098284.      -4082991.
      -4066694.      -4049439.      -4031105.      -4011859.      -3991658.
      -3970412.      -3948280.      -3925235.      -3901231.      -3876348.
      -3850647.      -3824052.      -3796641.      -3768421.      -3739402.
      -3709582.      -3678941.      -3647583.      -3615361.      -3582394.
      -3548665.      -3514088.      -3478829.      -3442752.      -3405948.
      -3368409.      -3330064.      -3291062.      -3251309.      -3210773.
      -3169482.      -3127452.      -3084718.      -3041231.      -2997028.
      -2952161.      -2906603.      -2860391.      -2813550.      -2766159.
      -2718200.      -2669700.      -2620761.      -2571349.      -2521559.
      -2471299.      -2420616.      -2369674.      -2318311.      -2266683.
      -2214818.      -2162666.      -2110361.      -2057783.      -2005096.
      -1952287.      -1899269.      -1846233.      -1793089.      -1739830.
      -1686560.      -1633217.      -1579781.      -1526299.      -1472803.
      -1419235.      -1365632.      -1312104.      -1258585.      -1205044.
      -1151593.      -1098213.      -1044857.      -991648.0      -938492.0
      -885473.0      -832643.0      -779837.0      -727110.0      -674652.0
      -622183.0      -569769.0      -517633.0      -465420.0      -413422.0
      -361395.0      -309479.0      -257681.0      -205660.0      -153907.0
      -102041.0      -50140.00       1753.000       53871.00       105879.0
       158035.0       210294.0       262561.0       315009.0       367442.0
       419929.0       472388.0       524811.0       577207.0       629528.0
       681815.0       733799.0       785737.0       837471.0       888837.0
