     0.02500000      -12345.00      -12345.00   2.447790e+09      -12345.00
   0.0005380000       1859.976      -399.0196      -12345.00      -12345.00
      -12345.00      -12345.00      -12345.00      -12345.00      -12345.00
      -12345.00      -12345.00      -12345.00      -12345.00      -12345.00
      -12345.00      -12345.00      -12345.00      -12345.00      -12345.00
      -12345.00      -12345.00      -12345.00      -12345.00      -12345.00
      -12345.00      -66.27920       110.5354       5.000000       5.000000
      -42.72450       173.0647      -12345.00       22.00000      -12345.00
      -12345.00      -12345.00      -12345.00      -12345.00      -12345.00
      -12345.00      -12345.00      -12345.00      -12345.00      -12345.00
       4548.781       213.2367       86.72720       40.90998      -12345.00
      -12345.00      -12345.00       0.000000       90.00000      -12345.00
      -12345.00      -12345.00      -12345.00      -12345.00      -12345.00
      -12345.00      -12345.00      -12345.00      -12345.00      -12345.00
      2016       318        11         9        38
        19         6    -12345    -12345     74400
    -12345    -12345    -12345    -12345    -12345
         1    -12345    -12345    -12345    -12345
    -12345    -12345    -12345    -12345    -12345
    -12345    -12345    -12345    -12345    -12345
    -12345    -12345    -12345    -12345    -12345
         1    -12345    -12345    -12345    -12345
CASY    South Island, Ne
10      -12345  -12345  
-12345  -12345  -12345  
-12345  -12345  -12345  
-12345  -12345  -12345  
-12345  -12345  -12345  
-12345  -12345  BH1     
IU      -12345  Streckei
[...]
      -760268.0      -766833.0      -773319.0      -779741.0      -786134.0
      -792477.0      -798750.0      -804965.0      -811132.0      -817225.0
      -823254.0      -829239.0      -835147.0      -840998.0      -846771.0
      -852481.0      -858190.0      -863824.0      -869372.0      -874858.0
      -880300.0      -885692.0      -890968.0      -896177.0      -901297.0
      -906334.0      -911338.0      -916250.0      -921115.0      -925882.0
      -930548.0      -935201.0      -939747.0      -944229.0      -948659.0
      -952990.0      -957293.0      -961493.0      -965581.0      -969659.0
      -973660.0      -977556.0      -981405.0      -985187.0      -988900.0
      -992531.0      -996060.0      -999548.0      -1002960.      -1006297.
      -1009589.      -1012806.      -1015960.      -1019043.      -1022036.
      -1024945.      -1027770.      -1030504.      -1033187.      -1035777.
      -1038268.      -1040703.      -1043053.      -1045342.      -1047561.
      -1049700.      -1051784.      -1053837.      -1055830.      -1057727.
      -1059575.      -1061355.      -1063063.      -1064741.      -1066326.
      -1067833.      -1069304.      -1070709.      -1072074.      -1073360.
      -1074561.      -1075762.      -1076913.      -1077964.      -1078968.
      -1079926.      -1080838.      -1081692.      -1082467.      -1083206.
      -1083882.      -1084464.      -1084993.      -1085477.      -1085905.
      -1086285.      -1086592.      -1086812.      -1086985.      -1087102.
      -1087123.      -1087086.      -1087026.      -1086896.      -1086677.
      -1086392.      -1086048.      -1085662.      -1085212.      -1084689.
      -1084109.      -1083438.      -1082691.      -1081875.      -1081002.
      -1080098.      -1079079.      -1077952.      -1076766.      -1075494.
      -1074163.      -1072777.      -1071303.      -1069734.      -1068105.
      -1066405.      -1064615.      -1062746.      -1060814.      -1058854.
      -1056802.      -1054673.      -1052521.      -1050280.      -1047939.
      -1045505.      -1043026.      -1040499.      -1037873.      -1035198.
      -1032460.      -1029662.      -1026790.      -1023823.      -1020793.
      -1017691.      -1014551.      -1011327.      -1008008.      -1004641.
      -1001190.      -997698.0      -994168.0      -990540.0      -986817.0
      -983027.0      -979206.0      -975339.0      -971395.0      -967370.0
      -963273.0      -959123.0      -954931.0      -950668.0      -946333.0
      -941929.0      -937456.0      -932972.0      -928440.0      -923832.0
      -919172.0      -914404.0      -909606.0      -904810.0      -899949.0
      -895031.0      -890051.0      -885019.0      -879935.0      -874814.0
      -869652.0      -864450.0      -859189.0      -853865.0      -848528.0
      -843117.0      -837666.0      -832204.0      -826688.0      -821143.0
      -815520.0      -809848.0      -804169.0      -798461.0      -792755.0
      -786953.0      -781068.0      -775160.0      -769180.0      -763196.0
      -757156.0      -751028.0      -744911.0      -738781.0      -732596.0
      -726360.0      -720103.0      -713811.0      -707447.0      -701077.0
      -694671.0      -688201.0      -681715.0      -675168.0      -668591.0
      -662001.0      -655337.0      -648658.0      -641966.0      -635158.0
      -628322.0      -621498.0      -614589.0      -607685.0      -600761.0
      -593760.0      -586764.0      -579701.0      -572579.0      -565468.0
      -558340.0      -551160.0      -543912.0      -536640.0      -529340.0
      -522029.0      -514699.0      -507326.0      -499933.0      -492468.0
      -485004.0      -477566.0      -470057.0      -462519.0      -454944.0
      -447341.0      -439733.0      -432110.0      -424489.0      -416806.0
      -409049.0      -401315.0      -393597.0      -385823.0      -378053.0
      -370286.0      -362488.0      -354658.0      -346794.0      -338942.0
      -331028.0      -323054.0      -315111.0      -307156.0      -299159.0
      -291160.0      -283142.0      -275065.0      -266990.0      -258921.0
      -250817.0      -242716.0      -234612.0      -226474.0      -218302.0
      -210151.0      -202018.0      -193850.0      -185679.0      -177524.0
      -169350.0      -161169.0      -152973.0      -144748.0      -136515.0
      -128272.0      -120004.0      -111719.0      -103468.0      -95232.00
      -86978.00      -78710.00      -70400.00      -62097.00      -53797.00
      -45450.00      -37124.00      -28801.00      -20436.00      -12067.00
      -3666.000       4727.000       13066.00       21446.00       29871.00
       38279.00       46687.00       55111.00       63562.00       71996.00
       80407.00       88834.00       97255.00       105689.0       114131.0
       122577.0       131006.0       139382.0       147780.0       156173.0
       164543.0       172946.0       181347.0       189711.0       198075.0
       206460.0       214812.0       223149.0       231485.0       239801.0
       248108.0       256382.0       264640.0       272882.0       281097.0
       289314.0       297498.0       305651.0       313824.0       321980.0
       330089.0       338212.0       346319.0       354391.0       362467.0
       370510.0       378554.0       386589.0       394587.0       402581.0
       410574.0       418574.0       426511.0       434450.0       442437.0
       450315.0       458133.0       465979.0       473813.0       481610.0
       489358.0       497096.0       504830.0       512539.0       520213.0
       527835.0       535439.0       543071.0       550693.0       558248.0
       565753.0       573236.0       580724.0       588191.0       595611.0
       602998.0       610359.0       617703.0       625015.0       632302.0
       639535.0       646745.0       653941.0       661059.0       668181.0
       675306.0       682370.0       689381.0       696350.0       703297.0
       710203.0       717068.0       723908.0       730704.0       737467.0
       744209.0       750953.0       757648.0       764220.0       770750.0
       777263.0       783741.0       790227.0       796654.0       802960.0
       809213.0       815467.0       821679.0       827820.0       833888.0
       839892.0       845864.0       851777.0       857640.0       863511.0
       869319.0       875021.0       880700.0       886346.0       891907.0
       897414.0       902875.0       908260.0       913566.0       918811.0
       924027.0       929205.0       934323.0       939348.0       944394.0
       949573.0       954286.0       958811.0       964011.0       968827.0
       973143.0       977928.0       982545.0       986917.0       991412.0
       995809.0       1000125.       1004372.       1008589.       1012732.
       1016824.       1020900.       1024679.       1028517.       1032524.
       1036219.       1039898.       1043621.       1047155.       1050664.
       1054148.       1057571.       1060907.       1064157.       1067377.
       1070513.       1073571.       1076567.       1079483.       1082362.
       1085178.       1087909.       1090582.       1093181.       1095721.
       1098193.       1100590.       1102933.       1105209.       1107421.
       1109549.       1111590.       1113565.       1115484.       1117326.
       1119081.       1120780.       1122396.       1123935.       1125415.
       1126836.       1128215.       1129514.       1130743.       1131914.
       1133014.       1134038.       1134982.       1135873.       1136682.
       1137388.       1138069.       1138683.       1139167.       1139624.
       1140010.       1140273.       1140481.       1140591.       1140626.
       1140628.       1140546.       1140347.       1140062.       1139736.
       1139336.       1138830.       1138254.       1137648.       1136949.
       1136144.       1135293.       1134361.       1133340.       1132239.
       1131051.       1129764.       1128412.       1127024.       1125489.
       1123843.       1122179.       1120394.       1118536.       1116626.
       1114552.       1112385.       1110120.       1107769.       1105357.
       1102851.       1100244.       1097499.       1094675.       1091767.
       1088763.       1085685.       1082518.       1079271.       1075871.
       1072378.       1068845.       1065199.       1061473.       1057647.
       1053710.       1049695.       1045552.       1041349.       1037065.
       1032583.       1028063.       1023507.       1018815.       1014063.
       1009195.       1004189.       999142.0       994016.0       988756.0
       983434.0       978021.0       972514.0       966939.0       961225.0
       955467.0       949641.0       943682.0       937657.0       931526.0
       925337.0       919055.0       912671.0       906259.0       899721.0
       893097.0       886404.0       879608.0       872767.0       865847.0
       858819.0       851712.0       844531.0       837296.0       830000.0
       822555.0       815055.0       807512.0       799860.0       792211.0
       784482.0       776568.0       768604.0       760639.0       752581.0
       744454.0       736278.0       728002.0       719640.0       711223.0
       702741.0       694185.0       685568.0       676865.0       668084.0
       659250.0       650355.0       641409.0       632386.0       623285.0
       614124.0       604894.0       595601.0       586261.0       576900.0
       567435.0       557871.0       548311.0       538696.0       529004.0
       519297.0       509526.0       499643.0       489711.0       479746.0
       469692.0       459603.0       449490.0       439282.0       429029.0
       418728.0       408337.0       397934.0       387493.0       376968.0
       366432.0       355886.0       345264.0       334624.0       323959.0
       313194.0       302399.0       291597.0       280741.0       269842.0
       258907.0       247918.0       236940.0       225952.0       214865.0
       203735.0       192594.0       181442.0       170243.0       159007.0
       147744.0       136439.0       125140.0       113811.0       102484.0
       91158.00       79763.00       68364.00       56953.00       45517.00
       34075.00       22603.00       11130.00      -363.0000      -11875.00
      -23380.00      -34889.00      -46394.00      -57910.00      -69442.00
      -81005.00      -92549.00      -104085.0      -115627.0      -127122.0
      -138657.0      -150207.0      -161754.0      -173297.0      -184819.0
      -196367.0      -207893.0      -219419.0      -230954.0      -242459.0
      -253968.0      -265488.0      -276953.0      -288398.0      -299866.0
      -311325.0      -322794.0      -334223.0      -345592.0      -356955.0
      -368317.0      -379664.0      -390962.0      -402212.0      -413466.0
      -424727.0      -435986.0      -447211.0      -458349.0      -469485.0
      -480602.0      -491703.0      -502829.0      -513848.0      -524898.0
      -535889.0      -546819.0      -557842.0      -568612.0      -579420.0
      -590307.0      -600978.0      -611719.0      -622371.0      -632915.0
      -643523.0      -654017.0      -664446.0      -674890.0      -685263.0
      -695559.0      -705832.0      -716038.0      -726167.0      -736297.0
      -746366.0      -756359.0      -766314.0      -776175.0      -785994.0
      -795827.0      -805572.0      -815207.0      -824763.0      -834219.0
      -843677.0      -853091.0      -862380.0      -871630.0      -880837.0
      -889974.0      -899000.0      -907942.0      -916848.0      -925650.0
      -934349.0      -942968.0      -951485.0      -959903.0      -968235.0
      -976495.0      -984679.0      -992796.0      -1000848.      -1008771.
      -1016587.      -1024325.      -1031976.      -1039565.      -1047031.
      -1054402.      -1061677.      -1068825.      -1075916.      -1082904.
      -1089798.      -1096610.      -1103288.      -1109895.      -1116392.
      -1122763.      -1129098.      -1135307.      -1141353.      -1147343.
      -1153259.      -1159072.      -1164763.      -1170311.      -1175759.
      -1181111.      -1186373.      -1191525.      -1196550.      -1201532.
      -1206400.      -1211080.      -1215707.      -1220258.      -1224667.
      -1228983.      -1233189.      -1237293.      -1241304.      -1245183.
      -1248950.      -1252646.      -1256205.      -1259635.      -1263000.
      -1266206.      -1269259.      -1272272.      -1275172.      -1277907.
      -1280577.      -1283161.      -1285606.      -1287968.      -1290239.
      -1292377.      -1294393.      -1296328.      -1298147.      -1299841.
      -1301469.      -1302962.      -1304347.      -1305595.      -1306678.
      -1307739.      -1308671.      -1309422.      -1310127.      -1310721.
      -1311152.      -1311486.      -1311693.      -1311785.      -1311813.
      -1311693.      -1311478.      -1311165.      -1310700.      -1310177.
      -1309527.      -1308758.      -1307898.      -1306888.      -1305762.
      -1304513.      -1303210.      -1301785.      -1300209.      -1298549.
      -1296748.      -1294890.      -1292927.      -1290792.      -1288576.
      -1286238.      -1283795.      -1281290.      -1278615.      -1275809.
      -1272948.      -1269961.      -1266862.      -1263649.      -1260306.
      -1256866.      -1253308.      -1249620.      -1245813.      -1241916.
      -1237948.      -1233844.      -1229582.      -1225256.      -1220844.
      -1216263.      -1211540.      -1206762.      -1201898.      -1196886.
      -1191783.      -1186578.      -1181247.      -1175806.      -1170246.
      -1164565.      -1158819.      -1153000.      -1147032.      -1140983.
      -1134822.      -1128505.      -1122136.      -1115667.      -1109060.
      -1102375.      -1095566.      -1088651.      -1081679.      -1074563.
      -1067345.      -1060093.      -1052720.      -1045246.      -1037679.
      -1030006.      -1022277.      -1014449.      -1006532.      -998534.0
      -990431.0      -982259.0      -974007.0      -965646.0      -957193.0
      -948690.0      -940097.0      -931373.0      -922578.0      -913730.0
      -904789.0      -895750.0      -886665.0      -877495.0      -868218.0
      -858894.0      -849479.0      -839958.0      -830409.0      -820790.0
      -811087.0      -801336.0      -791469.0      -781558.0      -771568.0
      -761462.0      -751372.0      -741203.0      -730925.0      -720619.0
      -710287.0      -699872.0      -689397.0      -678896.0      -668315.0
      -657654.0      -646956.0      -636236.0      -625449.0      -614602.0
      -603693.0      -592769.0      -581804.0      -570769.0      -559683.0
      -548390.0      -537362.0      -526342.0      -514752.0      -503509.0
      -492369.0      -480794.0      -469387.0      -457986.0      -446435.0
      -434855.0      -423301.0      -411852.0      -400147.0      -388368.0
      -376821.0      -365114.0      -353328.0      -341592.0      -329790.0
      -318000.0      -306169.0      -294347.0      -282496.0      -270591.0
      -258740.0      -246848.0      -234931.0      -222993.0      -211017.0
      -199101.0      -187158.0      -175183.0      -163219.0      -151210.0
      -139210.0      -127221.0      -115250.0      -103256.0      -91254.00
      -79270.00      -67267.00      -55331.00      -43383.00      -31395.00
      -19479.00      -7599.000       4267.000       16135.00       28017.00
       39887.00       51767.00       63594.00       75373.00       87180.00
       98925.00       110617.0       122330.0       133972.0       145592.0
       157227.0       168781.0       180326.0       191815.0       203215.0
       214608.0       226011.0       237400.0       248656.0       259923.0
       271132.0       282223.0       293385.0       304483.0       315532.0
       326520.0       337420.0       348308.0       359162.0       370005.0
       380751.0       391419.0       402082.0       412663.0       423138.0
       433597.0       443998.0       454253.0       464527.0       474788.0
       484951.0       495071.0       505069.0       515035.0       524985.0
       534840.0       544629.0       554361.0       564032.0       573651.0
       583245.0       592751.0       602154.0       611494.0       620748.0
       629962.0       639174.0       648287.0       657228.0       666190.0
       675132.0       683924.0       692669.0       701288.0       709830.0
       718310.0       726715.0       735078.0       743308.0       751516.0
       759641.0       767662.0       775640.0       783477.0       791231.0
       798904.0       806500.0       814031.0       821477.0       828875.0
       836159.0       843335.0       850420.0       857402.0       864345.0
       871193.0       877888.0       884478.0       891011.0       897482.0
       903808.0       910031.0       916175.0       922161.0       928066.0
       933912.0       939616.0       945201.0       950721.0       956137.0
       961435.0       966630.0       971709.0       976717.0       981640.0
       986410.0       991087.0       995671.0       1000140.       1004527.
       1008757.       1012877.       1016941.       1020851.       1024631.
       1028369.       1032000.       1035472.       1038879.       1042164.
       1045314.       1048436.       1051427.       1054284.       1057100.
       1059795.       1062371.       1064852.       1067217.       1069476.
       1071640.       1073705.       1075656.       1077534.       1079276.
       1080885.       1082435.       1083880.       1085230.       1086463.
       1087605.       1088673.       1089647.       1090544.       1091321.
       1092006.       1092590.       1093097.       1093558.       1093871.
       1094109.       1094259.       1094279.       1094256.       1094143.
       1093938.       1093635.       1093195.       1092660.       1092037.
       1091334.       1090535.       1089626.       1088644.       1087581.
       1086434.       1085175.       1083814.       1082404.       1080878.
       1079257.       1077565.       1075747.       1073864.       1071875.
       1069808.       1067751.       1065545.       1063232.       1060884.
       1058412.       1055851.       1053192.       1050441.       1047645.
       1044792.       1041817.       1038728.       1035578.       1032386.
