     0.05000000      -12345.00      -12345.00   5.226100e+09      -12345.00
   0.0005380000       1859.951      -323.0196      -12345.00      -12345.00
      -12345.00      -12345.00      -12345.00      -12345.00      -12345.00
      -12345.00      -12345.00      -12345.00      -12345.00      -12345.00
      -12345.00      -12345.00      -12345.00      -12345.00      -12345.00
      -12345.00      -12345.00      -12345.00      -12345.00      -12345.00
      -12345.00      -20.08820       146.2545       320.0000       37.00000
      -42.72450       173.0647      -12345.00       22.00000      -12345.00
      -12345.00      -12345.00      -12345.00      -12345.00      -12345.00
      -12345.00      -12345.00      -12345.00      -12345.00      -12345.00
       3546.971       306.6562       141.0269       31.90009      -12345.00
      -12345.00      -12345.00       0.000000       0.000000      -12345.00
      -12345.00      -12345.00      -12345.00      -12345.00      -12345.00
      -12345.00      -12345.00      -12345.00      -12345.00      -12345.00
      2016       318        11         8        22
        19         6    -12345    -12345     37200
    -12345    -12345    -12345    -12345    -12345
         1    -12345    -12345    -12345    -12345
    -12345    -12345    -12345    -12345    -12345
    -12345    -12345    -12345    -12345    -12345
    -12345    -12345    -12345    -12345    -12345
         1    -12345    -12345    -12345    -12345
CTAO    South Island, Ne
00      -12345  -12345  
-12345  -12345  -12345  
-12345  -12345  -12345  
-12345  -12345  -12345  
-12345  -12345  -12345  
-12345  -12345  BHZ     
IU      -12345  Streckei
[...]
       1080779.       1094922.       1108931.       1122867.       1136665.
       1150271.       1163844.       1177357.       1190677.       1203966.
       1217025.       1229870.       1242621.       1255088.       1267396.
       1279479.       1291302.       1302854.       1314152.       1325316.
       1336234.       1347018.       1357699.       1368219.       1378613.
       1388954.       1399231.       1409432.       1419611.       1429740.
       1439869.       1449996.       1460146.       1470263.       1480312.
       1490375.       1500429.       1510400.       1520371.       1530402.
       1540400.       1550481.       1560561.       1570682.       1580869.
       1591073.       1601350.       1611553.       1621860.       1632163.
       1642429.       1652727.       1662889.       1672993.       1683051.
       1692907.       1702605.       1712168.       1721407.       1730448.
       1739144.       1747536.       1755733.       1763532.       1771047.
       1778316.       1785310.       1791962.       1798325.       1804339.
       1809957.       1815225.       1820046.       1824416.       1828293.
       1831672.       1834490.       1836777.       1838612.       1839914.
       1840738.       1841102.       1840978.       1840383.       1839217.
       1837487.       1835257.       1832419.       1829022.       1825174.
       1820817.       1816081.       1811046.       1805621.       1799864.
       1793789.       1787408.       1780792.       1773901.       1766808.
       1759552.       1752078.       1744457.       1736649.       1728663.
       1720565.       1712252.       1703791.       1695191.       1686423.
       1677561.       1668507.       1659345.       1650037.       1640610.
       1631136.       1621459.       1611729.       1601888.       1591926.
       1581848.       1571655.       1561445.       1551097.       1540725.
       1530326.       1519844.       1509329.       1498781.       1488135.
       1477343.       1466459.       1455437.       1444237.       1432856.
       1421271.       1409475.       1397490.       1385217.       1372670.
       1359870.       1346735.       1333330.       1319571.       1305435.
       1291019.       1276258.       1261125.       1245642.       1229839.
       1213719.       1197220.       1180415.       1163303.       1145861.
       1128138.       1110072.       1091758.       1073183.       1054324.
       1035210.       1015798.       996128.0       976107.0       955756.0
       935063.0       913969.0       892518.0       870681.0       848395.0
       825657.0       802442.0       778691.0       754514.0       729864.0
       704697.0       679103.0       652968.0       626312.0       599182.0
       571487.0       543336.0       514671.0       485435.0       455754.0
       425618.0       395020.0       363977.0       332564.0       300703.0
       268416.0       235744.0       202597.0       169099.0       135259.0
       100982.0       66303.00       31283.00      -4165.000      -39973.00
      -76189.00      -112774.0      -149622.0      -186946.0      -224470.0
      -262303.0      -300453.0      -338697.0      -377289.0      -415908.0
      -454552.0      -493323.0      -532132.0      -571002.0      -609875.0
      -648808.0      -687660.0      -726603.0      -765561.0      -804457.0
      -843245.0      -881919.0      -920603.0      -959035.0      -997447.0
      -1035729.      -1073953.      -1112193.      -1150244.      -1188354.
      -1226385.      -1264255.      -1302098.      -1339854.      -1377364.
      -1414860.      -1452235.      -1489421.      -1526425.      -1563109.
      -1599785.      -1636086.      -1672176.      -1708122.      -1743640.
      -1779044.      -1814070.      -1848890.      -1883471.      -1917639.
      -1951596.      -1985104.      -2018257.      -2050968.      -2083290.
      -2115236.      -2146550.      -2177543.      -2207952.      -2237848.
      -2267409.      -2296385.      -2324970.      -2353117.      -2380953.
      -2408348.      -2435344.      -2462048.      -2488383.      -2514452.
      -2540086.      -2565419.      -2590411.      -2615166.      -2639632.
      -2663732.      -2687618.      -2711184.      -2734595.      -2757727.
      -2780660.      -2803445.      -2825953.      -2848296.      -2870514.
      -2892646.      -2914620.      -2936586.      -2958516.      -2980411.
      -3002368.      -3024313.      -3046257.      -3068214.      -3090309.
      -3112475.      -3134691.      -3156997.      -3179358.      -3201813.
      -3224305.      -3246847.      -3269412.      -3292050.      -3314728.
      -3337331.      -3359971.      -3382616.      -3405272.      -3427879.
      -3450514.      -3473249.      -3495954.      -3518699.      -3541362.
      -3563940.      -3586501.      -3608861.      -3631051.      -3653113.
      -3674915.      -3696544.      -3717969.      -3739079.      -3760013.
      -3780617.      -3800882.      -3820918.      -3840602.      -3859985.
      -3878974.      -3897559.      -3915816.      -3933602.      -3951016.
      -3967982.      -3984337.      -4000208.      -4015514.      -4030300.
      -4044586.      -4058251.      -4071360.      -4083905.      -4095845.
      -4107134.      -4117885.      -4128053.      -4137587.      -4146636.
      -4155099.      -4163025.      -4170430.      -4177279.      -4183678.
      -4189538.      -4194887.      -4199838.      -4204286.      -4208265.
      -4211806.      -4214808.      -4217384.      -4219553.      -4221270.
      -4222581.      -4223468.      -4223856.      -4223800.      -4223313.
      -4222325.      -4220869.      -4218883.      -4216326.      -4213202.
      -4209469.      -4205049.      -4199919.      -4194070.      -4187500.
      -4180235.      -4172244.      -4163494.      -4153997.      -4143742.
      -4132729.      -4120887.      -4108161.      -4094632.      -4080247.
      -4065029.      -4048925.      -4031950.      -4014146.      -3995374.
      -3975745.      -3955264.      -3933857.      -3911625.      -3888551.
      -3864664.      -3839980.      -3814475.      -3788217.      -3761143.
      -3733267.      -3704561.      -3675023.      -3644728.      -3613619.
      -3581702.      -3548992.      -3515566.      -3481417.      -3446563.
      -3411068.      -3374874.      -3338072.      -3300639.      -3262511.
      -3223943.      -3184899.      -3145331.      -3105381.      -3065010.
      -3024342.      -2983298.      -2941914.      -2900315.      -2858418.
      -2816379.      -2774166.      -2731840.      -2689367.      -2646713.
      -2604055.      -2561289.      -2518390.      -2475512.      -2432675.
      -2389702.      -2346752.      -2303840.      -2260904.      -2217945.
      -2174912.      -2132055.      -2089035.      -2045889.      -2002864.
      -1959748.      -1916622.      -1873457.      -1830219.      -1786895.
      -1743586.      -1700165.      -1656583.      -1612957.      -1569171.
      -1525286.      -1481281.      -1437046.      -1392587.      -1347988.
      -1303137.      -1258053.      -1212799.      -1167211.      -1121339.
      -1075102.      -1028480.      -981616.0      -934190.0      -886260.0
      -837988.0      -789166.0      -739765.0      -689913.0      -639504.0
      -588317.0      -536736.0      -484546.0      -431675.0      -378381.0
      -324495.0      -270050.0      -214940.0      -159294.0      -103125.0
      -46256.00       11180.00       69237.00       127849.0       186890.0
       246681.0       306859.0       367460.0       428724.0       490411.0
       552613.0       615168.0       678189.0       741651.0       805619.0
       869846.0       934370.0       999361.0       1064492.       1130048.
       1195726.       1261611.       1327702.       1393827.       1460180.
       1526310.       1592475.       1658653.       1724571.       1790476.
       1856122.       1921633.       1986781.       2051610.       2116344.
       2180486.       2244410.       2307959.       2370983.       2433685.
       2495854.       2557471.       2618633.       2679335.       2739353.
       2798854.       2857675.       2915779.       2973194.       3029921.
       3086063.       3141258.       3195703.       3249343.       3302059.
       3353844.       3404685.       3454887.       3503752.       3551574.
       3598749.       3644594.       3689601.       3733597.       3776535.
       3818554.       3859428.       3899440.       3938467.       3976560.
       4013612.       4049928.       4085199.       4119372.       4152790.
       4185108.       4216651.       4247110.       4276678.       4305307.
       4332864.       4359762.       4385575.       4410453.       4434454.
       4457594.       4479792.       4501020.       4521583.       4541022.
       4559587.       4577353.       4594096.       4610129.       4625232.
       4639541.       4653011.       4665652.       4677559.       4688640.
       4699012.       4708403.       4717033.       4724827.       4731754.
       4737958.       4743258.       4747859.       4751658.       4754783.
       4757104.       4758592.       4759497.       4759563.       4759002.
       4757775.       4755702.       4752908.       4749362.       4745108.
       4740131.       4734436.       4727901.       4720664.       4712715.
       4703883.       4694323.       4683929.       4672751.       4660778.
       4647992.       4634428.       4620072.       4604959.       4589015.
       4572308.       4554822.       4536616.       4517643.       4497830.
       4477345.       4456130.       4434205.       4411631.       4388295.
       4364230.       4339447.       4313902.       4287672.       4260735.
       4233093.       4204826.       4175842.       4146123.       4115704.
       4084567.       4052725.       4020153.       3986886.       3952850.
       3918125.       3882755.       3846647.       3809933.       3772511.
       3734443.       3695756.       3656420.       3616536.       3576001.
       3534953.       3493309.       3451110.       3408392.       3365054.
       3321263.       3276878.       3232003.       3186649.       3140731.
       3094357.       3047409.       2999956.       2952037.       2903662.
       2854850.       2805522.       2755886.       2705874.       2655444.
       2604710.       2553525.       2501976.       2450108.       2397836.
       2345169.       2292119.       2238630.       2184820.       2130529.
       2075780.       2020658.       1964899.       1908724.       1852108.
       1794975.       1737400.       1679319.       1620654.       1561558.
       1501914.       1441598.       1380754.       1319336.       1257459.
       1194905.       1131760.       1067987.       1003569.       938680.0
       873157.0       807025.0       740302.0       673005.0       605080.0
       536610.0       467475.0       397686.0       327280.0       256227.0
       184668.0       112406.0       39645.00      -33557.00      -107439.0
      -181625.0      -256292.0      -331413.0      -406739.0      -482625.0
      -558810.0      -635191.0      -712114.0      -789158.0      -866295.0
      -944092.0      -1021968.      -1100041.      -1178269.      -1256513.
      -1335046.      -1413443.      -1492169.      -1570693.      -1649140.
      -1727756.      -1806097.      -1884580.      -1962448.      -2040242.
      -2117938.      -2195003.      -2271953.      -2348349.      -2424243.
      -2499550.      -2574368.      -2648506.      -2721987.      -2794892.
      -2866919.      -2938605.      -3009632.      -3079770.      -3149399.
      -3218324.      -3286405.      -3353955.      -3420722.      -3486763.
      -3552099.      -3616475.      -3680290.      -3743094.      -3805091.
      -3866267.      -3926439.      -3985886.      -4044351.      -4102071.
      -4158746.      -4214566.      -4269587.      -4323557.      -4376633.
      -4428708.      -4479886.      -4530146.      -4579395.      -4627641.
      -4675083.      -4721547.      -4767086.      -4811702.      -4855272.
      -4897822.      -4939542.      -4980372.      -5020175.      -5059201.
      -5097003.      -5133961.      -5170050.      -5204958.      -5239099.
      -5272169.      -5304213.      -5335467.      -5365606.      -5394801.
      -5423221.      -5450558.      -5477091.      -5502721.      -5527471.
      -5551417.      -5574515.      -5596771.      -5618034.      -5638733.
      -5658525.      -5677420.      -5695760.      -5713066.      -5729677.
      -5745582.      -5760320.      -5774444.      -5787743.      -5800036.
      -5811654.      -5822253.      -5832022.      -5840932.      -5848855.
      -5855759.      -5861633.      -5866762.      -5870883.      -5874172.
      -5876574.      -5877846.      -5878252.      -5877606.      -5876028.
      -5873482.      -5869900.      -5865474.      -5859817.      -5853143.
      -5845495.      -5836557.      -5826631.      -5815507.      -5803189.
      -5789806.      -5775213.      -5759500.      -5742584.      -5724539.
      -5705264.      -5684720.      -5662990.      -5639986.      -5615768.
      -5590304.      -5563567.      -5535598.      -5506428.      -5476000.
      -5444341.      -5411487.      -5377475.      -5342303.      -5305871.
      -5268250.      -5229489.      -5189610.      -5148544.      -5106355.
      -5063081.      -5018676.      -4973260.      -4926768.      -4879253.
      -4830819.      -4781366.      -4730932.      -4679637.      -4627409.
      -4574328.      -4520538.      -4465874.      -4410317.      -4353997.
      -4296867.      -4238855.      -4180155.      -4120729.      -4060498.
      -3999665.      -3938110.      -3875972.      -3813280.      -3750020.
      -3686384.      -3622261.      -3557671.      -3492603.      -3427053.
      -3361067.      -3294624.      -3227663.      -3160302.      -3092493.
      -3024163.      -2955497.      -2886361.      -2816714.      -2746716.
      -2676227.      -2605040.      -2533630.      -2461704.      -2389111.
      -2316191.      -2242800.      -2169109.      -2094849.      -2020339.
      -1945483.      -1870244.      -1794870.      -1718867.      -1642642.
      -1566180.      -1489272.      -1412066.      -1334644.      -1256867.
      -1178747.      -1100486.      -1021635.      -942652.0      -863407.0
      -783691.0      -703893.0      -623674.0      -543155.0      -462370.0
      -381344.0      -299938.0      -218333.0      -136414.0      -54232.00
       28013.00       110606.0       193223.0       276011.0       358912.0
       441889.0       524932.0       608003.0       691063.0       773922.0
       856742.0       939479.0       1022185.       1104590.       1186836.
       1269210.       1351142.       1433016.       1514860.       1596491.
       1678194.       1759504.       1840774.       1921980.       2002768.
       2083365.       2163699.       2243619.       2323240.       2402413.
       2480948.       2559247.       2636780.       2713615.       2790184.
       2866067.       2941268.       3015666.       3089593.       3162878.
       3235264.       3307148.       3378138.       3448420.       3517743.
       3586168.       3653789.       3720245.       3786104.       3850718.
       3914455.       3977265.       4038779.       4099640.       4159150.
       4217584.       4274991.       4331121.       4386383.       4440361.
       4493174.       4545056.       4595593.       4645010.       4693322.
       4740457.       4786630.       4831563.       4875286.       4917947.
       4959376.       4999613.       5038927.       5076922.       5113661.
       5149425.       5183872.       5217274.       5249540.       5280669.
       5310723.       5339637.       5367721.       5394700.       5420646.
       5445795.       5469808.       5492869.       5515247.       5536563.
       5556977.       5576596.       5595075.       5612860.       5629748.
       5645460.       5660526.       5674669.       5687864.       5700248.
       5711718.       5722323.       5732036.       5741060.       5749214.
       5756413.       5762869.       5768487.       5773242.       5777188.
       5780256.       5782552.       5784025.       5784578.       5784344.
       5783215.       5781226.       5778357.       5774627.       5769998.
       5764411.       5757893.       5750273.       5741745.       5732182.
       5721605.       5710059.       5697333.       5683594.       5668725.
       5652734.       5635665.       5617443.       5598179.       5577862.
       5556382.       5533813.       5510194.       5485494.       5459648.
       5432661.       5404617.       5375352.       5344914.       5313383.
       5280735.       5247064.       5212305.       5176511.       5139745.
       5101950.       5063199.       5023415.       4982615.       4940828.
       4898054.       4854374.       4809796.       4764396.       4718126.
       4671073.       4623219.       4574721.       4525556.       4475536.
       4424947.       4373587.       4321592.       4268974.       4215612.
       4161804.       4107343.       4052303.       3996671.       3940449.
       3883746.       3826422.       3768558.       3710103.       3651086.
       3591529.       3531354.       3470659.       3409470.       3347757.
       3285563.       3222958.       3159945.       3096512.       3032785.
       2968716.       2904331.       2839552.       2774541.       2709402.
       2643926.       2578396.       2512481.       2446405.       2380237.
       2313754.       2247397.       2180927.       2114393.       2047687.
       1981114.       1914650.       1847952.       1781516.       1715105.
       1648803.       1582444.       1516111.       1449923.       1383589.
       1317585.       1251455.       1185315.       1119277.       1053171.
       987195.0       921143.0       855215.0       789267.0       723433.0
       657615.0       591741.0       526011.0       460340.0       394826.0
       329193.0       263823.0       198617.0       133210.0       68074.00
       3001.000      -61967.00      -126785.0      -191484.0      -255988.0
      -320202.0      -384292.0      -448270.0      -511906.0      -575540.0
      -638834.0      -701823.0      -764561.0      -827185.0      -889476.0
