     0.05000000      -12345.00      -12345.00   4.207720e+09      -12345.00
   0.0005380000       1859.951      -399.0196      -12345.00      -12345.00
      -12345.00      -12345.00      -12345.00      -12345.00      -12345.00
      -12345.00      -12345.00      -12345.00      -12345.00      -12345.00
      -12345.00      -12345.00      -12345.00      -12345.00      -12345.00
      -12345.00      -12345.00      -12345.00      -12345.00      -12345.00
      -12345.00      -66.27920       110.5354       5.000000       5.000000
      -42.72450       173.0647      -12345.00       22.00000      -12345.00
      -12345.00      -12345.00      -12345.00      -12345.00      -12345.00
      -12345.00      -12345.00      -12345.00      -12345.00      -12345.00
       4548.781       213.2367       86.72720       40.90998      -12345.00
      -12345.00      -12345.00       0.000000       0.000000      -12345.00
      -12345.00      -12345.00      -12345.00      -12345.00      -12345.00
      -12345.00      -12345.00      -12345.00      -12345.00      -12345.00
      2016       318        11         9        38
        19         6    -12345    -12345     37200
    -12345    -12345    -12345    -12345    -12345
         1    -12345    -12345    -12345    -12345
    -12345    -12345    -12345    -12345    -12345
    -12345    -12345    -12345    -12345    -12345
    -12345    -12345    -12345    -12345    -12345
         1    -12345    -12345    -12345    -12345
CASY    South Island, Ne
00      -12345  -12345  
-12345  -12345  -12345  
-12345  -12345  -12345  
-12345  -12345  -12345  
-12345  -12345  -12345  
-12345  -12345  BHZ     
IU      -12345  Streckei
[...]
       189407.0       150993.0       112403.0       73753.00       34961.00
      -4073.000      -43048.00      -82293.00      -121442.0      -160768.0
      -200234.0      -239511.0      -279155.0      -318654.0      -358122.0
      -397772.0      -437209.0      -476780.0      -516356.0      -555744.0
      -595120.0      -634404.0      -673544.0      -712623.0      -751592.0
      -790568.0      -829440.0      -867980.0      -906540.0      -944917.0
      -983061.0      -1021096.      -1058843.      -1096377.      -1133641.
      -1170790.      -1207715.      -1244507.      -1281221.      -1317656.
      -1353956.      -1389963.      -1425625.      -1460971.      -1496082.
      -1530821.      -1565258.      -1599437.      -1633100.      -1666510.
      -1699552.      -1732186.      -1764510.      -1796378.      -1827955.
      -1859123.      -1889788.      -1920132.      -1949973.      -1979226.
      -2007955.      -2036217.      -2063955.      -2091098.      -2117807.
      -2143947.      -2169570.      -2194582.      -2218898.      -2242741.
      -2265953.      -2288502.      -2310376.      -2331587.      -2352248.
      -2372333.      -2391666.      -2410323.      -2428388.      -2445714.
      -2462447.      -2478630.      -2494192.      -2509076.      -2523332.
      -2536990.      -2550000.      -2562444.      -2574246.      -2585317.
      -2595647.      -2605315.      -2614338.      -2622620.      -2630312.
      -2637228.      -2643390.      -2648993.      -2653761.      -2657900.
      -2661381.      -2664107.      -2666185.      -2667422.      -2667989.
      -2667875.      -2667024.      -2665492.      -2663198.      -2660171.
      -2656366.      -2651938.      -2646615.      -2640505.      -2633940.
      -2626420.      -2618265.      -2609414.      -2599728.      -2589524.
      -2578397.      -2566509.      -2553894.      -2540494.      -2526380.
      -2511430.      -2495806.      -2479387.      -2462166.      -2444182.
      -2425380.      -2405900.      -2385681.      -2364678.      -2342996.
      -2320565.      -2297468.      -2273750.      -2249194.      -2223852.
      -2197836.      -2171105.      -2143615.      -2115507.      -2086702.
      -2057210.      -2027174.      -1996404.      -1965111.      -1933240.
      -1900628.      -1867563.      -1833839.      -1799432.      -1764468.
      -1728784.      -1692523.      -1655755.      -1618412.      -1580479.
      -1542027.      -1503049.      -1463461.      -1423357.      -1382834.
      -1341711.      -1300039.      -1257953.      -1215354.      -1172324.
      -1128814.      -1084854.      -1040472.      -995725.0      -950696.0
      -905310.0      -859610.0      -813609.0      -767251.0      -720647.0
      -673883.0      -626847.0      -579744.0      -532499.0      -484946.0
      -437293.0      -389529.0      -341630.0      -293650.0      -245645.0
      -197544.0      -149357.0      -101120.0      -52754.00      -4422.000
       43915.00       92202.00       140459.0       188767.0       236923.0
       285178.0       333410.0       381554.0       429739.0       477752.0
       525686.0       573485.0       621240.0       668861.0       716269.0
       763690.0       810912.0       857956.0       904909.0       951747.0
       998364.0       1044747.       1091020.       1137022.       1182842.
       1228424.       1273603.       1318539.       1363249.       1407534.
       1451460.       1495156.       1538410.       1581365.       1623970.
       1666132.       1707982.       1749416.       1790363.       1830705.
       1870655.       1910098.       1949007.       1987455.       2025290.
       2062657.       2099279.       2135312.       2170760.       2205627.
       2239944.       2273560.       2306724.       2339187.       2371100.
       2402305.       2432799.       2462742.       2491885.       2520362.
       2548104.       2575175.       2601533.       2627168.       2652118.
       2676266.       2699660.       2722283.       2744146.       2765335.
       2785665.       2805243.       2824075.       2842083.       2859478.
       2876081.       2891921.       2906966.       2921301.       2934809.
       2947489.       2959427.       2970370.       2980693.       2990070.
       2998499.       3006193.       3012901.       3018798.       3023763.
       3027924.       3031178.       3033513.       3035080.       3035696.
       3035378.       3034111.       3031999.       3028969.       3024995.
       3020161.       3014526.       3008039.       3000622.       2992305.
       2983056.       2972955.       2962018.       2950250.       2937602.
       2924087.       2909697.       2894471.       2878502.       2861855.
       2844305.       2825799.       2806655.       2786748.       2766029.
       2744571.       2722450.       2699553.       2675990.       2651742.
       2626595.       2600857.       2574377.       2547158.       2519147.
       2490256.       2460688.       2430364.       2399352.       2367573.
       2335098.       2302027.       2268255.       2233756.       2198658.
       2163045.       2126640.       2089487.       2051745.       2013304.
       1974187.       1934490.       1894194.       1853271.       1811872.
       1770021.       1727652.       1684798.       1641533.       1597913.
       1553723.       1509069.       1464134.       1418805.       1373121.
       1327068.       1280695.       1233957.       1186900.       1139513.
       1091652.       1043450.       994894.0       946043.0       896892.0
       847527.0       797955.0       748036.0       697942.0       647578.0
       596985.0       546221.0       495171.0       443988.0       392656.0
       341089.0       289416.0       237486.0       185347.0       133209.0
       80869.00       28515.00      -23835.00      -76237.00      -128667.0
      -181245.0      -233720.0      -286121.0      -338509.0      -390918.0
      -443222.0      -495517.0      -547669.0      -599476.0      -651385.0
      -703032.0      -754545.0      -806014.0      -857178.0      -908208.0
      -958914.0      -1009406.      -1059578.      -1109427.      -1159140.
      -1208542.      -1257611.      -1306315.      -1354803.      -1403019.
      -1450808.      -1498244.      -1545194.      -1591735.      -1637822.
      -1683506.      -1728768.      -1773562.      -1817917.      -1861686.
      -1905095.      -1948092.      -1990638.      -2032465.      -2073679.
      -2114518.      -2154666.      -2194242.      -2233326.      -2271832.
      -2309788.      -2347185.      -2383910.      -2420222.      -2455962.
      -2491122.      -2525698.      -2559449.      -2592754.      -2625319.
      -2657210.      -2688620.      -2719319.      -2749383.      -2778784.
      -2807492.      -2835441.      -2862626.      -2888994.      -2914556.
      -2939324.      -2963293.      -2986383.      -3008577.      -3030076.
      -3050723.      -3070454.      -3089361.      -3107297.      -3124404.
      -3140746.      -3156063.      -3170607.      -3184270.      -3197025.
      -3209021.      -3219898.      -3230040.      -3239233.      -3247585.
      -3255222.      -3261671.      -3267508.      -3272223.      -3275999.
      -3279257.      -3281361.      -3282788.      -3283359.      -3282913.
      -3281683.      -3279414.      -3276325.      -3272340.      -3267301.
      -3261480.      -3254789.      -3247180.      -3238825.      -3229570.
      -3219433.      -3208373.      -3196363.      -3183539.      -3169703.
      -3154933.      -3139294.      -3122682.      -3105146.      -3086628.
      -3067195.      -3046858.      -3025696.      -3003719.      -2980721.
      -2956977.      -2932282.      -2906607.      -2880119.      -2852644.
      -2824431.      -2795229.      -2765172.      -2734392.      -2702718.
      -2670325.      -2637079.      -2602997.      -2568168.      -2532636.
      -2496272.      -2459187.      -2421504.      -2383004.      -2343782.
      -2303944.      -2263457.      -2222182.      -2180260.      -2137615.
      -2094274.      -2050489.      -2006001.      -1960961.      -1915395.
      -1869182.      -1822531.      -1775378.      -1727673.      -1679587.
      -1631051.      -1582007.      -1532495.      -1482459.      -1431934.
      -1380870.      -1329313.      -1277415.      -1225159.      -1172430.
      -1119387.      -1065993.      -1012174.      -958036.0      -903362.0
      -848294.0      -792862.0      -736948.0      -680712.0      -624130.0
      -567155.0      -509854.0      -452325.0      -394603.0      -336560.0
      -278142.0      -219589.0      -160817.0      -101818.0      -42819.00
       16335.00       75617.00       134910.0       194228.0       253502.0
       312714.0       371922.0       431175.0       490438.0       549516.0
       608419.0       667205.0       725881.0       784289.0       842390.0
       900421.0       958137.0       1015565.       1072804.       1129788.
       1186536.       1242894.       1298838.       1354508.       1409834.
       1464734.       1519381.       1573614.       1627515.       1681028.
       1734098.       1786882.       1839162.       1890988.       1942307.
       1993121.       2043383.       2093270.       2142789.       2191797.
       2240379.       2288248.       2335671.       2382395.       2428370.
       2474012.       2518679.       2562724.       2606301.       2648924.
       2690752.       2731672.       2771920.       2811492.       2850429.
       2888668.       2925960.       2962491.       2998142.       3032977.
       3066934.       3100036.       3132294.       3163741.       3194439.
       3224147.       3253073.       3281090.       3308201.       3334393.
       3359580.       3383881.       3407114.       3429450.       3450843.
       3471233.       3490639.       3508986.       3526254.       3542567.
       3557802.       3571939.       3585234.       3597384.       3608392.
       3618321.       3627142.       3634800.       3641348.       3646808.
       3650975.       3654210.       3656253.       3656912.       3656581.
       3655008.       3652272.       3648601.       3643855.       3638053.
       3631114.       3623025.       3613845.       3603599.       3592254.
       3579833.       3566391.       3551801.       3536269.       3519773.
       3502162.       3483527.       3463771.       3443087.       3421588.
       3399060.       3375586.       3351167.       3325669.       3299177.
       3271748.       3243278.       3213634.       3183073.       3151640.
       3119108.       3085611.       3051121.       3015632.       2979216.
       2941862.       2903508.       2864121.       2823831.       2782585.
       2740344.       2697070.       2652788.       2607652.       2561757.
       2515114.       2467675.       2419462.       2370445.       2320609.
       2270011.       2218630.       2166350.       2113364.       2059726.
       2005374.       1950417.       1894731.       1838475.       1781692.
       1724261.       1666366.       1607975.       1549110.       1489707.
       1429758.       1369393.       1308557.       1247350.       1185739.
       1123749.       1061501.       998825.0       935743.0       872356.0
       808473.0       744176.0       679605.0       614718.0       549492.0
       484059.0       418384.0       352362.0       286166.0       219744.0
       153185.0       86541.00       19917.00      -46824.00      -113679.0
      -180330.0      -247120.0      -313666.0      -379954.0      -446384.0
      -512619.0      -578625.0      -644436.0      -710119.0      -775386.0
      -840405.0      -905490.0      -970139.0      -1034605.      -1098984.
      -1162915.      -1226602.      -1289946.      -1352826.      -1415311.
      -1477273.      -1538852.      -1600168.      -1660635.      -1720607.
      -1780342.      -1839122.      -1897720.      -1955847.      -2013187.
      -2070203.      -2126421.      -2182055.      -2236863.      -2290955.
      -2344403.      -2396949.      -2448758.      -2499881.      -2550351.
      -2599990.      -2648742.      -2696684.      -2743850.      -2790002.
      -2835312.      -2879721.      -2923246.      -2965917.      -3007566.
      -3048356.      -3088046.      -3126847.      -3164672.      -3201409.
      -3237308.      -3272123.      -3305759.      -3338307.      -3370074.
      -3400797.      -3430381.      -3459133.      -3486745.      -3513185.
      -3538391.      -3562643.      -3585809.      -3607805.      -3629060.
      -3648981.      -3667805.      -3685577.      -3701992.      -3717444.
      -3731676.      -3744886.      -3757063.      -3767958.      -3777849.
      -3786542.      -3794008.      -3800222.      -3805263.      -3809195.
      -3811901.      -3813461.      -3813906.      -3813314.      -3811486.
      -3808677.      -3804796.      -3799593.      -3793409.      -3786160.
      -3777783.      -3768196.      -3757545.      -3745815.      -3732900.
      -3718970.      -3703876.      -3687650.      -3670343.      -3651985.
      -3632574.      -3611972.      -3590282.      -3567529.      -3543494.
      -3518312.      -3492112.      -3464715.      -3436219.      -3406718.
      -3376191.      -3344661.      -3312156.      -3278686.      -3244242.
      -3208815.      -3172495.      -3135155.      -3096700.      -3057403.
      -3017256.      -2976143.      -2933880.      -2890676.      -2846777.
      -2801749.      -2755871.      -2709272.      -2661632.      -2613139.
      -2563820.      -2513752.      -2462838.      -2411103.      -2358620.
      -2305290.      -2251347.      -2196702.      -2141422.      -2085715.
      -2029434.      -1972631.      -1915321.      -1857427.      -1798979.
      -1740050.      -1680585.      -1620606.      -1560247.      -1499331.
      -1438052.      -1376355.      -1314110.      -1251652.      -1188705.
      -1125255.      -1061583.      -997573.0      -933220.0      -868577.0
      -803555.0      -738202.0      -672473.0      -606339.0      -540053.0
      -473480.0      -406670.0      -339845.0      -272765.0      -205638.0
      -138427.0      -71052.00      -3835.000       63423.00       130753.0
       197982.0       264938.0       331840.0       398813.0       465459.0
       531903.0       598477.0       664810.0       730778.0       796704.0
       862248.0       927335.0       992177.0       1056536.       1120429.
       1184056.       1247143.       1309915.       1372449.       1434332.
       1495931.       1557063.       1617662.       1677777.       1737276.
       1796379.       1854736.       1912596.       1970065.       2026909.
       2083190.       2138724.       2193748.       2248130.       2301730.
       2354790.       2407137.       2458744.       2509626.       2559925.
       2609489.       2658056.       2705944.       2752837.       2798755.
       2843751.       2887727.       2930948.       2973067.       3014482.
       3055156.       3094624.       3133407.       3171311.       3207851.
       3243454.       3278208.       3311735.       3344295.       3376000.
       3406653.       3436138.       3464429.       3491480.       3517338.
       3542146.       3565667.       3587999.       3609246.       3629331.
       3648289.       3665887.       3682468.       3697886.       3711936.
       3725027.       3736804.       3747464.       3756967.       3765190.
       3772383.       3778096.       3782583.       3785869.       3787796.
       3788525.       3787881.       3786159.       3783176.       3778904.
       3773650.       3767186.       3759491.       3750561.       3740543.
       3729236.       3716626.       3702957.       3687916.       3671699.
       3654470.       3636102.       3616652.       3596086.       3574422.
       3551595.       3527735.       3502923.       3476887.       3449965.
       3422004.       3392871.       3362824.       3331611.       3299576.
       3266393.       3232169.       3196987.       3160624.       3123592.
       3085472.       3046510.       3006871.       2966097.       2924443.
       2882101.       2838938.       2794904.       2750032.       2704304.
       2657753.       2610522.       2562618.       2513883.       2464537.
       2414526.       2363612.       2312064.       2259926.       2207063.
       2153677.       2099668.       2045088.       1989929.       1934065.
       1877803.       1820914.       1763426.       1705386.       1646824.
       1587605.       1527662.       1467361.       1406440.       1345010.
       1282985.       1220421.       1157477.       1093969.       1030193.
       966107.0       901589.0       836846.0       771968.0       706877.0
       641616.0       576175.0       510616.0       445024.0       379157.0
       313291.0       247459.0       181544.0       115776.0       49954.00
      -15675.00      -81227.00      -146571.0      -211620.0      -276700.0
      -341360.0      -405689.0      -469810.0      -533709.0      -597270.0
      -660536.0      -723530.0      -786037.0      -848157.0      -909750.0
      -971105.0      -1032146.      -1092687.      -1153091.      -1213124.
      -1272773.      -1332055.      -1390831.      -1449084.      -1507038.
      -1564656.      -1621671.      -1678425.      -1734509.      -1790017.
      -1845143.      -1899500.      -1953484.      -2006932.      -2059807.
      -2112248.      -2164068.      -2215272.      -2265768.      -2315658.
      -2364897.      -2413291.      -2460873.      -2507883.      -2554027.
      -2599182.      -2643712.      -2687247.      -2729857.      -2771703.
      -2812496.      -2852330.      -2891155.      -2928849.      -2965448.
      -3001111.      -3035853.      -3069417.      -3102175.      -3133990.
      -3164552.      -3193996.      -3222270.      -3249656.      -3275923.
      -3301174.      -3325427.      -3348566.      -3370602.      -3391421.
      -3411437.      -3430238.      -3447908.      -3464801.      -3480626.
      -3495270.      -3508936.      -3521825.      -3533496.      -3544135.
      -3553821.      -3562146.      -3569369.      -3575408.      -3580213.
      -3583954.      -3586480.      -3587973.      -3588465.      -3587942.
      -3586250.      -3583426.      -3579681.      -3574705.      -3568608.
