     0.02500000      -12345.00      -12345.00   2.447790e+09      -12345.00
   0.0005380000       1859.976      -583.0195      -12345.00      -12345.00
      -12345.00      -12345.00      -12345.00      -12345.00      -12345.00
      -12345.00      -12345.00      -12345.00      -12345.00      -12345.00
      -12345.00      -12345.00      -12345.00      -12345.00      -12345.00
      -12345.00      -12345.00      -12345.00      -12345.00      -12345.00
      -12345.00       7.069700       125.5791       150.0000       1.000000
      -42.72450       173.0647      -12345.00       22.00000      -12345.00
      -12345.00      -12345.00      -12345.00      -12345.00      -12345.00
      -12345.00      -12345.00      -12345.00      -12345.00      -12345.00
       7304.693       306.6093       143.4168       65.69559      -12345.00
      -12345.00      -12345.00       0.000000       90.00000      -12345.00
      -12345.00      -12345.00      -12345.00      -12345.00      -12345.00
      -12345.00      -12345.00      -12345.00      -12345.00      -12345.00
      2016       318        11        12        42
        19         6    -12345    -12345     74400
    -12345    -12345    -12345    -12345    -12345
         1    -12345    -12345    -12345    -12345
    -12345    -12345    -12345    -12345    -12345
    -12345    -12345    -12345    -12345    -12345
    -12345    -12345    -12345    -12345    -12345
         1    -12345    -12345    -12345    -12345
DAV     South Island, Ne
00      -12345  -12345  
-12345  -12345  -12345  
-12345  -12345  -12345  
-12345  -12345  -12345  
-12345  -12345  -12345  
-12345  -12345  BH1     
IU      -12345  Streckei
[...]
      -1878730.      -1875866.      -1874351.      -1871026.      -1867889.
      -1865789.      -1861682.      -1857886.      -1854027.      -1849935.
      -1847061.      -1843462.      -1840195.      -1835738.      -1831013.
      -1827865.      -1823372.      -1819873.      -1817224.      -1813617.
      -1810792.      -1807473.      -1803449.      -1799081.      -1793753.
      -1787912.      -1781066.      -1775345.      -1770243.      -1763538.
      -1757822.      -1751975.      -1745782.      -1740267.      -1734233.
      -1729645.      -1724862.      -1718521.      -1713465.      -1708310.
      -1701592.      -1695858.      -1690625.      -1685080.      -1679593.
      -1672308.      -1665308.      -1659049.      -1652210.      -1646136.
      -1639494.      -1632523.      -1625016.      -1616624.      -1609147.
      -1601734.      -1594956.      -1588149.      -1581125.      -1574759.
      -1566812.      -1559395.      -1551414.      -1541969.      -1534097.
      -1525337.      -1516969.      -1509762.      -1500658.      -1491523.
      -1483205.      -1473944.      -1464493.      -1455826.      -1448034.
      -1441057.      -1432587.      -1423882.      -1416061.      -1406107.
      -1397115.      -1389084.      -1379156.      -1370346.      -1361336.
      -1350267.      -1340172.      -1331308.      -1321022.      -1310121.
      -1299978.      -1288448.      -1276861.      -1267300.      -1257074.
      -1247057.      -1238056.      -1227816.      -1217322.      -1207110.
      -1197684.      -1187556.      -1175731.      -1164800.      -1153460.
      -1141699.      -1131128.      -1120209.      -1108728.      -1098294.
      -1088165.      -1076558.      -1064644.      -1053321.      -1041929.
      -1030711.      -1020038.      -1009416.      -998658.0      -987437.0
      -975436.0      -963121.0      -950968.0      -939350.0      -927111.0
      -914417.0      -902891.0      -891122.0      -879555.0      -868928.0
      -857121.0      -845271.0      -833924.0      -822197.0      -810478.0
      -799013.0      -787577.0      -775800.0      -764278.0      -752077.0
      -739334.0      -725784.0      -711758.0      -698717.0      -685210.0
      -671979.0      -658347.0      -645161.0      -632242.0      -617792.0
      -605107.0      -593246.0      -580995.0      -568416.0      -556118.0
      -544678.0      -532215.0      -521089.0      -510121.0      -497554.0
      -486719.0      -474231.0      -460673.0      -448202.0      -432850.0
      -419339.0      -406950.0      -392616.0      -381500.0      -369038.0
      -355161.0      -343289.0      -328951.0      -314942.0      -300836.0
      -285802.0      -271736.0      -257292.0      -244530.0      -229940.0
      -214778.0      -201230.0      -185837.0      -172253.0      -159159.0
      -145422.0      -132182.0      -117921.0      -104443.0      -90308.00
      -76588.00      -64930.00      -52606.00      -39583.00      -27011.00
      -14929.00      -1981.000       11204.00       23459.00       36610.00
       51987.00       66767.00       78962.00       92263.00       106915.0
       120944.0       135225.0       148737.0       162124.0       175047.0
       187364.0       200563.0       212873.0       225882.0       240135.0
       253039.0       265681.0       278985.0       292019.0       304410.0
       317079.0       331025.0       344575.0       357974.0       372538.0
       386117.0       398486.0       410690.0       423453.0       436585.0
       449283.0       462833.0       476811.0       490482.0       504643.0
       517603.0       529598.0       542345.0       555180.0       569002.0
       582658.0       595686.0       609854.0       623395.0       636657.0
       650441.0       664859.0       679719.0       693578.0       707791.0
       722426.0       737334.0       752190.0       766341.0       780495.0
       794340.0       808165.0       821665.0       834696.0       847675.0
       860862.0       874273.0       887677.0       900860.0       914946.0
       928923.0       940390.0       953846.0       968789.0       981228.0
       994029.0       1007637.       1020405.       1032754.       1044923.
       1056428.       1067688.       1079395.       1091015.       1103126.
       1116034.       1128197.       1140437.       1152942.       1165042.
       1177450.       1190120.       1203089.       1215317.       1227452.
       1240339.       1252456.       1265273.       1277996.       1289657.
       1302202.       1313622.       1325251.       1337684.       1348561.
       1361038.       1373433.       1383752.       1395540.       1407023.
       1418042.       1429643.       1440710.       1451790.       1462292.
       1473267.       1485067.       1496692.       1507229.       1518004.
       1528900.       1539193.       1549770.       1559006.       1569389.
       1579047.       1588293.       1600071.       1610770.       1622135.
       1632984.       1642600.       1653084.       1662534.       1672549.
       1682347.       1690330.       1699953.       1710229.       1719344.
       1729035.       1738313.       1747677.       1756572.       1763262.
       1771266.       1780130.       1787769.       1796571.       1805627.
       1813597.       1822510.       1831647.       1839281.       1847310.
       1856560.       1864920.       1872674.       1881263.       1889544.
       1897133.       1904563.       1911870.       1919488.       1927517.
       1934998.       1942991.       1951971.       1959682.       1967387.
       1975063.       1981804.       1987527.       1992043.       1998505.
       2005368.       2010569.       2016725.       2022377.       2026821.
       2032593.       2038403.       2043754.       2050016.       2055503.
       2059979.       2064657.       2068873.       2072669.       2075810.
       2079878.       2085592.       2089993.       2093633.       2096413.
       2099383.       2103544.       2106350.       2110048.       2113344.
       2115632.       2119197.       2121614.       2123964.       2125794.
       2127848.       2130871.       2132046.       2133902.       2136339.
       2138006.       2140278.       2141801.       2142458.       2144560.
       2147279.       2149652.       2152538.       2154947.       2157033.
       2158958.       2159713.       2160518.       2161826.       2161875.
       2161356.       2161207.       2160833.       2161339.       2162327.
       2162557.       2162590.       2162123.       2161051.       2160424.
       2160527.       2160371.       2160158.       2160660.       2160605.
       2158952.       2156569.       2155337.       2154465.       2153387.
       2152449.       2150202.       2148118.       2146332.       2144097.
       2141791.       2138419.       2135707.       2132794.       2129436.
       2127557.       2124219.       2120626.       2117764.       2113924.
       2109882.       2105757.       2101374.       2095997.       2091615.
       2087116.       2081580.       2077677.       2073222.       2067634.
       2061369.       2054863.       2049331.       2043846.       2037162.
       2029844.       2024580.       2017896.       2008937.       2002235.
       1995791.       1989435.       1983911.       1977564.       1970232.
       1963258.       1956953.       1949403.       1941382.       1933964.
       1925621.       1917506.       1910283.       1901751.       1894734.
       1887857.       1878230.       1870254.       1861573.       1851174.
       1842780.       1833204.       1823432.       1815421.       1805999.
       1796541.       1788215.       1779257.       1769173.       1759066.
       1748946.       1739460.       1730906.       1720446.       1710906.
       1702879.       1692589.       1683146.       1674462.       1664638.
       1655357.       1645935.       1635532.       1624294.       1613133.
       1601966.       1590693.       1580246.       1571124.       1561701.
       1551082.       1541471.       1531249.       1519894.       1509962.
       1498700.       1485428.       1473994.       1463223.       1452135.
       1440298.       1428763.       1418471.       1405868.       1393897.
       1381689.       1367570.       1355065.       1342103.       1328353.
       1314365.       1300628.       1286620.       1271034.       1256444.
       1244018.       1231752.       1217996.       1204353.       1191288.
       1177363.       1163387.       1149048.       1133985.       1119341.
       1105687.       1092159.       1077039.       1062050.       1047116.
       1031955.       1018307.       1003376.       988287.0       973371.0
       956912.0       941659.0       925904.0       909742.0       895126.0
       879070.0       863436.0       849268.0       832604.0       816594.0
       800820.0       782933.0       766250.0       749717.0       733840.0
       717971.0       701042.0       684728.0       669169.0       653691.0
       637052.0       621506.0       607138.0       591760.0       574950.0
       557051.0       539011.0       521446.0       505572.0       489257.0
       472353.0       456782.0       440002.0       423392.0       408317.0
       391275.0       374353.0       358677.0       340688.0       323713.0
       307560.0       288858.0       271830.0       255433.0       236637.0
       218636.0       201204.0       182896.0       165817.0       148568.0
       130761.0       114523.0       98165.00       81573.00       64634.00
       47332.00       30984.00       13985.00      -3542.000      -20819.00
      -38600.00      -55860.00      -73033.00      -90858.00      -108178.0
      -125114.0      -141984.0      -158465.0      -174541.0      -191576.0
      -208843.0      -225048.0      -242440.0      -260432.0      -277624.0
      -295628.0      -313339.0      -330170.0      -347504.0      -365045.0
      -382883.0      -399990.0      -416802.0      -434143.0      -451795.0
      -469760.0      -486686.0      -503637.0      -520747.0      -537871.0
      -555695.0      -573508.0      -591129.0      -608710.0      -626726.0
      -644029.0      -661111.0      -678425.0      -695018.0      -711647.0
      -729058.0      -746447.0      -760995.0      -774784.0      -789548.0
      -803621.0      -817946.0      -833420.0      -849935.0      -866455.0
      -882521.0      -896663.0      -910796.0      -926757.0      -941934.0
      -957315.0      -972730.0      -986544.0      -999182.0      -1012799.
      -1027459.      -1041353.      -1056728.      -1072492.      -1087386.
      -1103579.      -1119955.      -1135866.      -1151406.      -1165920.
      -1180413.      -1195627.      -1210805.      -1225551.      -1239324.
      -1251984.      -1265100.      -1279320.      -1292820.      -1306571.
      -1321915.      -1336287.      -1350553.      -1364549.      -1376381.
      -1387974.      -1401035.      -1414802.      -1427731.      -1441552.
      -1455077.      -1466726.      -1479364.      -1492151.      -1504159.
      -1516985.      -1530497.      -1544367.      -1558082.      -1570273.
      -1582257.      -1595202.      -1608024.      -1619801.      -1632089.
      -1645988.      -1658271.      -1670132.      -1682669.      -1692749.
      -1703051.      -1715863.      -1728869.      -1741021.      -1753702.
      -1767077.      -1779355.      -1790613.      -1801473.      -1812488.
      -1823627.      -1834618.      -1845565.      -1856505.      -1867080.
      -1876831.      -1886997.      -1897690.      -1908269.      -1918868.
      -1929344.      -1939634.      -1950773.      -1961415.      -1970496.
      -1980616.      -1989950.      -1997381.      -2005705.      -2014298.
      -2022506.      -2030777.      -2038908.      -2048045.      -2057097.
      -2065021.      -2073444.      -2081895.      -2090482.      -2099846.
      -2108665.      -2116710.      -2124440.      -2130713.      -2136211.
      -2142434.      -2148984.      -2157054.      -2164272.      -2170664.
      -2179066.      -2185804.      -2191727.      -2199040.      -2206326.
      -2213264.      -2220605.      -2227819.      -2233014.      -2237736.
      -2243033.      -2247885.      -2252547.      -2257623.      -2262483.
      -2267058.      -2272282.      -2277340.      -2281891.      -2287422.
      -2292726.      -2297443.      -2302401.      -2306386.      -2310856.
      -2316012.      -2320068.      -2323307.      -2327358.      -2332389.
      -2336079.      -2339465.      -2343719.      -2347357.      -2350923.
      -2354331.      -2357399.      -2360925.      -2363616.      -2365366.
      -2366979.      -2367704.      -2368595.      -2369730.      -2370517.
      -2371390.      -2372027.      -2372642.      -2373160.      -2373452.
      -2373484.      -2373276.      -2372767.      -2372228.      -2370821.
      -2368712.      -2366694.      -2364531.      -2362488.      -2359929.
      -2358305.      -2356280.      -2354138.      -2352391.      -2349792.
      -2348379.      -2345903.      -2343566.      -2341857.      -2339642.
      -2337329.      -2334337.      -2333010.      -2330726.      -2326342.
      -2322927.      -2319853.      -2315100.      -2310423.      -2307774.
      -2303546.      -2299162.      -2296587.      -2292063.      -2287526.
      -2282759.      -2276353.      -2271374.      -2266403.      -2260370.
      -2253750.      -2247689.      -2242322.      -2235532.      -2229866.
      -2224426.      -2217095.      -2210482.      -2203133.      -2195117.
      -2188244.      -2181110.      -2172920.      -2164408.      -2156861.
      -2149226.      -2140765.      -2132882.      -2124161.      -2115959.
      -2109191.      -2100601.      -2093361.      -2086221.      -2075923.
      -2066355.      -2057147.      -2047329.      -2038043.      -2028139.
      -2017232.      -2006948.      -1996742.      -1985697.      -1975067.
      -1965582.      -1956310.      -1946500.      -1936437.      -1926332.
      -1915858.      -1904611.      -1893521.      -1882003.      -1870316.
      -1858575.      -1846101.      -1833924.      -1821535.      -1808998.
      -1796273.      -1783444.      -1771502.      -1760865.      -1749240.
      -1736106.      -1724145.      -1711603.      -1697746.      -1682733.
      -1668442.      -1656583.      -1641927.      -1625967.      -1612317.
      -1598056.      -1583575.      -1569586.      -1555358.      -1541379.
      -1526294.      -1510921.      -1496660.      -1480838.      -1464193.
      -1448457.      -1433357.      -1418636.      -1403497.      -1389392.
      -1375576.      -1359975.      -1343923.      -1327384.      -1310146.
      -1294670.      -1280249.      -1264653.      -1249279.      -1234763.
      -1219257.      -1202947.      -1187425.      -1172227.      -1157035.
      -1141267.      -1124667.      -1107427.      -1089255.      -1072302.
      -1056222.      -1040498.      -1024969.      -1008136.      -991926.0
      -975751.0      -958813.0      -942000.0      -924661.0      -907034.0
      -889284.0      -871246.0      -852929.0      -835583.0      -817821.0
      -798512.0      -780602.0      -763720.0      -746612.0      -729105.0
      -711437.0      -693887.0      -675559.0      -657142.0      -637500.0
      -616934.0      -597369.0      -577632.0      -558021.0      -539714.0
      -521821.0      -502771.0      -483156.0      -463663.0      -445572.0
      -428057.0      -409890.0      -392190.0      -372361.0      -353554.0
      -335066.0      -312493.0      -293247.0      -275791.0      -255531.0
      -236082.0      -218124.0      -200051.0      -180558.0      -162800.0
      -144384.0      -123804.0      -106117.0      -85486.00      -62940.00
      -44828.00      -24649.00      -3523.000       14853.00       35000.00
       56218.00       75134.00       93934.00       115029.0       133939.0
       152468.0       172839.0       190948.0       209700.0       228874.0
       247697.0       266057.0       284540.0       305444.0       323717.0
       340586.0       359510.0       378232.0       397066.0       416962.0
       437745.0       457518.0       475514.0       493290.0       511286.0
       528451.0       544066.0       560255.0       578447.0       596308.0
       613440.0       631083.0       648723.0       667252.0       684892.0
       702252.0       721096.0       738258.0       756575.0       774337.0
       790499.0       808581.0       824027.0       840873.0       860240.0
       876425.0       893702.0       911548.0       927923.0       944939.0
       962275.0       979429.0       996656.0       1014684.       1031983.
       1048448.       1064686.       1081302.       1097832.       1112554.
       1129138.       1146671.       1162325.       1179568.       1197549.
       1214294.       1231325.       1247980.       1264565.       1282032.
       1298310.       1314609.       1330836.       1345990.       1362809.
       1378859.       1394158.       1411460.       1427957.       1444160.
       1461289.       1476649.       1491706.       1507233.       1521164.
       1535252.       1549874.       1564468.       1578718.       1592088.
       1605585.       1618507.       1631270.       1644682.       1657086.
       1668867.       1681697.       1693964.       1705431.       1716774.
       1728155.       1740784.       1753516.       1766994.       1780619.
       1792232.       1802862.       1813898.       1824298.       1835383.
       1849508.       1860605.       1869726.       1882160.       1893058.
       1901740.       1912317.       1922995.       1932678.       1943586.
       1954087.       1964855.       1975140.       1984362.       1994838.
       2004291.       2013387.       2022896.       2032274.       2040588.
       2048409.       2056088.       2063127.       2071750.       2080230.
       2088362.       2094531.       2101212.       2109949.       2116055.
       2123713.       2130482.       2136625.       2144624.       2149412.
       2156186.       2162000.       2165047.       2171272.       2176147.
       2181002.       2186619.       2191316.       2196493.       2202355.
       2209418.       2214598.       2219465.       2224795.       2227384.
       2229084.       2233042.       2236219.       2237485.       2242007.
