     0.02500000      -12345.00      -12345.00   1.983070e+09      -12345.00
   0.0005380000       1859.976      -583.0195      -12345.00      -12345.00
      -12345.00      -12345.00      -12345.00      -12345.00      -12345.00
      -12345.00      -12345.00      -12345.00      -12345.00      -12345.00
      -12345.00      -12345.00      -12345.00      -12345.00      -12345.00
      -12345.00      -12345.00      -12345.00      -12345.00      -12345.00
      -12345.00       7.069700       125.5791       150.0000       1.000000
      -42.72450       173.0647      -12345.00       22.00000      -12345.00
      -12345.00      -12345.00      -12345.00      -12345.00      -12345.00
      -12345.00      -12345.00      -12345.00      -12345.00      -12345.00
       7304.693       306.6093       143.4168       65.69559      -12345.00
      -12345.00      -12345.00       0.000000       90.00000      -12345.00
      -12345.00      -12345.00      -12345.00      -12345.00      -12345.00
      -12345.00      -12345.00      -12345.00      -12345.00      -12345.00
      2016       318        11        12        42
        19         6    -12345    -12345     74400
    -12345    -12345    -12345    -12345    -12345
         1    -12345    -12345    -12345    -12345
    -12345    -12345    -12345    -12345    -12345
    -12345    -12345    -12345    -12345    -12345
    -12345    -12345    -12345    -12345    -12345
         1    -12345    -12345    -12345    -12345
DAV     South Island, Ne
10      -12345  -12345  
-12345  -12345  -12345  
-12345  -12345  -12345  
-12345  -12345  -12345  
-12345  -12345  -12345  
-12345  -12345  BH1     
IU      -12345  Trillium
[...]
      -1505806.      -1504300.      -1502462.      -1500321.      -1497302.
      -1493973.      -1489755.      -1487069.      -1484303.      -1480058.
      -1477322.      -1473787.      -1470284.      -1467387.      -1463838.
      -1461978.      -1459226.      -1455336.      -1453144.      -1450132.
      -1445849.      -1443066.      -1440174.      -1437093.      -1434010.
      -1429073.      -1425180.      -1421514.      -1417331.      -1414025.
      -1409763.      -1405566.      -1400680.      -1395201.      -1390800.
      -1386185.      -1382311.      -1377988.      -1373800.      -1370015.
      -1364505.      -1360268.      -1354702.      -1348333.      -1343776.
      -1337573.      -1332496.      -1328078.      -1321528.      -1315709.
      -1310394.      -1303906.      -1297657.      -1292145.      -1287306.
      -1283023.      -1276954.      -1271411.      -1266358.      -1259002.
      -1253627.      -1248245.      -1241116.      -1235695.      -1229217.
      -1221212.      -1214741.      -1208851.      -1201366.      -1193838.
      -1186937.      -1178397.      -1170477.      -1164284.      -1156842.
      -1150182.      -1144075.      -1136620.      -1129415.      -1122278.
      -1116003.      -1108586.      -1099879.      -1092466.      -1084118.
      -1075800.      -1068607.      -1060622.      -1052391.      -1045317.
      -1038066.      -1029384.      -1020885.      -1012856.      -1004619.
      -996638.0      -989109.0      -981496.0      -973737.0      -965520.0
      -956660.0      -947637.0      -938865.0      -930528.0      -921343.0
      -912056.0      -903926.0      -895132.0      -886883.0      -879287.0
      -870273.0      -861732.0      -853488.0      -844784.0      -836164.0
      -827787.0      -819332.0      -810564.0      -802154.0      -792920.0
      -783391.0      -772977.0      -762548.0      -752983.0      -742625.0
      -732901.0      -722404.0      -712747.0      -702919.0      -691684.0
      -682712.0      -673785.0      -664526.0      -654891.0      -645784.0
      -637292.0      -627545.0      -619708.0      -611231.0      -601454.0
      -593815.0      -583576.0      -573369.0      -563962.0      -551435.0
      -542016.0      -532287.0      -521047.0      -513499.0      -503094.0
      -492554.0      -483772.0      -471973.0      -461592.0      -450379.0
      -438717.0      -427979.0      -416723.0      -407286.0      -395186.0
      -383656.0      -373281.0      -360831.0      -350895.0      -340453.0
      -329738.0      -319417.0      -308033.0      -297719.0      -286316.0
      -275866.0      -267053.0      -257084.0      -246759.0      -237017.0
      -227566.0      -217041.0      -206724.0      -197241.0      -186458.0
      -173864.0      -162547.0      -153360.0      -142254.0      -130465.0
      -119457.0      -107953.0      -97477.00      -86700.00      -76569.00
      -66707.00      -55930.00      -46407.00      -35525.00      -23934.00
      -13962.00      -3660.000       7202.000       17558.00       27445.00
       37857.00       49368.00       60133.00       71079.00       83076.00
       93750.00       103625.0       113560.0       124189.0       134884.0
       145159.0       156527.0       167902.0       179030.0       190717.0
       200962.0       210778.0       221473.0       232024.0       243666.0
       254676.0       265380.0       277323.0       288178.0       299225.0
       310763.0       322793.0       335055.0       346318.0       358261.0
       370466.0       382900.0       395100.0       406794.0       418574.0
       430039.0       441663.0       452837.0       463722.0       474667.0
       485804.0       497100.0       508403.0       519465.0       531582.0
       543107.0       552376.0       564563.0       577074.0       587080.0
       598318.0       609898.0       620546.0       631112.0       641491.0
       651203.0       660963.0       671126.0       681109.0       691751.0
       702894.0       713153.0       723831.0       734616.0       745005.0
       755828.0       766819.0       778022.0       788423.0       799056.0
       810270.0       820658.0       832062.0       842851.0       853006.0
       864217.0       873816.0       884353.0       895221.0       904506.0
       916012.0       926509.0       935443.0       946320.0       956176.0
       966084.0       976428.0       986146.0       996090.0       1005337.
       1015386.       1026062.       1036231.       1045493.       1055471.
       1065039.       1074355.       1083977.       1092106.       1102040.
       1110402.       1119213.       1130274.       1139501.       1150104.
       1159569.       1168363.       1178126.       1186593.       1196127.
       1204902.       1212209.       1221715.       1231068.       1239410.
       1248604.       1257116.       1266049.       1274137.       1280355.
       1288639.       1296979.       1304158.       1312933.       1321361.
       1328872.       1337668.       1346202.       1353360.       1361422.
       1370364.       1378127.       1385683.       1394127.       1401976.
       1409310.       1416686.       1423964.       1431562.       1439500.
       1446787.       1454851.       1463559.       1470846.       1478627.
       1486101.       1492824.       1498611.       1503617.       1510904.
       1517682.       1523094.       1529825.       1535541.       1540552.
       1547073.       1553097.       1558965.       1565688.       1571301.
       1576377.       1581724.       1586515.       1591075.       1594987.
       1600220.       1606605.       1611273.       1615770.       1619343.
       1623565.       1628643.       1632137.       1637118.       1640987.
       1644459.       1649223.       1652383.       1656082.       1658907.
       1662443.       1666550.       1668630.       1672161.       1675693.
       1678565.       1682197.       1684760.       1686889.       1690628.
       1694476.       1698007.       1702048.       1705506.       1708811.
       1711900.       1714002.       1716440.       1719173.       1720553.
       1721837.       1723446.       1724811.       1727230.       1729666.
       1731353.       1733107.       1734265.       1735017.       1736379.
       1738297.       1739729.       1741282.       1743542.       1744896.
       1744919.       1744730.       1745759.       1746739.       1747585.
       1748489.       1748080.       1748311.       1748565.       1748394.
       1748222.       1747018.       1746813.       1745975.       1744981.
       1745465.       1744000.       1742941.       1742416.       1740798.
       1739245.       1737674.       1735717.       1732896.       1731499.
       1729276.       1726450.       1725438.       1723218.       1720225.
       1716721.       1713251.       1710690.       1707928.       1703856.
       1699681.       1697670.       1693200.       1687515.       1684412.
       1680650.       1677351.       1674662.       1670904.       1666458.
       1662740.       1659313.       1654490.       1649748.       1645477.
       1640103.       1635443.       1631278.       1625630.       1622224.
       1617902.       1611196.       1607058.       1601095.       1594172.
       1589522.       1582807.       1576755.       1572152.       1565664.
       1559763.       1554789.       1548875.       1542041.       1535481.
       1528764.       1522927.       1517608.       1510154.       1504486.
       1499512.       1492177.       1486497.       1480866.       1474223.
       1468394.       1462109.       1454957.       1447198.       1439712.
       1432103.       1424453.       1417645.       1411968.       1405509.
       1398131.       1392076.       1384830.       1376967.       1370702.
       1362413.       1352865.       1345526.       1338115.       1330506.
       1322018.       1314298.       1307400.       1297874.       1290017.
       1281054.       1270709.       1262394.       1252948.       1243025.
       1232925.       1223220.       1212897.       1201313.       1191187.
       1182737.       1173937.       1163653.       1153954.       1144618.
       1134305.       1124222.       1113642.       1102505.       1091974.
       1082313.       1072344.       1060835.       1050028.       1038892.
       1027864.       1018211.       1006669.       995802.0       984575.0
       972012.0       961211.0       949032.0       937076.0       926569.0
       914068.0       902804.0       892409.0       879214.0       867622.0
       855575.0       841681.0       829459.0       816933.0       805193.0
       793009.0       780074.0       767865.0       756222.0       744483.0
       731576.0       720194.0       709453.0       697478.0       684246.0
       670387.0       656560.0       643234.0       631536.0       618700.0
       605743.0       594052.0       580698.0       568254.0       556811.0
       543058.0       530339.0       518305.0       503773.0       491121.0
       478539.0       463446.0       450779.0       437938.0       422746.0
       409033.0       395426.0       380902.0       367929.0       354226.0
       340195.0       327831.0       314824.0       301781.0       288298.0
       274687.0       262005.0       248308.0       234456.0       220826.0
       206636.0       193139.0       179416.0       165136.0       151556.0
       138103.0       124646.0       111637.0       98833.00       84886.00
       71234.00       58418.00       44051.00       29747.00       16062.00
       1309.000      -12657.00      -26091.00      -40222.00      -54378.00
      -68848.00      -82481.00      -96148.00      -110227.0      -124657.0
      -139224.0      -152719.0      -166647.0      -180451.0      -194548.0
      -209165.0      -223605.0      -237993.0      -252332.0      -267185.0
      -281105.0      -295193.0      -309439.0      -322915.0      -336692.0
      -351242.0      -365421.0      -376766.0      -388378.0      -400769.0
      -412355.0      -424499.0      -437600.0      -451495.0      -465152.0
      -478365.0      -489740.0      -501900.0      -515540.0      -527978.0
      -541071.0      -553852.0      -565165.0      -575767.0      -587651.0
      -600100.0      -611722.0      -625180.0      -638297.0      -650795.0
      -664805.0      -678512.0      -691874.0      -704952.0      -717125.0
      -729552.0      -742674.0      -755568.0      -768048.0      -779623.0
      -790394.0      -801998.0      -814416.0      -825838.0      -837978.0
      -851373.0      -863456.0      -875891.0      -887727.0      -897704.0
      -908052.0      -919849.0      -931880.0      -942939.0      -955333.0
      -966851.0      -976849.0      -988385.0      -999501.0      -1010051.
      -1021669.      -1033596.      -1045826.      -1057774.      -1068198.
      -1079015.      -1090690.      -1101945.      -1112293.      -1123537.
      -1136060.      -1146572.      -1157355.      -1168503.      -1177221.
      -1187070.      -1198978.      -1210500.      -1221288.      -1232884.
      -1244888.      -1255666.      -1265803.      -1275708.      -1285955.
      -1296131.      -1306200.      -1316332.      -1326366.      -1336058.
      -1345079.      -1354717.      -1364777.      -1374560.      -1384416.
      -1394258.      -1403830.      -1414418.      -1424091.      -1432489.
      -1442446.      -1450894.      -1458038.      -1466546.      -1474793.
      -1482860.      -1490960.      -1498940.      -1508055.      -1516607.
      -1524280.      -1532756.      -1541000.      -1549517.      -1558714.
      -1567141.      -1574990.      -1582630.      -1588869.      -1594883.
      -1601624.      -1608560.      -1617003.      -1623887.      -1630708.
      -1639468.      -1645867.      -1652360.      -1660145.      -1667575.
      -1674685.      -1682398.      -1689715.      -1694989.      -1700566.
      -1706613.      -1712022.      -1717515.      -1723362.      -1728810.
      -1734219.      -1740292.      -1745922.      -1751253.      -1757660.
      -1763440.      -1768939.      -1774656.      -1779328.      -1784986.
      -1790872.      -1795521.      -1799866.      -1805129.      -1810991.
      -1815391.      -1819966.      -1825303.      -1829833.      -1834520.
      -1839007.      -1843189.      -1847908.      -1851678.      -1854739.
      -1857847.      -1860078.      -1862712.      -1865522.      -1867911.
      -1870388.      -1872753.      -1875076.      -1877206.      -1879279.
      -1881103.      -1882709.      -1884117.      -1885552.      -1885989.
      -1886128.      -1886384.      -1886512.      -1886762.      -1886429.
      -1887329.      -1887249.      -1887452.      -1887871.      -1887535.
      -1888510.      -1887954.      -1888220.      -1888638.      -1888663.
      -1888556.      -1887928.      -1889150.      -1888652.      -1886732.
      -1886170.      -1885492.      -1883075.      -1881455.      -1881555.
      -1879334.      -1877997.      -1878011.      -1875537.      -1874049.
      -1871763.      -1868197.      -1866527.      -1864138.      -1860949.
      -1857375.      -1854606.      -1852103.      -1848117.      -1845879.
      -1843008.      -1838620.      -1835436.      -1830916.      -1826305.
      -1822874.      -1818768.      -1813699.      -1808683.      -1804687.
      -1800065.      -1794936.      -1790596.      -1784945.      -1780477.
      -1777003.      -1771267.      -1767857.      -1763491.      -1756210.
      -1750770.      -1744969.      -1738648.      -1733108.      -1726545.
      -1719326.      -1713055.      -1706346.      -1699017.      -1692369.
      -1686584.      -1680765.      -1674395.      -1667862.      -1661395.
      -1654475.      -1646881.      -1639683.      -1631869.      -1624171.
      -1616224.      -1607640.      -1599602.      -1591078.      -1582521.
      -1573804.      -1565077.      -1557238.      -1550471.      -1542196.
      -1532937.      -1525221.      -1516336.      -1506430.      -1495627.
      -1486055.      -1478335.      -1467060.      -1455785.      -1446718.
      -1436393.      -1426248.      -1416420.      -1406314.      -1396547.
      -1385460.      -1374550.      -1364665.      -1352809.      -1340769.
      -1329629.      -1318934.      -1308439.      -1297442.      -1287688.
      -1277692.      -1265958.      -1254340.      -1242139.      -1229446.
      -1218751.      -1208400.      -1196708.      -1185700.      -1175293.
      -1163627.      -1151641.      -1140500.      -1129367.      -1118298.
      -1106457.      -1094075.      -1081166.      -1067443.      -1055285.
      -1043482.      -1032015.      -1020392.      -1007583.      -995853.0
      -983598.0      -970853.0      -958295.0      -945172.0      -931922.0
      -918515.0      -904893.0      -891016.0      -878268.0      -864544.0
      -849610.0      -836553.0      -823845.0      -810811.0      -797404.0
      -783999.0      -770654.0      -756548.0      -742520.0      -727016.0
      -711234.0      -696472.0      -681130.0      -666173.0      -652398.0
      -638608.0      -623623.0      -608437.0      -593428.0      -579915.0
      -566286.0      -552139.0      -538557.0      -522481.0      -508525.0
      -493799.0      -475314.0      -461587.0      -447874.0      -431414.0
      -416609.0      -402896.0      -388472.0      -372948.0      -359712.0
      -344621.0      -328287.0      -315106.0      -297652.0      -280071.0
      -266709.0      -249901.0      -233355.0      -219315.0      -202766.0
      -185811.0      -171424.0      -156228.0      -138939.0      -124684.0
      -109573.0      -93137.00      -79229.00      -63806.00      -48607.00
      -33467.00      -18973.00      -3875.000       13376.00       27149.00
       40860.00       56551.00       71495.00       86851.00       103167.0
       120063.0       135677.0       149905.0       164425.0       179120.0
       192755.0       205280.0       218894.0       234090.0       248508.0
       262428.0       276981.0       291449.0       306859.0       321008.0
       335373.0       351076.0       364791.0       380312.0       394502.0
       407851.0       423184.0       435185.0       450009.0       466222.0
       478805.0       493759.0       508504.0       521793.0       536262.0
       550782.0       564984.0       579568.0       594722.0       608926.0
       622722.0       636251.0       650510.0       664243.0       676324.0
       691031.0       705650.0       718582.0       733618.0       748776.0
       762737.0       777261.0       791312.0       805461.0       820492.0
       834021.0       848022.0       861811.0       874632.0       889463.0
       902871.0       916003.0       931286.0       945082.0       959072.0
       973945.0       986708.0       999937.0       1013446.       1025216.
       1037801.       1050668.       1063394.       1075740.       1087392.
       1099409.       1110688.       1122097.       1134125.       1144890.
       1155451.       1167178.       1177937.       1188189.       1198438.
       1208905.       1220548.       1231926.       1244227.       1256242.
       1266326.       1276010.       1286273.       1295723.       1306283.
       1319441.       1328589.       1337235.       1349315.       1358728.
       1366765.       1377182.       1386882.       1395976.       1406418.
       1415942.       1426299.       1435640.       1444348.       1454534.
       1463162.       1471999.       1481135.       1490082.       1497897.
       1505690.       1513259.       1520398.       1529196.       1537328.
       1545346.       1551214.       1558649.       1567386.       1573239.
       1581599.       1587975.       1594773.       1602952.       1607588.
       1615409.       1620976.       1624837.       1632156.       1637123.
       1642864.       1649011.       1654298.       1660109.       1666767.
       1674219.       1679390.       1685212.       1691075.       1694180.
       1697279.       1702726.       1706445.       1708975.       1715216.
       1718481.       1720975.       1726361.       1729982.       1733851.
       1737184.       1741700.       1747443.       1750286.       1755175.
       1759955.       1761241.       1765514.       1769251.       1770662.
       1774592.       1777010.       1778808.       1782410.       1783425.
