     0.02500000      -12345.00      -12345.00   1.983070e+09      -12345.00
   0.0005380000       1859.976      -583.0195      -12345.00      -12345.00
      -12345.00      -12345.00      -12345.00      -12345.00      -12345.00
      -12345.00      -12345.00      -12345.00      -12345.00      -12345.00
      -12345.00      -12345.00      -12345.00      -12345.00      -12345.00
      -12345.00      -12345.00      -12345.00      -12345.00      -12345.00
      -12345.00       7.069700       125.5791       150.0000       1.000000
      -42.72450       173.0647      -12345.00       22.00000      -12345.00
      -12345.00      -12345.00      -12345.00      -12345.00      -12345.00
      -12345.00      -12345.00      -12345.00      -12345.00      -12345.00
       7304.693       306.6093       143.4168       65.69559      -12345.00
      -12345.00      -12345.00       90.00000       90.00000      -12345.00
      -12345.00      -12345.00      -12345.00      -12345.00      -12345.00
      -12345.00      -12345.00      -12345.00      -12345.00      -12345.00
      2016       318        11        12        42
        19         6    -12345    -12345     74400
    -12345    -12345    -12345    -12345    -12345
         1    -12345    -12345    -12345    -12345
    -12345    -12345    -12345    -12345    -12345
    -12345    -12345    -12345    -12345    -12345
    -12345    -12345    -12345    -12345    -12345
         1    -12345    -12345    -12345    -12345
DAV     South Island, Ne
10      -12345  -12345  
-12345  -12345  -12345  
-12345  -12345  -12345  
-12345  -12345  -12345  
-12345  -12345  -12345  
-12345  -12345  BH2     
IU      -12345  Trillium
[...]
       619807.0       619162.0       615761.0       611936.0       611343.0
       609378.0       605748.0       604052.0       602529.0       599544.0
       597405.0       596290.0       594665.0       591826.0       588700.0
       586682.0       583588.0       579639.0       577116.0       574591.0
       572167.0       569803.0       566994.0       564613.0       561732.0
       559111.0       555751.0       551321.0       548577.0       545628.0
       542245.0       539661.0       536288.0       532967.0       530104.0
       527860.0       525404.0       521427.0       518391.0       515057.0
       510720.0       507369.0       503732.0       501114.0       498408.0
       495354.0       493358.0       489323.0       486314.0       484121.0
       478880.0       474366.0       471205.0       467166.0       463314.0
       460002.0       455362.0       451268.0       449173.0       445530.0
       441882.0       440073.0       437119.0       432221.0       427785.0
       424541.0       420298.0       415664.0       412447.0       409015.0
       404560.0       401228.0       398715.0       394874.0       391178.0
       387431.0       383094.0       379760.0       374822.0       370588.0
       367709.0       363780.0       361331.0       357630.0       353161.0
       349636.0       344733.0       340478.0       336637.0       332387.0
       328416.0       323859.0       319669.0       316642.0       313851.0
       309613.0       305421.0       301765.0       297003.0       292726.0
       289354.0       285016.0       279939.0       276289.0       274351.0
       270675.0       264507.0       260624.0       256230.0       251191.0
       248409.0       243781.0       240060.0       238196.0       234745.0
       231037.0       227261.0       222447.0       218053.0       214246.0
       209345.0       203662.0       198605.0       194379.0       190078.0
       186244.0       183639.0       180299.0       175670.0       171285.0
       167073.0       162488.0       157853.0       153476.0       149161.0
       144996.0       141049.0       136476.0       132362.0       128834.0
       124518.0       120012.0       115010.0       111245.0       107309.0
       101987.0       97415.00       92275.00       88859.00       85378.00
       80729.00       78042.00       73497.00       67987.00       63212.00
       57202.00       51280.00       46991.00       43766.00       39241.00
       34507.00       30942.00       26480.00       21807.00       18300.00
       13575.00       7252.000       1707.000      -3535.000      -8909.000
      -13743.00      -18247.00      -22319.00      -26048.00      -29974.00
      -34527.00      -38755.00      -43414.00      -50074.00      -55767.00
      -59930.00      -65220.00      -69276.00      -72278.00      -77641.00
      -82282.00      -85782.00      -91248.00      -97439.00      -102847.0
      -107874.0      -113383.0      -118380.0      -122801.0      -127354.0
      -132021.0      -137294.0      -142436.0      -147893.0      -153034.0
      -157155.0      -161120.0      -165441.0      -170769.0      -175923.0
      -181092.0      -186243.0      -191759.0      -197551.0      -202328.0
      -207477.0      -213026.0      -218183.0      -223197.0      -227787.0
      -231764.0      -236034.0      -240141.0      -245498.0      -252275.0
      -258017.0      -263468.0      -268273.0      -273349.0      -277890.0
      -281336.0      -286818.0      -291503.0      -295701.0      -302119.0
      -307303.0      -311834.0      -317564.0      -321928.0      -326296.0
      -331384.0      -335782.0      -341166.0      -346285.0      -350570.0
      -354526.0      -359439.0      -365238.0      -369488.0      -374806.0
      -380476.0      -385376.0      -391053.0      -395591.0      -399850.0
      -405056.0      -409811.0      -413755.0      -417488.0      -421785.0
      -427362.0      -432759.0      -437558.0      -443467.0      -449426.0
      -454309.0      -458777.0      -464127.0      -468662.0      -471821.0
      -476247.0      -480059.0      -484550.0      -490139.0      -493925.0
      -499394.0      -504637.0      -508887.0      -514387.0      -519075.0
      -524364.0      -528193.0      -532758.0      -538711.0      -541355.0
      -545519.0      -550932.0      -556117.0      -560521.0      -563685.0
      -568710.0      -572026.0      -576126.0      -582113.0      -585994.0
      -590359.0      -594597.0      -598129.0      -602878.0      -607339.0
      -611984.0      -617046.0      -620491.0      -624165.0      -627314.0
      -630653.0      -635447.0      -638827.0      -643520.0      -649018.0
      -652904.0      -657627.0      -662009.0      -665790.0      -669547.0
      -672124.0      -676085.0      -680446.0      -683026.0      -686030.0
      -689449.0      -694117.0      -698502.0      -701077.0      -704694.0
      -709033.0      -712648.0      -715082.0      -718467.0      -722675.0
      -725515.0      -728380.0      -731706.0      -735534.0      -739334.0
      -741502.0      -743486.0      -747184.0      -750730.0      -753090.0
      -755597.0      -757616.0      -759297.0      -762240.0      -766025.0
      -769148.0      -772339.0      -776848.0      -779374.0      -781739.0
      -783788.0      -783940.0      -787023.0      -789245.0      -791009.0
      -793996.0      -796583.0      -799417.0      -801686.0      -804503.0
      -805602.0      -806835.0      -809192.0      -810955.0      -813573.0
      -815303.0      -815758.0      -817096.0      -818781.0      -819417.0
      -821153.0      -823273.0      -825207.0      -828458.0      -830118.0
      -830263.0      -831488.0      -833133.0      -834149.0      -835162.0
      -836480.0      -837111.0      -837826.0      -838825.0      -839638.0
      -840089.0      -839648.0      -840426.0      -841862.0      -842429.0
      -843976.0      -845759.0      -846398.0      -846815.0      -847629.0
      -847820.0      -846960.0      -846720.0      -846831.0      -846521.0
      -846347.0      -846480.0      -846854.0      -847040.0      -847361.0
      -848047.0      -847969.0      -847285.0      -847036.0      -847282.0
      -847133.0      -845411.0      -844379.0      -844427.0      -843945.0
      -842909.0      -842252.0      -842241.0      -841232.0      -840014.0
      -838509.0      -838077.0      -838053.0      -836338.0      -834523.0
      -833245.0      -832429.0      -831852.0      -832270.0      -830702.0
      -827729.0      -828049.0      -827746.0      -824530.0      -822611.0
      -821402.0      -819521.0      -818664.0      -817365.0      -815608.0
      -813855.0      -811685.0      -810292.0      -808224.0      -805536.0
      -802935.0      -799426.0      -796878.0      -796097.0      -795331.0
      -793367.0      -791071.0      -789689.0      -787597.0      -785313.0
      -783102.0      -780130.0      -777378.0      -773656.0      -771716.0
      -770212.0      -765918.0      -763033.0      -760724.0      -757999.0
      -755181.0      -752204.0      -749716.0      -746797.0      -744397.0
      -741994.0      -738592.0      -735670.0      -733265.0      -729627.0
      -725008.0      -721207.0      -718721.0      -715897.0      -713057.0
      -709944.0      -706531.0      -703965.0      -700088.0      -696550.0
      -694090.0      -690876.0      -687440.0      -683653.0      -679739.0
      -676128.0      -672140.0      -668305.0      -665295.0      -661908.0
      -659389.0      -656406.0      -651143.0      -647776.0      -644661.0
      -639531.0      -635342.0      -631208.0      -626846.0      -622990.0
      -619677.0      -616188.0      -612006.0      -608311.0      -604827.0
      -600844.0      -595906.0      -591561.0      -588296.0      -583967.0
      -579510.0      -574795.0      -569318.0      -565836.0      -561879.0
      -556471.0      -552768.0      -549088.0      -543907.0      -539357.0
      -536083.0      -531374.0      -527391.0      -524869.0      -519137.0
      -513358.0      -509805.0      -503948.0      -497932.0      -493641.0
      -489015.0      -485151.0      -480144.0      -475787.0      -472857.0
      -466421.0      -461191.0      -457671.0      -451154.0      -445788.0
      -441703.0      -436844.0      -432706.0      -427985.0      -422267.0
      -417397.0      -412720.0      -406731.0      -401002.0      -396385.0
      -391655.0      -387030.0      -382319.0      -377474.0      -373151.0
      -367509.0      -362218.0      -357529.0      -350782.0      -346089.0
      -341396.0      -335210.0      -330716.0      -324931.0      -320307.0
      -316724.0      -310310.0      -305197.0      -301132.0      -294075.0
      -287824.0      -283237.0      -276781.0      -271458.0      -266036.0
      -260149.0      -256451.0      -251250.0      -246423.0      -241756.0
      -234591.0      -228622.0      -223365.0      -217269.0      -212290.0
      -206737.0      -201155.0      -197775.0      -192132.0      -186370.0
      -182690.0      -176661.0      -170847.0      -165088.0      -157544.0
      -151438.0      -145995.0      -140601.0      -135962.0      -130520.0
      -125095.0      -120009.0      -113725.0      -108064.0      -102637.0
      -96002.00      -89240.00      -83121.00      -77905.00      -71736.00
      -66456.00      -63216.00      -57955.00      -50924.00      -45771.00
      -39681.00      -32233.00      -27187.00      -21254.00      -14557.00
      -8428.000      -2634.000       2724.000       8707.000       13178.00
       18460.00       26030.00       32207.00       37651.00       44390.00
       49948.00       54439.00       60471.00       65398.00       69912.00
       75181.00       80288.00       87270.00       94007.00       100310.0
       107936.0       114830.0       119893.0       124355.0       130789.0
       137169.0       141736.0       147219.0       153494.0       159819.0
       165865.0       171635.0       178334.0       183898.0       188545.0
       196276.0       203167.0       206262.0       211295.0       218394.0
       223546.0       228428.0       236273.0       244031.0       249268.0
       255293.0       261946.0       267615.0       272067.0       276752.0
       282835.0       288273.0       294998.0       302518.0       307388.0
       313405.0       320638.0       325938.0       331803.0       337973.0
       343855.0       349099.0       353826.0       360854.0       367130.0
       371539.0       377568.0       384347.0       389317.0       393468.0
       400312.0       407459.0       411824.0       417573.0       424986.0
       430723.0       435833.0       441762.0       447277.0       451713.0
       457794.0       464494.0       468968.0       474519.0       480770.0
       485849.0       491335.0       497160.0       503428.0       507846.0
       511929.0       519617.0       525862.0       529563.0       535634.0
       540984.0       544927.0       550417.0       555476.0       560638.0
       566284.0       571816.0       577806.0       583540.0       589025.0
       594888.0       600519.0       603975.0       607250.0       612057.0
       617869.0       622846.0       625933.0       631920.0       638167.0
       642312.0       647882.0       653201.0       657658.0       662117.0
       666504.0       670258.0       673989.0       679006.0       683720.0
       688027.0       693273.0       697882.0       702664.0       707459.0
       711379.0       715001.0       717069.0       720912.0       725253.0
       728347.0       733294.0       737918.0       741628.0       745786.0
       750799.0       754492.0       756622.0       759864.0       763858.0
       767880.0       771422.0       775375.0       779128.0       782541.0
       786822.0       790058.0       792346.0       795808.0       800081.0
       802872.0       804228.0       806934.0       810890.0       814478.0
       818460.0       821605.0       823471.0       826915.0       830322.0
       832370.0       834042.0       835723.0       838354.0       841216.0
       843386.0       845824.0       849814.0       852609.0       854887.0
       857461.0       858699.0       860689.0       862412.0       864262.0
       866955.0       869217.0       871706.0       873841.0       875301.0
       876918.0       878083.0       878566.0       878932.0       880485.0
       883407.0       885617.0       887859.0       889983.0       891535.0
       893504.0       894296.0       894959.0       895656.0       895273.0
       895891.0       896579.0       897541.0       899569.0       900962.0
       902472.0       904254.0       904964.0       905020.0       905818.0
       907216.0       907801.0       907307.0       907517.0       908117.0
       908105.0       908585.0       908902.0       909611.0       910678.0
       911138.0       912131.0       912253.0       912591.0       913277.0
       912479.0       912451.0       912055.0       911102.0       910603.0
       910188.0       909640.0       907937.0       906958.0       907299.0
       906683.0       905841.0       907620.0       908188.0       906053.0
       906439.0       906731.0       904103.0       901912.0       900585.0
       898335.0       896605.0       896633.0       896598.0       896845.0
       897496.0       896966.0       895442.0       893574.0       891434.0
       888975.0       887494.0       886241.0       883802.0       882441.0
       882026.0       879756.0       877766.0       876421.0       873275.0
       870976.0       869926.0       868224.0       866429.0       864808.0
       862565.0       860733.0       858488.0       855409.0       853886.0
       851280.0       847529.0       844961.0       842380.0       840430.0
       838699.0       836240.0       834805.0       831476.0       826504.0
       825047.0       821902.0       817116.0       816424.0       813615.0
       808686.0       806423.0       803194.0       799290.0       797082.0
       793920.0       790771.0       788131.0       783600.0       779405.0
       775218.0       771267.0       767978.0       764646.0       762264.0
       758314.0       754064.0       751091.0       747365.0       743693.0
       739357.0       734012.0       730460.0       726588.0       721652.0
       718783.0       715109.0       709467.0       704959.0       701185.0
       697645.0       693288.0       688673.0       684823.0       679209.0
       674680.0       670876.0       665430.0       660588.0       655742.0
       651343.0       646969.0       641675.0       636259.0       631549.0
       626406.0       620815.0       615477.0       610829.0       607496.0
       601832.0       596788.0       593147.0       587159.0       581760.0
       576868.0       572036.0       566794.0       559506.0       552242.0
       547087.0       542304.0       536630.0       531552.0       526436.0
       522295.0       517837.0       510830.0       505152.0       500844.0
       494893.0       487873.0       481290.0       475343.0       469496.0
       463024.0       457647.0       453102.0       447381.0       441730.0
       435996.0       430375.0       424326.0       417277.0       411096.0
       405994.0       401128.0       395086.0       388477.0       382338.0
       375688.0       369382.0       362922.0       356994.0       352466.0
       346037.0       339360.0       333983.0       328299.0       323605.0
       316991.0       309082.0       304080.0       297276.0       289400.0
       284426.0       278149.0       271069.0       266058.0       259879.0
       252399.0       245861.0       239752.0       233756.0       227659.0
       221036.0       214817.0       209753.0       202447.0       194170.0
       188355.0       181646.0       175090.0       169549.0       162856.0
       157892.0       152857.0       145719.0       139576.0       132541.0
       124940.0       119033.0       112982.0       106310.0       100040.0
       94145.00       87280.00       81545.00       75877.00       68914.00
       63131.00       56226.00       48912.00       42705.00       37304.00
       31789.00       25056.00       18922.00       12785.00       5953.000
      -571.0000      -6314.000      -12308.00      -19281.00      -25957.00
      -32016.00      -38135.00      -44325.00      -50554.00      -56689.00
      -62593.00      -68530.00      -74591.00      -81503.00      -87539.00
      -93102.00      -99426.00      -105058.0      -111472.0      -118128.0
      -123552.0      -127622.0      -133280.0      -140460.0      -146377.0
      -153157.0      -159921.0      -165585.0      -171586.0      -178270.0
      -183751.0      -189659.0      -197170.0      -202426.0      -207206.0
      -211888.0      -216511.0      -223690.0      -230203.0      -234770.0
      -240882.0      -248469.0      -254485.0      -259652.0      -265090.0
      -270583.0      -275720.0      -280737.0      -285702.0      -290170.0
      -295583.0      -300721.0      -306229.0      -313377.0      -319486.0
      -325358.0      -331975.0      -336985.0      -341081.0      -346615.0
      -352197.0      -356538.0      -361829.0      -367592.0      -372744.0
      -378116.0      -382389.0      -386543.0      -391661.0      -396739.0
      -401272.0      -406199.0      -412336.0      -417755.0      -423147.0
      -428486.0      -432736.0      -437715.0      -442000.0      -445508.0
      -449401.0      -453387.0      -458695.0      -463073.0      -466936.0
      -472720.0      -477918.0      -483104.0      -488999.0      -493371.0
      -497935.0      -502746.0      -506043.0      -510074.0      -514806.0
      -519827.0      -524708.0      -527960.0      -530685.0      -533533.0
      -536818.0      -540677.0      -544654.0      -548940.0      -553891.0
      -558619.0      -562730.0      -568096.0      -573162.0      -575729.0
      -579365.0      -582768.0      -585056.0      -588875.0      -591555.0
      -593986.0      -598640.0      -603229.0      -605971.0      -609656.0
      -613961.0      -616394.0      -619812.0      -624527.0      -627524.0
      -630579.0      -635206.0      -638366.0      -640423.0      -643602.0
      -647235.0      -650149.0      -652113.0      -655063.0      -659075.0
      -661686.0      -664522.0      -668655.0      -672421.0      -675326.0
      -677961.0      -681184.0      -683933.0      -685555.0      -688466.0
