     0.02500000      -12345.00      -12345.00   2.447790e+09      -12345.00
   0.0005380000       1859.976      -583.0195      -12345.00      -12345.00
      -12345.00      -12345.00      -12345.00      -12345.00      -12345.00
      -12345.00      -12345.00      -12345.00      -12345.00      -12345.00
      -12345.00      -12345.00      -12345.00      -12345.00      -12345.00
      -12345.00      -12345.00      -12345.00      -12345.00      -12345.00
      -12345.00       7.069700       125.5791       150.0000       1.000000
      -42.72450       173.0647      -12345.00       22.00000      -12345.00
      -12345.00      -12345.00      -12345.00      -12345.00      -12345.00
      -12345.00      -12345.00      -12345.00      -12345.00      -12345.00
       7304.693       306.6093       143.4168       65.69559      -12345.00
      -12345.00      -12345.00       0.000000       0.000000      -12345.00
      -12345.00      -12345.00      -12345.00      -12345.00      -12345.00
      -12345.00      -12345.00      -12345.00      -12345.00      -12345.00
      2016       318        11        12        42
        19         6    -12345    -12345     74400
    -12345    -12345    -12345    -12345    -12345
         1    -12345    -12345    -12345    -12345
    -12345    -12345    -12345    -12345    -12345
    -12345    -12345    -12345    -12345    -12345
    -12345    -12345    -12345    -12345    -12345
         1    -12345    -12345    -12345    -12345
DAV     South Island, Ne
00      -12345  -12345  
-12345  -12345  -12345  
-12345  -12345  -12345  
-12345  -12345  -12345  
-12345  -12345  -12345  
-12345  -12345  BHZ     
IU      -12345  Streckei
[...]
       150582.0       157638.0       164638.0       170557.0       177408.0
       184013.0       189671.0       196334.0       202430.0       207792.0
       213518.0       219363.0       225151.0       230406.0       235611.0
       242538.0       249145.0       255036.0       262620.0       269707.0
       276045.0       282609.0       288519.0       293378.0       298719.0
       305498.0       310657.0       315093.0       321529.0       326775.0
       330565.0       336489.0       342146.0       346546.0       352626.0
       359084.0       364748.0       371092.0       377667.0       382678.0
       387834.0       394291.0       399080.0       403224.0       409046.0
       414286.0       418995.0       425309.0       431709.0       437134.0
       442631.0       447476.0       452686.0       458624.0       462806.0
       466492.0       471528.0       477191.0       482812.0       488635.0
       494986.0       500250.0       503961.0       507326.0       510430.0
       514499.0       519119.0       523859.0       529605.0       534369.0
       538624.0       542744.0       545981.0       549758.0       554213.0
       560093.0       566325.0       571341.0       576601.0       581345.0
       585425.0       589861.0       593093.0       596099.0       600748.0
       605507.0       610142.0       614776.0       619063.0       623944.0
       628791.0       632913.0       636587.0       639787.0       643206.0
       647148.0       650331.0       652758.0       655014.0       657347.0
       659497.0       661529.0       665054.0       669276.0       674043.0
       678776.0       682488.0       687140.0       691213.0       693857.0
       696378.0       698594.0       701689.0       705012.0       707990.0
       710965.0       712909.0       714961.0       717863.0       719824.0
       721119.0       724091.0       727586.0       729897.0       732952.0
       736943.0       740162.0       742929.0       745679.0       747630.0
       749003.0       751425.0       754167.0       756420.0       759033.0
       760747.0       761721.0       763034.0       763864.0       764817.0
       766892.0       768662.0       769979.0       771998.0       772552.0
       772015.0       773016.0       774071.0       775224.0       778057.0
       780882.0       782871.0       784730.0       785810.0       786075.0
       786791.0       788221.0       789313.0       791074.0       793594.0
       795305.0       797634.0       799652.0       801728.0       806082.0
       808401.0       809557.0       812281.0       812857.0       814105.0
       816355.0       815589.0       815806.0       817024.0       817260.0
       819351.0       821047.0       821037.0       821893.0       822431.0
       821366.0       820985.0       821361.0       820305.0       819813.0
       820459.0       820738.0       821522.0       822158.0       822177.0
       821475.0       820486.0       819877.0       818489.0       817956.0
       818822.0       818689.0       818321.0       819376.0       819404.0
       818236.0       818254.0       817160.0       815587.0       814793.0
       812976.0       810977.0       809405.0       807756.0       805583.0
       803471.0       802394.0       800661.0       798100.0       797660.0
       797895.0       796717.0       795892.0       794976.0       793216.0
       791420.0       788629.0       785620.0       783549.0       780823.0
       778133.0       775945.0       773191.0       771275.0       770439.0
       768541.0       766649.0       765849.0       764044.0       762040.0
       759933.0       756480.0       753367.0       750327.0       746727.0
       743189.0       738659.0       734838.0       732941.0       729586.0
       725988.0       724378.0       722229.0       719714.0       716425.0
       711444.0       707521.0       703880.0       699880.0       696554.0
       693051.0       690697.0       688394.0       685003.0       681963.0
       677456.0       673035.0       670405.0       667032.0       663615.0
       661115.0       658116.0       654862.0       652747.0       650289.0
       647177.0       644296.0       639869.0       635768.0       634024.0
       631522.0       628069.0       625198.0       621975.0       618418.0
       614669.0       612010.0       609489.0       605216.0       602139.0
       599439.0       596117.0       593322.0       588655.0       584623.0
       581431.0       575753.0       572249.0       569429.0       563860.0
       560499.0       557067.0       552270.0       549387.0       545835.0
       541902.0       538211.0       533964.0       529739.0       524259.0
       518568.0       513583.0       508750.0       505111.0       501799.0
       498382.0       495535.0       491604.0       488042.0       485279.0
       481076.0       476954.0       472342.0       466469.0       460797.0
       455045.0       449439.0       444134.0       438968.0       434133.0
       429654.0       425178.0       420270.0       415611.0       411057.0
       406763.0       402985.0       398707.0       394091.0       389188.0
       383452.0       377382.0       371868.0       367109.0       362167.0
       356835.0       352455.0       347612.0       342122.0       337726.0
       332935.0       327947.0       322760.0       316923.0       311785.0
       307131.0       302599.0       297635.0       291794.0       285549.0
       279093.0       272488.0       266645.0       261631.0       256006.0
       250647.0       246379.0       242412.0       238079.0       232738.0
       227626.0       222471.0       215894.0       209700.0       204295.0
       197797.0       191662.0       186664.0       181657.0       176747.0
       170566.0       163889.0       157900.0       151612.0       145304.0
       139455.0       134085.0       129091.0       124370.0       119281.0
       114784.0       110399.0       104217.0       98476.00       93516.00
       87306.00       80270.00       74367.00       68716.00       61959.00
       56713.00       52236.00       47237.00       42405.00       36966.00
       31795.00       25970.00       18522.00       11718.00       5583.000
      -809.0000      -8043.000      -15751.00      -22557.00      -29917.00
      -36963.00      -42366.00      -48963.00      -55849.00      -60365.00
      -65209.00      -71710.00      -77570.00      -83451.00      -90033.00
      -96558.00      -103576.0      -110946.0      -117648.0      -124259.0
      -131887.0      -139418.0      -146040.0      -151339.0      -155790.0
      -161250.0      -166096.0      -169880.0      -174840.0      -179452.0
      -183101.0      -187876.0      -193065.0      -198120.0      -204107.0
      -210254.0      -216004.0      -221805.0      -226940.0      -231137.0
      -235129.0      -238883.0      -242126.0      -245026.0      -247881.0
      -251198.0      -255281.0      -259237.0      -264064.0      -270050.0
      -275292.0      -281305.0      -288270.0      -293812.0      -298526.0
      -303119.0      -306885.0      -311471.0      -316584.0      -320279.0
      -323868.0      -328063.0      -332039.0      -336487.0      -342174.0
      -347645.0      -352994.0      -358259.0      -362908.0      -368343.0
      -373988.0      -379305.0      -385364.0      -391726.0      -397259.0
      -402005.0      -407097.0      -413178.0      -419322.0      -425314.0
      -431914.0      -438306.0      -444097.0      -450176.0      -455701.0
      -460668.0      -465329.0      -469457.0      -474627.0      -479500.0
      -484304.0      -490411.0      -495772.0      -501315.0      -506726.0
      -511604.0      -517208.0      -521745.0      -525926.0      -530627.0
      -535505.0      -541015.0      -546196.0      -551007.0      -555642.0
      -560327.0      -565074.0      -569711.0      -575020.0      -580832.0
      -586274.0      -590653.0      -594238.0      -597789.0      -601923.0
      -606391.0      -610615.0      -615204.0      -619827.0      -624330.0
      -630093.0      -635603.0      -639897.0      -645058.0      -650955.0
      -656453.0      -661038.0      -665320.0      -669906.0      -673264.0
      -674870.0      -677010.0      -680228.0      -683124.0      -686171.0
      -690493.0      -695595.0      -699493.0      -702688.0      -706985.0
      -710973.0      -714444.0      -718741.0      -723262.0      -726844.0
      -729587.0      -732865.0      -735572.0      -737976.0      -740813.0
      -742500.0      -744288.0      -746690.0      -749779.0      -753121.0
      -756101.0      -760021.0      -763239.0      -765163.0      -767660.0
      -770361.0      -772344.0      -773535.0      -775227.0      -777482.0
      -779142.0      -781065.0      -783185.0      -785308.0      -787575.0
      -789407.0      -791216.0      -792477.0      -793683.0      -796267.0
      -798557.0      -800554.0      -803096.0      -805178.0      -807429.0
      -808948.0      -810267.0      -811792.0      -812411.0      -814166.0
      -816344.0      -818796.0      -822221.0      -824654.0      -827151.0
      -829473.0      -829972.0      -830931.0      -832388.0      -833003.0
      -834251.0      -835238.0      -834973.0      -835255.0      -836149.0
      -837056.0      -838374.0      -840308.0      -841560.0      -841329.0
      -841331.0      -841780.0      -842234.0      -842999.0      -843628.0
      -844364.0      -845785.0      -846785.0      -847405.0      -847598.0
      -846917.0      -846851.0      -845604.0      -844516.0      -845484.0
      -845875.0      -847658.0      -849067.0      -848925.0      -850404.0
      -850224.0      -848663.0      -847849.0      -846674.0      -845463.0
      -844110.0      -843380.0      -842558.0      -840623.0      -839042.0
      -838709.0      -838208.0      -837326.0      -838113.0      -838421.0
      -837338.0      -836825.0      -836329.0      -835757.0      -834668.0
      -832947.0      -831538.0      -830207.0      -828844.0      -827201.0
      -825294.0      -824922.0      -825039.0      -823852.0      -823265.0
      -822487.0      -821042.0      -820315.0      -819120.0      -817972.0
      -816403.0      -812849.0      -809413.0      -806858.0      -803037.0
      -799012.0      -796713.0      -795486.0      -794998.0      -794760.0
      -793884.0      -792564.0      -791597.0      -790166.0      -787722.0
      -785377.0      -782643.0      -779367.0      -776476.0      -773905.0
      -771585.0      -768910.0      -766418.0      -764835.0      -763657.0
      -763579.0      -763400.0      -762271.0      -761619.0      -760628.0
      -758466.0      -755481.0      -751698.0      -748165.0      -744554.0
      -740255.0      -736799.0      -733479.0      -729550.0      -725755.0
      -721842.0      -718859.0      -716359.0      -712647.0      -710119.0
      -707757.0      -703246.0      -699597.0      -694983.0      -688616.0
      -684278.0      -678965.0      -671668.0      -666870.0      -662165.0
      -655737.0      -651168.0      -646350.0      -640814.0      -636340.0
      -632324.0      -629927.0      -627163.0      -623863.0      -620710.0
      -616961.0      -612921.0      -608004.0      -604535.0      -600831.0
      -595458.0      -590586.0      -584803.0      -579381.0      -573719.0
      -567828.0      -564332.0      -559640.0      -554847.0      -552413.0
      -549084.0      -545497.0      -542019.0      -537887.0      -533207.0
      -526831.0      -521230.0      -516208.0      -509769.0      -503893.0
      -497100.0      -491088.0      -486152.0      -479739.0      -475734.0
      -472375.0      -467955.0      -463626.0      -458753.0      -455111.0
      -450753.0      -445368.0      -440317.0      -434658.0      -428667.0
      -422072.0      -416595.0      -411720.0      -405543.0      -399699.0
      -393713.0      -387760.0      -382430.0      -376588.0      -371560.0
      -366666.0      -360976.0      -355957.0      -349769.0      -342910.0
      -336558.0      -329177.0      -321791.0      -314331.0      -306223.0
      -297917.0      -289796.0      -282237.0      -275339.0      -269344.0
      -264235.0      -259080.0      -252850.0      -247285.0      -243061.0
      -237139.0      -229942.0      -223945.0      -217484.0      -210092.0
      -203280.0      -196855.0      -190620.0      -184236.0      -178081.0
      -172596.0      -166898.0      -160955.0      -154846.0      -149146.0
      -143764.0      -137419.0      -130763.0      -125043.0      -119945.0
      -113842.0      -106586.0      -99918.00      -94237.00      -87386.00
      -80342.00      -75282.00      -69102.00      -61521.00      -54881.00
      -48380.00      -41971.00      -35652.00      -28974.00      -22940.00
      -17240.00      -11130.00      -5291.000       1196.000       8206.000
       14879.00       22561.00       30925.00       39059.00       46936.00
       54148.00       60799.00       67741.00       74521.00       81458.00
       88650.00       94975.00       101980.0       107823.0       112741.0
       119332.0       125538.0       132482.0       139941.0       147685.0
       155990.0       162631.0       170100.0       178049.0       185112.0
       192676.0       199594.0       206430.0       213810.0       221155.0
       228587.0       236450.0       243790.0       250078.0       256580.0
       263882.0       272218.0       280180.0       288427.0       297185.0
       304776.0       312856.0       321040.0       328659.0       336547.0
       344024.0       350990.0       357103.0       363147.0       370601.0
       377675.0       383806.0       390261.0       396376.0       403174.0
       410329.0       416404.0       423826.0       431470.0       438089.0
       446130.0       453791.0       460281.0       466737.0       471620.0
       476133.0       481772.0       487537.0       493288.0       498789.0
       505054.0       511635.0       517420.0       523631.0       529907.0
       535987.0       541931.0       547516.0       552612.0       557563.0
       563548.0       570018.0       575715.0       581120.0       586871.0
       592495.0       598583.0       605246.0       610969.0       615991.0
       620638.0       624713.0       628399.0       631759.0       635184.0
       638542.0       643113.0       648977.0       654579.0       659840.0
       665108.0       671623.0       677460.0       681694.0       687004.0
       692863.0       699203.0       705860.0       712099.0       718276.0
       723962.0       729712.0       734504.0       738279.0       743002.0
       747541.0       751804.0       757682.0       762988.0       766308.0
       770027.0       773107.0       776158.0       780417.0       783829.0
       787500.0       792211.0       796497.0       800193.0       804280.0
       808588.0       812621.0       817003.0       821868.0       826800.0
       831551.0       836321.0       840833.0       844903.0       847663.0
       848895.0       850720.0       852771.0       854646.0       856888.0
       859104.0       861725.0       864223.0       866654.0       869799.0
       872293.0       874808.0       878988.0       881577.0       883425.0
       886516.0       888101.0       889526.0       891385.0       892480.0
       894095.0       896205.0       897706.0       899532.0       901782.0
       903383.0       904859.0       906441.0       907620.0       907903.0
       907831.0       907916.0       908262.0       909285.0       910877.0
       911933.0       911388.0       910527.0       910289.0       910115.0
       910199.0       910496.0       912040.0       914919.0       917432.0
       920211.0       922620.0       923461.0       923478.0       922719.0
       921733.0       921035.0       920273.0       919076.0       917992.0
       917264.0       915920.0       914840.0       914284.0       914364.0
       915318.0       915468.0       915463.0       915427.0       914508.0
       913744.0       912951.0       912057.0       911571.0       910584.0
       909703.0       908936.0       907329.0       905497.0       903839.0
       903518.0       903497.0       902744.0       902899.0       903568.0
       903078.0       901474.0       900221.0       899054.0       897558.0
       895928.0       894566.0       894095.0       893383.0       892020.0
       890842.0       889423.0       886918.0       884051.0       880951.0
       877511.0       875113.0       872814.0       870462.0       869053.0
       866252.0       863000.0       861138.0       858037.0       853352.0
       849081.0       844561.0       840409.0       838105.0       835078.0
       831653.0       829537.0       827067.0       824659.0       822487.0
       819518.0       816803.0       814017.0       810185.0       806443.0
       802754.0       798379.0       793325.0       787757.0       782657.0
       777438.0       771871.0       767870.0       764549.0       760636.0
       757722.0       755666.0       751918.0       747366.0       742974.0
       737713.0       733169.0       728475.0       721529.0       715779.0
       712093.0       706888.0       702005.0       698414.0       694064.0
       689506.0       684409.0       679158.0       674270.0       670107.0
       667072.0       663349.0       659458.0       655572.0       650636.0
       645237.0       639160.0       633712.0       628746.0       622868.0
       617751.0       614103.0       611080.0       607371.0       603023.0
       598927.0       594054.0       588743.0       583611.0       577010.0
       569301.0       562497.0       556093.0       549781.0       543972.0
       538117.0       533197.0       529232.0       524535.0       519732.0
       515048.0       508816.0       501758.0       495018.0       488323.0
       481907.0       475238.0       469175.0       463381.0       456884.0
       451076.0       444966.0       438884.0       432711.0       425606.0
       419463.0       413210.0       405726.0       398133.0       390566.0
       383128.0       375556.0       367742.0       360075.0       353287.0
       347462.0       341053.0       334322.0       327615.0       320773.0
       314446.0       307479.0       299401.0       292811.0       287270.0
       280978.0       275915.0       271100.0       265632.0       259631.0
       252347.0       245984.0       239545.0       232827.0       227644.0
