     0.02500000      -12345.00      -12345.00   2.447790e+09      -12345.00
   0.0005390000       1859.976      -583.0195      -12345.00      -12345.00
      -12345.00      -12345.00      -12345.00      -12345.00      -12345.00
      -12345.00      -12345.00      -12345.00      -12345.00      -12345.00
      -12345.00      -12345.00      -12345.00      -12345.00      -12345.00
      -12345.00      -12345.00      -12345.00      -12345.00      -12345.00
      -12345.00       7.069700       125.5791       150.0000       1.000000
      -42.72450       173.0647      -12345.00       22.00000      -12345.00
      -12345.00      -12345.00      -12345.00      -12345.00      -12345.00
      -12345.00      -12345.00      -12345.00      -12345.00      -12345.00
       7304.693       306.6093       143.4168       65.69559      -12345.00
      -12345.00      -12345.00       90.00000       90.00000      -12345.00
      -12345.00      -12345.00      -12345.00      -12345.00      -12345.00
      -12345.00      -12345.00      -12345.00      -12345.00      -12345.00
      2016       318        11        12        42
        19         6    -12345    -12345     74400
    -12345    -12345    -12345    -12345    -12345
         1    -12345    -12345    -12345    -12345
    -12345    -12345    -12345    -12345    -12345
    -12345    -12345    -12345    -12345    -12345
    -12345    -12345    -12345    -12345    -12345
         1    -12345    -12345    -12345    -12345
DAV     South Island, Ne
00      -12345  -12345  
-12345  -12345  -12345  
-12345  -12345  -12345  
-12345  -12345  -12345  
-12345  -12345  -12345  
-12345  -12345  BH2     
IU      -12345  Streckei
[...]
       753854.0       751293.0       748001.0       744757.0       742341.0
       740118.0       737392.0       735106.0       733871.0       730926.0
       727144.0       723702.0       720029.0       717588.0       714742.0
       711441.0       709627.0       705712.0       700036.0       697562.0
       695147.0       690247.0       686714.0       684280.0       680251.0
       676541.0       674232.0       671691.0       667905.0       663325.0
       659729.0       655695.0       650204.0       645867.0       642181.0
       638338.0       634868.0       630875.0       627047.0       623070.0
       618996.0       614476.0       608556.0       603884.0       599754.0
       594963.0       591004.0       586439.0       581522.0       577306.0
       573668.0       570200.0       565083.0       560288.0       555871.0
       550023.0       544977.0       539992.0       535650.0       531961.0
       527598.0       524300.0       519461.0       514600.0       511349.0
       505216.0       498597.0       493801.0       488477.0       483065.0
       478330.0       472483.0       466537.0       462852.0       458441.0
       453240.0       449996.0       446338.0       440279.0       434036.0
       429178.0       423799.0       417628.0       412714.0       408110.0
       402387.0       397380.0       393633.0       388877.0       383714.0
       378736.0       372975.0       368134.0       362229.0       356045.0
       351784.0       346817.0       342847.0       338405.0       332583.0
       327636.0       321551.0       315563.0       310396.0       304786.0
       299414.0       293587.0       287848.0       283354.0       279578.0
       274553.0       268819.0       263873.0       258035.0       252045.0
       247275.0       241979.0       235557.0       230137.0       226941.0
       222970.0       215632.0       209593.0       204329.0       197770.0
       193391.0       188056.0       182608.0       179698.0       175745.0
       170878.0       166033.0       160106.0       154296.0       149221.0
       143278.0       136184.0       129351.0       123625.0       118141.0
       112981.0       109245.0       105271.0       99759.00       94044.00
       88581.00       82905.00       76931.00       71177.00       65718.00
       60270.00       55192.00       49653.00       44138.00       39584.00
       34413.00       28735.00       22606.00       17307.00       12505.00
       6200.000       171.0000      -6144.000      -11116.00      -15265.00
      -20902.00      -24854.00      -29777.00      -36581.00      -42666.00
      -49758.00      -57335.00      -63248.00      -67513.00      -72667.00
      -78644.00      -83388.00      -88517.00      -94350.00      -99036.00
      -104350.0      -111776.0      -118960.0      -125529.0      -132193.0
      -138284.0      -143986.0      -149095.0      -153686.0      -158432.0
      -163793.0      -169130.0      -174555.0      -182138.0      -189649.0
      -195034.0      -201163.0      -206641.0      -210308.0      -216107.0
      -222179.0      -226531.0      -232548.0      -239988.0      -246798.0
      -253056.0      -259542.0      -265821.0      -271306.0      -276600.0
      -282178.0      -288398.0      -294607.0      -301066.0      -307459.0
      -312653.0      -317403.0      -322331.0      -328346.0      -334657.0
      -340769.0      -346945.0      -353404.0      -360354.0      -366325.0
      -372246.0      -378846.0      -385101.0      -391052.0      -396612.0
      -401396.0      -406242.0      -410984.0      -416824.0      -424709.0
      -431834.0      -438356.0      -444339.0      -450045.0      -455578.0
      -459722.0      -465412.0      -471287.0      -476074.0      -482999.0
      -489614.0      -494904.0      -501295.0      -506831.0      -511725.0
      -517492.0      -522685.0      -528579.0      -534725.0      -539798.0
      -544294.0      -549514.0      -556111.0      -561479.0      -567163.0
      -573766.0      -579567.0      -585822.0      -591443.0      -596284.0
      -601887.0      -607511.0      -612133.0      -616301.0      -620815.0
      -626724.0      -633150.0      -638631.0      -645071.0      -652098.0
      -657911.0      -662993.0      -668747.0      -674169.0      -677857.0
      -682305.0      -686683.0      -691255.0      -697428.0      -702045.0
      -707573.0      -713794.0      -718597.0      -724479.0      -730007.0
      -735727.0      -740387.0      -744891.0      -751441.0      -755028.0
      -758706.0      -764626.0      -770394.0      -775530.0      -779129.0
      -784086.0      -788202.0      -792070.0      -798368.0      -803260.0
      -807660.0      -812250.0      -816029.0      -820806.0      -825706.0
      -830577.0      -836238.0      -840292.0      -843912.0      -847316.0
      -850456.0      -855281.0      -859136.0      -863627.0      -869638.0
      -874094.0      -878847.0      -883773.0      -887724.0      -891613.0
      -894417.0      -897940.0      -902595.0      -905544.0      -908169.0
      -911419.0      -915928.0      -920780.0      -923650.0      -926805.0
      -931185.0      -935172.0      -937669.0      -940592.0      -944820.0
      -947942.0      -950540.0      -953613.0      -957354.0      -961270.0
      -963536.0      -965064.0      -968165.0      -971803.0      -974242.0
      -976323.0      -978151.0      -979328.0      -981591.0      -985251.0
      -988406.0      -991356.0      -995696.0      -998606.0      -1000524.
      -1002350.      -1001980.      -1003883.      -1006213.      -1007399.
      -1009912.      -1012274.      -1014761.      -1016823.      -1019173.
      -1020144.      -1020450.      -1022135.      -1023513.      -1025568.
      -1027131.      -1027047.      -1027411.      -1028406.      -1028557.
      -1029318.      -1030918.      -1032322.      -1034979.      -1036721.
      -1036220.      -1036367.      -1037344.      -1037836.      -1038081.
      -1038657.      -1038694.      -1038397.      -1038588.      -1038673.
      -1038318.      -1036941.      -1036426.      -1037149.      -1037164.
      -1037779.      -1038974.      -1039194.      -1038687.      -1038498.
      -1038023.      -1036165.      -1034618.      -1033694.      -1032372.
      -1031103.      -1030121.      -1029570.      -1028905.      -1028141.
      -1027931.      -1027150.      -1025358.      -1023909.      -1023073.
      -1022065.      -1019452.      -1016783.      -1015593.      -1014188.
      -1012018.      -1009986.      -1008837.      -1006992.      -1004461.
      -1001678.      -999721.0      -998685.0      -996139.0      -992903.0
      -990098.0      -987911.0      -986185.0      -985455.0      -983266.0
      -978805.0      -977169.0      -976292.0      -972076.0      -968150.0
      -965586.0      -962483.0      -960130.0      -957757.0      -954729.0
      -951646.0      -948055.0      -945090.0      -941885.0      -937707.0
      -933496.0      -928466.0      -923910.0      -921500.0      -919752.0
      -916796.0      -913028.0      -910101.0      -906872.0      -903087.0
      -899524.0      -895103.0      -890658.0      -885493.0      -881370.0
      -878762.0      -873419.0      -868211.0      -864430.0      -860272.0
      -855884.0      -851372.0      -847268.0      -842833.0      -838862.0
      -835130.0      -830304.0      -825626.0      -821703.0      -816816.0
      -810456.0      -804515.0      -800149.0      -795891.0      -791558.0
      -787034.0      -782004.0      -777802.0      -772597.0      -767265.0
      -763158.0      -758555.0      -753559.0      -748120.0      -742475.0
      -737159.0      -731566.0      -725905.0      -721187.0      -716368.0
      -712197.0      -708101.0      -701384.0      -695647.0      -691193.0
      -684643.0      -678239.0      -672497.0      -666434.0      -660689.0
      -655754.0      -650900.0      -645194.0      -639712.0      -634671.0
      -629231.0      -622635.0      -616257.0      -611252.0      -605618.0
      -599409.0      -593037.0      -585746.0      -580097.0      -574933.0
      -567890.0      -562062.0      -557026.0      -550387.0      -543805.0
      -538776.0      -532899.0      -526978.0      -522910.0      -516434.0
      -508397.0      -502767.0      -495834.0      -487564.0      -481228.0
      -475062.0      -469396.0      -463179.0      -456828.0      -452336.0
      -445140.0      -437401.0      -432127.0      -424631.0      -416822.0
      -410904.0      -404738.0      -398876.0      -392752.0      -385511.0
      -378658.0      -372408.0      -365044.0      -357236.0      -350640.0
      -344510.0      -338296.0      -331962.0      -325678.0      -319783.0
      -312770.0      -305644.0      -299388.0      -291257.0      -284168.0
      -278283.0      -270601.0      -263969.0      -257021.0      -250384.0
      -245527.0      -238171.0      -230770.0      -225312.0      -217306.0
      -208662.0      -202241.0      -194627.0      -187184.0      -180445.0
      -172814.0      -167291.0      -161329.0      -154714.0      -148828.0
      -140494.0      -132215.0      -125392.0      -117813.0      -110946.0
      -104205.0      -96975.00      -91917.00      -85628.00      -78178.00
      -72876.00      -66067.00      -58510.00      -51252.00      -42253.00
      -33958.00      -26911.00      -20036.00      -13883.00      -7373.000
      -491.0000       6002.000       13431.00       20840.00       27628.00
       35516.00       44099.00       51999.00       58664.00       66121.00
       73229.00       77674.00       83376.00       91818.00       98847.00
       105859.0       114905.0       121964.0       128777.0       136995.0
       144815.0       152036.0       158757.0       165991.0       171946.0
       177892.0       186643.0       194894.0       201550.0       209450.0
       216804.0       222439.0       229337.0       235816.0       241268.0
       247355.0       253614.0       261513.0       269850.0       277707.0
       286605.0       295310.0       302076.0       307422.0       314609.0
       322529.0       328335.0       334545.0       341894.0       349438.0
       356918.0       363907.0       371676.0       378910.0       384463.0
       392620.0       401650.0       406306.0       411164.0       419230.0
       426129.0       431729.0       440116.0       449759.0       456801.0
       463510.0       471266.0       478346.0       483862.0       489013.0
       495766.0       502395.0       509788.0       518722.0       525279.0
       531694.0       540048.0       546950.0       553486.0       560561.0
       567603.0       573956.0       579166.0       586715.0       594605.0
       599942.0       606297.0       614228.0       620613.0       625267.0
       632214.0       640864.0       646665.0       652416.0       660707.0
       668027.0       673892.0       680439.0       686932.0       692138.0
       698457.0       706127.0       711784.0       717524.0       724602.0
       730719.0       736710.0       743158.0       750322.0       755956.0
       760080.0       767766.0       775723.0       780267.0       786252.0
       792698.0       797183.0       802751.0       808649.0       814197.0
       820335.0       826598.0       833110.0       839689.0       845842.0
       852141.0       858722.0       862984.0       866057.0       870785.0
       876915.0       882737.0       886256.0       891786.0       899016.0
       903904.0       909511.0       915568.0       920476.0       925186.0
       929870.0       933922.0       937601.0       942548.0       947773.0
       952325.0       957714.0       962896.0       967818.0       972954.0
       977170.0       980910.0       983036.0       986148.0       990709.0
       993977.0       998590.0       1003707.       1007643.       1011648.
       1016764.       1020994.       1022972.       1025646.       1029506.
       1033545.       1037224.       1041023.       1044826.       1048181.
       1052217.       1055682.       1057800.       1060666.       1064854.
       1067971.       1068995.       1070745.       1074345.       1077960.
       1081751.       1085046.       1086657.       1089313.       1092755.
       1094725.       1095829.       1096809.       1098666.       1101232.
       1103182.       1104920.       1108453.       1111420.       1113223.
       1115423.       1116249.       1117333.       1118601.       1119680.
       1121731.       1123698.       1125647.       1127379.       1128330.
       1129235.       1129789.       1129484.       1128847.       1129176.
       1131402.       1133391.       1134987.       1136729.       1137772.
       1139007.       1139361.       1139008.       1138766.       1137493.
       1136731.       1136500.       1136500.       1137691.       1138601.
       1139322.       1140400.       1140613.       1139745.       1139253.
       1139768.       1139725.       1138280.       1137192.       1136748.
       1135788.       1135134.       1134544.       1134128.       1134286.
       1134004.       1133975.       1133337.       1132467.       1132216.
       1130564.       1129072.       1127727.       1125588.       1123682.
       1122001.       1120378.       1117501.       1114768.       1113813.
       1112333.       1110094.       1110469.       1110706.       1107690.
       1106203.       1105669.       1102248.       1098148.       1095165.
       1091553.       1087983.       1086489.       1085407.       1084529.
       1084318.       1083007.       1080362.       1077042.       1073391.
       1069312.       1065977.       1063430.       1059725.       1056415.
       1054722.       1051559.       1047699.       1044917.       1040550.
       1036216.       1033582.       1030695.       1027472.       1024407.
       1020734.       1017263.       1013702.       1008935.       1005561.
       1001829.       996292.0       991770.0       987638.0       983877.0
       980761.0       976996.0       973917.0       969488.0       962592.0
       958735.0       954638.0       947883.0       944792.0       941332.0
       934597.0       929978.0       925556.0       919764.0       915592.0
       911176.0       906138.0       901905.0       895961.0       889542.0
       883550.0       877531.0       872288.0       867359.0       863236.0
       857947.0       851788.0       846858.0       841634.0       836169.0
       830189.0       822867.0       816953.0       811531.0       804738.0
       799667.0       794713.0       787432.0       780596.0       774816.0
       769585.0       763762.0       757103.0       751352.0       744163.0
       737169.0       731669.0       724543.0       717501.0       710824.0
       704393.0       698324.0       691221.0       683740.0       677014.0
       670018.0       662375.0       654912.0       648178.0       643029.0
       636115.0       628812.0       623285.0       615964.0       608316.0
       601333.0       594658.0       587747.0       578613.0       568779.0
       561068.0       554569.0       547141.0       539988.0       533032.0
       526932.0       521174.0       512556.0       504286.0       498086.0
       490777.0       481757.0       472781.0       464711.0       456828.0
       448425.0       440847.0       434470.0       427294.0       419736.0
       412148.0       404618.0       396835.0       387877.0       379327.0
       372207.0       365777.0       358292.0       349708.0       341478.0
       332936.0       324489.0       316132.0       308141.0       301799.0
       294171.0       285408.0       277993.0       270723.0       264199.0
       256402.0       246397.0       238958.0       230955.0       220819.0
       213507.0       205963.0       196954.0       189933.0       182428.0
       173251.0       164506.0       156444.0       148824.0       141004.0
       132649.0       124589.0       117810.0       109301.0       98885.00
       90746.00       82608.00       74087.00       66829.00       58678.00
       51741.00       45631.00       37196.00       29037.00       20586.00
       11003.00       3070.000      -4380.000      -12703.00      -20701.00
      -28087.00      -36491.00      -44093.00      -50965.00      -59474.00
      -67045.00      -75153.00      -84351.00      -92350.00      -99375.00
      -106141.0      -113991.0      -121764.0      -129357.0      -137667.0
      -145866.0      -153260.0      -160514.0      -168872.0      -177271.0
      -184803.0      -192299.0      -199894.0      -207393.0      -215007.0
      -222381.0      -229552.0      -236895.0      -245087.0      -252805.0
      -259646.0      -267153.0      -274182.0      -281655.0      -289769.0
      -296795.0      -302028.0      -308107.0      -316528.0      -324067.0
      -331863.0      -340242.0      -347413.0      -354394.0      -362253.0
      -369331.0      -376094.0      -384728.0      -391812.0      -397449.0
      -403041.0      -408364.0      -416210.0      -424404.0      -430250.0
      -436843.0      -445636.0      -453405.0      -459630.0      -465929.0
      -472376.0      -478568.0      -484384.0      -490238.0      -495559.0
      -501423.0      -507544.0      -513780.0      -521812.0      -529486.0
      -536341.0      -543903.0      -550338.0      -555189.0      -561005.0
      -567616.0      -572901.0      -578502.0      -585217.0      -591329.0
      -597453.0      -602687.0      -607216.0      -612813.0      -618675.0
      -623895.0      -629274.0      -636082.0      -642559.0      -648670.0
      -654905.0      -659854.0      -665287.0      -670373.0      -674235.0
      -678457.0      -682676.0      -688258.0      -693595.0      -697698.0
      -703729.0      -709919.0      -715607.0      -722263.0      -727599.0
      -732442.0      -737859.0      -741669.0      -745705.0      -750820.0
      -756267.0      -761798.0      -765720.0      -768596.0      -771288.0
      -774500.0      -778506.0      -782619.0      -787154.0      -792491.0
      -797777.0      -802317.0      -807869.0      -813799.0      -816957.0
      -820282.0      -824053.0      -826290.0      -829858.0      -832838.0
      -835009.0      -839401.0      -844441.0      -847738.0      -851170.0
      -855697.0      -858555.0      -861523.0      -866341.0      -869860.0
      -872645.0      -877273.0      -880971.0      -882853.0      -885693.0
