     0.02500000      -12345.00      -12345.00   1.983070e+09      -12345.00
   0.0005390000       1859.976      -583.0195      -12345.00      -12345.00
      -12345.00      -12345.00      -12345.00      -12345.00      -12345.00
      -12345.00      -12345.00      -12345.00      -12345.00      -12345.00
      -12345.00      -12345.00      -12345.00      -12345.00      -12345.00
      -12345.00      -12345.00      -12345.00      -12345.00      -12345.00
      -12345.00       7.069700       125.5791       150.0000       1.000000
      -42.72450       173.0647      -12345.00       22.00000      -12345.00
      -12345.00      -12345.00      -12345.00      -12345.00      -12345.00
      -12345.00      -12345.00      -12345.00      -12345.00      -12345.00
       7304.693       306.6093       143.4168       65.69559      -12345.00
      -12345.00      -12345.00       0.000000       0.000000      -12345.00
      -12345.00      -12345.00      -12345.00      -12345.00      -12345.00
      -12345.00      -12345.00      -12345.00      -12345.00      -12345.00
      2016       318        11        12        42
        19         6    -12345    -12345     74400
    -12345    -12345    -12345    -12345    -12345
         1    -12345    -12345    -12345    -12345
    -12345    -12345    -12345    -12345    -12345
    -12345    -12345    -12345    -12345    -12345
    -12345    -12345    -12345    -12345    -12345
         1    -12345    -12345    -12345    -12345
DAV     South Island, Ne
10      -12345  -12345  
-12345  -12345  -12345  
-12345  -12345  -12345  
-12345  -12345  -12345  
-12345  -12345  -12345  
-12345  -12345  BHZ     
IU      -12345  Trillium
[...]
       35593.00       41295.00       46861.00       51605.00       57359.00
       62600.00       67314.00       72885.00       77678.00       82078.00
       86851.00       91679.00       96437.00       100657.0       105094.0
       111174.0       116392.0       121285.0       127873.0       133539.0
       138678.0       144077.0       148849.0       152725.0       157491.0
       163277.0       167178.0       171145.0       176811.0       180898.0
       184157.0       189477.0       194046.0       197699.0       203164.0
       208559.0       213171.0       218764.0       224200.0       228063.0
       232810.0       238344.0       241945.0       245807.0       251001.0
       255200.0       259489.0       265184.0       270444.0       275044.0
       279721.0       283680.0       288322.0       293328.0       296575.0
       300057.0       304770.0       309619.0       314592.0       319814.0
       325177.0       329420.0       332463.0       335425.0       338340.0
       342182.0       346352.0       350709.0       355770.0       359703.0
       363430.0       367019.0       369966.0       373595.0       377792.0
       383180.0       388467.0       392656.0       397325.0       401415.0
       405023.0       409036.0       411891.0       414917.0       419318.0
       423554.0       427739.0       431733.0       435692.0       440150.0
       444326.0       448097.0       451429.0       454325.0       457694.0
       461473.0       464282.0       466555.0       468834.0       471169.0
       473314.0       475585.0       479208.0       483201.0       487680.0
       491787.0       495095.0       499560.0       503100.0       505466.0
       508061.0       510385.0       513545.0       516791.0       519665.0
       522507.0       524530.0       526801.0       529665.0       531514.0
       533153.0       536445.0       539707.0       541997.0       545145.0
       549018.0       552045.0       554624.0       557379.0       559321.0
       560973.0       563759.0       566509.0       568857.0       571469.0
       573247.0       574565.0       576187.0       577353.0       578737.0
       581233.0       583189.0       584770.0       586996.0       587673.0
       587735.0       589351.0       590876.0       592569.0       595659.0
       598396.0       600417.0       602457.0       603757.0       604498.0
       605787.0       607663.0       609093.0       611255.0       613937.0
       615755.0       618309.0       620400.0       622952.0       627280.0
       629222.0       630926.0       633721.0       634432.0       636471.0
       638658.0       638316.0       639526.0       640953.0       641708.0
       644372.0       646099.0       646472.0       648071.0       649032.0
       648491.0       649054.0       649979.0       649614.0       650099.0
       651296.0       652076.0       653389.0       654516.0       655001.0
       654824.0       654692.0       654921.0       654353.0       654802.0
       656424.0       656822.0       657128.0       658845.0       659129.0
       658698.0       659570.0       658960.0       658390.0       658430.0
       657424.0       656524.0       655931.0       655281.0       653981.0
       653068.0       653013.0       651866.0       650612.0       651203.0
       651871.0       651469.0       651449.0       651288.0       650307.0
       649490.0       647724.0       645906.0       645110.0       643362.0
       641810.0       640720.0       639050.0       638416.0       638435.0
       637274.0       636511.0       636557.0       635433.0       634440.0
       633177.0       630782.0       629061.0       627128.0       624809.0
       622583.0       619387.0       617211.0       616382.0       613956.0
       611877.0       611391.0       610031.0       608555.0       606183.0
       602576.0       600271.0       597831.0       595229.0       593138.0
       590873.0       589807.0       588341.0       586101.0       584176.0
       580821.0       578049.0       576704.0       574437.0       572188.0
       570769.0       568851.0       566629.0       565617.0       564070.0
       561908.0       560262.0       556934.0       554312.0       554004.0
       552122.0       549717.0       548140.0       545821.0       543453.0
       540976.0       539415.0       537872.0       534746.0       532880.0
       531140.0       528975.0       527188.0       523620.0       521151.0
       518931.0       514476.0       512740.0       510749.0       506374.0
       504711.0       502104.0       498616.0       497171.0       494469.0
       491716.0       489208.0       486094.0       483061.0       478937.0
       474814.0       471365.0       468056.0       465760.0       463511.0
       461229.0       459385.0       456408.0       454190.0       452389.0
       449107.0       446154.0       442575.0       438133.0       433973.0
       429734.0       425749.0       421838.0       418068.0       414716.0
       411624.0       408364.0       404771.0       401364.0       398018.0
       395033.0       392266.0       389057.0       385598.0       381832.0
       377466.0       372901.0       368903.0       365564.0       361815.0
       357824.0       354879.0       351112.0       346970.0       343860.0
       340188.0       336479.0       332375.0       328041.0       324359.0
       320895.0       317563.0       313596.0       309002.0       304224.0
       299329.0       294254.0       289993.0       286347.0       281917.0
       278090.0       275020.0       271977.0       268595.0       264276.0
       260463.0       256464.0       251111.0       246517.0       242482.0
       237265.0       232755.0       229075.0       225241.0       221434.0
       216241.0       211068.0       206578.0       201559.0       196612.0
       192224.0       188196.0       184369.0       180750.0       176706.0
       173348.0       169857.0       164691.0       160421.0       156618.0
       151327.0       145705.0       141387.0       136794.0       131406.0
       127689.0       124149.0       120175.0       116326.0       111896.0
       107832.0       102930.0       96880.00       91704.00       86787.00
       81613.00       75661.00       69534.00       64315.00       58243.00
       52834.00       48759.00       43243.00       37849.00       34389.00
       30195.00       24834.00       20213.00       15357.00       9975.000
       4711.000      -1010.000      -6929.000      -12207.00      -17662.00
      -24013.00      -30008.00      -35243.00      -39291.00      -42913.00
      -47713.00      -51542.00      -54486.00      -58813.00      -62507.00
      -65362.00      -69539.00      -73764.00      -77997.00      -83186.00
      -88093.00      -92862.00      -97698.00      -101769.0      -105209.0
      -108400.0      -111519.0      -114305.0      -116616.0      -119184.0
      -122252.0      -125705.0      -129025.0      -133325.0      -138430.0
      -142597.0      -147887.0      -153779.0      -157957.0      -162011.0
      -165890.0      -168832.0      -173004.0      -177294.0      -180168.0
      -183319.0      -186986.0      -190493.0      -194483.0      -199413.0
      -203922.0      -208389.0      -212815.0      -216723.0      -221497.0
      -226412.0      -230906.0      -236055.0      -241455.0      -246017.0
      -249954.0      -254417.0      -259808.0      -264982.0      -270085.0
      -275842.0      -281076.0      -285991.0      -291289.0      -295768.0
      -299985.0      -304036.0      -307738.0      -312415.0      -316480.0
      -320813.0      -326179.0      -330606.0      -335571.0      -340194.0
      -344443.0      -349433.0      -353164.0      -356926.0      -361184.0
      -365534.0      -370377.0      -374776.0      -379061.0      -383121.0
      -387343.0      -391577.0      -395637.0      -400540.0      -405669.0
      -410262.0      -414062.0      -417253.0      -420568.0      -424458.0
      -428390.0      -432274.0      -436479.0      -440513.0      -444735.0
      -450012.0      -454745.0      -458548.0      -463383.0      -468667.0
      -473369.0      -477397.0      -481256.0      -485434.0      -488331.0
      -489821.0      -492246.0      -495379.0      -498217.0      -501431.0
      -505594.0      -510236.0      -513664.0      -516684.0      -520798.0
      -524434.0      -527721.0      -531804.0      -535978.0      -539078.0
      -541720.0      -545105.0      -547575.0      -550163.0      -552984.0
      -554566.0      -556753.0      -559348.0      -562569.0      -565815.0
      -568762.0      -572660.0      -575473.0      -577429.0      -580112.0
      -582788.0      -584805.0      -586260.0      -588449.0      -590830.0
      -592700.0      -594956.0      -597108.0      -599546.0      -601967.0
      -603821.0      -605914.0      -607269.0      -608930.0      -611957.0
      -614155.0      -616505.0      -619267.0      -621339.0      -623816.0
      -625435.0      -627065.0      -628852.0      -629966.0      -632305.0
      -634651.0      -637456.0      -640881.0      -643125.0      -645775.0
      -648035.0      -648826.0      -650430.0      -652201.0      -653268.0
      -655010.0      -656272.0      -656586.0      -657621.0      -659107.0
      -660604.0      -662408.0      -664552.0      -665854.0      -666122.0
      -666901.0      -667882.0      -668871.0      -670209.0      -671447.0
      -672751.0      -674511.0      -675893.0      -677076.0      -677619.0
      -677559.0      -678371.0      -677794.0      -677759.0      -679474.0
      -680376.0      -682753.0      -684136.0      -684596.0      -686730.0
      -686689.0      -685989.0      -686091.0      -685717.0      -685395.0
      -684958.0      -685222.0      -685161.0      -684092.0      -683607.0
      -684172.0      -684340.0      -684324.0      -685840.0      -686469.0
      -686062.0      -686399.0      -686645.0      -686865.0      -686479.0
      -685669.0      -685296.0      -684847.0      -684438.0      -683695.0
      -682763.0      -683442.0      -684073.0      -683550.0      -683932.0
      -683799.0      -683263.0      -683404.0      -683004.0      -682808.0
      -681879.0      -679400.0      -677463.0      -676000.0      -673346.0
      -670932.0      -670026.0      -669808.0      -670146.0      -670532.0
      -670300.0      -669859.0      -669736.0      -668996.0      -667576.0
      -666345.0      -664573.0      -662569.0      -660968.0      -659532.0
      -658281.0      -656601.0      -655375.0      -654940.0      -654639.0
      -655393.0      -655763.0      -655288.0      -655497.0      -655031.0
      -653602.0      -651802.0      -649197.0      -646996.0      -644649.0
      -641769.0      -639784.0      -637578.0      -634951.0      -632494.0
      -629945.0      -628370.0      -626848.0      -624347.0      -623143.0
      -621535.0      -618255.0      -616083.0      -612589.0      -607956.0
      -605389.0      -601276.0      -595796.0      -593094.0      -589611.0
      -584831.0      -582130.0      -578454.0      -574637.0      -571778.0
      -569088.0      -567957.0      -566095.0      -563895.0      -561730.0
      -559131.0      -556262.0      -552736.0      -550804.0      -548136.0
      -544204.0      -540851.0      -536487.0      -532709.0      -528558.0
      -524487.0      -522344.0      -518651.0      -515601.0      -514389.0
      -511871.0      -509475.0      -507038.0      -504104.0      -500588.0
      -495633.0      -491910.0      -488214.0      -483355.0      -479199.0
      -473947.0      -469885.0      -466228.0      -461329.0      -459046.0
      -456567.0      -453292.0      -450228.0      -446727.0      -444368.0
      -441041.0      -437002.0      -433297.0      -429026.0      -424455.0
      -419512.0      -415789.0      -412230.0      -407477.0      -403166.0
      -398593.0      -394243.0      -390366.0      -385823.0      -382324.0
      -378709.0      -374350.0      -370715.0      -365706.0      -360601.0
      -355866.0      -350001.0      -344480.0      -338618.0      -332239.0
      -325965.0      -319697.0      -314013.0      -308987.0      -304543.0
      -300916.0      -296838.0      -291799.0      -287896.0      -284719.0
      -279698.0      -274175.0      -269854.0      -264667.0      -258871.0
      -253796.0      -248895.0      -244093.0      -239130.0      -234515.0
      -230302.0      -225764.0      -221092.0      -216295.0      -211993.0
      -207792.0      -202697.0      -197519.0      -193336.0      -189425.0
      -184413.0      -178647.0      -173506.0      -169155.0      -163567.0
      -158179.0      -154450.0      -149140.0      -143045.0      -138085.0
      -132844.0      -127782.0      -122835.0      -117440.0      -112958.0
      -108418.0      -103484.0      -99018.00      -93488.00      -87851.00
      -82618.00      -76130.00      -69390.00      -63092.00      -56906.00
      -51249.00      -45923.00      -40331.00      -35018.00      -29251.00
      -23469.00      -18417.00      -12689.00      -8370.000      -4251.000
       1257.000       6248.000       12076.00       18090.00       24557.00
       31079.00       36284.00       42651.00       48982.00       54785.00
       60993.00       66509.00       72215.00       78354.00       84316.00
       90353.00       96851.00       102661.0       107745.0       113261.0
       119552.0       126432.0       132814.0       139851.0       146846.0
       152938.0       159848.0       166562.0       172829.0       179366.0
       185622.0       191305.0       196187.0       201456.0       207823.0
       213478.0       218677.0       224126.0       229170.0       235115.0
       240995.0       246084.0       252654.0       258890.0       264527.0
       271505.0       277671.0       283172.0       288564.0       292411.0
       296480.0       301457.0       306403.0       311346.0       316128.0
       321793.0       327300.0       332190.0       337675.0       343023.0
       348246.0       353361.0       358163.0       362444.0       366843.0
       372319.0       377855.0       382560.0       387332.0       392404.0
       397257.0       402872.0       408778.0       413554.0       417870.0
       421891.0       425500.0       428784.0       431936.0       435134.0
       438354.0       442861.0       448084.0       452996.0       457555.0
       462254.0       468155.0       472994.0       476846.0       481823.0
       487095.0       492758.0       498532.0       504150.0       509531.0
       514489.0       519699.0       523762.0       527142.0       531719.0
       535756.0       539695.0       545425.0       549841.0       552793.0
       556581.0       559341.0       562532.0       566596.0       569679.0
       573443.0       577851.0       581688.0       585283.0       589227.0
       593258.0       597124.0       601255.0       605832.0       610361.0
       614709.0       619211.0       623392.0       627093.0       629605.0
       631078.0       633237.0       635567.0       637771.0       640231.0
       642746.0       645517.0       648116.0       650743.0       653969.0
       656450.0       659229.0       663334.0       665595.0       667858.0
       671078.0       672766.0       674707.0       676813.0       678230.0
       680396.0       682821.0       684526.0       686893.0       689390.0
       691164.0       693064.0       694922.0       696365.0       697077.0
       697675.0       698518.0       699587.0       701233.0       703330.0
       704663.0       704564.0       704649.0       705250.0       705787.0
       706559.0       707610.0       709886.0       712887.0       715473.0
       718440.0       720833.0       721921.0       722502.0       722528.0
       722559.0       722852.0       722812.0       722397.0       722384.0
       722391.0       721885.0       721967.0       722232.0       723193.0
       724708.0       725263.0       725969.0       726518.0       726346.0
       726497.0       726569.0       726618.0       726985.0       726739.0
       726808.0       726825.0       726046.0       725359.0       724843.0
       725480.0       726091.0       726163.0       727159.0       728347.0
       728353.0       727575.0       727453.0       727192.0       726516.0
       725912.0       725658.0       726018.0       725963.0       725523.0
       725336.0       724744.0       723314.0       721684.0       719782.0
       717885.0       716779.0       715412.0       714358.0       714012.0
       712039.0       710185.0       709598.0       707341.0       704052.0
       701489.0       698418.0       695993.0       695133.0       693048.0
       690965.0       690085.0       688676.0       687510.0       686364.0
       684505.0       683008.0       681283.0       678756.0       676366.0
       673941.0       670984.0       667404.0       663574.0       660355.0
       656732.0       652888.0       650639.0       648605.0       645923.0
       644387.0       643289.0       640395.0       637380.0       634533.0
       630731.0       627893.0       624567.0       619219.0       615607.0
       613405.0       609466.0       606320.0       604053.0       600945.0
       597901.0       594256.0       590690.0       587406.0       584765.0
       583067.0       580433.0       577851.0       575099.0       571355.0
       567391.0       563015.0       559346.0       555873.0       551663.0
       548277.0       546179.0       544244.0       541491.0       538541.0
       535683.0       532016.0       528313.0       524638.0       519429.0
       513685.0       508951.0       504272.0       499653.0       495523.0
       491383.0       488132.0       485393.0       481857.0       478502.0
       475071.0       470257.0       465057.0       460016.0       455127.0
       450449.0       445366.0       441111.0       436806.0       431880.0
       427716.0       423119.0       418705.0       413960.0       408543.0
       404156.0       399334.0       393554.0       387859.0       382094.0
       376449.0       370738.0       364760.0       359013.0       354110.0
       349838.0       344866.0       339689.0       334681.0       329405.0
       324597.0       319174.0       312850.0       308276.0       304180.0
       299294.0       295680.0       291953.0       287671.0       282810.0
       277120.0       272567.0       267518.0       262441.0       258855.0
