     0.02500000      -12345.00      -12345.00   1.983070e+09      -12345.00
   0.0005380000       1859.976      -347.0196      -12345.00      -12345.00
      -12345.00      -12345.00      -12345.00      -12345.00      -12345.00
      -12345.00      -12345.00      -12345.00      -12345.00      -12345.00
      -12345.00      -12345.00      -12345.00      -12345.00      -12345.00
      -12345.00      -12345.00      -12345.00      -12345.00      -12345.00
      -12345.00      -8.525900       179.1966       20.00000       0.000000
      -42.72450       173.0647      -12345.00       22.00000      -12345.00
      -12345.00      -12345.00      -12345.00      -12345.00      -12345.00
      -12345.00      -12345.00      -12345.00      -12345.00      -12345.00
       3834.646       10.75394       187.9908       34.48733      -12345.00
      -12345.00      -12345.00       90.00000       90.00000      -12345.00
      -12345.00      -12345.00      -12345.00      -12345.00      -12345.00
      -12345.00      -12345.00      -12345.00      -12345.00      -12345.00
      2016       318        11         8        46
        19         6    -12345    -12345     74400
    -12345    -12345    -12345    -12345    -12345
         1    -12345    -12345    -12345    -12345
    -12345    -12345    -12345    -12345    -12345
    -12345    -12345    -12345    -12345    -12345
    -12345    -12345    -12345    -12345    -12345
         1    -12345    -12345    -12345    -12345
FUNA    South Island, Ne
10      -12345  -12345  
-12345  -12345  -12345  
-12345  -12345  -12345  
-12345  -12345  -12345  
-12345  -12345  -12345  
-12345  -12345  BH2     
IU      -12345  Trillium
[...]
      -672787.0      -673381.0      -673449.0      -674887.0      -675784.0
      -675650.0      -676979.0      -677960.0      -677216.0      -678148.0
      -678707.0      -678196.0      -678896.0      -679846.0      -679385.0
      -679002.0      -679931.0      -679447.0      -679076.0      -680168.0
      -679662.0      -678881.0      -679317.0      -678941.0      -678154.0
      -678397.0      -678734.0      -677416.0      -677092.0      -677346.0
      -676120.0      -675841.0      -676060.0      -675134.0      -674104.0
      -674192.0      -673507.0      -672119.0      -672547.0      -671909.0
      -670066.0      -669989.0      -669286.0      -667932.0      -667414.0
      -666977.0      -665295.0      -663946.0      -663584.0      -661821.0
      -660580.0      -660324.0      -658452.0      -656597.0      -655929.0
      -654365.0      -652281.0      -651550.0      -650398.0      -647926.0
      -646921.0      -645597.0      -643355.0      -642100.0      -640939.0
      -638758.0      -636602.0      -635419.0      -633118.0      -630657.0
      -629621.0      -627354.0      -624314.0      -622619.0      -620607.0
      -617647.0      -615586.0      -613837.0      -610384.0      -608016.0
      -606112.0      -602700.0      -600194.0      -598218.0      -595146.0
      -591809.0      -589467.0      -586471.0      -582799.0      -580672.0
      -577688.0      -573576.0      -570929.0      -567670.0      -563936.0
      -560913.0      -558054.0      -553849.0      -549790.0      -547096.0
      -542763.0      -538724.0      -535707.0      -531347.0      -526997.0
      -523241.0      -519040.0      -514280.0      -510419.0      -506474.0
      -500892.0      -496620.0      -492203.0      -486655.0      -482062.0
      -477606.0      -472201.0      -466489.0      -461978.0      -456531.0
      -450403.0      -446137.0      -440544.0      -434078.0      -428989.0
      -423260.0      -416960.0      -411462.0      -406343.0      -399284.0
      -392968.0      -387505.0      -380318.0      -373929.0      -368166.0
      -361124.0      -353975.0      -347859.0      -340687.0      -333053.0
      -327267.0      -320217.0      -312079.0      -305751.0      -298534.0
      -290767.0      -283706.0      -276714.0      -268740.0      -260800.0
      -254055.0      -245829.0      -237888.0      -231046.0      -222664.0
      -214256.0      -206656.0      -198746.0      -190216.0      -182353.0
      -174990.0      -165741.0      -157540.0      -149987.0      -140822.0
      -132739.0      -125182.0      -116154.0      -107273.0      -99610.00
      -90794.00      -81574.00      -74150.00      -65718.00      -56133.00
      -48221.00      -39961.00      -30488.00      -22354.00      -14591.00
      -4989.000       3297.000       10905.00       20129.00       28220.00
       35686.00       44391.00       53029.00       60697.00       68521.00
       76948.00       84193.00       91642.00       100545.0       107693.0
       115197.0       123488.0       130539.0       137403.0       145216.0
       153280.0       159925.0       167370.0       175082.0       181178.0
       188380.0       196060.0       202441.0       209093.0       216343.0
       222687.0       228510.0       236095.0       242418.0       247935.0
       255053.0       261175.0       266631.0       272988.0       279725.0
       285112.0       290930.0       297633.0       302315.0       308031.0
       314990.0       319826.0       325253.0       331584.0       336725.0
       341512.0       347811.0       353472.0       358014.0       364038.0
       369392.0       373622.0       379188.0       384897.0       389355.0
       394402.0       399938.0       404122.0       408682.0       414488.0
       418865.0       423514.0       428794.0       433284.0       437611.0
       442477.0       447680.0       451544.0       456293.0       461492.0
       464956.0       469606.0       474770.0       478751.0       483025.0
       487736.0       492090.0       495666.0       500828.0       505533.0
       508899.0       514103.0       518446.0       521665.0       526647.0
       531646.0       535104.0       539509.0       544629.0       547963.0
       552056.0       557484.0       561163.0       565356.0       570556.0
       574325.0       577986.0       583196.0       587538.0       591161.0
       596209.0       600466.0       604027.0       608515.0       613107.0
       617063.0       621122.0       625736.0       629234.0       632742.0
       637898.0       641437.0       644927.0       649484.0       652964.0
       656319.0       660274.0       664779.0       668023.0       671337.0
       675910.0       678550.0       681800.0       686474.0       689046.0
       692216.0       696266.0       698999.0       701351.0       705189.0
       708529.0       710572.0       714150.0       717201.0       718951.0
       722124.0       725319.0       727196.0       729864.0       733005.0
       734618.0       736630.0       740018.0       741833.0       743719.0
       746522.0       748293.0       749731.0       752183.0       754547.0
       755837.0       758076.0       760076.0       760954.0       763030.0
       765363.0       766676.0       768025.0       770135.0       771419.0
       771954.0       774386.0       775671.0       776246.0       778439.0
       779465.0       779854.0       781380.0       782997.0       783473.0
       784704.0       786526.0       786475.0       787250.0       789291.0
       789543.0       790196.0       791752.0       792115.0       792306.0
       793968.0       794667.0       794521.0       795999.0       796638.0
       796425.0       797478.0       798608.0       798870.0       799428.0
       800590.0       800715.0       800946.0       802550.0       802826.0
       803061.0       804363.0       804832.0       804627.0       805754.0
       806998.0       806655.0       807689.0       809012.0       808563.0
       809187.0       810559.0       810596.0       811005.0       812224.0
       812337.0       812267.0       813827.0       814157.0       813869.0
       815264.0       815745.0       815309.0       816341.0       817380.0
       817043.0       817729.0       818654.0       818058.0       818394.0
       819557.0       819488.0       819704.0       820497.0       820638.0
       820186.0       821025.0       821842.0       821492.0       822285.0
       822728.0       822139.0       822566.0       823415.0       823059.0
       822895.0       823847.0       823293.0       822502.0       823684.0
       823315.0       822585.0       823197.0       822804.0       821843.0
       822152.0       822125.0       820714.0       820796.0       820735.0
       819044.0       818670.0       818822.0       817512.0       816617.0
       816500.0       815216.0       813954.0       814054.0       813015.0
       811882.0       811509.0       810323.0       808784.0       807938.0
       807678.0       806128.0       804832.0       804452.0       802674.0
       801067.0       800790.0       799347.0       797613.0       796927.0
       795640.0       793338.0       792639.0       791838.0       789271.0
       788454.0       787493.0       785168.0       783893.0       783073.0
       781288.0       779405.0       778438.0       776435.0       774176.0
       773662.0       771707.0       769445.0       768285.0       766183.0
       763709.0       761988.0       760700.0       758246.0       756144.0
       754616.0       751819.0       749529.0       748079.0       745572.0
       742942.0       741206.0       738778.0       735377.0       733737.0
       731593.0       728073.0       726088.0       723742.0       720267.0
       717644.0       715664.0       712350.0       709248.0       707389.0
       703811.0       700370.0       698792.0       695485.0       692056.0
       689750.0       686601.0       683017.0       680327.0       677743.0
       674118.0       671314.0       668566.0       664412.0       661267.0
       658767.0       654971.0       651508.0       648531.0       644672.0
       640443.0       637499.0       633944.0       629763.0       626451.0
       622561.0       617897.0       613858.0       610546.0       605581.0
       601120.0       597770.0       592349.0       587491.0       583969.0
       578860.0       573761.0       569561.0       564529.0       558824.0
       554638.0       549893.0       543878.0       539426.0       534236.0
       528128.0       523025.0       518214.0       512247.0       506129.0
       501303.0       494766.0       488333.0       483623.0       477177.0
       471146.0       465385.0       459193.0       452535.0       446310.0
       441324.0       434049.0       427773.0       422305.0       414714.0
       408476.0       402537.0       395697.0       388950.0       382416.0
       375648.0       367987.0       361851.0       355003.0       347060.0
       340702.0       333480.0       325255.0       318320.0       311558.0
       303448.0       295967.0       288915.0       280498.0       272366.0
       265692.0       257591.0       248999.0       241964.0       233811.0
       224741.0       217436.0       209551.0       200800.0       192960.0
       184663.0       175772.0       166981.0       159416.0       150637.0
       141524.0       133865.0       124455.0       115269.0       107504.0
       98538.00       89355.00       81048.00       72418.00       62670.00
       54126.00       46060.00       36225.00       27467.00       19043.00
       9053.000       5.000000      -8062.000      -17471.00      -27066.00
      -35497.00      -44808.00      -54971.00      -63125.00      -72052.00
      -82136.00      -90501.00      -99788.00      -109963.0      -118879.0
      -127649.0      -137354.0      -146687.0      -155423.0      -165296.0
      -175211.0      -183727.0      -193268.0      -203068.0      -211767.0
      -221259.0      -231342.0      -240140.0      -248982.0      -258920.0
      -267815.0      -276585.0      -286558.0      -295938.0      -304080.0
      -313285.0      -322905.0      -331016.0      -340281.0      -350131.0
      -357670.0      -366598.0      -376228.0      -384175.0      -392963.0
      -402671.0      -411104.0      -418699.0      -428079.0      -436542.0
      -444386.0      -454060.0      -462546.0      -470222.0      -479006.0
      -487513.0      -495337.0      -503929.0      -513234.0      -520630.0
      -528527.0      -537594.0      -544811.0      -552842.0      -561610.0
      -569188.0      -576777.0      -584798.0      -592726.0      -600163.0
      -607949.0      -616086.0      -622876.0      -630294.0      -638370.0
      -645283.0      -652628.0      -660613.0      -667492.0      -673921.0
      -681515.0      -688660.0      -695235.0      -702846.0      -709968.0
      -716036.0      -723147.0      -730685.0      -736939.0      -743721.0
      -751737.0      -757641.0      -764086.0      -771664.0      -777686.0
      -784342.0      -791690.0      -798300.0      -804055.0      -811369.0
      -818143.0      -823596.0      -831143.0      -837787.0      -843130.0
      -849932.0      -856671.0      -862599.0      -868939.0      -876001.0
      -881638.0      -887415.0      -894530.0      -900231.0      -906158.0
      -913230.0      -919280.0      -924667.0      -931055.0      -937418.0
      -942967.0      -949172.0      -955795.0      -960970.0      -966566.0
      -973074.0      -978382.0      -983848.0      -990504.0      -995885.0
      -1000674.      -1006953.      -1012301.      -1017092.      -1023115.
      -1028751.      -1033204.      -1038426.      -1044024.      -1048381.
      -1053422.      -1059179.      -1062957.      -1067410.      -1072965.
      -1076893.      -1081173.      -1086408.      -1090604.      -1094048.
      -1098693.      -1102945.      -1106224.      -1110847.      -1115232.
      -1117848.      -1121692.      -1125949.      -1128798.      -1132403.
      -1136747.      -1139612.      -1142337.      -1146286.      -1149305.
      -1152066.      -1155815.      -1159066.      -1161351.      -1164564.
      -1167764.      -1169631.      -1172603.      -1176061.      -1177764.
      -1180003.      -1183059.      -1184839.      -1186573.      -1189625.
      -1191394.      -1192405.      -1195193.      -1196779.      -1197821.
      -1200388.      -1202040.      -1202668.      -1204438.      -1206357.
      -1207084.      -1208379.      -1210500.      -1210983.      -1211917.
      -1213724.      -1214192.      -1215172.      -1216780.      -1217591.
      -1217774.      -1219048.      -1220187.      -1220302.      -1221433.
      -1222533.      -1222522.      -1222967.      -1223738.      -1223885.
      -1223908.      -1225030.      -1224912.      -1224047.      -1225385.
      -1225132.      -1224200.      -1225385.      -1225399.      -1224115.
      -1224328.      -1224368.      -1223315.      -1223414.      -1223538.
      -1222082.      -1221460.      -1221448.      -1220063.      -1219098.
      -1219267.      -1218047.      -1216124.      -1215894.      -1214663.
      -1212639.      -1212274.      -1211236.      -1209216.      -1207858.
      -1206496.      -1204537.      -1202821.      -1202060.      -1199643.
      -1197020.      -1195900.      -1193638.      -1191179.      -1189773.
      -1187983.      -1184936.      -1182766.      -1180795.      -1177767.
      -1175637.      -1173303.      -1169711.      -1167154.      -1164861.
      -1161327.      -1158127.      -1156345.      -1152785.      -1148209.
      -1146054.      -1142442.      -1138047.      -1135532.      -1131792.
      -1127038.      -1123583.      -1119762.      -1115035.      -1111283.
      -1107666.      -1102431.      -1097862.      -1094016.      -1088924.
      -1084026.      -1080021.      -1075242.      -1069562.      -1065229.
      -1060412.      -1054586.      -1049998.      -1045211.      -1039254.
      -1033964.      -1029211.      -1023351.      -1017681.      -1013172.
      -1006913.      -1000607.      -995974.0      -989650.0      -983428.0
      -978600.0      -972573.0      -965838.0      -960324.0      -954526.0
      -947819.0      -942288.0      -936817.0      -929976.0      -923781.0
      -918080.0      -911726.0      -905282.0      -899680.0      -893477.0
      -886520.0      -880937.0      -874656.0      -867744.0      -861955.0
      -856004.0      -849026.0      -842398.0      -836563.0      -829533.0
      -822600.0      -817260.0      -809805.0      -802529.0      -797043.0
      -789643.0      -782436.0      -776634.0      -769683.0      -761846.0
      -755653.0      -748963.0      -741144.0      -734933.0      -728357.0
      -720280.0      -713496.0      -706983.0      -699198.0      -692009.0
      -685666.0      -677995.0      -670159.0      -663543.0      -656076.0
      -648626.0      -641819.0      -634632.0      -626736.0      -619332.0
      -612582.0      -604556.0      -597068.0      -590770.0      -582508.0
      -574569.0      -568010.0      -560068.0      -552111.0      -545580.0
      -537916.0      -529462.0      -522869.0      -515193.0      -506745.0
      -500134.0      -492854.0      -484281.0      -476932.0      -469822.0
      -461686.0      -454266.0      -447404.0      -439259.0      -431450.0
      -424384.0      -416569.0      -408885.0      -401918.0      -394706.0
      -386226.0      -378917.0      -371875.0      -363568.0      -356532.0
      -349622.0      -341372.0      -333601.0      -326573.0      -318810.0
      -310714.0      -304190.0      -296518.0      -287890.0      -281353.0
      -273532.0      -265222.0      -258542.0      -251055.0      -242508.0
      -235192.0      -228186.0      -219864.0      -212482.0      -205751.0
      -197317.0      -189488.0      -182480.0      -174444.0      -166815.0
      -160050.0      -152337.0      -143959.0      -137124.0      -129746.0
      -121410.0      -114556.0      -107567.0      -99236.00      -91727.00
      -84742.00      -76975.00      -69298.00      -62733.00      -55111.00
      -46743.00      -40130.00      -32471.00      -24248.00      -17654.00
      -10283.00      -1795.000       5321.000       12539.00       20792.00
       27871.00       34757.00       43262.00       51000.00       57892.00
       66138.00       73994.00       80705.00       88710.00       96909.00
       103793.0       111852.0       119742.0       126742.0       134363.0
       142496.0       150483.0       157529.0       165531.0       173526.0
       180046.0       188587.0       196902.0       203681.0       211714.0
       219872.0       227086.0       234444.0       242892.0       250149.0
       257426.0       265952.0       272969.0       279792.0       288368.0
       295925.0       302719.0       310736.0       318267.0       324938.0
       332695.0       340531.0       347234.0       354642.0       362299.0
       369132.0       376133.0       384266.0       391319.0       397821.0
       405814.0       412977.0       419226.0       426759.0       434263.0
       440756.0       447892.0       455419.0       461674.0       468541.0
       476583.0       482738.0       489334.0       497067.0       503148.0
       509403.0       516970.0       523596.0       529887.0       537109.0
       543651.0       549357.0       556532.0       563596.0       569484.0
       576326.0       583155.0       589052.0       595094.0       602307.0
       608605.0       614362.0       621266.0       627305.0       632899.0
       639713.0       646042.0       651605.0       658122.0       664617.0
       669701.0       675826.0       682780.0       688106.0       694094.0
       700832.0       706230.0       711611.0       718384.0       724034.0
       729293.0       735977.0       741323.0       746027.0       752518.0
       758276.0       762982.0       768780.0       774445.0       779040.0
       784253.0       790140.0       794732.0       799928.0       805665.0
       810267.0       815004.0       820609.0       825852.0       830207.0
       835589.0       840946.0       844753.0       849898.0       855497.0
       859568.0       864235.0       869447.0       873633.0       877869.0
       883490.0       887800.0       891725.0       897155.0       901314.0
       904962.0       910327.0       914950.0       918552.0       923521.0
