     0.02500000      -12345.00      -12345.00   2.447790e+09      -12345.00
   0.0005380000       1859.976      -347.0196      -12345.00      -12345.00
      -12345.00      -12345.00      -12345.00      -12345.00      -12345.00
      -12345.00      -12345.00      -12345.00      -12345.00      -12345.00
      -12345.00      -12345.00      -12345.00      -12345.00      -12345.00
      -12345.00      -12345.00      -12345.00      -12345.00      -12345.00
      -12345.00      -8.525900       179.1966       20.00000       0.000000
      -42.72450       173.0647      -12345.00       22.00000      -12345.00
      -12345.00      -12345.00      -12345.00      -12345.00      -12345.00
      -12345.00      -12345.00      -12345.00      -12345.00      -12345.00
       3834.646       10.75394       187.9908       34.48733      -12345.00
      -12345.00      -12345.00       90.00000       90.00000      -12345.00
      -12345.00      -12345.00      -12345.00      -12345.00      -12345.00
      -12345.00      -12345.00      -12345.00      -12345.00      -12345.00
      2016       318        11         8        46
        19         6    -12345    -12345     74400
    -12345    -12345    -12345    -12345    -12345
         1    -12345    -12345    -12345    -12345
    -12345    -12345    -12345    -12345    -12345
    -12345    -12345    -12345    -12345    -12345
    -12345    -12345    -12345    -12345    -12345
         1    -12345    -12345    -12345    -12345
FUNA    South Island, Ne
00      -12345  -12345  
-12345  -12345  -12345  
-12345  -12345  -12345  
-12345  -12345  -12345  
-12345  -12345  -12345  
-12345  -12345  BH2     
IU      -12345  Streckei
[...]
      -793313.0      -795128.0      -796562.0      -799223.0      -800729.0
      -802435.0      -805235.0      -807064.0      -808324.0      -810340.0
      -812064.0      -813077.0      -815132.0      -817296.0      -818034.0
      -819252.0      -821024.0      -821902.0      -822849.0      -824785.0
      -825723.0      -825889.0      -827632.0      -828572.0      -828470.0
      -829932.0      -830987.0      -830502.0      -830948.0      -831856.0
      -831418.0      -831612.0      -832623.0      -831758.0      -831312.0
      -831750.0      -830886.0      -830391.0      -830915.0      -830477.0
      -829093.0      -829009.0      -828559.0      -827145.0      -827204.0
      -826872.0      -825163.0      -824443.0      -823845.0      -822275.0
      -821300.0      -821199.0      -819692.0      -817914.0      -817462.0
      -815963.0      -814302.0      -813781.0      -812596.0      -810507.0
      -809406.0      -808420.0      -806140.0      -805068.0      -804377.0
      -801793.0      -800084.0      -798982.0      -796822.0      -795005.0
      -793849.0      -791713.0      -788975.0      -787464.0      -785309.0
      -782601.0      -781224.0      -779106.0      -775884.0      -773790.0
      -771723.0      -768536.0      -766188.0      -764478.0      -761255.0
      -758473.0      -756473.0      -753346.0      -750491.0      -748438.0
      -745597.0      -742007.0      -739431.0      -736537.0      -732645.0
      -729991.0      -727259.0      -722998.0      -719464.0      -716570.0
      -712573.0      -708721.0      -705914.0      -701730.0      -697332.0
      -694257.0      -690022.0      -685605.0      -682300.0      -678402.0
      -673543.0      -669450.0      -665479.0      -660383.0      -656251.0
      -652492.0      -647080.0      -642319.0      -638010.0      -632806.0
      -627929.0      -623719.0      -618554.0      -612501.0      -607890.0
      -602716.0      -596644.0      -591807.0      -586450.0      -580217.0
      -574568.0      -568976.0      -562563.0      -556520.0      -551206.0
      -544313.0      -537512.0      -531622.0      -524511.0      -517538.0
      -511355.0      -504507.0      -496719.0      -489859.0      -483065.0
      -474880.0      -468002.0      -461277.0      -452802.0      -445131.0
      -437796.0      -429514.0      -421509.0      -414498.0      -406090.0
      -396989.0      -389326.0      -380599.0      -371469.0      -363480.0
      -354835.0      -345209.0      -336499.0      -327670.0      -317580.0
      -308869.0      -300391.0      -290015.0      -280644.0      -271694.0
      -261640.0      -251895.0      -242695.0      -232806.0      -222159.0
      -212744.0      -202829.0      -192064.0      -182620.0      -172570.0
      -161469.0      -151131.0      -141058.0      -130247.0      -119550.0
      -109886.0      -98884.00      -87502.00      -77578.00      -66533.00
      -55346.00      -45458.00      -34645.00      -22933.00      -12493.00
      -1876.000       9948.000       20419.00       30520.00       42350.00
       53417.00       63622.00       75189.00       86410.00       96287.00
       107603.0       119029.0       128843.0       139753.0       150758.0
       160433.0       170742.0       181829.0       192030.0       201731.0
       212147.0       221952.0       230987.0       241578.0       251569.0
       260584.0       270695.0       280236.0       288806.0       297991.0
       308102.0       317069.0       325794.0       335466.0       343789.0
       351978.0       361441.0       370000.0       377940.0       386664.0
       395070.0       402276.0       410740.0       419369.0       426292.0
       434264.0       442392.0       449270.0       456480.0       464645.0
       471900.0       478553.0       486468.0       493147.0       499249.0
       507303.0       514228.0       520259.0       527560.0       534424.0
       540149.0       546934.0       554257.0       560051.0       566486.0
       573399.0       578827.0       584647.0       591554.0       597412.0
       602926.0       609384.0       614983.0       619910.0       626277.0
       632174.0       637295.0       643278.0       648944.0       653972.0
       659278.0       665360.0       670434.0       675320.0       681391.0
       686119.0       690710.0       696645.0       701761.0       706419.0
       711672.0       716935.0       721203.0       726306.0       732213.0
       736437.0       741491.0       747113.0       751052.0       755772.0
       761739.0       766303.0       770648.0       776364.0       780929.0
       784895.0       790652.0       795666.0       799897.0       805458.0
       810456.0       814341.0       819491.0       824986.0       829132.0
       834133.0       839420.0       843522.0       847992.0       853147.0
       857813.0       862102.0       867017.0       871414.0       874892.0
       879925.0       884679.0       888157.0       892721.0       897013.0
       900472.0       904338.0       909084.0       913120.0       916319.0
       920819.0       924444.0       927155.0       931735.0       935332.0
       937997.0       941977.0       945373.0       947558.0       950772.0
       954608.0       956873.0       959693.0       963173.0       965077.0
       967372.0       970717.0       972853.0       974808.0       977798.0
       979792.0       981025.0       983811.0       986141.0       987402.0
       989651.0       991613.0       992572.0       994187.0       996472.0
       997654.0       998996.0       1000911.       1001582.       1002530.
       1004555.       1005824.       1006452.       1007823.       1009068.
       1008973.       1010114.       1011575.       1011480.       1012513.
       1013589.       1013309.       1013617.       1014789.       1014984.
       1015030.       1016229.       1016177.       1015526.       1016640.
       1016952.       1016404.       1017034.       1017210.       1016365.
       1016715.       1017309.       1016377.       1016382.       1016810.
       1015861.       1015448.       1015966.       1015738.       1015178.
       1015423.       1015186.       1014216.       1014617.       1014765.
       1013892.       1014036.       1014180.       1013139.       1012763.
       1013486.       1012779.       1012232.       1012952.       1012232.
       1011292.       1011787.       1011510.       1010667.       1010874.
       1010660.       1009447.       1009585.       1009798.       1008532.
       1008409.       1008639.       1007398.       1006817.       1007300.
       1006484.       1005662.       1005867.       1004851.       1003572.
       1003700.       1003272.       1002234.       1001943.       1001537.
       1000117.       999379.0       999583.0       998591.0       997908.0
       997783.0       996448.0       995293.0       995236.0       994402.0
       992873.0       992549.0       991708.0       989521.0       989024.0
       988465.0       986460.0       985559.0       984651.0       982545.0
       981167.0       980462.0       978227.0       976402.0       975567.0
       973154.0       970807.0       969831.0       967928.0       965396.0
       963896.0       961930.0       959086.0       957548.0       955915.0
       953348.0       951519.0       949491.0       946665.0       944083.0
       942558.0       940296.0       937333.0       935495.0       933011.0
       929683.0       927728.0       925604.0       922385.0       919987.0
       917820.0       914305.0       911472.0       909765.0       906295.0
       903261.0       901333.0       898020.0       894772.0       892614.0
       889921.0       886476.0       883852.0       881004.0       877080.0
       874601.0       872056.0       868194.0       865243.0       862187.0
       858217.0       854580.0       851888.0       848451.0       844502.0
       841461.0       837639.0       833349.0       830238.0       826742.0
       822382.0       818806.0       815314.0       810401.0       806411.0
       803264.0       798434.0       794154.0       790612.0       785805.0
       780992.0       777373.0       772993.0       767848.0       764086.0
       759655.0       754074.0       750315.0       746262.0       740922.0
       736596.0       732261.0       726982.0       722162.0       718108.0
       713144.0       708203.0       704011.0       698608.0       693069.0
       688876.0       683927.0       678409.0       673629.0       668445.0
       662311.0       657072.0       652238.0       646299.0       640858.0
       635552.0       629177.0       622812.0       617612.0       611425.0
       604507.0       599109.0       592589.0       585137.0       579371.0
       573047.0       565684.0       559210.0       552642.0       544894.0
       538026.0       531811.0       523977.0       516800.0       510076.0
       502013.0       494270.0       487434.0       479903.0       471392.0
       464027.0       456144.0       446999.0       439664.0       431860.0
       423238.0       415297.0       407102.0       398355.0       389456.0
       382161.0       373622.0       364326.0       356753.0       347626.0
       338333.0       330316.0       321581.0       312475.0       303608.0
       294801.0       284960.0       275885.0       267374.0       257255.0
       247968.0       239021.0       228610.0       218673.0       209804.0
       199837.0       189552.0       180189.0       169937.0       158951.0
       149495.0       139839.0       128692.0       118725.0       108897.0
       97420.00       86963.00       77211.00       66220.00       55612.00
       45168.00       34060.00       22537.00       12170.00       1701.000
      -10103.00      -20530.00      -31573.00      -43704.00      -54262.00
      -65011.00      -76722.00      -87797.00      -98464.00      -110337.0
      -122004.0      -132245.0      -143856.0      -155663.0      -166301.0
      -178144.0      -190229.0      -200809.0      -211880.0      -224022.0
      -235203.0      -246287.0      -258814.0      -270131.0      -280673.0
      -292912.0      -304272.0      -315219.0      -327620.0      -339473.0
      -350358.0      -361985.0      -373889.0      -384968.0      -396575.0
      -409055.0      -420296.0      -431441.0      -443626.0      -454903.0
      -466079.0      -478388.0      -489962.0      -500636.0      -512408.0
      -523961.0      -534622.0      -546265.0      -558254.0      -568734.0
      -579313.0      -591058.0      -601626.0      -612147.0      -624155.0
      -634413.0      -644295.0      -655895.0      -666317.0      -676362.0
      -687770.0      -698737.0      -708078.0      -718493.0      -729331.0
      -738798.0      -749567.0      -760540.0      -769958.0      -779864.0
      -790275.0      -799884.0      -809589.0      -820512.0      -830292.0
      -839141.0      -849520.0      -858933.0      -867814.0      -877952.0
      -887499.0      -896292.0      -905458.0      -914856.0      -923758.0
      -932564.0      -942038.0      -950549.0      -958635.0      -967864.0
      -976379.0      -984482.0      -993524.0      -1002038.      -1009395.
      -1017536.      -1026055.      -1033653.      -1041826.      -1050376.
      -1057566.      -1064971.      -1073511.      -1081163.      -1088334.
      -1097035.      -1104693.      -1111331.      -1119554.      -1126958.
      -1133877.      -1141871.      -1149706.      -1156262.      -1163579.
      -1171611.      -1177927.      -1185271.      -1193290.      -1199463.
      -1206152.      -1213715.      -1220493.      -1227047.      -1234572.
      -1241400.      -1247243.      -1254497.      -1261361.      -1267376.
      -1274587.      -1281713.      -1287550.      -1293857.      -1300825.
      -1306978.      -1313150.      -1320207.      -1326291.      -1331700.
      -1338318.      -1344445.      -1349803.      -1356422.      -1362754.
      -1367598.      -1373513.      -1379574.      -1384444.      -1390101.
      -1396249.      -1401089.      -1405836.      -1411520.      -1416296.
      -1420779.      -1426506.      -1430970.      -1434629.      -1439865.
      -1444316.      -1447975.      -1452761.      -1457324.      -1460519.
      -1464307.      -1468621.      -1471729.      -1475353.      -1479797.
      -1482526.      -1485120.      -1489038.      -1491894.      -1494434.
      -1498229.      -1501241.      -1503101.      -1506056.      -1508967.
      -1510974.      -1513731.      -1516767.      -1518581.      -1520573.
      -1523324.      -1524802.      -1526329.      -1529149.      -1530711.
      -1531575.      -1533621.      -1535072.      -1535595.      -1537308.
      -1538853.      -1538755.      -1539883.      -1541143.      -1540997.
      -1541931.      -1543124.      -1542805.      -1542806.      -1543749.
      -1543724.      -1543367.      -1544213.      -1544156.      -1543348.
      -1543776.      -1543506.      -1542789.      -1542980.      -1542973.
      -1541858.      -1541248.      -1541371.      -1540379.      -1539632.
      -1539634.      -1538586.      -1537238.      -1536548.      -1535515.
      -1533893.      -1533204.      -1532331.      -1529766.      -1528778.
      -1527948.      -1525265.      -1524103.      -1523396.      -1520700.
      -1518539.      -1517289.      -1514825.      -1512697.      -1511433.
      -1508787.      -1505849.      -1504064.      -1501470.      -1498286.
      -1496407.      -1494167.      -1490317.      -1487589.      -1485147.
      -1481226.      -1478325.      -1475956.      -1472263.      -1468573.
      -1465355.      -1461642.      -1457624.      -1454688.      -1451070.
      -1446062.      -1442393.      -1438659.      -1433967.      -1430080.
      -1426626.      -1421813.      -1416962.      -1412991.      -1408058.
      -1403281.      -1399107.      -1393613.      -1388191.      -1383772.
      -1378441.      -1372536.      -1368103.      -1363240.      -1356195.
      -1350735.      -1345655.      -1338767.      -1333138.      -1327771.
      -1320671.      -1314084.      -1308133.      -1301091.      -1294274.
      -1288360.      -1281151.      -1273406.      -1266879.      -1259707.
      -1251857.      -1244947.      -1238060.      -1229799.      -1222191.
      -1215165.      -1206798.      -1198927.      -1191785.      -1183458.
      -1174954.      -1167460.      -1159325.      -1150549.      -1143063.
      -1134877.      -1125361.      -1117463.      -1109166.      -1099764.
      -1091735.      -1083620.      -1074090.      -1065192.      -1056917.
      -1047581.      -1038679.      -1030688.      -1021521.      -1012034.
      -1003467.      -994637.0      -985259.0      -976582.0      -968069.0
      -958349.0      -949436.0      -940904.0      -931233.0      -922185.0
      -913791.0      -904382.0      -894604.0      -885857.0      -876572.0
      -866466.0      -858006.0      -848760.0      -838123.0      -829410.0
      -820113.0      -809678.0      -800675.0      -791653.0      -781047.0
      -771344.0      -762377.0      -751956.0      -742258.0      -733395.0
      -722941.0      -712624.0      -703492.0      -693385.0      -682928.0
      -673666.0      -663879.0      -652991.0      -643162.0      -633387.0
      -622976.0      -613196.0      -603579.0      -593080.0      -582513.0
      -572961.0      -562673.0      -551923.0      -542725.0      -532586.0
      -521353.0      -511703.0      -501687.0      -490679.0      -481000.0
      -471331.0      -460086.0      -450093.0      -440424.0      -429216.0
      -419190.0      -409837.0      -398897.0      -388180.0      -378541.0
      -368114.0      -357584.0      -348096.0      -337881.0      -327051.0
      -317205.0      -307149.0      -296673.0      -286876.0      -277478.0
      -266778.0      -256219.0      -246828.0      -236345.0      -226150.0
      -217012.0      -206744.0      -196037.0      -186358.0      -176510.0
      -165800.0      -156314.0      -146983.0      -135865.0      -126120.0
      -116658.0      -105790.0      -96107.00      -86833.00      -76102.00
      -65722.00      -56517.00      -46281.00      -35954.00      -26956.00
      -16882.00      -6175.000       3308.000       13195.00       23470.00
       32706.00       42056.00       52720.00       62445.00       71517.00
       81920.00       91640.00       100396.0       110468.0       120704.0
       129842.0       139390.0       149418.0       158377.0       167416.0
       177928.0       187285.0       196338.0       206723.0       215983.0
       224771.0       235113.0       244933.0       253871.0       263898.0
       273581.0       282224.0       292124.0       302484.0       311486.0
       321129.0       331413.0       340366.0       349625.0       360016.0
       369255.0       378662.0       388799.0       397960.0       407075.0
       416983.0       427159.0       436343.0       445714.0       455900.0
       464590.0       474042.0       484755.0       493796.0       503040.0
       513212.0       522608.0       531439.0       541409.0       551059.0
       559777.0       569744.0       579236.0       587479.0       597133.0
       607077.0       615595.0       624761.0       634356.0       642793.0
       651578.0       661248.0       669905.0       678441.0       687700.0
       696406.0       704606.0       713937.0       723177.0       731044.0
       739948.0       749160.0       756935.0       765264.0       774449.0
       782624.0       790722.0       799681.0       807730.0       815371.0
       824576.0       832847.0       840198.0       848972.0       857026.0
       864078.0       872427.0       880821.0       888213.0       896279.0
       904434.0       911325.0       918908.0       927442.0       934769.0
       942207.0       950292.0       957581.0       964307.0       972167.0
       980055.0       986721.0       994181.0       1001686.       1008090.
       1015308.       1022971.       1029528.       1036447.       1044077.
       1050400.       1056630.       1064381.       1071157.       1077418.
       1084854.       1091614.       1097394.       1104445.       1111464.
       1117234.       1124142.       1130868.       1136064.       1142415.
       1149346.       1154822.       1160593.       1167018.       1172420.
       1177591.       1183870.       1189385.       1194507.       1200638.
