     0.02500000      -12345.00      -12345.00   2.447790e+09      -12345.00
   0.0005380000       1859.976      -347.0196      -12345.00      -12345.00
      -12345.00      -12345.00      -12345.00      -12345.00      -12345.00
      -12345.00      -12345.00      -12345.00      -12345.00      -12345.00
      -12345.00      -12345.00      -12345.00      -12345.00      -12345.00
      -12345.00      -12345.00      -12345.00      -12345.00      -12345.00
      -12345.00      -8.525900       179.1966       20.00000       0.000000
      -42.72450       173.0647      -12345.00       22.00000      -12345.00
      -12345.00      -12345.00      -12345.00      -12345.00      -12345.00
      -12345.00      -12345.00      -12345.00      -12345.00      -12345.00
       3834.646       10.75394       187.9908       34.48733      -12345.00
      -12345.00      -12345.00       0.000000       90.00000      -12345.00
      -12345.00      -12345.00      -12345.00      -12345.00      -12345.00
      -12345.00      -12345.00      -12345.00      -12345.00      -12345.00
      2016       318        11         8        46
        19         6    -12345    -12345     74400
    -12345    -12345    -12345    -12345    -12345
         1    -12345    -12345    -12345    -12345
    -12345    -12345    -12345    -12345    -12345
    -12345    -12345    -12345    -12345    -12345
    -12345    -12345    -12345    -12345    -12345
         1    -12345    -12345    -12345    -12345
FUNA    South Island, Ne
00      -12345  -12345  
-12345  -12345  -12345  
-12345  -12345  -12345  
-12345  -12345  -12345  
-12345  -12345  -12345  
-12345  -12345  BH1     
IU      -12345  Streckei
[...]
       1195458.       1176707.       1157253.       1138510.       1119350.
       1099032.       1079826.       1061222.       1040722.       1020500.
       1001618.       981457.0       960744.0       941371.0       920971.0
       899847.0       880152.0       859535.0       838185.0       818352.0
       797857.0       776186.0       755633.0       735334.0       713674.0
       692339.0       672112.0       650451.0       628875.0       608377.0
       586496.0       564585.0       543869.0       522333.0       500103.0
       479011.0       457804.0       435157.0       413663.0       392706.0
       370207.0       348695.0       327499.0       305233.0       283559.0
       262412.0       240509.0       218499.0       197756.0       176421.0
       153939.0       133156.0       112464.0       90379.00       69273.00
       48578.00       26914.00       5921.000      -14548.00      -36046.00
      -56882.00      -77189.00      -98555.00      -119814.0      -139584.0
      -160093.0      -181916.0      -202076.0      -222064.0      -243266.0
      -263409.0      -283687.0      -304750.0      -324591.0      -344435.0
      -365469.0      -385907.0      -404912.0      -425214.0      -445962.0
      -464874.0      -484596.0      -504936.0      -523965.0      -543368.0
      -563356.0      -582204.0      -601032.0      -621115.0      -640033.0
      -658370.0      -678158.0      -697046.0      -715115.0      -734039.0
      -752994.0      -770985.0      -789686.0      -808629.0      -825990.0
      -844145.0      -862729.0      -879985.0      -897576.0      -915685.0
      -933089.0      -949923.0      -967586.0      -985099.0      -1001305.
      -1018643.      -1035996.      -1051986.      -1068836.      -1085938.
      -1101691.      -1118090.      -1135129.      -1150517.      -1166157.
      -1182991.      -1198404.      -1213299.      -1229590.      -1245124.
      -1259501.      -1274994.      -1290382.      -1304210.      -1319076.
      -1334094.      -1347435.      -1361738.      -1376403.      -1389480.
      -1402980.      -1417187.      -1430185.      -1442985.      -1456719.
      -1469187.      -1481123.      -1494254.      -1506474.      -1518086.
      -1530482.      -1542699.      -1553682.      -1565166.      -1577311.
      -1587792.      -1598571.      -1610685.      -1620890.      -1630609.
      -1641917.      -1652007.      -1661383.      -1671921.      -1681538.
      -1690120.      -1700125.      -1709443.      -1717247.      -1726250.
      -1735218.      -1742711.      -1750537.      -1758936.      -1766012.
      -1772883.      -1780837.      -1787303.      -1793346.      -1800648.
      -1806732.      -1811991.      -1818216.      -1824272.      -1828750.
      -1833838.      -1839460.      -1843456.      -1847897.      -1852873.
      -1856214.      -1859710.      -1864144.      -1867357.      -1870055.
      -1873828.      -1876529.      -1878256.      -1881490.      -1883971.
      -1885296.      -1887645.      -1889725.      -1890504.      -1891953.
      -1893936.      -1894322.      -1894799.      -1896165.      -1896035.
      -1895877.      -1896703.      -1896331.      -1895420.      -1895311.
      -1894678.      -1892969.      -1892151.      -1891206.      -1889050.
      -1887518.      -1886192.      -1883498.      -1881011.      -1879572.
      -1876517.      -1872907.      -1870743.      -1867128.      -1862745.
      -1859846.      -1855922.      -1851137.      -1847418.      -1843162.
      -1837575.      -1833174.      -1828749.      -1822503.      -1817319.
      -1812718.      -1806511.      -1800457.      -1795132.      -1788710.
      -1781625.      -1775671.      -1769098.      -1761211.      -1754431.
      -1747134.      -1738809.      -1731393.      -1723647.      -1714462.
      -1705665.      -1697658.      -1688235.      -1678354.      -1669661.
      -1659755.      -1649238.      -1639706.      -1629076.      -1617867.
      -1607609.      -1596947.      -1584951.      -1574106.      -1563399.
      -1550647.      -1538933.      -1527723.      -1514610.      -1502174.
      -1490410.      -1477045.      -1463626.      -1451145.      -1437520.
      -1423158.      -1410011.      -1396070.      -1381091.      -1367119.
      -1352869.      -1337242.      -1322480.      -1308045.      -1291814.
      -1276117.      -1261315.      -1244967.      -1228488.      -1212924.
      -1196472.      -1179316.      -1163270.      -1146662.      -1128574.
      -1111933.      -1094955.      -1076582.      -1059182.      -1041773.
      -1022864.      -1004176.      -986655.0      -967584.0      -948007.0
      -930043.0      -910365.0      -890228.0      -872000.0      -852339.0
      -831784.0      -812244.0      -792422.0      -771616.0      -751667.0
      -731885.0      -710671.0      -690387.0      -670426.0      -648898.0
      -627831.0      -607765.0      -586649.0      -564969.0      -544523.0
      -523604.0      -501721.0      -481035.0      -460028.0      -438006.0
      -416998.0      -396198.0      -373944.0      -352486.0      -332027.0
      -310040.0      -288342.0      -267780.0      -245940.0      -224045.0
      -203525.0      -182167.0      -160176.0      -139525.0      -118532.0
      -96355.00      -75769.00      -55077.00      -32984.00      -12218.00
       8331.000       30227.00       51577.00       71970.00       93354.00
       114955.0       135351.0       156826.0       178619.0       198870.0
       220208.0       242102.0       262796.0       283796.0       305741.0
       326773.0       347226.0       368924.0       390136.0       410336.0
       431831.0       453313.0       473547.0       494769.0       516368.0
       536503.0       557249.0       579082.0       599382.0       619711.0
       641247.0       661741.0       681719.0       703052.0       723673.0
       743176.0       764222.0       784697.0       803886.0       824559.0
       844913.0       864024.0       884078.0       904534.0       923608.0
       942630.0       963087.0       982189.0       1000896.       1020981.
       1039831.       1058377.       1078073.       1097058.       1115393.
       1134627.       1153796.       1171468.       1189923.       1209316.
       1227011.       1245019.       1263880.       1281438.       1298936.
       1317537.       1334977.       1351945.       1370424.       1387820.
       1404196.       1422092.       1439556.       1455590.       1472587.
       1489891.       1505651.       1521952.       1539108.       1554465.
       1570176.       1586809.       1601811.       1616889.       1633092.
       1648162.       1662325.       1677601.       1692577.       1706214.
       1720875.       1735527.       1748736.       1762554.       1776695.
       1789727.       1802692.       1816557.       1829213.       1841379.
       1854821.       1867147.       1878536.       1891221.       1903404.
       1914263.       1926180.       1938213.       1948672.       1959903.
       1971643.       1981664.       1992186.       2003412.       2013194.
       2022936.       2033767.       2043291.       2052059.       2062156.
       2071447.       2079846.       2089379.       2098270.       2106062.
       2114673.       2123213.       2130465.       2138165.       2146702.
       2153628.       2160469.       2168347.       2174972.       2181229.
       2188399.       2194814.       2200527.       2207111.       2213308.
       2218099.       2224001.       2230141.       2234303.       2239200.
       2244921.       2248947.       2252840.       2258104.       2261634.
       2264708.       2269428.       2272638.       2275339.       2279224.
       2282103.       2283762.       2286444.       2289423.       2290410.
       2291822.       2294358.       2295036.       2295693.       2297275.
       2297245.       2296939.       2297954.       2297628.       2296413.
       2296489.       2295839.       2293950.       2292983.       2291927.
       2289508.       2287438.       2285728.       2282839.       2279833.
       2277619.       2274039.       2270227.       2267436.       2263430.
       2258893.       2255301.       2251134.       2245709.       2240963.
       2236498.       2230388.       2224962.       2220033.       2213252.
       2206843.       2201031.       2193872.       2186378.       2180263.
       2172757.       2164380.       2157780.       2149744.       2140907.
       2133274.       2124853.       2115723.       2107060.       2098462.
       2088668.       2078848.       2069858.       2059351.       2048797.
       2039239.       2028645.       2017342.       2006706.       1995902.
       1983975.       1972793.       1961627.       1949053.       1937502.
       1926063.       1913041.       1900681.       1888832.       1875687.
       1862264.       1850022.       1836701.       1822608.       1809612.
       1795738.       1781286.       1767712.       1753768.       1738718.
       1724232.       1710202.       1694389.       1678982.       1664545.
       1648504.       1632776.       1617477.       1601268.       1585033.
       1569323.       1552914.       1535735.       1519715.       1503125.
       1485303.       1468672.       1451733.       1433603.       1416186.
       1399051.       1380718.       1362322.       1345066.       1326404.
       1307324.       1289636.       1270730.       1251181.       1232994.
       1214088.       1193815.       1174859.       1155918.       1135147.
       1115475.       1096325.       1075421.       1055096.       1035310.
       1014242.       993149.0       973049.0       951777.0       929931.0
       909531.0       888138.0       865716.0       844554.0       823088.0
       800543.0       778618.0       756839.0       733944.0       711493.0
       689746.0       666545.0       643485.0       621533.0       598388.0
       574693.0       552370.0       529244.0       505037.0       482104.0
       458832.0       434357.0       410756.0       387509.0       362978.0
       338748.0       315287.0       290256.0       265253.0       241761.0
       216534.0       191014.0       166892.0       141605.0       115941.0
       91294.00       66122.00       40114.00       15116.00      -9953.000
      -36657.00      -62108.00      -87009.00      -113864.0      -139966.0
      -165184.0      -191704.0      -218235.0      -243765.0      -270331.0
      -297142.0      -322772.0      -349356.0      -376508.0      -402253.0
      -428299.0      -455556.0      -481801.0      -507482.0      -534642.0
      -561143.0      -586433.0      -613189.0      -639674.0      -665359.0
      -691912.0      -718262.0      -743560.0      -769538.0      -796332.0
      -821549.0      -846829.0      -873570.0      -898669.0      -923318.0
      -949480.0      -974572.0      -999064.0      -1024721.      -1049741.
      -1073703.      -1099103.      -1124116.      -1147639.      -1172459.
      -1197392.      -1220889.      -1244916.      -1269673.      -1293174.
      -1316490.      -1340740.      -1363791.      -1386462.      -1410192.
      -1433129.      -1455298.      -1478221.      -1501188.      -1522575.
      -1544536.      -1567454.      -1588552.      -1609928.      -1632330.
      -1653097.      -1673803.      -1695608.      -1716446.      -1736437.
      -1757550.      -1778036.      -1796979.      -1817552.      -1837571.
      -1855805.      -1875299.      -1894874.      -1912773.      -1931209.
      -1950200.      -1967562.      -1985309.      -2003586.      -2020296.
      -2037286.      -2054908.      -2071431.      -2087487.      -2104387.
      -2121058.      -2136079.      -2152058.      -2168365.      -2183051.
      -2198435.      -2214025.      -2228349.      -2242783.      -2257714.
      -2271612.      -2285112.      -2299815.      -2313245.      -2325530.
      -2339442.      -2352503.      -2364345.      -2377185.      -2389968.
      -2401350.      -2413291.      -2425889.      -2436632.      -2447761.
      -2459982.      -2470330.      -2480496.      -2491895.      -2502185.
      -2511514.      -2521919.      -2532092.      -2540875.      -2550711.
      -2560177.      -2568308.      -2577368.      -2586163.      -2593769.
      -2601775.      -2610216.      -2617349.      -2624168.      -2631894.
      -2638549.      -2644573.      -2651312.      -2657356.      -2662657.
      -2668538.      -2674304.      -2678460.      -2683387.      -2688898.
      -2692318.      -2696334.      -2701288.      -2704430.      -2707413.
      -2711458.      -2714414.      -2716510.      -2719829.      -2722477.
      -2723770.      -2726504.      -2728721.      -2729463.      -2731303.
      -2733358.      -2733560.      -2734114.      -2735696.      -2735626.
      -2735661.      -2736465.      -2735843.      -2735250.      -2735293.
      -2734408.      -2733081.      -2732495.      -2731579.      -2729279.
      -2727934.      -2726681.      -2723909.      -2721840.      -2720065.
      -2716905.      -2713804.      -2711614.      -2708136.      -2704026.
      -2701216.      -2697251.      -2692247.      -2688680.      -2684389.
      -2678579.      -2673677.      -2669320.      -2663054.      -2656898.
      -2651894.      -2645167.      -2638435.      -2632467.      -2624942.
      -2617448.      -2610928.      -2603272.      -2594739.      -2587325.
      -2579432.      -2570067.      -2562010.      -2553643.      -2543906.
      -2534921.      -2525785.      -2515377.      -2505171.      -2495740.
      -2484933.      -2473831.      -2463675.      -2452277.      -2440659.
      -2429761.      -2418173.      -2405743.      -2393689.      -2382065.
      -2369041.      -2356480.      -2344203.      -2330530.      -2317598.
      -2305019.      -2291110.      -2276911.      -2263886.      -2249976.
      -2234798.      -2221220.      -2206987.      -2191340.      -2177146.
      -2162304.      -2146358.      -2131311.      -2116101.      -2099439.
      -2083257.      -2067828.      -2050675.      -2033608.      -2017675.
      -2000387.      -1982636.      -1965968.      -1948482.      -1930143.
      -1912967.      -1895263.      -1876291.      -1858588.      -1840568.
      -1821262.      -1802681.      -1784524.      -1765154.      -1745604.
      -1727092.      -1707367.      -1687407.      -1668657.      -1648610.
      -1628230.      -1608998.      -1589050.      -1568048.      -1547812.
      -1528131.      -1506764.      -1486174.      -1466383.      -1444655.
      -1423837.      -1403856.      -1382225.      -1360772.      -1340349.
      -1318866.      -1297012.      -1276463.      -1254883.      -1232491.
      -1211640.      -1190067.      -1167560.      -1145994.      -1124514.
      -1102034.      -1079981.      -1058576.      -1035870.      -1013411.
      -991925.0      -969322.0      -946806.0      -925164.0      -902560.0
      -879356.0      -857342.0      -835402.0      -811807.0      -789179.0
      -767158.0      -743772.0      -720965.0      -698653.0      -675234.0
      -652193.0      -630238.0      -606961.0      -583450.0      -561343.0
      -538281.0      -514474.0      -491947.0      -469187.0      -445182.0
      -422068.0      -399452.0      -375257.0      -352039.0      -329348.0
      -304950.0      -281548.0      -259063.0      -235166.0      -211032.0
      -188223.0      -164777.0      -140569.0      -117890.0      -94493.00
      -70223.00      -47496.00      -23973.00       30.00000       22845.00
       45696.00       69529.00       93079.00       115372.0       139008.0
       162851.0       185126.0       208692.0       232415.0       254909.0
       278275.0       302111.0       324700.0       347083.0       370903.0
       393727.0       415804.0       439270.0       461955.0       483518.0
       506214.0       528974.0       550196.0       572360.0       594993.0
       615914.0       637871.0       660319.0       680944.0       702105.0
       724330.0       745360.0       765618.0       787691.0       808904.0
       828758.0       850595.0       871492.0       891397.0       912974.0
       933962.0       953703.0       974217.0       995306.0       1015077.
       1035080.       1056344.       1075924.       1095510.       1116166.
       1135725.       1155121.       1175381.       1194979.       1213498.
       1233315.       1253256.       1271438.       1290640.       1310435.
       1328620.       1347231.       1366719.       1384800.       1402623.
       1422057.       1439921.       1457262.       1476297.       1494017.
       1511066.       1529142.       1547064.       1563642.       1580761.
       1598768.       1614738.       1631277.       1648715.       1664066.
       1680092.       1696839.       1712145.       1727266.       1743530.
       1758766.       1772838.       1788582.       1803571.       1817070.
       1832045.       1846785.       1860041.       1873858.       1888133.
       1901063.       1914051.       1928114.       1940548.       1952931.
       1966272.       1978536.       1990386.       2002980.       2015349.
       2026208.       2037842.       2049760.       2059941.       2071021.
       2082285.       2091978.       2102031.       2112617.       2122179.
       2131084.       2141305.       2150408.       2158348.       2167905.
       2176550.       2184252.       2192885.       2201056.       2208124.
       2215830.       2223930.       2230223.       2236859.       2244573.
       2250417.       2256146.       2262910.       2268615.       2273511.
       2279335.       2284512.       2288557.       2293887.       2298403.
       2301549.       2306151.       2310498.       2313118.       2316422.
       2320486.       2322668.       2324693.       2328235.       2330090.
       2331686.       2334215.       2335448.       2336325.       2337969.
       2339169.       2339107.       2339960.       2341087.       2340283.
       2340137.       2340652.       2339836.       2339153.       2338758.
       2337478.       2335697.       2335024.       2333538.       2330803.
       2329493.       2327508.       2324257.       2321976.       2319684.
       2315882.       2312351.       2309859.       2305648.       2301441.
       2298428.       2293500.       2288766.       2285060.       2279988.
