     0.02500000      -12345.00      -12345.00   1.983070e+09      -12345.00
   0.0005380000       1859.976      -347.0196      -12345.00      -12345.00
      -12345.00      -12345.00      -12345.00      -12345.00      -12345.00
      -12345.00      -12345.00      -12345.00      -12345.00      -12345.00
      -12345.00      -12345.00      -12345.00      -12345.00      -12345.00
      -12345.00      -12345.00      -12345.00      -12345.00      -12345.00
      -12345.00      -8.525900       179.1966       20.00000       0.000000
      -42.72450       173.0647      -12345.00       22.00000      -12345.00
      -12345.00      -12345.00      -12345.00      -12345.00      -12345.00
      -12345.00      -12345.00      -12345.00      -12345.00      -12345.00
       3834.646       10.75394       187.9908       34.48733      -12345.00
      -12345.00      -12345.00       0.000000       90.00000      -12345.00
      -12345.00      -12345.00      -12345.00      -12345.00      -12345.00
      -12345.00      -12345.00      -12345.00      -12345.00      -12345.00
      2016       318        11         8        46
        19         6    -12345    -12345     74400
    -12345    -12345    -12345    -12345    -12345
         1    -12345    -12345    -12345    -12345
    -12345    -12345    -12345    -12345    -12345
    -12345    -12345    -12345    -12345    -12345
    -12345    -12345    -12345    -12345    -12345
         1    -12345    -12345    -12345    -12345
FUNA    South Island, Ne
10      -12345  -12345  
-12345  -12345  -12345  
-12345  -12345  -12345  
-12345  -12345  -12345  
-12345  -12345  -12345  
-12345  -12345  BH1     
IU      -12345  Trillium
[...]
       903339.0       887442.0       872179.0       857839.0       841665.0
       826008.0       811424.0       795048.0       779131.0       764496.0
       748165.0       731677.0       716519.0       700672.0       683682.0
       667908.0       652395.0       635099.0       619129.0       603313.0
       585843.0       569452.0       553623.0       536407.0       519375.0
       503501.0       486533.0       468736.0       452829.0       436060.0
       418277.0       402181.0       385242.0       367716.0       351180.0
       334566.0       317073.0       300134.0       284233.0       266778.0
       249235.0       233627.0       216696.0       199181.0       183088.0
       166466.0       149139.0       133040.0       116599.0       99310.00
       83306.00       66971.00       49594.00       33149.00       17750.00
       605.0000      -16706.00      -32073.00      -48624.00      -65660.00
      -81291.00      -98074.00      -114859.0      -130325.0      -146735.0
      -163920.0      -179762.0      -195001.0      -212204.0      -228399.0
      -243355.0      -260051.0      -276208.0      -291347.0      -307580.0
      -323708.0      -338618.0      -354432.0      -370997.0      -385705.0
      -401166.0      -417635.0      -432448.0      -447448.0      -463334.0
      -478626.0      -493272.0      -509231.0      -524403.0      -538453.0
      -554130.0      -569142.0      -583175.0      -598213.0      -613197.0
      -627327.0      -641452.0      -656597.0      -670685.0      -684201.0
      -699348.0      -713315.0      -726646.0      -741363.0      -755366.0
      -768389.0      -782870.0      -796947.0      -809476.0      -823411.0
      -837668.0      -850077.0      -863228.0      -877421.0      -890005.0
      -902413.0      -916213.0      -928833.0      -940590.0      -954067.0
      -966434.0      -977794.0      -990854.0      -1003105.      -1014164.
      -1026496.      -1038724.      -1049620.      -1061270.      -1073362.
      -1083673.      -1094696.      -1106451.      -1116725.      -1127291.
      -1138570.      -1149086.      -1158703.      -1169599.      -1180200.
      -1189139.      -1199680.      -1210486.      -1218904.      -1228505.
      -1238943.      -1247480.      -1256535.      -1266431.      -1274675.
      -1282978.      -1292739.      -1300643.      -1308170.      -1317237.
      -1325187.      -1332188.      -1340204.      -1348114.      -1354543.
      -1361820.      -1369591.      -1375336.      -1382041.      -1389364.
      -1394888.      -1400653.      -1407397.      -1413126.      -1417765.
      -1423878.      -1429407.      -1433576.      -1439144.      -1444217.
      -1447814.      -1452588.      -1457530.      -1460936.      -1464847.
      -1469536.      -1472354.      -1475488.      -1479973.      -1482634.
      -1485280.      -1489009.      -1491639.      -1493543.      -1496709.
      -1499500.      -1500741.      -1503149.      -1505628.      -1506393.
      -1508301.      -1510430.      -1511038.      -1512029.      -1513667.
      -1514142.      -1514232.      -1515549.      -1515787.      -1515410.
      -1516129.      -1516254.      -1515176.      -1515255.      -1515567.
      -1513798.      -1512931.      -1512898.      -1510605.      -1509085.
      -1508534.      -1506159.      -1504058.      -1502900.      -1500380.
      -1497352.      -1495964.      -1493253.      -1489483.      -1487581.
      -1484992.      -1481051.      -1478150.      -1475323.      -1471083.
      -1467079.      -1464180.      -1459668.      -1454846.      -1451328.
      -1446299.      -1441164.      -1437026.      -1431752.      -1425539.
      -1420447.      -1415378.      -1408569.      -1402501.      -1397116.
      -1389840.      -1383213.      -1377041.      -1369325.      -1361972.
      -1355418.      -1347716.      -1339336.      -1332718.      -1324812.
      -1315572.      -1308350.      -1300150.      -1290546.      -1282593.
      -1274138.      -1264214.      -1255177.      -1246519.      -1236201.
      -1226212.      -1217264.      -1206634.      -1195954.      -1186391.
      -1175640.      -1164128.      -1154114.      -1143253.      -1130949.
      -1120232.      -1109298.      -1096761.      -1085127.      -1073824.
      -1061215.      -1048700.      -1037349.      -1024349.      -1010931.
      -999293.0      -985954.0      -972262.0      -959776.0      -946371.0
      -931815.0      -918343.0      -905295.0      -890119.0      -875914.0
      -862635.0      -846765.0      -832252.0      -818739.0      -802950.0
      -787599.0      -773043.0      -757576.0      -741593.0      -726921.0
      -711368.0      -694889.0      -680014.0      -664288.0      -647362.0
      -631760.0      -616350.0      -599494.0      -583025.0      -567656.0
      -550870.0      -534055.0      -518499.0      -501645.0      -484555.0
      -468751.0      -452172.0      -434504.0      -418540.0      -402381.0
      -384654.0      -368343.0      -352225.0      -334527.0      -317917.0
      -302006.0      -284642.0      -267590.0      -251793.0      -234645.0
      -217210.0      -201683.0      -184636.0      -167139.0      -151371.0
      -134627.0      -116985.0      -100602.0      -84396.00      -66866.00
      -50079.00      -34025.00      -16195.00       651.0000       16602.00
       34386.00       51557.00       67818.00       85102.00       102771.0
       119077.0       135791.0       153629.0       170079.0       186463.0
       204371.0       221150.0       237412.0       255164.0       272263.0
       288201.0       305722.0       323293.0       339160.0       356285.0
       373875.0       389973.0       406591.0       424366.0       440464.0
       456614.0       474390.0       490373.0       506274.0       523803.0
       539876.0       555597.0       572628.0       589238.0       604458.0
       620747.0       637835.0       652837.0       668954.0       685723.0
       700722.0       716631.0       733175.0       748499.0       763953.0
       780386.0       795964.0       810457.0       826707.0       842657.0
       856997.0       872808.0       888500.0       902830.0       918084.0
       933877.0       947975.0       962843.0       978779.0       992741.0
       1006993.       1022714.       1036900.       1050560.       1065679.
       1080086.       1093241.       1107946.       1122396.       1135074.
       1149386.       1163489.       1175965.       1189640.       1203737.
       1216208.       1228787.       1242571.       1255083.       1267023.
       1280496.       1292811.       1304350.       1317058.       1329332.
       1340593.       1352550.       1364944.       1375623.       1387046.
       1399282.       1409654.       1420304.       1432182.       1442573.
       1452547.       1463994.       1474475.       1483886.       1494915.
       1505267.       1514232.       1524691.       1534845.       1543582.
       1553279.       1563465.       1571779.       1580596.       1590487.
       1598712.       1607117.       1616589.       1624577.       1632361.
       1641152.       1649149.       1656191.       1664458.       1672717.
       1679148.       1686770.       1694661.       1700950.       1707916.
       1715398.       1721636.       1727960.       1735193.       1741234.
       1746564.       1753654.       1759630.       1764214.       1770553.
       1776560.       1780812.       1786211.       1792204.       1795796.
       1800652.       1806278.       1809761.       1814112.       1819104.
       1822470.       1825536.       1830019.       1833707.       1835659.
       1839332.       1842937.       1844518.       1847433.       1850354.
       1851415.       1853484.       1856216.       1856929.       1858060.
       1860252.       1860853.       1861120.       1862619.       1863084.
       1862690.       1863254.       1863492.       1862539.       1862330.
       1862328.       1860635.       1859889.       1859472.       1857467.
       1855921.       1855080.       1853014.       1850316.       1848856.
       1846684.       1843184.       1841360.       1838742.       1834666.
       1831889.       1828849.       1824366.       1820565.       1817729.
       1812532.       1808141.       1804955.       1799362.       1794479.
       1790329.       1784839.       1779344.       1774398.       1769057.
       1762511.       1756866.       1751308.       1743996.       1737841.
       1731908.       1724624.       1717364.       1710864.       1703512.
       1695499.       1688764.       1680985.       1672434.       1665502.
       1657423.       1648424.       1640712.       1632642.       1623260.
       1614501.       1606538.       1596737.       1587374.       1578771.
       1568674.       1558923.       1549864.       1539834.       1529162.
       1519615.       1509616.       1497897.       1487845.       1477557.
       1465723.       1455150.       1444163.       1432416.       1421084.
       1410059.       1397863.       1385689.       1374716.       1362138.
       1349351.       1337922.       1325146.       1311945.       1299782.
       1287187.       1273387.       1260448.       1248037.       1233606.
       1220178.       1207439.       1192835.       1178803.       1165818.
       1151180.       1136173.       1122861.       1108237.       1092481.
       1078710.       1064016.       1048018.       1033469.       1018470.
       1002271.       986864.0       971923.0       955250.0       939196.0
       924198.0       907287.0       890517.0       874993.0       858226.0
       841030.0       824788.0       807971.0       790225.0       773665.0
       756911.0       738637.0       721587.0       704829.0       686424.0
       668585.0       651802.0       633266.0       614775.0       597571.0
       579028.0       560017.0       542291.0       523979.0       504585.0
       486283.0       467924.0       447776.0       428985.0       410732.0
       390157.0       370842.0       352075.0       331659.0       311871.0
       292741.0       272495.0       252063.0       232885.0       212557.0
       191238.0       172003.0       151762.0       130073.0       110137.0
       89948.00       68410.00       47765.00       27543.00       5804.000
      -15126.00      -35403.00      -57268.00      -78646.00      -98806.00
      -120266.0      -142189.0      -162621.0      -183578.0      -205855.0
      -226403.0      -246948.0      -269072.0      -289870.0      -310754.0
      -332532.0      -353469.0      -373809.0      -395471.0      -417042.0
      -436912.0      -458174.0      -479999.0      -499615.0      -520340.0
      -541916.0      -561776.0      -582147.0      -603490.0      -623397.0
      -643224.0      -664706.0      -684524.0      -703948.0      -725070.0
      -745148.0      -764348.0      -784783.0      -805171.0      -824159.0
      -843964.0      -864186.0      -882786.0      -902123.0      -922086.0
      -940748.0      -959415.0      -979004.0      -997890.0      -1015488.
      -1034735.      -1053766.      -1070974.      -1089790.      -1108539.
      -1125559.      -1143705.      -1162295.      -1179455.      -1196683.
      -1215127.      -1231849.      -1248231.      -1266551.      -1282822.
      -1298582.      -1316039.      -1332412.      -1347620.      -1364253.
      -1380417.      -1395124.      -1411242.      -1426884.      -1441157.
      -1456644.      -1471977.      -1486151.      -1500567.      -1515869.
      -1530115.      -1543295.      -1558291.      -1572294.      -1585257.
      -1599628.      -1613256.      -1625947.      -1639394.      -1652841.
      -1665034.      -1677772.      -1691392.      -1702831.      -1714636.
      -1727871.      -1739156.      -1750408.      -1762782.      -1774282.
      -1784771.      -1796654.      -1808153.      -1817877.      -1829294.
      -1840628.      -1849941.      -1860432.      -1871437.      -1880809.
      -1890193.      -1900808.      -1910197.      -1918958.      -1929224.
      -1937959.      -1946330.      -1955866.      -1964302.      -1972104.
      -1980809.      -1989304.      -1996383.      -2004134.      -2012342.
      -2019000.      -2026001.      -2033470.      -2039826.      -2046047.
      -2053060.      -2059218.      -2064166.      -2070876.      -2076797.
      -2080985.      -2087027.      -2092724.      -2096621.      -2101544.
      -2106896.      -2110666.      -2114570.      -2119714.      -2123124.
      -2126314.      -2131141.      -2134212.      -2136849.      -2140985.
      -2144244.      -2145966.      -2149191.      -2152384.      -2153797.
      -2156502.      -2159068.      -2160177.      -2162233.      -2164312.
      -2165311.      -2166489.      -2168431.      -2169295.      -2169396.
      -2171074.      -2171625.      -2171305.      -2172294.      -2172667.
      -2171844.      -2171930.      -2172334.      -2170962.      -2170162.
      -2170314.      -2168407.      -2166833.      -2166519.      -2164430.
      -2161819.      -2160619.      -2158922.      -2155353.      -2153237.
      -2151237.      -2147271.      -2144576.      -2141701.      -2137236.
      -2133871.      -2130769.      -2126107.      -2121510.      -2118111.
      -2113181.      -2107750.      -2103993.      -2098680.      -2092903.
      -2088137.      -2082503.      -2075911.      -2070243.      -2064698.
      -2057426.      -2051049.      -2044943.      -2037276.      -2030398.
      -2023696.      -2016056.      -2007975.      -2000720.      -1993192.
      -1984308.      -1976839.      -1968531.      -1959334.      -1951485.
      -1943059.      -1933416.      -1924321.      -1916113.      -1906122.
      -1896041.      -1887687.      -1877306.      -1866832.      -1857849.
      -1847112.      -1836297.      -1826473.      -1815694.      -1803862.
      -1793344.      -1782566.      -1770016.      -1758773.      -1747787.
      -1735069.      -1722986.      -1711601.      -1698736.      -1685929.
      -1674333.      -1661169.      -1647731.      -1635792.      -1622382.
      -1608520.      -1595745.      -1582654.      -1568289.      -1554662.
      -1541536.      -1526667.      -1512784.      -1499400.      -1484227.
      -1469908.      -1456202.      -1441206.      -1425803.      -1411635.
      -1397043.      -1380900.      -1366721.      -1351842.      -1335401.
      -1320967.      -1306012.      -1289568.      -1274284.      -1259309.
      -1242871.      -1227061.      -1212179.      -1195408.      -1179114.
      -1164076.      -1147351.      -1130689.      -1115003.      -1098716.
      -1081656.      -1065637.      -1049490.      -1031967.      -1015671.
      -999524.0      -982036.0      -965559.0      -949281.0      -931702.0
      -914323.0      -898222.0      -881122.0      -862892.0      -846498.0
      -829404.0      -811316.0      -794479.0      -777278.0      -759061.0
      -742038.0      -725270.0      -706794.0      -689278.0      -672582.0
      -654200.0      -636150.0      -619266.0      -601224.0      -582549.0
      -565344.0      -547517.0      -528429.0      -511256.0      -493182.0
      -473915.0      -456525.0      -438852.0      -419693.0      -401300.0
      -383845.0      -364925.0      -346259.0      -329005.0      -309922.0
      -291236.0      -273791.0      -254672.0      -236135.0      -218505.0
      -200233.0      -181133.0      -163086.0      -145579.0      -126122.0
      -107891.0      -90384.00      -70988.00      -52712.00      -34935.00
      -15840.00       2924.000       20409.00       38707.00       58013.00
       75472.00       93517.00       112626.0       130119.0       147493.0
       166257.0       184060.0       200867.0       219467.0       237236.0
       253792.0       272347.0       289969.0       306272.0       324087.0
       342104.0       358520.0       375330.0       393879.0       410154.0
       426709.0       445119.0       461262.0       477960.0       496066.0
       512591.0       528761.0       546127.0       563302.0       579075.0
       596248.0       613713.0       629167.0       646041.0       663079.0
       678850.0       695281.0       712280.0       728025.0       743504.0
       760712.0       776733.0       791683.0       808549.0       824669.0
       839562.0       855814.0       872074.0       886673.0       902305.0
       918888.0       933058.0       948452.0       964722.0       979027.0
       993864.0       1009526.       1024417.       1038269.       1053612.
       1068704.       1081771.       1096909.       1111407.       1124190.
       1138814.       1152971.       1165812.       1179356.       1193704.
       1206192.       1218811.       1233131.       1245357.       1257437.
       1271190.       1283525.       1295141.       1307866.       1320329.
       1331393.       1343597.       1356049.       1366564.       1378359.
       1390269.       1400933.       1411899.       1423602.       1434366.
       1444105.       1455461.       1465850.       1475078.       1486017.
       1495899.       1504788.       1514690.       1524533.       1533108.
       1541946.       1551976.       1559794.       1568007.       1577574.
       1585232.       1593137.       1601831.       1609443.       1616521.
       1624748.       1632469.       1638489.       1646144.       1653700.
       1659264.       1666034.       1673096.       1678709.       1684390.
       1691020.       1696154.       1701168.       1707557.       1712009.
       1716325.       1722292.       1726776.       1730286.       1735285.
       1740014.       1742687.       1746733.       1751341.       1753718.
       1757322.       1760973.       1763189.       1765898.       1769158.
       1771400.       1772935.       1776038.       1778178.       1778841.
       1781233.       1783096.       1783867.       1785433.       1786769.
       1787134.       1787680.       1789284.       1789082.       1788860.
       1790088.       1789538.       1788768.       1789189.       1788718.
       1787047.       1786617.       1786334.       1783984.       1783141.
       1782342.       1779483.       1778183.       1776890.       1774011.
       1771496.       1770163.       1767240.       1763693.       1761948.
       1758603.       1754665.       1752385.       1748816.       1744481.
