     0.02500000      -12345.00      -12345.00   2.447790e+09      -12345.00
   0.0005380000       1859.976      -347.0196      -12345.00      -12345.00
      -12345.00      -12345.00      -12345.00      -12345.00      -12345.00
      -12345.00      -12345.00      -12345.00      -12345.00      -12345.00
      -12345.00      -12345.00      -12345.00      -12345.00      -12345.00
      -12345.00      -12345.00      -12345.00      -12345.00      -12345.00
      -12345.00      -8.525900       179.1966       20.00000       0.000000
      -42.72450       173.0647      -12345.00       22.00000      -12345.00
      -12345.00      -12345.00      -12345.00      -12345.00      -12345.00
      -12345.00      -12345.00      -12345.00      -12345.00      -12345.00
       3834.646       10.75394       187.9908       34.48733      -12345.00
      -12345.00      -12345.00       0.000000       0.000000      -12345.00
      -12345.00      -12345.00      -12345.00      -12345.00      -12345.00
      -12345.00      -12345.00      -12345.00      -12345.00      -12345.00
      2016       318        11         8        46
        19         6    -12345    -12345     74400
    -12345    -12345    -12345    -12345    -12345
         1    -12345    -12345    -12345    -12345
    -12345    -12345    -12345    -12345    -12345
    -12345    -12345    -12345    -12345    -12345
    -12345    -12345    -12345    -12345    -12345
         1    -12345    -12345    -12345    -12345
FUNA    South Island, Ne
00      -12345  -12345  
-12345  -12345  -12345  
-12345  -12345  -12345  
-12345  -12345  -12345  
-12345  -12345  -12345  
-12345  -12345  BHZ     
IU      -12345  Streckei
[...]
       13015.00       15140.00       19271.00       23830.00       26546.00
       30736.00       34387.00       38210.00       41544.00       46035.00
       49970.00       52572.00       58327.00       61356.00       64573.00
       69831.00       72831.00       76860.00       80472.00       84620.00
       87860.00       91671.00       96400.00       98709.00       103588.0
       107241.0       109728.0       114655.0       117954.0       121866.0
       125412.0       129120.0       133035.0       136057.0       140690.0
       143551.0       147572.0       151627.0       154403.0       158754.0
       161714.0       165702.0       169185.0       171947.0       175841.0
       178767.0       182592.0       185304.0       189067.0       192809.0
       194952.0       199236.0       201610.0       205073.0       209305.0
       211671.0       215185.0       218407.0       221741.0       224397.0
       228160.0       232002.0       233648.0       238235.0       241202.0
       243633.0       247923.0       250408.0       253869.0       256528.0
       260163.0       262944.0       265556.0       270555.0       272114.0
       275198.0       279009.0       280876.0       284872.0       287846.0
       290898.0       293617.0       296800.0       299828.0       301512.0
       306129.0       308342.0       310537.0       314038.0       316046.0
       319259.0       321279.0       324463.0       326927.0       328615.0
       331982.0       333132.0       336158.0       338472.0       339934.0
       342762.0       343642.0       346552.0       348211.0       349572.0
       352172.0       353243.0       355460.0       356909.0       358739.0
       360103.0       361090.0       363821.0       364169.0       365855.0
       367519.0       367652.0       369468.0       370682.0       372121.0
       372471.0       373824.0       374721.0       374681.0       377032.0
       376719.0       377262.0       379101.0       378651.0       379189.0
       379779.0       381214.0       380855.0       381204.0       382874.0
       381379.0       383009.0       383097.0       382262.0       383770.0
       382884.0       383260.0       383445.0       383825.0       384044.0
       383134.0       384069.0       382917.0       382866.0       383207.0
       381875.0       382106.0       381242.0       380668.0       379362.0
       378900.0       378425.0       376408.0       376611.0       374706.0
       373459.0       372853.0       370324.0       370188.0       368093.0
       366606.0       365350.0       362789.0       362039.0       359369.0
       358043.0       355938.0       354004.0       352536.0       349096.0
       348464.0       345314.0       342774.0       341832.0       337954.0
       336296.0       333538.0       331062.0       328485.0       325031.0
       323933.0       319546.0       316535.0       314992.0       310975.0
       308019.0       305147.0       301703.0       297843.0       295122.0
       291808.0       287544.0       285585.0       281188.0       276546.0
       274144.0       270147.0       265778.0       261881.0       258436.0
       253370.0       249518.0       245813.0       241065.0       237742.0
       232126.0       228098.0       224177.0       218824.0       215857.0
       209773.0       205347.0       201796.0       195432.0       191609.0
       186268.0       181364.0       176503.0       170799.0       166498.0
       160288.0       155205.0       150454.0       144455.0       138933.0
       133215.0       128035.0       121619.0       116457.0       110748.0
       103493.0       99077.00       92049.00       85629.00       80549.00
       73339.00       67126.00       60869.00       54416.00       46921.00
       41206.00       35384.00       27099.00       21614.00       14405.00
       6975.000       1108.000      -6257.000      -12969.00      -20263.00
      -26283.00      -33895.00      -41250.00      -46520.00      -55058.00
      -61867.00      -68504.00      -76767.00      -83170.00      -89995.00
      -96767.00      -104664.0      -111515.0      -118302.0      -126627.0
      -132454.0      -139966.0      -146983.0      -153718.0      -161536.0
      -167806.0      -175473.0      -182160.0      -188983.0      -196147.0
      -202820.0      -210778.0      -216688.0      -224131.0      -231243.0
      -237546.0      -245722.0      -251264.0      -258955.0      -266123.0
      -272038.0      -279726.0      -286160.0      -293674.0      -300194.0
      -307349.0      -314329.0      -320099.0      -328616.0      -334302.0
      -340894.0      -349052.0      -354918.0      -361954.0      -368685.0
      -375998.0      -382024.0      -389310.0      -396808.0      -401865.0
      -410157.0      -416831.0      -423199.0      -431076.0      -437204.0
      -444335.0      -450420.0      -458092.0      -464804.0      -470720.0
      -479399.0      -484734.0      -492151.0      -499340.0      -505037.0
      -513379.0      -519817.0      -526960.0      -533566.0      -540677.0
      -548443.0      -554235.0      -562179.0      -568639.0      -575804.0
      -583358.0      -588939.0      -597108.0      -603626.0      -610722.0
      -617903.0      -623980.0      -631411.0      -637847.0      -645190.0
      -651544.0      -658700.0      -666376.0      -671695.0      -679728.0
      -686334.0      -692502.0      -700330.0      -706289.0      -713216.0
      -719971.0      -727346.0      -733218.0      -739784.0      -747936.0
      -752532.0      -759976.0      -767031.0      -772089.0      -779849.0
      -785977.0      -791995.0      -798178.0      -805063.0      -811159.0
      -816431.0      -824263.0      -829065.0      -835052.0      -842098.0
      -846919.0      -853579.0      -859262.0      -865013.0      -870516.0
      -876267.0      -882493.0      -886917.0      -893709.0      -898904.0
      -903770.0      -910103.0      -914538.0      -920765.0      -925479.0
      -930892.0      -936686.0      -941060.0      -946861.0      -951163.0
      -956894.0      -961867.0      -966184.0      -971817.0      -975254.0
      -981171.0      -985858.0      -989367.0      -995250.0      -999075.0
      -1003548.      -1007671.      -1012503.      -1016609.      -1019973.
      -1025554.      -1028174.      -1032670.      -1037567.      -1039776.
      -1044641.      -1048475.      -1052114.      -1055416.      -1059063.
      -1063425.      -1065694.      -1070402.      -1073099.      -1075897.
      -1080577.      -1082376.      -1085709.      -1088989.      -1091976.
      -1094545.      -1096917.      -1100792.      -1102783.      -1105884.
      -1108330.      -1110344.      -1113620.      -1114858.      -1118021.
      -1120063.      -1122128.      -1124796.      -1125378.      -1128147.
      -1129676.      -1131172.      -1133168.      -1134236.      -1136380.
      -1136744.      -1138773.      -1140064.      -1140197.      -1142674.
      -1142491.      -1143357.      -1144691.      -1145435.      -1146004.
      -1146008.      -1147638.      -1146738.      -1147079.      -1147948.
      -1146758.      -1147968.      -1147506.      -1146740.      -1146508.
      -1146002.      -1145869.      -1144099.      -1144428.      -1143257.
      -1141941.      -1141954.      -1139801.      -1139594.      -1138360.
      -1136788.      -1135612.      -1133399.      -1133021.      -1130719.
      -1129025.      -1127591.      -1124980.      -1123592.      -1120579.
      -1119312.      -1116804.      -1113898.      -1112557.      -1108775.
      -1106913.      -1104423.      -1101000.      -1098859.      -1095905.
      -1093140.      -1089190.      -1086875.      -1083882.      -1079487.
      -1077497.      -1073005.      -1069428.      -1066103.      -1061583.
      -1058477.      -1054488.      -1050989.      -1046138.      -1042076.
      -1038612.      -1033049.      -1029565.      -1024751.      -1019530.
      -1015290.      -1009667.      -1005177.      -999855.0      -994994.0
      -989610.0      -983852.0      -978930.0      -972832.0      -967685.0
      -961590.0      -956409.0      -950560.0      -942915.0      -938651.0
      -932001.0      -925304.0      -919992.0      -912445.0      -906261.0
      -899463.0      -893183.0      -885667.0      -878945.0      -873186.0
      -864089.0      -858145.0      -851158.0      -842911.0      -836812.0
      -828263.0      -820950.0      -813356.0      -805625.0      -798079.0
      -789352.0      -782815.0      -774065.0      -766080.0      -758481.0
      -749675.0      -742321.0      -733140.0      -725550.0      -717377.0
      -708366.0      -701154.0      -692097.0      -683997.0      -675832.0
      -667191.0      -658420.0      -649574.0      -642192.0      -631937.0
      -623947.0      -615751.0      -605121.0      -597566.0      -587793.0
      -578588.0      -570135.0      -560412.0      -551287.0      -541447.0
      -533169.0      -522871.0      -513338.0      -505111.0      -494033.0
      -485328.0      -475057.0      -465087.0      -456192.0      -445521.0
      -436399.0      -425645.0      -415630.0      -405844.0      -395064.0
      -385354.0      -374364.0      -364806.0      -353917.0      -343025.0
      -333814.0      -321958.0      -312178.0      -301718.0      -290396.0
      -280449.0      -269393.0      -258578.0      -247682.0      -237630.0
      -226061.0      -214886.0      -205653.0      -193218.0      -182447.0
      -172271.0      -160447.0      -149961.0      -138441.0      -127512.0
      -115945.0      -105353.0      -94305.00      -81889.00      -71733.00
      -59869.00      -48805.00      -37674.00      -25631.00      -15155.00
      -2541.000       8407.000       19380.00       31550.00       42072.00
       54244.00       65424.00       77063.00       88099.00       99630.00
       111994.0       121505.0       134491.0       146375.0       156533.0
       169039.0       179428.0       190938.0       202623.0       214153.0
       225402.0       236011.0       248985.0       258854.0       270082.0
       282495.0       292366.0       304364.0       315167.0       325972.0
       337343.0       348329.0       359653.0       370016.0       381840.0
       392322.0       403044.0       414697.0       424728.0       436636.0
       446477.0       457541.0       469475.0       479288.0       491143.0
       501655.0       512588.0       523233.0       533782.0       544843.0
       554473.0       567030.0       577202.0       587230.0       599647.0
       608941.0       620590.0       631579.0       641803.0       653268.0
       663943.0       675303.0       685352.0       697474.0       708692.0
       718287.0       730810.0       741172.0       752238.0       763962.0
       774407.0       786321.0       796989.0       808096.0       818999.0
       830697.0       842195.0       852720.0       864818.0       875062.0
       886509.0       897853.0       908355.0       920875.0       931014.0
       942074.0       953859.0       964440.0       975855.0       986561.0
       998054.0       1008074.       1019426.       1030730.       1039910.
       1052373.       1062785.       1072720.       1084383.       1094623.
       1105010.       1115338.       1126654.       1136346.       1146708.
       1158263.       1166502.       1177440.       1187997.       1197085.
       1207659.       1217222.       1227452.       1236663.       1246640.
       1256471.       1265215.       1275520.       1283859.       1293296.
       1303051.       1311671.       1321409.       1329559.       1339038.
       1347541.       1355908.       1365262.       1373241.       1382438.
       1390353.       1399034.       1407265.       1414696.       1424355.
       1431178.       1439469.       1448423.       1454749.       1463324.
       1471042.       1478761.       1485749.       1493134.       1500913.
       1506930.       1515698.       1522068.       1528280.       1536551.
       1542350.       1549265.       1556004.       1562788.       1568935.
       1574751.       1581846.       1586891.       1593963.       1599814.
       1604852.       1611863.       1616651.       1622759.       1627786.
       1633231.       1639473.       1643324.       1649117.       1653799.
       1658656.       1663660.       1667715.       1673325.       1676452.
       1681235.       1685584.       1688619.       1694007.       1697112.
       1700732.       1704519.       1707835.       1711124.       1713874.
       1718106.       1719699.       1722779.       1726397.       1727056.
       1730865.       1733161.       1734881.       1737170.       1738829.
       1740791.       1741428.       1743898.       1744818.       1745715.
       1747406.       1746689.       1748386.       1749119.       1749208.
       1750016.       1749260.       1750180.       1749480.       1749511.
       1749783.       1748727.       1748599.       1746861.       1746762.
       1745268.       1743764.       1744072.       1741167.       1740208.
       1739009.       1736269.       1734803.       1732819.       1731040.
       1727445.       1726153.       1723834.       1719734.       1719149.
       1715403.       1712141.       1710282.       1706754.       1703774.
       1700316.       1697871.       1693643.       1689860.       1687361.
       1682088.       1678975.       1674972.       1670646.       1666945.
       1661542.       1657630.       1652488.       1648309.       1643887.
       1638385.       1634383.       1628680.       1623564.       1617909.
       1612875.       1608474.       1601465.       1596644.       1590501.
       1584190.       1579130.       1572390.       1566260.       1559410.
       1553612.       1546320.       1539160.       1533952.       1525531.
       1518883.       1512066.       1503984.       1497612.       1489669.
       1482442.       1474175.       1466609.       1458821.       1449578.
       1443233.       1434179.       1425401.       1417902.       1408196.
       1400019.       1391110.       1382506.       1373532.       1364042.
       1355932.       1345512.       1336791.       1327786.       1317855.
       1308848.       1298354.       1289421.       1279415.       1269581.
       1260277.       1249554.       1240236.       1229929.       1220061.
       1210182.       1199913.       1190345.       1178554.       1169023.
       1158626.       1147364.       1138100.       1126831.       1116278.
       1105609.       1095532.       1084504.       1073192.       1064116.
       1051883.       1041435.       1031325.       1018632.       1008638.
       997594.0       986603.0       975250.0       964046.0       953221.0
       940673.0       930819.0       918856.0       906537.0       896322.0
       883759.0       872392.0       860730.0       848901.0       837144.0
       824797.0       813599.0       800704.0       789009.0       777051.0
       764534.0       752885.0       740022.0       728300.0       715360.0
       702897.0       691012.0       677800.0       665814.0       652901.0
       640769.0       628009.0       614889.0       603648.0       589503.0
       577296.0       564643.0       550846.0       539639.0       526076.0
       513054.0       500043.0       487436.0       474642.0       460629.0
       449192.0       435141.0       421882.0       410359.0       395642.0
       383546.0       370886.0       357097.0       344124.0       331426.0
       318882.0       304219.0       292308.0       279490.0       265573.0
       253717.0       239496.0       226832.0       214587.0       201358.0
       188601.0       175155.0       162951.0       149404.0       136779.0
       124215.0       111026.0       99221.00       85379.00       73280.00
       60785.00       47772.00       36114.00       22853.00       11144.00
      -1846.000      -14558.00      -26064.00      -39018.00      -50277.00
      -63709.00      -75432.00      -86722.00      -100571.0      -111423.0
      -123731.0      -136013.0      -147710.0      -159855.0      -171619.0
      -184411.0      -194877.0      -207494.0      -220227.0      -230147.0
      -243444.0      -255123.0      -266036.0      -277914.0      -289904.0
      -301713.0      -312540.0      -325481.0      -335477.0      -346902.0
      -359985.0      -369269.0      -381507.0      -393332.0      -403867.0
      -415027.0      -425997.0      -437950.0      -447516.0      -459131.0
      -470460.0      -480476.0      -492534.0      -502437.0      -513294.0
      -523968.0      -534828.0      -545811.0      -554917.0      -565950.0
      -576204.0      -586848.0      -597057.0      -606359.0      -617719.0
      -626722.0      -637140.0      -646978.0      -655939.0      -667146.0
      -675568.0      -685334.0      -695171.0      -704512.0      -714013.0
      -722479.0      -732899.0      -740991.0      -749995.0      -759973.0
      -767697.0      -777880.0      -786479.0      -794677.0      -803394.0
      -812271.0      -821486.0      -828939.0      -838892.0      -846644.0
      -854019.0      -864073.0      -871175.0      -879475.0      -888093.0
      -895344.0      -903658.0      -912072.0      -920516.0      -927203.0
      -935866.0      -944384.0      -951004.0      -959485.0      -966392.0
      -974186.0      -982306.0      -989715.0      -997149.0      -1003798.
      -1012468.      -1019088.      -1026129.      -1034473.      -1040111.
      -1048032.      -1054773.      -1061195.      -1068656.      -1075077.
      -1082353.      -1088238.      -1095412.      -1101839.      -1107514.
      -1114577.      -1120157.      -1126686.      -1132224.      -1137834.
      -1144646.      -1149435.      -1155452.      -1160703.      -1166094.
      -1171741.      -1176292.      -1182510.      -1186774.      -1192011.
      -1197517.      -1201062.      -1206888.      -1211726.      -1216014.
      -1220799.      -1225463.      -1230102.      -1233407.      -1238706.
      -1242551.      -1246428.      -1251747.      -1254556.      -1258945.
      -1263280.      -1266865.      -1270459.      -1274658.      -1278705.
      -1280960.      -1285808.      -1289020.      -1291620.      -1296379.
      -1298375.      -1301615.      -1304989.      -1308012.      -1310377.
      -1312730.      -1317038.      -1317783.      -1320383.      -1323611.
