     0.02500000      -12345.00      -12345.00   1.983070e+09      -12345.00
   0.0005380000       1859.976      -347.0196      -12345.00      -12345.00
      -12345.00      -12345.00      -12345.00      -12345.00      -12345.00
      -12345.00      -12345.00      -12345.00      -12345.00      -12345.00
      -12345.00      -12345.00      -12345.00      -12345.00      -12345.00
      -12345.00      -12345.00      -12345.00      -12345.00      -12345.00
      -12345.00      -8.525900       179.1966       20.00000       0.000000
      -42.72450       173.0647      -12345.00       22.00000      -12345.00
      -12345.00      -12345.00      -12345.00      -12345.00      -12345.00
      -12345.00      -12345.00      -12345.00      -12345.00      -12345.00
       3834.646       10.75394       187.9908       34.48733      -12345.00
      -12345.00      -12345.00       0.000000       0.000000      -12345.00
      -12345.00      -12345.00      -12345.00      -12345.00      -12345.00
      -12345.00      -12345.00      -12345.00      -12345.00      -12345.00
      2016       318        11         8        46
        19         6    -12345    -12345     74400
    -12345    -12345    -12345    -12345    -12345
         1    -12345    -12345    -12345    -12345
    -12345    -12345    -12345    -12345    -12345
    -12345    -12345    -12345    -12345    -12345
    -12345    -12345    -12345    -12345    -12345
         1    -12345    -12345    -12345    -12345
FUNA    South Island, Ne
10      -12345  -12345  
-12345  -12345  -12345  
-12345  -12345  -12345  
-12345  -12345  -12345  
-12345  -12345  -12345  
-12345  -12345  BHZ     
IU      -12345  Trillium
[...]
       67081.00       70006.00       74956.00       76009.00       80114.00
       83735.00       85980.00       89607.00       92336.00       95956.00
       98008.00       102167.0       105127.0       107105.0       111980.0
       113561.0       116627.0       120650.0       122890.0       126559.0
       129043.0       132672.0       135228.0       138305.0       142079.0
       143873.0       148230.0       150619.0       153397.0       157018.0
       159229.0       163056.0       165199.0       168179.0       171137.0
       173615.0       177028.0       178848.0       182892.0       185070.0
       187409.0       191083.0       192531.0       196566.0       199199.0
       201447.0       204655.0       207139.0       210134.0       212190.0
       216135.0       218392.0       220269.0       224804.0       226039.0
       229350.0       232460.0       234585.0       237822.0       239754.0
       243487.0       244946.0       248458.0       252196.0       252761.0
       256884.0       259039.0       261195.0       264968.0       266985.0
       270011.0       272050.0       275435.0       277175.0       279497.0
       283761.0       284438.0       287675.0       290083.0       292106.0
       295021.0       296593.0       300024.0       301214.0       303743.0
       306270.0       307141.0       310847.0       311726.0       314013.0
       316100.0       317063.0       320244.0       320867.0       323170.0
       324934.0       326211.0       328534.0       329470.0       331767.0
       332427.0       334233.0       336478.0       336542.0       339111.0
       339694.0       340667.0       342482.0       343603.0       345099.0
       345290.0       347386.0       347484.0       348566.0       350664.0
       349815.0       351876.0       352767.0       352676.0       353762.0
       354559.0       356150.0       355272.0       357233.0       357802.0
       356961.0       359649.0       358358.0       359355.0       360460.0
       359630.0       360962.0       360939.0       362094.0       361773.0
       361911.0       362958.0       361682.0       363064.0       362672.0
       362312.0       362903.0       362218.0       362238.0       361142.0
       361954.0       360852.0       360097.0       360841.0       358613.0
       359084.0       358023.0       356679.0       357168.0       354985.0
       355049.0       353356.0       352389.0       351876.0       349627.0
       349652.0       347390.0       347075.0       345223.0       343284.0
       343465.0       339927.0       339827.0       338282.0       335480.0
       335155.0       332332.0       331457.0       328825.0       327182.0
       326295.0       322182.0       321568.0       319654.0       316677.0
       314986.0       312695.0       310107.0       307327.0       305877.0
       302677.0       300175.0       298981.0       294526.0       292200.0
       290411.0       286991.0       283790.0       281294.0       278465.0
       274267.0       272421.0       268677.0       265797.0       263167.0
       258100.0       256515.0       252384.0       248996.0       246822.0
       241107.0       239442.0       235425.0       230910.0       228453.0
       223566.0       220688.0       216116.0       212331.0       208841.0
       203699.0       200526.0       196242.0       191825.0       187363.0
       183168.0       179133.0       173725.0       170581.0       165026.0
       160045.0       156772.0       150312.0       146487.0       141703.0
       136138.0       131495.0       126433.0       121252.0       115192.0
       111696.0       105836.0       99716.00       95932.00       89044.00
       84301.00       79126.00       73282.00       68017.00       62218.00
       57746.00       50661.00       46177.00       41244.00       33875.00
       29606.00       23193.00       17060.00       12211.00       6517.000
       992.0000      -5703.000      -10314.00      -16825.00      -22944.00
      -27288.00      -34265.00      -39035.00      -45229.00      -51133.00
      -56273.00      -62758.00      -67618.00      -73790.00      -79056.00
      -85102.00      -91304.00      -95649.00      -102731.0      -107516.0
      -113527.0      -119761.0      -124061.0      -131348.0      -135968.0
      -141764.0      -147762.0      -153039.0      -159615.0      -164337.0
      -171024.0      -175872.0      -181409.0      -188500.0      -192182.0
      -199180.0      -204985.0      -209947.0      -216087.0      -221533.0
      -227780.0      -232339.0      -239482.0      -244520.0      -249293.0
      -256908.0      -261289.0      -267750.0      -273737.0      -278957.0
      -285058.0      -289978.0      -297253.0      -301577.0      -307933.0
      -314769.0      -318606.0      -326314.0      -330925.0      -336788.0
      -343836.0      -348813.0      -355316.0      -360441.0      -367459.0
      -373096.0      -378398.0      -385621.0      -390262.0      -397525.0
      -402905.0      -408223.0      -415556.0      -420473.0      -427356.0
      -432659.0      -438554.0      -444786.0      -450271.0      -456972.0
      -461903.0      -469029.0      -474734.0      -479668.0      -487249.0
      -491895.0      -498364.0      -504588.0      -509792.0      -516186.0
      -521930.0      -528570.0      -532996.0      -540095.0      -546176.0
      -550127.0      -557998.0      -562649.0      -568122.0      -575062.0
      -579818.0      -585652.0      -591026.0      -597564.0      -602061.0
      -607823.0      -614567.0      -618002.0      -624914.0      -630092.0
      -634820.0      -641143.0      -645783.0      -651365.0      -656007.0
      -661980.0      -666812.0      -671290.0      -678063.0      -681531.0
      -687270.0      -692451.0      -696701.0      -702730.0      -706510.0
      -712503.0      -716880.0      -721634.0      -726841.0      -730681.0
      -736848.0      -740463.0      -745391.0      -750218.0      -753640.0
      -759960.0      -763097.0      -767714.0      -772882.0      -776345.0
      -781126.0      -784790.0      -790062.0      -793104.0      -797491.0
      -802478.0      -804644.0      -810481.0      -813779.0      -816794.0
      -822044.0      -825160.0      -829296.0      -832247.0      -836810.0
      -840337.0      -843198.0      -848325.0      -850007.0      -854535.0
      -858311.0      -860267.0      -864602.0      -867536.0      -870975.0
      -873398.0      -876887.0      -880520.0      -882653.0      -886697.0
      -888522.0      -891888.0      -894881.0      -896647.0      -900713.0
      -902353.0      -905748.0      -907830.0      -909556.0      -913084.0
      -914308.0      -917280.0      -919113.0      -921186.0      -923708.0
      -924585.0      -927921.0      -928699.0      -930687.0      -933251.0
      -933388.0      -936008.0      -937322.0      -939179.0      -940009.0
      -941501.0      -943539.0      -943002.0      -945454.0      -945962.0
      -946375.0      -948683.0      -948239.0      -949211.0      -949628.0
      -950544.0      -950770.0      -950507.0      -952240.0      -951078.0
      -952110.0      -952335.0      -951530.0      -952946.0      -952001.0
      -952258.0      -951698.0      -951367.0      -951949.0      -950357.0
      -950915.0      -949726.0      -949116.0      -948745.0      -947035.0
      -947675.0      -945474.0      -945075.0      -944327.0      -942088.0
      -942296.0      -940211.0      -939069.0      -938115.0      -936578.0
      -935165.0      -932774.0      -932617.0      -929938.0      -928173.0
      -927395.0      -923924.0      -922991.0      -920317.0      -918128.0
      -916520.0      -914104.0      -912196.0      -908669.0      -907352.0
      -904499.0      -901113.0      -899821.0      -895725.0      -893255.0
      -890333.0      -886676.0      -884199.0      -880517.0      -877789.0
      -873723.0      -870605.0      -867085.0      -863085.0      -860069.0
      -855588.0      -852956.0      -847942.0      -843420.0      -841255.0
      -835498.0      -832168.0      -827909.0      -822745.0      -818913.0
      -813966.0      -810022.0      -804100.0      -800715.0      -795721.0
      -789261.0      -786440.0      -780086.0      -775312.0      -770831.0
      -764280.0      -759911.0      -753964.0      -749085.0      -742991.0
      -737439.0      -732932.0      -725743.0      -721272.0      -714887.0
      -709084.0      -703789.0      -696800.0      -692157.0      -685353.0
      -679598.0      -674190.0      -667343.0      -662136.0      -655594.0
      -649696.0      -642854.0      -637098.0      -631392.0      -623281.0
      -618890.0      -611316.0      -604216.0      -598999.0      -590839.0
      -585127.0      -578200.0      -571204.0      -564270.0      -557206.0
      -551268.0      -542591.0      -536948.0      -529810.0      -521503.0
      -515733.0      -506906.0      -500567.0      -493219.0      -485366.0
      -478588.0      -469934.0      -463197.0      -454974.0      -447335.0
      -439799.0      -431264.0      -424586.0      -415272.0      -408048.0
      -400436.0      -391176.0      -384536.0      -375490.0      -367552.0
      -359635.0      -351026.0      -342832.0      -334474.0      -326896.0
      -317148.0      -309696.0      -301998.0      -291652.0      -284631.0
      -275754.0      -266894.0      -258781.0      -249556.0      -241271.0
      -231981.0      -224405.0      -214643.0      -205605.0      -197824.0
      -187812.0      -179974.0      -170392.0      -161480.0      -153003.0
      -142671.0      -134993.0      -125332.0      -116399.0      -107781.0
      -97883.00      -89546.00      -79755.00      -71659.00      -61496.00
      -52621.00      -44897.00      -33334.00      -25472.00      -16389.00
      -6641.000       1284.000       11341.00       20123.00       29860.00
       38154.00       47508.00       57864.00       64746.00       75449.00
       84341.00       92522.00       102733.0       110719.0       120099.0
       129078.0       138243.0       147099.0       155798.0       165680.0
       173402.0       183221.0       192030.0       200483.0       210468.0
       217765.0       228145.0       236911.0       245444.0       255306.0
       263472.0       273131.0       281169.0       290661.0       299175.0
       307599.0       318566.0       325519.0       335416.0       344936.0
       352502.0       363185.0       371187.0       380598.0       389855.0
       398933.0       408280.0       416681.0       427691.0       435693.0
       444708.0       455388.0       463241.0       473647.0       482763.0
       491938.0       502051.0       510736.0       520414.0       529532.0
       540041.0       548889.0       558489.0       568632.0       576870.0
       587526.0       596304.0       606067.0       616515.0       624563.0
       635108.0       644409.0       653871.0       663566.0       672726.0
       682765.0       690970.0       701711.0       710275.0       719002.0
       730207.0       738003.0       747741.0       757488.0       766222.0
       775420.0       784597.0       794525.0       802363.0       812615.0
       821699.0       828914.0       839729.0       847768.0       856472.0
       865712.0       874166.0       883288.0       891224.0       900749.0
       908669.0       917145.0       926189.0       933187.0       942717.0
       950675.0       958881.0       967438.0       974811.0       983781.0
       990776.0       999371.0       1007205.       1014822.       1023367.
       1030154.       1038837.       1045580.       1053373.       1061961.
       1067744.       1076795.       1083769.       1090260.       1098664.
       1105345.       1112980.       1119098.       1126920.       1133456.
       1139873.       1148425.       1153305.       1160793.       1167968.
       1173459.       1180763.       1186931.       1193815.       1199268.
       1205869.       1212271.       1217404.       1225135.       1229650.
       1236008.       1242477.       1247231.       1253847.       1258406.
       1265051.       1270280.       1274862.       1281242.       1285386.
       1291464.       1295923.       1300993.       1306614.       1309854.
       1315989.       1319611.       1324254.       1329693.       1332873.
       1337828.       1341599.       1345923.       1349456.       1353517.
       1358023.       1359897.       1365173.       1367978.       1370289.
       1375450.       1377467.       1380949.       1383689.       1386698.
       1389165.       1391289.       1395063.       1396168.       1399275.
       1401155.       1402020.       1405643.       1406569.       1408639.
       1410179.       1411226.       1413474.       1413709.       1416089.
       1416780.       1417755.       1418801.       1418703.       1420570.
       1419795.       1421186.       1422069.       1420817.       1422492.
       1421772.       1421546.       1421730.       1421579.       1421251.
       1419632.       1421058.       1418986.       1418284.       1419261.
       1416432.       1416589.       1415804.       1414401.       1413421.
       1412138.       1411707.       1408832.       1408388.       1406964.
       1403967.       1403718.       1400911.       1399592.       1397359.
       1394568.       1392979.       1389886.       1388622.       1385516.
       1383111.       1381127.       1377416.       1375195.       1371568.
       1369697.       1366655.       1362449.       1360470.       1355931.
       1353229.       1349873.       1345816.       1342301.       1338003.
       1335021.       1329587.       1326332.       1322812.       1316919.
       1313926.       1308639.       1304214.       1300177.       1294821.
       1290617.       1284706.       1280690.       1274679.       1269336.
       1265635.       1258440.       1253932.       1248329.       1241808.
       1236907.       1230534.       1225290.       1218608.       1212952.
       1207159.       1199669.       1194885.       1187793.       1181616.
       1175186.       1167950.       1162314.       1154806.       1148790.
       1141764.       1134573.       1128434.       1120751.       1114595.
       1107204.       1100496.       1093405.       1084947.       1079210.
       1070789.       1063799.       1057052.       1048706.       1041740.
       1033973.       1027262.       1018561.       1011541.       1004830.
       995306.0       989295.0       980742.0       972047.0       965483.0
       956914.0       949447.0       940735.0       933376.0       924774.0
       916110.0       909568.0       899443.0       891790.0       883952.0
       874381.0       866759.0       857720.0       849448.0       840359.0
       831771.0       823343.0       813476.0       805682.0       796046.0
       787323.0       778491.0       768907.0       760401.0       750304.0
       741751.0       732281.0       722711.0       713844.0       703840.0
       695405.0       684959.0       675981.0       667219.0       656008.0
       647892.0       637166.0       627771.0       619129.0       608246.0
       599006.0       588711.0       579758.0       569214.0       559142.0
       550664.0       538826.0       530230.0       520436.0       509095.0
       500874.0       490067.0       479947.0       469934.0       460622.0
       450209.0       439001.0       430862.0       419633.0       409842.0
       400348.0       388849.0       380140.0       369907.0       359890.0
       349719.0       339534.0       330075.0       319031.0       310050.0
       299439.0       289779.0       280245.0       269103.0       260463.0
       249789.0       240338.0       230723.0       220358.0       211557.0
       200343.0       191459.0       181773.0       171715.0       162909.0
       151601.0       143639.0       133324.0       122907.0       114703.0
       104040.0       95059.00       85189.00       75869.00       66070.00
       56129.00       48173.00       36727.00       28015.00       19467.00
       8100.000      -65.00000      -9572.000      -18992.00      -28995.00
      -37891.00      -47207.00      -57613.00      -64704.00      -75820.00
      -85031.00      -92575.00      -103720.0      -112140.0      -121205.0
      -130063.0      -139573.0      -148845.0      -156374.0      -167133.0
      -175088.0      -184201.0      -193942.0      -201546.0      -211191.0
      -219553.0      -229134.0      -237289.0      -245204.0      -254781.0
      -262736.0      -272252.0      -279782.0      -288338.0      -297698.0
      -304659.0      -314259.0      -321403.0      -330057.0      -338895.0
      -345593.0      -354774.0      -362211.0      -370734.0      -378149.0
      -385788.0      -394707.0      -400750.0      -409678.0      -417158.0
      -424223.0      -433281.0      -439622.0      -447423.0      -454555.0
      -462747.0      -470008.0      -476742.0      -485772.0      -491124.0
      -499010.0      -507185.0      -512818.0      -521062.0      -527682.0
      -534379.0      -541884.0      -549240.0      -556220.0      -562094.0
      -570662.0      -576931.0      -583393.0      -590867.0      -596589.0
      -604343.0      -610914.0      -617773.0      -623946.0      -630436.0
      -638308.0      -643267.0      -650914.0      -657417.0      -662619.0
      -670467.0      -675568.0      -682280.0      -688582.0      -694725.0
      -701131.0      -706419.0      -713614.0      -718541.0      -724576.0
      -730896.0      -735881.0      -742277.0      -746914.0      -753022.0
      -758772.0      -763361.0      -769418.0      -773818.0      -779744.0
      -784396.0      -789305.0      -795250.0      -798876.0      -804872.0
      -809235.0      -813322.0      -819298.0      -823361.0      -828133.0
      -832613.0      -837556.0      -841690.0      -845410.0      -851053.0
      -854141.0      -859218.0      -863705.0      -866756.0      -871938.0
      -875719.0      -879726.0      -883487.0      -888250.0      -891656.0
      -894749.0      -900227.0      -902495.0      -906745.0      -911031.0
      -913127.0      -917558.0      -920698.0      -924377.0      -926610.0
      -930558.0      -934421.0      -935226.0      -939911.0      -942184.0
      -944400.0      -948223.0      -949652.0      -952611.0      -954673.0
      -957379.0      -959520.0      -961213.0      -964652.0      -965165.0
