     0.02500000      -12345.00      -12345.00   3.262830e+10      -12345.00
   0.0005380000       1859.976      -558.0195      -12345.00      -12345.00
      -12345.00      -12345.00      -12345.00      -12345.00      -12345.00
      -12345.00      -12345.00      -12345.00      -12345.00      -12345.00
      -12345.00      -12345.00      -12345.00      -12345.00      -12345.00
      -12345.00      -12345.00      -12345.00      -12345.00      -12345.00
      -12345.00       13.58930       144.8684       170.0000       0.000000
      -42.72450       173.0647      -12345.00       22.00000      -12345.00
      -12345.00      -12345.00      -12345.00      -12345.00      -12345.00
      -12345.00      -12345.00      -12345.00      -12345.00      -12345.00
       6863.465       328.5557       156.7129       61.72736      -12345.00
      -12345.00      -12345.00       0.000000       0.000000      -12345.00
      -12345.00      -12345.00      -12345.00      -12345.00      -12345.00
      -12345.00      -12345.00      -12345.00      -12345.00      -12345.00
      2016       318        11        12        17
        19         6    -12345    -12345     74400
    -12345    -12345    -12345    -12345    -12345
         1    -12345    -12345    -12345    -12345
    -12345    -12345    -12345    -12345    -12345
    -12345    -12345    -12345    -12345    -12345
    -12345    -12345    -12345    -12345    -12345
         1    -12345    -12345    -12345    -12345
GUMO    South Island, Ne
10      -12345  -12345  
-12345  -12345  -12345  
-12345  -12345  -12345  
-12345  -12345  -12345  
-12345  -12345  -12345  
-12345  -12345  BHZ     
IU      -12345  Streckei
[...]
       1659253.       1683319.       1709235.       1737646.       1760496.
       1784917.       1814910.       1839170.       1863051.       1888289.
       1916960.       1943070.       1965137.       1999122.       2026882.
       2045071.       2072567.       2094636.       2114396.       2147993.
       2172817.       2193458.       2224079.       2244186.       2266169.
       2296528.       2319180.       2338727.       2364224.       2387727.
       2404438.       2426430.       2448873.       2468155.       2491655.
       2517019.       2539100.       2557385.       2575417.       2601518.
       2624176.       2638350.       2661844.       2684745.       2702639.
       2727783.       2749561.       2767320.       2790353.       2807683.
       2825983.       2847517.       2866274.       2883938.       2898780.
       2921070.       2941794.       2955859.       2972594.       2989737.
       3006833.       3027822.       3045847.       3053947.       3071164.
       3090896.       3100386.       3117319.       3132210.       3145434.
       3164632.       3174470.       3181764.       3198486.       3216511.
       3225205.       3234622.       3246760.       3255808.       3269047.
       3279217.       3287948.       3299511.       3309582.       3324365.
       3328578.       3328800.       3345372.       3348645.       3345686.
       3359115.       3368524.       3372031.       3377380.       3386316.
       3394215.       3395711.       3400071.       3413706.       3423548.
       3420420.       3419928.       3430226.       3443907.       3448231.
       3447200.       3456460.       3459600.       3454559.       3459514.
       3460925.       3458992.       3458095.       3460828.       3469720.
       3464120.       3463415.       3470781.       3468925.       3466706.
       3465890.       3468465.       3465752.       3459619.       3458467.
       3460973.       3453563.       3445803.       3450180.       3441309.
       3430581.       3424537.       3410830.       3409534.       3409634.
       3391690.       3382363.       3384042.       3374725.       3364222.
       3356817.       3348245.       3341833.       3332186.       3324619.
       3317172.       3304087.       3298828.       3295369.       3285524.
       3272603.       3256396.       3251370.       3250829.       3234879.
       3222062.       3219853.       3211739.       3197718.       3182762.
       3172526.       3167196.       3153024.       3134183.       3120422.
       3105165.       3093317.       3074853.       3049503.       3038254.
       3024108.       3002250.       2982595.       2963644.       2949371.
       2933135.       2917567.       2903488.       2883471.       2864081.
       2843190.       2818792.       2802796.       2791064.       2769395.
       2744840.       2725325.       2707406.       2683496.       2657504.
       2643457.       2625980.       2598607.       2579301.       2557493.
       2530532.       2508605.       2483300.       2457239.       2436812.
       2416763.       2389816.       2363151.       2341887.       2316932.
       2289100.       2265576.       2242448.       2213045.       2185837.
       2161920.       2136457.       2115397.       2085925.       2052411.
       2028349.       1999364.       1977660.       1952768.       1918572.
       1891938.       1861517.       1833582.       1806048.       1777564.
       1746345.       1716592.       1690252.       1647716.       1610593.
       1587062.       1553507.       1515130.       1482823.       1447009.
       1409434.       1376793.       1340133.       1306760.       1279929.
       1248631.       1212052.       1174246.       1141334.       1106997.
       1072966.       1043137.       1001371.       960701.0       929103.0
       893112.0       860420.0       827723.0       792882.0       759744.0
       721411.0       686725.0       655034.0       614674.0       572729.0
       534154.0       498065.0       467160.0       427940.0       377637.0
       341351.0       312998.0       274904.0       231871.0       194663.0
       158916.0       116506.0       77597.00       36669.00      -319.0000
      -34521.00      -81161.00      -126222.0      -161763.0      -193862.0
      -240518.0      -290240.0      -333554.0      -376825.0      -413586.0
      -459842.0      -503076.0      -536137.0      -580791.0      -626296.0
      -656746.0      -693032.0      -740974.0      -776001.0      -809068.0
      -848675.0      -885081.0      -921481.0      -958374.0      -997036.0
      -1029195.      -1059377.      -1099961.      -1135804.      -1168944.
      -1202075.      -1231692.      -1268238.      -1306256.      -1337956.
      -1370524.      -1402879.      -1433589.      -1471342.      -1512084.
      -1549183.      -1578283.      -1613563.      -1652013.      -1676400.
      -1704920.      -1739184.      -1776247.      -1809768.      -1838475.
      -1876796.      -1912037.      -1945430.      -1980034.      -2012236.
      -2048847.      -2085322.      -2119762.      -2151378.      -2188306.
      -2223268.      -2249961.      -2289137.      -2323212.      -2350159.
      -2388076.      -2418230.      -2452844.      -2492325.      -2518341.
      -2552983.      -2585715.      -2610827.      -2648447.      -2682683.
      -2708868.      -2736859.      -2769747.      -2804503.      -2831304.
      -2859809.      -2895770.      -2928601.      -2954848.      -2980620.
      -3014304.      -3043674.      -3068271.      -3096813.      -3123865.
      -3155224.      -3188255.      -3215544.      -3239490.      -3269215.
      -3301921.      -3326742.      -3347270.      -3370939.      -3397487.
      -3420680.      -3445093.      -3466594.      -3484812.      -3516661.
      -3541535.      -3554813.      -3583608.      -3605143.      -3616306.
      -3639300.      -3664747.      -3689811.      -3706334.      -3724019.
      -3752332.      -3767595.      -3783082.      -3806195.      -3823453.
      -3844264.      -3862826.      -3883347.      -3909804.      -3926635.
      -3949175.      -3977911.      -3996570.      -4018400.      -4045077.
      -4069551.      -4093137.      -4116156.      -4140693.      -4165162.
      -4187363.      -4206727.      -4230092.      -4258202.      -4278352.
      -4298547.      -4322703.      -4342750.      -4360201.      -4382685.
      -4408131.      -4419029.      -4430692.      -4449286.      -4466480.
      -4486586.      -4497295.      -4518351.      -4545136.      -4549131.
      -4565268.      -4585378.      -4592741.      -4618190.      -4633399.
      -4641396.      -4664010.      -4673155.      -4688978.      -4705899.
      -4716282.      -4737326.      -4742731.      -4754983.      -4774056.
      -4778961.      -4792425.      -4800702.      -4808084.      -4821687.
      -4829414.      -4844507.      -4854140.      -4860461.      -4880476.
      -4886281.      -4888895.      -4900075.      -4907992.      -4924492.
      -4932230.      -4939468.      -4954630.      -4957896.      -4961663.
      -4969650.      -4976655.      -4984987.      -4994902.      -5001824.
      -5010380.      -5020535.      -5024670.      -5032125.      -5035772.
      -5036838.      -5041845.      -5045404.      -5046324.      -5047311.
      -5054633.      -5050328.      -5049675.      -5057231.      -5046587.
      -5045055.      -5048429.      -5041493.      -5042731.      -5037546.
      -5030373.      -5036885.      -5034942.      -5024619.      -5018864.
      -5018220.      -5017451.      -5009317.      -5006174.      -5003771.
      -4996319.      -4991853.      -4984185.      -4981196.      -4976700.
      -4964380.      -4962016.      -4957115.      -4945990.      -4941204.
      -4932755.      -4924727.      -4917024.      -4901555.      -4893633.
      -4884660.      -4871805.      -4864674.      -4847113.      -4835021.
      -4825676.      -4807459.      -4799491.      -4784118.      -4763953.
      -4751414.      -4730110.      -4708977.      -4694872.      -4674719.
      -4654670.      -4639878.      -4621315.      -4603451.      -4583657.
      -4561488.      -4541396.      -4522772.      -4507690.      -4482887.
      -4459771.      -4444348.      -4416892.      -4392799.      -4369878.
      -4340657.      -4317500.      -4289943.      -4261961.      -4238024.
      -4209437.      -4182187.      -4156784.      -4128760.      -4100594.
      -4072002.      -4042491.      -4015365.      -3983746.      -3955656.
      -3935377.      -3903346.      -3871682.      -3844399.      -3809802.
      -3776039.      -3745347.      -3717818.      -3687277.      -3655915.
      -3627117.      -3593641.      -3562688.      -3537965.      -3507528.
      -3471152.      -3442939.      -3411879.      -3373950.      -3341078.
      -3304778.      -3271377.      -3241352.      -3200368.      -3165923.
      -3134405.      -3086150.      -3047680.      -3017295.      -2972869.
      -2935034.      -2901629.      -2856238.      -2818814.      -2782967.
      -2736450.      -2697736.      -2657824.      -2614432.      -2577058.
      -2539019.      -2495763.      -2448728.      -2412666.      -2379002.
      -2333992.      -2295653.      -2256801.      -2209572.      -2170580.
      -2130322.      -2084992.      -2045347.      -2004795.      -1964101.
      -1924407.      -1879171.      -1837259.      -1795351.      -1746955.
      -1702453.      -1659276.      -1610607.      -1565446.      -1521658.
      -1466166.      -1422825.      -1380207.      -1327076.      -1289597.
      -1237839.      -1192162.      -1152396.      -1097588.      -1061093.
      -1009391.      -958309.0      -918471.0      -864601.0      -819550.0
      -771939.0      -723457.0      -674494.0      -625339.0      -579564.0
      -526000.0      -477307.0      -426547.0      -373118.0      -330550.0
      -283873.0      -219641.0      -164589.0      -126604.0      -70255.00
      -14540.00       31173.00       92509.00       145412.0       187950.0
       246430.0       305952.0       353376.0       405839.0       457838.0
       510478.0       570534.0       616101.0       666896.0       731264.0
       776802.0       824316.0       880374.0       928317.0       982734.0
       1033644.       1078158.       1126809.       1179657.       1229188.
       1269353.       1316853.       1369353.       1418595.       1468443.
       1516083.       1559803.       1605493.       1664320.       1714749.
       1751630.       1806081.       1856957.       1898519.       1951907.
       1998439.       2047307.       2102045.       2146941.       2198613.
       2251758.       2294192.       2343862.       2397417.       2440462.
       2492651.       2545369.       2593912.       2646612.       2692907.
       2743020.       2791594.       2844511.       2892959.       2937683.
       2994781.       3046098.       3091557.       3136112.       3188165.
       3234196.       3276981.       3328397.       3368664.       3409518.
       3456368.       3501025.       3539966.       3580109.       3631173.
       3671088.       3701791.       3741916.       3780603.       3816567.
       3859785.       3900457.       3935873.       3979131.       4012986.
       4043039.       4087927.       4121532.       4157391.       4198403.
       4229204.       4265183.       4297708.       4331892.       4368763.
       4399999.       4438097.       4474735.       4506778.       4539084.
       4571834.       4613151.       4644395.       4672839.       4714695.
       4741943.       4769994.       4810682.       4841675.       4873193.
       4902197.       4929247.       4965311.       4990805.       5016282.
       5049830.       5071510.       5098823.       5133589.       5157516.
       5182213.       5208796.       5235627.       5261327.       5279762.
       5303115.       5327228.       5347298.       5367751.       5388164.
       5415066.       5434004.       5447487.       5471038.       5491351.
       5511357.       5529363.       5542339.       5561720.       5579495.
       5593464.       5609588.       5627265.       5642260.       5659276.
       5679933.       5694502.       5708839.       5725533.       5742766.
       5762609.       5780036.       5794804.       5812614.       5831329.
       5843074.       5856292.       5878176.       5890611.       5901272.
       5921023.       5932747.       5945867.       5960224.       5971085.
       5986056.       5995530.       6005062.       6018542.       6029300.
       6038958.       6048953.       6059037.       6063655.       6063198.
       6068971.       6076316.       6077027.       6076533.       6076557.
       6078634.       6079429.       6081549.       6084708.       6081916.
       6080193.       6080612.       6085535.       6089310.       6083176.
       6078057.       6079812.       6078976.       6072986.       6072481.
       6064868.       6055470.       6058908.       6052201.       6043863.
       6040376.       6028696.       6021798.       6017676.       6006181.
       5997231.       5992997.       5982757.       5971843.       5967177.
       5957889.       5940190.       5931358.       5927134.       5907279.
       5895067.       5887363.       5865647.       5854759.       5845661.
       5829804.       5816998.       5804462.       5790913.       5772259.
       5759215.       5748610.       5728336.       5711565.       5695179.
       5673468.       5664111.       5649755.       5624446.       5607516.
       5593581.       5586663.       5566973.       5543949.       5536506.
       5515454.       5494299.       5484588.       5470422.       5448341.
       5433672.       5417175.       5393178.       5381938.       5357799.
       5333056.       5325133.       5298581.       5267827.       5251102.
       5226890.       5202223.       5178308.       5149592.       5129550.
       5100100.       5068126.       5045594.       5012665.       4980313.
       4951820.       4917694.       4886836.       4854691.       4819544.
       4790817.       4759697.       4724185.       4690482.       4659710.
       4624444.       4595211.       4567463.       4522807.       4495172.
       4459365.       4422976.       4400771.       4353888.       4325035.
       4294266.       4255167.       4223401.       4191265.       4166742.
       4116158.       4078127.       4061059.       4022693.       3981265.
       3948566.       3920337.       3886023.       3848085.       3820663.
       3790282.       3753239.       3722449.       3688136.       3654495.
       3626781.       3593199.       3559984.       3527411.       3490406.
       3455289.       3420860.       3384557.       3351376.       3314116.
       3278614.       3245401.       3197015.       3160128.       3129862.
       3086458.       3049517.       3012605.       2972691.       2934965.
       2890502.       2853602.       2821035.       2770287.       2733610.
       2699386.       2650087.       2612048.       2570921.       2531711.
       2483859.       2433938.       2401204.       2355668.       2311399.
       2272532.       2233114.       2196279.       2152155.       2117508.
       2078462.       2034653.       2000553.       1951522.       1909684.
       1876055.       1823300.       1786261.       1752216.       1703196.
       1666968.       1626114.       1576614.       1535530.       1494538.
       1449281.       1405984.       1365893.       1319654.       1269977.
       1227488.       1186560.       1149147.       1101190.       1045718.
       1015008.       976669.0       919252.0       877782.0       834770.0
       788477.0       752103.0       699931.0       650122.0       611354.0
       563384.0       521950.0       474840.0       426155.0       389096.0
       341050.0       293832.0       251795.0       204376.0       163091.0
       118891.0       73580.00       35258.00      -8360.000      -51655.00
      -94188.00      -133998.0      -169654.0      -216359.0      -262047.0
      -298563.0      -341611.0      -386477.0      -424660.0      -465147.0
      -512005.0      -549717.0      -590018.0      -639324.0      -674102.0
      -719615.0      -767309.0      -803640.0      -851922.0      -892039.0
      -935086.0      -980005.0      -1016786.      -1066822.      -1105944.
      -1140652.      -1189057.      -1224902.      -1260456.      -1305939.
      -1346142.      -1385419.      -1424444.      -1464331.      -1503514.
      -1542354.      -1587166.      -1631842.      -1668345.      -1706228.
      -1757118.      -1795382.      -1828020.      -1875727.      -1911305.
      -1946712.      -1994915.      -2028617.      -2060736.      -2107408.
      -2148546.      -2179911.      -2214046.      -2258121.      -2293594.
      -2324265.      -2370005.      -2401342.      -2430163.      -2481758.
      -2513981.      -2542478.      -2587359.      -2613481.      -2652343.
      -2688507.      -2703856.      -2749328.      -2780032.      -2796139.
      -2842220.      -2876581.      -2904224.      -2939399.      -2969601.
      -3006622.      -3037577.      -3069611.      -3109676.      -3133181.
      -3166119.      -3202890.      -3223641.      -3260421.      -3294857.
      -3323133.      -3358814.      -3389166.      -3421715.      -3449895.
      -3481962.      -3518202.      -3547002.      -3583822.      -3612368.
      -3637377.      -3673058.      -3700366.      -3735864.      -3766027.
      -3788308.      -3828912.      -3856082.      -3879905.      -3913644.
      -3938761.      -3969461.      -3993195.      -4017979.      -4056258.
      -4077421.      -4105482.      -4133707.      -4152547.      -4185751.
      -4203037.      -4225494.      -4259321.      -4282301.      -4303271.
      -4321667.      -4351945.      -4380628.      -4396319.      -4419996.
      -4448265.      -4466708.      -4488872.      -4518885.      -4537342.
      -4557670.      -4584871.      -4597099.      -4617266.      -4639568.
      -4650716.      -4675144.      -4691354.      -4709006.      -4733355.
      -4745921.      -4760780.      -4777634.      -4795813.      -4810599.
      -4826405.      -4842656.      -4857461.      -4873765.      -4885130.
      -4900840.      -4919485.      -4932084.      -4942314.      -4962264.
