     0.02500000      -12345.00      -12345.00   3.262830e+10      -12345.00
   0.0005380000       1859.976      -558.0195      -12345.00      -12345.00
      -12345.00      -12345.00      -12345.00      -12345.00      -12345.00
      -12345.00      -12345.00      -12345.00      -12345.00      -12345.00
      -12345.00      -12345.00      -12345.00      -12345.00      -12345.00
      -12345.00      -12345.00      -12345.00      -12345.00      -12345.00
      -12345.00       13.58930       144.8684       170.0000       0.000000
      -42.72450       173.0647      -12345.00       22.00000      -12345.00
      -12345.00      -12345.00      -12345.00      -12345.00      -12345.00
      -12345.00      -12345.00      -12345.00      -12345.00      -12345.00
       6863.465       328.5557       156.7129       61.72736      -12345.00
      -12345.00      -12345.00       90.00000       90.00000      -12345.00
      -12345.00      -12345.00      -12345.00      -12345.00      -12345.00
      -12345.00      -12345.00      -12345.00      -12345.00      -12345.00
      2016       318        11        12        17
        19         6    -12345    -12345     74400
    -12345    -12345    -12345    -12345    -12345
         1    -12345    -12345    -12345    -12345
    -12345    -12345    -12345    -12345    -12345
    -12345    -12345    -12345    -12345    -12345
    -12345    -12345    -12345    -12345    -12345
         1    -12345    -12345    -12345    -12345
GUMO    South Island, Ne
10      -12345  -12345  
-12345  -12345  -12345  
-12345  -12345  -12345  
-12345  -12345  -12345  
-12345  -12345  -12345  
-12345  -12345  BH2     
IU      -12345  Streckei
[...]
      -431810.0      -451177.0      -513306.0      -557238.0      -588911.0
      -644126.0      -674173.0      -722826.0      -764721.0      -795657.0
      -842543.0      -885873.0      -927728.0      -968273.0      -1013237.
      -1059516.      -1102608.      -1145405.      -1196097.      -1239986.
      -1279057.      -1334555.      -1387318.      -1427245.      -1479005.
      -1534001.      -1576353.      -1632687.      -1678566.      -1717343.
      -1777322.      -1825841.      -1866012.      -1919368.      -1972926.
      -2021565.      -2071340.      -2118401.      -2176622.      -2219996.
      -2257938.      -2322927.      -2365061.      -2405337.      -2452896.
      -2490953.      -2551200.      -2598169.      -2639833.      -2699459.
      -2748594.      -2799169.      -2842458.      -2889629.      -2950020.
      -2995424.      -3052277.      -3106967.      -3153377.      -3216945.
      -3265500.      -3316523.      -3373867.      -3422342.      -3482136.
      -3529842.      -3578821.      -3637730.      -3682414.      -3734600.
      -3787325.      -3834685.      -3889637.      -3935361.      -3980906.
      -4035652.      -4088659.      -4139279.      -4186180.      -4237266.
      -4286804.      -4333847.      -4386830.      -4435458.      -4485890.
      -4538627.      -4584506.      -4634620.      -4684586.      -4729102.
      -4781140.      -4827490.      -4870194.      -4923424.      -4968896.
      -5012215.      -5063741.      -5113597.      -5160393.      -5209439.
      -5264451.      -5312379.      -5366438.      -5424724.      -5465344.
      -5522850.      -5581498.      -5623092.      -5680043.      -5733154.
      -5778678.      -5830700.      -5883728.      -5934654.      -5986276.
      -6038247.      -6083373.      -6137564.      -6194041.      -6240218.
      -6291637.      -6342410.      -6393532.      -6450464.      -6501248.
      -6556037.      -6610883.      -6660148.      -6716319.      -6770690.
      -6825090.      -6877927.      -6925074.      -6978785.      -7032118.
      -7074607.      -7125895.      -7180558.      -7228055.      -7279735.
      -7319406.      -7370894.      -7428626.      -7473186.      -7530928.
      -7567594.      -7605340.      -7670966.      -7716131.      -7749182.
      -7801348.      -7854701.      -7893593.      -7941612.      -7981727.
      -8019666.      -8070361.      -8104402.      -8145593.      -8194871.
      -8222376.      -8262277.      -8299226.      -8314225.      -8358886.
      -8393717.      -8420605.      -8465072.      -8487483.      -8514798.
      -8544013.      -8570671.      -8610381.      -8629957.      -8656307.
      -8699549.      -8717340.      -8744220.      -8777583.      -8795148.
      -8826316.      -8862704.      -8886767.      -8912207.      -8943868.
      -8967167.      -8993389.      -9019315.      -9048953.      -9077863.
      -9092277.      -9116353.      -9143654.      -9173899.      -9189514.
      -9214466.      -9249674.      -9255290.      -9293179.      -9318430.
      -9322293.      -9360752.      -9379679.      -9395971.      -9419882.
      -9437664.      -9460023.      -9475261.      -9492614.      -9513405.
      -9528367.      -9545256.      -9571386.      -9588565.      -9602262.
      -9624260.      -9634181.      -9652687.      -9669298.      -9679626.
      -9701610.      -9704558.      -9718503.      -9737535.      -9738007.
      -9752557.      -9764200.      -9764882.      -9779775.      -9792475.
      -9789150.      -9802455.      -9816440.      -9813195.      -9826858.
      -9833407.      -9837621.      -9849920.      -9847181.      -9855034.
      -9856226.      -9854024.      -9857679.      -9859428.      -9860237.
      -9849482.      -9853498.      -9849011.      -9832594.      -9843557.
      -9840042.      -9820304.      -9826164.      -9820869.      -9810814.
      -9818542.      -9798348.      -9797937.      -9807343.      -9783375.
      -9796238.      -9791627.      -9777181.      -9783567.      -9773349.
      -9785483.      -9766643.      -9758330.      -9770585.      -9742411.
      -9748160.      -9735113.      -9712257.      -9719837.      -9701418.
      -9690576.      -9680204.      -9666420.      -9660682.      -9644256.
      -9631361.      -9621176.      -9607487.      -9589960.      -9574558.
      -9572914.      -9558442.      -9533363.      -9534195.      -9519681.
      -9493211.      -9489688.      -9473364.      -9458200.      -9448708.
      -9434645.      -9418738.      -9403895.      -9392858.      -9375651.
      -9371368.      -9348072.      -9327897.      -9331274.      -9307240.
      -9292115.      -9283903.      -9259201.      -9243498.      -9235487.
      -9210809.      -9191367.      -9187627.      -9164680.      -9155541.
      -9141593.      -9106579.      -9102865.      -9092472.      -9062981.
      -9051551.      -9034378.      -9011336.      -8991767.      -8966228.
      -8946612.      -8923144.      -8905688.      -8885816.      -8856069.
      -8841933.      -8813613.      -8789477.      -8778992.      -8742899.
      -8721547.      -8706696.      -8676805.      -8674219.      -8650992.
      -8614061.      -8617084.      -8595807.      -8564034.      -8554679.
      -8532295.      -8514223.      -8492766.      -8459188.      -8447774.
      -8426854.      -8394043.      -8381401.      -8363770.      -8338310.
      -8301933.      -8288253.      -8272527.      -8226859.      -8216416.
      -8189775.      -8158584.      -8145468.      -8113550.      -8100025.
      -8074340.      -8050565.      -8035024.      -8004437.      -7991432.
      -7963466.      -7939016.      -7923833.      -7884523.      -7870018.
      -7857080.      -7816449.      -7802542.      -7790708.      -7754277.
      -7743850.      -7736225.      -7705764.      -7691496.      -7680939.
      -7660918.      -7651756.      -7625640.      -7596208.      -7599625.
      -7575243.      -7550990.      -7542240.      -7518780.      -7513212.
      -7488543.      -7476669.      -7470303.      -7442874.      -7436630.
      -7427178.      -7412098.      -7393863.      -7385113.      -7372910.
      -7357561.      -7344868.      -7329800.      -7323568.      -7306398.
      -7294367.      -7280911.      -7266815.      -7252694.      -7240909.
      -7234920.      -7212239.      -7202185.      -7196633.      -7180237.
      -7174474.      -7165716.      -7157034.      -7160486.      -7148733.
      -7128758.      -7125974.      -7120710.      -7107088.      -7097849.
      -7085174.      -7073726.      -7064896.      -7055805.      -7047176.
      -7032554.      -7022553.      -7014457.      -7004692.      -6998798.
      -6987678.      -6977000.      -6972570.      -6965920.      -6961695.
      -6948852.      -6944813.      -6954462.      -6942595.      -6932485.
      -6930204.      -6929478.      -6922724.      -6911941.      -6912012.
      -6903467.      -6895370.      -6888037.      -6883688.      -6882563.
      -6865674.      -6864926.      -6862102.      -6846044.      -6845256.
      -6834966.      -6836477.      -6834818.      -6824021.      -6825613.
      -6817295.      -6817739.      -6814954.      -6806166.      -6803885.
      -6804420.      -6805850.      -6804882.      -6806077.      -6809597.
      -6812574.      -6813571.      -6819284.      -6821507.      -6830309.
      -6835774.      -6837680.      -6846357.      -6849313.      -6860185.
      -6865690.      -6872839.      -6885250.      -6879027.      -6884081.
      -6902072.      -6897049.      -6901448.      -6916142.      -6917849.
      -6920020.      -6924782.      -6937342.      -6939337.      -6947699.
      -6950437.      -6951629.      -6972324.      -6972414.      -6980485.
      -6997881.      -7010612.      -7010193.      -7012618.      -7032427.
      -7041592.      -7051673.      -7052445.      -7067628.      -7079349.
      -7084596.      -7107726.      -7110875.      -7133886.      -7155757.
      -7151874.      -7169020.      -7193290.      -7209416.      -7214824.
      -7233458.      -7256425.      -7260257.      -7275681.      -7294314.
      -7309131.      -7327919.      -7354822.      -7367083.      -7382180.
      -7414408.      -7416816.      -7441290.      -7464613.      -7470753.
      -7494588.      -7503620.      -7523704.      -7540092.      -7549885.
      -7567499.      -7579342.      -7606346.      -7627085.      -7638984.
      -7657704.      -7673056.      -7698865.      -7716753.      -7728430.
      -7751842.      -7768123.      -7780721.      -7800037.      -7816747.
      -7830952.      -7854057.      -7871145.      -7891971.      -7917851.
      -7931961.      -7959642.      -7978841.      -7988786.      -8014926.
      -8025071.      -8040704.      -8062414.      -8068676.      -8082340.
      -8098067.      -8115369.      -8131961.      -8140136.      -8153664.
      -8174337.      -8189762.      -8206435.      -8217007.      -8235211.
      -8255907.      -8263186.      -8283924.      -8297575.      -8317219.
      -8332920.      -8342477.      -8365731.      -8375549.      -8392364.
      -8407726.      -8424650.      -8439525.      -8452375.      -8478717.
      -8493042.      -8510680.      -8527430.      -8547008.      -8574840.
      -8588663.      -8605016.      -8627599.      -8641401.      -8667244.
      -8682715.      -8690154.      -8725878.      -8738127.      -8751549.
      -8767838.      -8780864.      -8807964.      -8826494.      -8851216.
      -8862941.      -8890060.      -8913848.      -8922416.      -8947812.
      -8966044.      -8992188.      -9019746.      -9027108.      -9051962.
      -9077234.      -9087978.      -9119902.      -9126837.      -9150198.
      -9175075.      -9185095.      -9218742.      -9216724.      -9248373.
      -9266436.      -9270145.      -9310137.      -9312957.      -9344199.
      -9362863.      -9376272.      -9409604.      -9407106.      -9439196.
      -9465330.      -9470660.      -9496305.      -9511056.      -9530222.
      -9553488.      -9569773.      -9591873.      -9610584.      -9630827.
      -9658054.      -9674751.      -9697951.      -9722694.      -9737792.
      -9761444.      -9779412.      -9803992.      -9827655.      -9838838.
      -9871498.      -9891215.      -9909610.      -9940639.      -9959743.
      -9987124.  -1.001040e+07  -1.003823e+07  -1.006490e+07  -1.009141e+07
  -1.012011e+07  -1.014495e+07  -1.018278e+07  -1.020853e+07  -1.023292e+07
  -1.027070e+07  -1.030400e+07  -1.032458e+07  -1.035105e+07  -1.038310e+07
  -1.040747e+07  -1.044584e+07  -1.047364e+07  -1.049256e+07  -1.052529e+07
  -1.055780e+07  -1.058741e+07  -1.060944e+07  -1.064160e+07  -1.067605e+07
  -1.070093e+07  -1.072804e+07  -1.075736e+07  -1.078804e+07  -1.080823e+07
  -1.083436e+07  -1.086344e+07  -1.087971e+07  -1.090204e+07  -1.092257e+07
  -1.094278e+07  -1.097360e+07  -1.099738e+07  -1.101798e+07  -1.104669e+07
  -1.107333e+07  -1.109740e+07  -1.112229e+07  -1.115015e+07  -1.117862e+07
  -1.120424e+07  -1.122716e+07  -1.125668e+07  -1.129110e+07  -1.131015e+07
  -1.133943e+07  -1.137891e+07  -1.139950e+07  -1.142618e+07  -1.146446e+07
  -1.149060e+07  -1.151791e+07  -1.154868e+07  -1.157340e+07  -1.160700e+07
  -1.163532e+07  -1.166270e+07  -1.169602e+07  -1.171948e+07  -1.174583e+07
  -1.177962e+07  -1.180561e+07  -1.182776e+07  -1.186153e+07  -1.189145e+07
  -1.191872e+07  -1.194934e+07  -1.197886e+07  -1.201020e+07  -1.203664e+07
  -1.207183e+07  -1.211006e+07  -1.213833e+07  -1.217050e+07  -1.219956e+07
  -1.223130e+07  -1.227339e+07  -1.230144e+07  -1.232639e+07  -1.236156e+07
  -1.239458e+07  -1.241935e+07  -1.244889e+07  -1.248213e+07  -1.250096e+07
  -1.253421e+07  -1.257259e+07  -1.259403e+07  -1.262438e+07  -1.266152e+07
  -1.269067e+07  -1.271891e+07  -1.275044e+07  -1.278073e+07  -1.282302e+07
  -1.285568e+07  -1.288165e+07  -1.292342e+07  -1.294865e+07  -1.298218e+07
  -1.301889e+07  -1.304384e+07  -1.307991e+07  -1.310771e+07  -1.313777e+07
  -1.316702e+07  -1.319904e+07  -1.323016e+07  -1.325424e+07  -1.329309e+07
  -1.332149e+07  -1.334672e+07  -1.338157e+07  -1.340927e+07  -1.344194e+07
  -1.347164e+07  -1.349437e+07  -1.352340e+07  -1.354389e+07  -1.356936e+07
  -1.360253e+07  -1.361289e+07  -1.363123e+07  -1.367256e+07  -1.368678e+07
  -1.370155e+07  -1.373888e+07  -1.375697e+07  -1.377262e+07  -1.379066e+07
  -1.381621e+07  -1.383727e+07  -1.384608e+07  -1.387661e+07  -1.388588e+07
  -1.388800e+07  -1.391388e+07  -1.392476e+07  -1.394297e+07  -1.395904e+07
  -1.396395e+07  -1.398192e+07  -1.399134e+07  -1.399929e+07  -1.400941e+07
  -1.401530e+07  -1.402707e+07  -1.403298e+07  -1.404222e+07  -1.405542e+07
  -1.405291e+07  -1.406293e+07  -1.406731e+07  -1.405562e+07  -1.406627e+07
  -1.406875e+07  -1.406435e+07  -1.406594e+07  -1.406422e+07  -1.406352e+07
  -1.406010e+07  -1.406418e+07  -1.405633e+07  -1.405048e+07  -1.405130e+07
  -1.403888e+07  -1.404358e+07  -1.403190e+07  -1.401238e+07  -1.401371e+07
  -1.400518e+07  -1.399450e+07  -1.397989e+07  -1.397035e+07  -1.396239e+07
  -1.394612e+07  -1.393228e+07  -1.391742e+07  -1.390586e+07  -1.388956e+07
  -1.387404e+07  -1.386493e+07  -1.384739e+07  -1.382261e+07  -1.380380e+07
  -1.378974e+07  -1.376249e+07  -1.374375e+07  -1.372758e+07  -1.368847e+07
  -1.366653e+07  -1.364842e+07  -1.361579e+07  -1.359699e+07  -1.357116e+07
  -1.353904e+07  -1.351537e+07  -1.348918e+07  -1.345630e+07  -1.343007e+07
  -1.340218e+07  -1.335998e+07  -1.334026e+07  -1.331417e+07  -1.326566e+07
  -1.323763e+07  -1.320910e+07  -1.316854e+07  -1.312255e+07  -1.308553e+07
  -1.305715e+07  -1.300816e+07  -1.297258e+07  -1.294127e+07  -1.288384e+07
  -1.285413e+07  -1.282170e+07  -1.276657e+07  -1.272641e+07  -1.268524e+07
  -1.265133e+07  -1.259952e+07  -1.254368e+07  -1.251354e+07  -1.246604e+07
  -1.241595e+07  -1.237169e+07  -1.232602e+07  -1.228216e+07  -1.223086e+07
  -1.218323e+07  -1.213257e+07  -1.207917e+07  -1.203316e+07  -1.198345e+07
  -1.192350e+07  -1.186956e+07  -1.181802e+07  -1.176030e+07  -1.170474e+07
  -1.163738e+07  -1.159062e+07  -1.153551e+07  -1.146383e+07  -1.142035e+07
  -1.135097e+07  -1.129084e+07  -1.123338e+07  -1.117279e+07  -1.112218e+07
  -1.104572e+07  -1.099631e+07  -1.092520e+07  -1.084917e+07  -1.081052e+07
  -1.073220e+07  -1.065254e+07  -1.060489e+07  -1.053995e+07  -1.046155e+07
  -1.039772e+07  -1.033636e+07  -1.026139e+07  -1.019075e+07  -1.012748e+07
  -1.005383e+07      -9975492.      -9909244.      -9844948.      -9765784.
      -9702676.      -9639896.      -9562774.      -9501386.      -9437940.
      -9366358.      -9303181.      -9235144.      -9161523.      -9095934.
      -9022216.      -8953131.      -8883997.      -8810613.      -8741369.
      -8663191.      -8598265.      -8528198.      -8457171.      -8391975.
      -8317953.      -8257939.      -8184624.      -8111668.      -8053362.
      -7974074.      -7901134.      -7839184.      -7760497.      -7686183.
      -7618975.      -7542055.      -7469369.      -7399448.      -7328700.
      -7264893.      -7192752.      -7113742.      -7044569.      -6964525.
      -6886322.      -6824917.      -6750271.      -6673376.      -6600559.
      -6533904.      -6464393.      -6384195.      -6311497.      -6247460.
      -6174292.      -6090650.      -6031469.      -5956469.      -5867422.
      -5810354.      -5736437.      -5652733.      -5595307.      -5527497.
      -5454263.      -5395722.      -5321880.      -5251067.      -5184942.
      -5121736.      -5054873.      -4975973.      -4918969.      -4851364.
      -4778943.      -4721380.      -4653555.      -4588674.      -4534925.
      -4472012.      -4407639.      -4346043.      -4282021.      -4222782.
      -4155091.      -4098164.      -4035676.      -3966378.      -3909473.
      -3841671.      -3787749.      -3726048.      -3651525.      -3600624.
      -3538759.      -3470886.      -3415361.      -3351680.      -3284522.
      -3221880.      -3164313.      -3101769.      -3028608.      -2965149.
      -2909845.      -2840391.      -2775795.      -2726372.      -2660838.
      -2591629.      -2535955.      -2474336.      -2408437.      -2347544.
      -2291233.      -2229837.      -2168061.      -2127433.      -2063826.
      -1994591.      -1955753.      -1888440.      -1831379.      -1782410.
      -1720465.      -1674916.      -1612519.      -1560732.      -1507056.
      -1441703.      -1398181.      -1340858.      -1273444.      -1221789.
      -1168541.      -1097893.      -1037543.      -989745.0      -931230.0
      -865721.0      -810646.0      -758683.0      -692819.0      -640860.0
      -581815.0      -521949.0      -469718.0      -402175.0      -356648.0
      -301128.0      -239541.0      -192696.0      -137150.0      -86226.00
      -31041.00       16817.00       72041.00       132090.0       176001.0
       239135.0       301660.0       353748.0       416767.0       474190.0
       528635.0       590027.0       647269.0       700641.0       758668.0
       816137.0       875100.0       936775.0       995566.0       1057420.
       1116649.       1174037.       1234221.       1290147.       1349816.
       1409279.       1464181.       1523865.       1576590.       1630923.
       1689983.       1739992.       1799346.       1858999.       1918573.
       1982215.       2040818.       2105830.       2166454.       2224678.
       2290710.       2354037.       2407988.       2473721.       2542058.
       2597954.       2664300.       2725621.       2786165.       2854246.
       2910748.       2972683.       3041206.       3101732.       3163706.
       3225521.       3286767.       3350959.       3411525.       3472713.
       3535513.       3598154.       3661374.       3725875.       3788803.
       3847378.       3909915.       3982285.       4045181.       4099245.
       4167040.       4230527.       4295797.       4356379.       4412589.
       4484829.       4541675.       4603738.       4672019.       4724208.
       4787031.       4852449.       4913060.       4977893.       5030848.
       5088619.       5155908.       5208698.       5268647.       5324051.
       5383991.       5449333.       5496486.       5559182.       5615259.
       5670248.       5735746.       5781953.       5842087.       5900835.
