     0.05000000      -12345.00      -12345.00   3.505780e+09      -12345.00
   0.0005380000       1859.951      -558.0195      -12345.00      -12345.00
      -12345.00      -12345.00      -12345.00      -12345.00      -12345.00
      -12345.00      -12345.00      -12345.00      -12345.00      -12345.00
      -12345.00      -12345.00      -12345.00      -12345.00      -12345.00
      -12345.00      -12345.00      -12345.00      -12345.00      -12345.00
      -12345.00       13.58930       144.8684       61.00000       109.0000
      -42.72450       173.0647      -12345.00       22.00000      -12345.00
      -12345.00      -12345.00      -12345.00      -12345.00      -12345.00
      -12345.00      -12345.00      -12345.00      -12345.00      -12345.00
       6863.465       328.5557       156.7129       61.72736      -12345.00
      -12345.00      -12345.00       359.0000       90.00000      -12345.00
      -12345.00      -12345.00      -12345.00      -12345.00      -12345.00
      -12345.00      -12345.00      -12345.00      -12345.00      -12345.00
      2016       318        11        12        17
        19         6    -12345    -12345     37200
    -12345    -12345    -12345    -12345    -12345
         1    -12345    -12345    -12345    -12345
    -12345    -12345    -12345    -12345    -12345
    -12345    -12345    -12345    -12345    -12345
    -12345    -12345    -12345    -12345    -12345
         1    -12345    -12345    -12345    -12345
GUMO    South Island, Ne
00      -12345  -12345  
-12345  -12345  -12345  
-12345  -12345  -12345  
-12345  -12345  -12345  
-12345  -12345  -12345  
-12345  -12345  BH1     
IU      -12345  Geotech 
[...]
       483584.0       479490.0       475142.0       470479.0       465515.0
       460380.0       454860.0       448936.0       442592.0       436082.0
       429429.0       422412.0       415138.0       407641.0       400062.0
       392398.0       384520.0       376402.0       368054.0       359333.0
       350389.0       341397.0       332079.0       322714.0       313427.0
       304103.0       294874.0       285623.0       276510.0       267436.0
       258070.0       248442.0       238350.0       227766.0       216989.0
       206180.0       195379.0       184386.0       173173.0       161981.0
       150727.0       139242.0       127733.0       116096.0       103955.0
       91543.00       79300.00       67073.00       54564.00       42062.00
       29665.00       17266.00       4793.000      -7918.000      -20769.00
      -33759.00      -47013.00      -60575.00      -74223.00      -87841.00
      -101766.0      -115675.0      -129223.0      -142907.0      -156604.0
      -170191.0      -183884.0      -197919.0      -212197.0      -226356.0
      -240786.0      -255231.0      -269523.0      -283856.0      -298256.0
      -312773.0      -327246.0      -341676.0      -355965.0      -370438.0
      -384997.0      -399498.0      -414083.0      -428524.0      -443004.0
      -457688.0      -472560.0      -487621.0      -502805.0      -518014.0
      -533183.0      -548538.0      -563997.0      -579100.0      -593990.0
      -608966.0      -623860.0      -638648.0      -653319.0      -667641.0
      -681786.0      -695793.0      -709622.0      -723588.0      -737623.0
      -751651.0      -765582.0      -779320.0      -793073.0      -806820.0
      -820491.0      -834078.0      -847560.0      -861190.0      -874927.0
      -888494.0      -902015.0      -915397.0      -928589.0      -941632.0
      -954385.0      -966973.0      -979368.0      -991509.0      -1003578.
      -1015727.      -1027861.      -1039975.      -1051952.      -1063667.
      -1075346.      -1086790.      -1097854.      -1108632.      -1118992.
      -1128868.      -1138395.      -1147737.      -1157087.      -1166308.
      -1175552.      -1184928.      -1194049.      -1203247.      -1212432.
      -1221565.      -1230379.      -1238663.      -1246841.      -1254382.
      -1261635.      -1268559.      -1274858.      -1281199.      -1287123.
      -1292727.      -1298150.      -1302875.      -1307186.      -1311202.
      -1315023.      -1318527.      -1321558.      -1324403.      -1326999.
      -1329326.      -1331263.      -1332720.      -1333858.      -1334738.
      -1335183.      -1335141.      -1334802.      -1334109.      -1333289.
      -1332283.      -1330873.      -1329205.      -1327301.      -1325190.
      -1322701.      -1320010.      -1317209.      -1314045.      -1310615.
      -1306869.      -1302733.      -1298397.      -1293872.      -1289062.
      -1284158.      -1279207.      -1274048.      -1268701.      -1263092.
      -1257200.      -1251323.      -1245377.      -1239132.      -1232634.
      -1225869.      -1218857.      -1211363.      -1203323.      -1195153.
      -1186768.      -1177975.      -1169007.      -1159879.      -1150443.
      -1140629.      -1130414.      -1119851.      -1108869.      -1097666.
      -1086439.      -1075058.      -1063618.      -1051861.      -1039751.
      -1027503.      -1014840.      -1001825.      -988653.0      -975218.0
      -961378.0      -947354.0      -933319.0      -919134.0      -904568.0
      -889762.0      -874856.0      -859867.0      -845002.0      -829742.0
      -814374.0      -798924.0      -783122.0      -767346.0      -751340.0
      -735286.0      -719188.0      -703033.0      -686848.0      -670605.0
      -654425.0      -638187.0      -621950.0      -605944.0      -590054.0
      -574217.0      -558486.0      -542703.0      -527174.0      -511564.0
      -495855.0      -480260.0      -464690.0      -449091.0      -433447.0
      -418004.0      -402372.0      -386905.0      -371516.0      -355949.0
      -340488.0      -324924.0      -309352.0      -293795.0      -278300.0
      -262917.0      -247548.0      -231992.0      -216430.0      -201052.0
      -185684.0      -170403.0      -155099.0      -140126.0      -125571.0
      -110931.0      -96438.00      -82180.00      -68199.00      -54502.00
      -40948.00      -27679.00      -14686.00      -1990.000       10671.00
       23449.00       36120.00       48716.00       61035.00       73233.00
       85592.00       98066.00       110581.0       122896.0       135134.0
       147212.0       159203.0       171072.0       182485.0       193611.0
       204412.0       215046.0       225498.0       235612.0       245313.0
       254737.0       264005.0       272707.0       280980.0       288932.0
       296488.0       303576.0       310332.0       316962.0       322909.0
       328374.0       333989.0       339381.0       344545.0       349533.0
       354167.0       358688.0       363077.0       367149.0       370918.0
       374495.0       377941.0       381147.0       383963.0       386548.0
       388945.0       391202.0       393327.0       395444.0       397369.0
       398806.0       400036.0       400833.0       401128.0       400964.0
       400392.0       399409.0       397838.0       395725.0       393149.0
       390366.0       387206.0       383807.0       380532.0       377130.0
       373732.0       370320.0       366513.0       362561.0       358424.0
       353785.0       348795.0       343621.0       338359.0       332954.0
       327370.0       321517.0       315355.0       308993.0       302321.0
       295280.0       287949.0       280414.0       272631.0       264346.0
       255668.0       246844.0       237557.0       227791.0       217561.0
       207056.0       196714.0       186091.0       175301.0       164663.0
       153760.0       142586.0       131471.0       120328.0       109178.0
       97972.00       86330.00       74678.00       63052.00       51109.00
       39090.00       26934.00       14464.00       1782.000      -11033.00
      -24025.00      -37239.00      -50527.00      -63660.00      -76809.00
      -90390.00      -104423.0      -118808.0      -133338.0      -148037.0
      -163026.0      -178090.0      -193255.0      -208339.0      -223439.0
      -238563.0      -253621.0      -268703.0      -283550.0      -298370.0
      -313426.0      -328665.0      -344023.0      -359701.0      -375395.0
      -391065.0      -406911.0      -422603.0      -438275.0      -453970.0
      -469724.0      -485327.0      -500674.0      -515846.0      -530626.0
      -545140.0      -559548.0      -573730.0      -587706.0      -601452.0
      -614969.0      -628706.0      -642326.0      -655735.0      -669274.0
      -682685.0      -695787.0      -708713.0      -721783.0      -734645.0
      -747299.0      -759827.0      -772255.0      -784736.0      -796925.0
      -808879.0      -820723.0      -832488.0      -844240.0      -855707.0
      -866739.0      -877668.0      -888498.0      -899082.0      -909617.0
      -920078.0      -930078.0      -939955.0      -949743.0      -959123.0
      -968368.0      -977333.0      -986199.0      -994801.0      -1003054.
      -1011186.      -1019085.      -1026929.      -1034629.      -1042223.
      -1049700.      -1056926.      -1064119.      -1071320.      -1078263.
      -1085041.      -1091731.      -1098253.      -1104764.      -1110837.
      -1116435.      -1121933.      -1127266.      -1132635.      -1137790.
      -1142768.      -1147833.      -1152488.      -1156897.      -1160879.
      -1164530.      -1168188.      -1171222.      -1173919.      -1176405.
      -1178712.      -1181172.      -1183491.      -1185511.      -1187056.
      -1188211.      -1189091.      -1189528.      -1189528.      -1188994.
      -1188332.      -1187489.      -1186072.      -1184302.      -1182103.
      -1179563.      -1176786.      -1173601.      -1169923.      -1165719.
      -1161153.      -1156549.      -1151620.      -1146215.      -1140549.
      -1134492.      -1128177.      -1121614.      -1114635.      -1107318.
      -1099715.      -1091700.      -1083201.      -1074387.      -1065180.
      -1055352.      -1044995.      -1034213.      -1023220.      -1012002.
      -1000510.      -988735.0      -976534.0      -964173.0      -951684.0
      -938971.0      -925972.0      -912942.0      -900054.0      -887118.0
      -874169.0      -860957.0      -847734.0      -834393.0      -820476.0
      -806518.0      -792480.0      -778153.0      -763991.0      -749642.0
      -734995.0      -720474.0      -705582.0      -690418.0      -675278.0
      -659782.0      -644056.0      -627919.0      -611519.0      -595123.0
      -578376.0      -561529.0      -544637.0      -527628.0      -510777.0
      -494066.0      -477425.0      -461023.0      -444697.0      -428370.0
      -412333.0      -396420.0      -380482.0      -364697.0      -348744.0
      -332364.0      -315892.0      -299207.0      -282373.0      -265314.0
      -247868.0      -230702.0      -213454.0      -195968.0      -178865.0
      -162126.0      -145771.0      -129280.0      -112861.0      -96835.00
      -80753.00      -64819.00      -48822.00      -32869.00      -16875.00
      -629.0000       15532.00       31637.00       47762.00       63855.00
       79573.00       95076.00       110596.0       126171.0       141598.0
       156787.0       171865.0       186648.0       201235.0       215575.0
       230028.0       244675.0       259160.0       273518.0       287768.0
       302176.0       316464.0       330432.0       344178.0       357644.0
       370869.0       383957.0       396973.0       409712.0       422299.0
       434717.0       447086.0       459152.0       470826.0       482451.0
       493522.0       504249.0       514540.0       524326.0       533767.0
       542687.0       551076.0       558748.0       566090.0       573083.0
       579862.0       586440.0       592478.0       598305.0       603841.0
       608996.0       613746.0       618073.0       622306.0       626338.0
       630225.0       633958.0       637384.0       640508.0       643185.0
       645722.0       648017.0       649985.0       651626.0       652814.0
       653583.0       653949.0       654105.0       653840.0       652953.0
       651322.0       649088.0       646204.0       642683.0       639115.0
       635165.0       630852.0       626211.0       621197.0       616183.0
       610829.0       605384.0       599683.0       593669.0       587769.0
       581517.0       574821.0       567650.0       559972.0       551801.0
       543174.0       534373.0       525207.0       515676.0       505912.0
       495856.0       485585.0       474983.0       463866.0       452535.0
       441018.0       429120.0       416937.0       404276.0       391290.0
       378088.0       364772.0       351232.0       337482.0       323616.0
       309360.0       294683.0       279526.0       264441.0       249061.0
       233364.0       217690.0       201585.0       185461.0       169234.0
       152686.0       135873.0       118924.0       102014.0       85092.00
       68192.00       51012.00       33533.00       16134.00      -1481.000
      -19450.00      -37383.00      -55234.00      -73089.00      -91081.00
      -109214.0      -127453.0      -145849.0      -164386.0      -183004.0
      -201613.0      -220337.0      -239292.0      -258360.0      -277442.0
      -296630.0      -315996.0      -335526.0      -355119.0      -374925.0
      -395102.0      -415076.0      -434885.0      -454906.0      -474889.0
      -494708.0      -514271.0      -533916.0      -553496.0      -572797.0
      -591869.0      -610680.0      -629612.0      -648544.0      -667404.0
      -685930.0      -704304.0      -722690.0      -740812.0      -759192.0
      -777688.0      -796182.0      -814882.0      -833324.0      -851328.0
      -868892.0      -886212.0      -903445.0      -920400.0      -937306.0
      -953952.0      -970475.0      -987024.0      -1003169.      -1019105.
      -1034881.      -1050570.      -1066156.      -1081563.      -1096786.
      -1111806.      -1126521.      -1140585.      -1154238.      -1167705.
      -1180838.      -1193730.      -1206489.      -1219116.      -1231400.
      -1243343.      -1255068.      -1266495.      -1277621.      -1288264.
      -1298478.      -1308283.      -1317470.      -1326285.      -1334791.
      -1342897.      -1350857.      -1358696.      -1366173.      -1373420.
      -1380490.      -1386974.      -1393033.      -1398892.      -1404200.
      -1409173.      -1413915.      -1418283.      -1422338.      -1425766.
      -1428618.      -1430988.      -1432724.      -1434050.      -1435050.
      -1435730.      -1436156.      -1436058.      -1435528.      -1434846.
      -1433806.      -1432290.      -1430386.      -1428211.      -1425853.
      -1423255.      -1420325.      -1417129.      -1413660.      -1409956.
      -1406133.      -1402161.      -1398120.      -1393755.      -1389093.
      -1384233.      -1378877.      -1373284.      -1367488.      -1361470.
      -1355403.      -1348956.      -1342165.      -1335319.      -1328532.
      -1321763.      -1314723.      -1307405.      -1299665.      -1291451.
      -1282928.      -1274005.      -1264769.      -1255238.      -1245249.
      -1234845.      -1224000.      -1212920.      -1201785.      -1190339.
      -1178707.      -1166916.      -1154968.      -1142816.      -1130354.
      -1117780.      -1104929.      -1091785.      -1078385.      -1064670.
      -1050782.      -1036594.      -1022076.      -1007339.      -992359.0
      -977304.0      -962109.0      -946782.0      -931537.0      -916432.0
      -901350.0      -886102.0      -870974.0      -855737.0      -840212.0
      -824831.0      -809427.0      -793644.0      -777524.0      -761341.0
      -745205.0      -728965.0      -712615.0      -696365.0      -680307.0
      -664504.0      -648759.0      -633035.0      -617651.0      -602490.0
      -587380.0      -572355.0      -557565.0      -543155.0      -528898.0
      -514485.0      -500106.0      -485812.0      -471471.0      -457215.0
      -442944.0      -428610.0      -414340.0      -400043.0      -385570.0
      -371212.0      -357088.0      -343014.0      -328911.0      -314808.0
      -300958.0      -287234.0      -273746.0      -260635.0      -247737.0
      -235254.0      -223068.0      -211133.0      -199577.0      -188217.0
      -177025.0      -165775.0      -154523.0      -143604.0      -132798.0
      -122139.0      -111622.0      -101295.0      -91461.00      -81987.00
      -72840.00      -63905.00      -55428.00      -47542.00      -39967.00
      -32671.00      -25429.00      -18357.00      -11387.00      -4530.000
       2077.000       8411.000       14483.00       20451.00       26221.00
       31820.00       37192.00       42545.00       47742.00       52576.00
       57178.00       61517.00       65773.00       69848.00       73516.00
       76791.00       79765.00       82380.00       84459.00       86141.00
       87616.00       88791.00       89826.00       90686.00       91150.00
       91245.00       91104.00       91067.00       91120.00       91041.00
       90893.00       90768.00       90490.00       89801.00       88688.00
       87241.00       85411.00       83179.00       80489.00       77677.00
       74847.00       71645.00       68311.00       64861.00       61265.00
       57598.00       53785.00       50021.00       46416.00       43010.00
       39686.00       36206.00       32715.00       29187.00       25334.00
       21263.00       17019.00       12537.00       7943.000       3111.000
      -2069.000      -7370.000      -12786.00      -18430.00      -24302.00
      -30306.00      -36320.00      -42350.00      -48572.00      -54941.00
      -61357.00      -67954.00      -74674.00      -81415.00      -88050.00
      -94871.00      -102013.0      -108859.0      -115296.0      -121566.0
      -127769.0      -133803.0      -139646.0      -145459.0      -151082.0
      -156662.0      -162215.0      -167734.0      -173307.0      -178757.0
      -184190.0      -189648.0      -195179.0      -200744.0      -206356.0
      -212108.0      -217972.0      -224014.0      -230356.0      -236750.0
      -243125.0      -249576.0      -255747.0      -261764.0      -267810.0
      -273943.0      -280071.0      -286088.0      -292032.0      -297857.0
      -303844.0      -310154.0      -316652.0      -323058.0      -329367.0
      -335546.0      -341573.0      -347483.0      -353334.0      -359159.0
      -364767.0      -370361.0      -375966.0      -381311.0      -386350.0
      -391379.0      -396464.0      -401497.0      -406364.0      -411162.0
      -416052.0      -420749.0      -425282.0      -429505.0      -433287.0
      -436824.0      -440097.0      -443188.0      -446248.0      -449259.0
      -452142.0      -454941.0      -457724.0      -460325.0      -462556.0
      -464700.0      -466779.0      -468552.0      -470135.0      -471435.0
      -472482.0      -473659.0      -474953.0      -476079.0      -477028.0
      -477705.0      -478052.0      -478490.0      -479042.0      -479496.0
      -479623.0      -479503.0      -479395.0      -479196.0      -478991.0
      -478578.0      -478017.0      -477451.0      -476783.0      -475793.0
      -474441.0      -472941.0      -471139.0      -469371.0      -467425.0
      -464988.0      -462460.0      -459732.0      -456782.0      -453818.0
      -450790.0      -447702.0      -444622.0      -441623.0      -438574.0
      -435275.0      -432029.0      -428812.0      -425471.0      -421880.0
      -417836.0      -413839.0      -409823.0      -405384.0      -400985.0
      -396663.0      -392443.0      -388466.0      -384281.0      -379843.0
      -375430.0      -371070.0      -366292.0      -360994.0      -355528.0
      -350108.0      -344854.0      -339407.0      -333807.0      -328296.0
      -322891.0      -317619.0      -312431.0      -307089.0      -301523.0
      -296148.0      -291120.0      -286079.0      -280840.0      -275634.0
      -270504.0      -265567.0      -260490.0      -255278.0      -250405.0
      -245725.0      -241145.0      -236673.0      -232114.0      -227437.0
