     0.02500000      -12345.00      -12345.00   3.262830e+10      -12345.00
   0.0005380000       1859.976      -558.0195      -12345.00      -12345.00
      -12345.00      -12345.00      -12345.00      -12345.00      -12345.00
      -12345.00      -12345.00      -12345.00      -12345.00      -12345.00
      -12345.00      -12345.00      -12345.00      -12345.00      -12345.00
      -12345.00      -12345.00      -12345.00      -12345.00      -12345.00
      -12345.00       13.58930       144.8684       170.0000       0.000000
      -42.72450       173.0647      -12345.00       22.00000      -12345.00
      -12345.00      -12345.00      -12345.00      -12345.00      -12345.00
      -12345.00      -12345.00      -12345.00      -12345.00      -12345.00
       6863.465       328.5557       156.7129       61.72736      -12345.00
      -12345.00      -12345.00       0.000000       90.00000      -12345.00
      -12345.00      -12345.00      -12345.00      -12345.00      -12345.00
      -12345.00      -12345.00      -12345.00      -12345.00      -12345.00
      2016       318        11        12        17
        19         6    -12345    -12345     74400
    -12345    -12345    -12345    -12345    -12345
         1    -12345    -12345    -12345    -12345
    -12345    -12345    -12345    -12345    -12345
    -12345    -12345    -12345    -12345    -12345
    -12345    -12345    -12345    -12345    -12345
         1    -12345    -12345    -12345    -12345
GUMO    South Island, Ne
10      -12345  -12345  
-12345  -12345  -12345  
-12345  -12345  -12345  
-12345  -12345  -12345  
-12345  -12345  -12345  
-12345  -12345  BH1     
IU      -12345  Streckei
[...]
       497201.0       428984.0       354154.0       292903.0       228010.0
       156978.0       79564.00       21770.00      -49200.00      -128762.0
      -179480.0      -245993.0      -314340.0      -368840.0      -444787.0
      -513971.0      -576922.0      -650599.0      -709725.0      -772712.0
      -843133.0      -903787.0      -973232.0      -1039637.      -1099728.
      -1165519.      -1230079.      -1289751.      -1348243.      -1417684.
      -1469220.      -1526833.      -1601340.      -1650188.      -1703382.
      -1762251.      -1830105.      -1886873.      -1928847.      -1998132.
      -2054205.      -2110617.      -2168939.      -2218664.      -2294687.
      -2344879.      -2391714.      -2458330.      -2506203.      -2563910.
      -2621432.      -2677723.      -2730518.      -2781311.      -2839877.
      -2890491.      -2948606.      -3000073.      -3053207.      -3105822.
      -3161728.      -3225602.      -3270813.      -3327633.      -3379140.
      -3429705.      -3490659.      -3531542.      -3588399.      -3650880.
      -3695131.      -3745469.      -3794363.      -3847822.      -3896891.
      -3938909.      -3996454.      -4043011.      -4084350.      -4141815.
      -4183151.      -4222071.      -4287255.      -4324812.      -4353011.
      -4418388.      -4462920.      -4494635.      -4549989.      -4588327.
      -4626132.      -4680742.      -4717440.      -4757967.      -4799677.
      -4832870.      -4868467.      -4907538.      -4956442.      -4984167.
      -5014837.      -5076078.      -5110414.      -5129498.      -5178863.
      -5214152.      -5238490.      -5276876.      -5305784.      -5338790.
      -5376532.      -5405036.      -5434623.      -5469517.      -5500420.
      -5536455.      -5569428.      -5599773.      -5630741.      -5658393.
      -5695267.      -5729359.      -5763063.      -5780053.      -5815103.
      -5863686.      -5883586.      -5909903.      -5935714.      -5977982.
      -6010708.      -6017397.      -6048301.      -6087363.      -6114368.
      -6136868.      -6166157.      -6196583.      -6215072.      -6233319.
      -6266186.      -6287776.      -6302539.      -6326601.      -6346682.
      -6379749.      -6398410.      -6408109.      -6441599.      -6461586.
      -6476380.      -6502233.      -6523042.      -6539513.      -6561284.
      -6581999.      -6586914.      -6605875.      -6632827.      -6634870.
      -6643166.      -6660885.      -6664391.      -6677623.      -6707441.
      -6702588.      -6692290.      -6726859.      -6738257.      -6740440.
      -6763281.      -6757624.      -6766139.      -6794110.      -6792451.
      -6793262.      -6812125.      -6811943.      -6810185.      -6824207.
      -6824837.      -6825474.      -6826169.      -6828066.      -6838997.
      -6828609.      -6821638.      -6831254.      -6826041.      -6815546.
      -6807547.      -6799142.      -6798610.      -6794836.      -6780382.
      -6778672.      -6771970.      -6749057.      -6739006.      -6735063.
      -6723689.      -6697774.      -6686345.      -6683703.      -6653631.
      -6638681.      -6637600.      -6603900.      -6573445.      -6570568.
      -6541576.      -6510180.      -6501200.      -6478628.      -6457392.
      -6429485.      -6403023.      -6375804.      -6341633.      -6326586.
      -6296540.      -6271524.      -6249464.      -6206954.      -6185285.
      -6160636.      -6129506.      -6096679.      -6049018.      -6022021.
      -6001003.      -5956184.      -5920239.      -5890535.      -5844117.
      -5812265.      -5779591.      -5722950.      -5682207.      -5643095.
      -5586460.      -5545706.      -5503210.      -5451163.      -5405398.
      -5354182.      -5308977.      -5265246.      -5213038.      -5158554.
      -5106752.      -5058502.      -5006257.      -4956754.      -4908208.
      -4846699.      -4785013.      -4736257.      -4678730.      -4621616.
      -4568453.      -4498434.      -4448413.      -4400497.      -4332078.
      -4286218.      -4237323.      -4176495.      -4124470.      -4064233.
      -4003466.      -3963135.      -3916774.      -3826001.      -3781472.
      -3760872.      -3649461.      -3600244.      -3582715.      -3468297.
      -3420858.      -3395784.      -3285492.      -3239153.      -3222246.
      -3120580.      -3049000.      -3032009.      -2944675.      -2853872.
      -2849553.      -2769231.      -2663144.      -2659080.      -2568283.
      -2472875.      -2463786.      -2368175.      -2292460.      -2255339.
      -2171509.      -2098199.      -2037167.      -1973640.      -1890375.
      -1818607.      -1745860.      -1671600.      -1611311.      -1527403.
      -1453435.      -1386711.      -1307127.      -1239334.      -1166923.
      -1079907.      -1014487.      -947334.0      -860944.0      -795339.0
      -729588.0      -662303.0      -592372.0      -516829.0      -447145.0
      -374010.0      -322683.0      -252932.0      -172376.0      -119828.0
      -59264.00       11487.00       86783.00       142673.0       208778.0
       287730.0       353943.0       425932.0       476850.0       560808.0
       646921.0       688255.0       773410.0       860166.0       919663.0
       989802.0       1070079.       1150457.       1214734.       1288735.
       1373107.       1453778.       1521052.       1582340.       1668410.
       1747057.       1811934.       1883069.       1958353.       2035103.
       2098776.       2169384.       2243729.       2304657.       2371787.
       2444987.       2507166.       2572893.       2647341.       2701149.
       2770466.       2854567.       2908915.       2977531.       3059041.
       3117842.       3177778.       3252014.       3320026.       3381750.
       3458123.       3534923.       3599979.       3675956.       3743424.
       3799605.       3875543.       3941560.       4005637.       4079959.
       4145751.       4210230.       4273853.       4341420.       4413243.
       4478024.       4535720.       4606622.       4675815.       4738093.
       4807482.       4862842.       4927509.       5004628.       5055954.
       5115893.       5183350.       5229786.       5299583.       5360688.
       5409404.       5488674.       5533482.       5594548.       5683684.
       5724170.       5785741.       5852739.       5909834.       5979589.
       6029635.       6093534.       6148993.       6210186.       6281200.
       6316654.       6377581.       6436017.       6486200.       6543961.
       6587052.       6661288.       6710254.       6749943.       6827092.
       6883932.       6924133.       6975046.       7039525.       7095786.
       7139421.       7185897.       7255419.       7310170.       7340842.
       7393490.       7443660.       7501623.       7541436.       7573564.
       7644249.       7675790.       7705799.       7767280.       7810864.
       7850925.       7872159.       7920391.       7979808.       7984859.
       8024622.       8073432.       8092961.       8123783.       8141891.
       8186387.       8219119.       8224552.       8269730.       8304542.
       8315910.       8341482.       8373479.       8396025.       8425407.
       8441820.       8456745.       8499632.       8509042.       8523325.
       8557207.       8561426.       8585901.       8612021.       8612069.
       8636204.       8649615.       8658297.       8700063.       8713193.
       8712452.       8742572.       8767065.       8768920.       8783561.
       8801968.       8807714.       8816294.       8828499.       8836965.
       8839150.       8854190.       8859178.       8854465.       8864262.
       8877993.       8890679.       8887233.       8889699.       8899514.
       8893373.       8897790.       8900984.       8883415.       8883467.
       8894244.       8877932.       8866015.       8878537.       8858549.
       8828635.       8832743.       8826249.       8812115.       8792736.
       8769091.       8760852.       8746998.       8716644.       8687440.
       8680892.       8663427.       8630224.       8620784.       8598055.
       8572969.       8553288.       8517647.       8513271.       8482347.
       8439385.       8436018.       8407600.       8386657.       8368451.
       8338054.       8307219.       8276476.       8265177.       8224099.
       8191536.       8184133.       8136474.       8104116.       8084850.
       8028876.       7998913.       7976558.       7926123.       7886064.
       7847328.       7812462.       7772736.       7732095.       7694746.
       7637285.       7601096.       7571894.       7523610.       7480582.
       7430642.       7388216.       7339963.       7284036.       7252389.
       7204229.       7146772.       7104494.       7049982.       7002338.
       6952033.       6883227.       6834504.       6787121.       6729672.
       6675189.       6617411.       6559972.       6502057.       6452047.
       6397551.       6335006.       6272336.       6223115.       6163982.
       6083072.       6039092.       5985880.       5910971.       5855792.
       5786783.       5723123.       5671391.       5600511.       5522677.
       5458439.       5399253.       5327932.       5260570.       5194791.
       5115932.       5045731.       4980485.       4909059.       4837108.
       4770629.       4701830.       4626349.       4560288.       4484893.
       4407585.       4342730.       4267539.       4189333.       4115859.
       4044765.       3974191.       3903557.       3831416.       3753609.
       3684875.       3614627.       3534564.       3461076.       3388663.
       3310958.       3233317.       3158525.       3082762.       3015592.
       2935532.       2848516.       2782247.       2698613.       2620204.
       2554922.       2463362.       2385510.       2315865.       2225375.
       2150793.       2082065.       1998672.       1919978.       1841228.
       1759159.       1677925.       1599370.       1520394.       1435740.
       1360771.       1281419.       1196260.       1117094.       1033913.
       949153.0       862656.0       787186.0       700709.0       611525.0
       542014.0       456532.0       368937.0       290559.0       196788.0
       111236.0       29115.00      -66112.00      -143825.0      -236643.0
      -329874.0      -410506.0      -496466.0      -582511.0      -669490.0
      -740713.0      -833750.0      -916002.0      -996130.0      -1093649.
      -1171155.      -1255812.      -1336338.      -1421447.      -1508568.
      -1589738.      -1666290.      -1747032.      -1833870.      -1901595.
      -1985750.      -2064992.      -2139902.      -2235370.      -2313622.
      -2393629.      -2480232.      -2564170.      -2644913.      -2719730.
      -2797288.      -2873233.      -2947105.      -3022837.      -3112064.
      -3184335.      -3255998.      -3348661.      -3422569.      -3503816.
      -3588262.      -3664324.      -3741001.      -3823539.      -3905749.
      -3983143.      -4073602.      -4137133.      -4206306.      -4287391.
      -4351255.      -4429417.      -4504063.      -4576278.      -4647253.
      -4724533.      -4796447.      -4859726.      -4934377.      -5007199.
      -5083387.      -5143173.      -5214964.      -5290474.      -5351111.
      -5435416.      -5500291.      -5556522.      -5620767.      -5693069.
      -5773955.      -5827336.      -5885295.      -5957577.      -6027956.
      -6096703.      -6159469.      -6224898.      -6290236.      -6353862.
      -6417531.      -6474679.      -6533974.      -6599762.      -6652117.
      -6703499.      -6767699.      -6825822.      -6876641.      -6926899.
      -6983917.      -7043349.      -7097010.      -7149848.      -7202141.
      -7257500.      -7314427.      -7361070.      -7413057.      -7472103.
      -7518816.      -7568982.      -7621969.      -7665360.      -7706882.
      -7752407.      -7796381.      -7846194.      -7892759.      -7929952.
      -7972715.      -8010203.      -8051944.      -8091790.      -8122508.
      -8157556.      -8194495.      -8231356.      -8262104.      -8294487.
      -8329658.      -8366564.      -8399120.      -8420306.      -8460660.
      -8502785.      -8530652.      -8565300.      -8590699.      -8617287.
      -8646463.      -8665190.      -8692936.      -8721667.      -8741085.
      -8763476.      -8785369.      -8804500.      -8834544.      -8859225.
      -8869283.      -8894462.      -8914107.      -8921045.      -8946068.
      -8957929.      -8966888.      -8995912.      -8992768.      -8997075.
      -9021233.      -9020833.      -9032927.      -9037844.      -9035463.
      -9050861.      -9049937.      -9042959.      -9054786.      -9053391.
      -9046896.      -9057219.      -9051492.      -9050034.      -9057466.
      -9048268.      -9049568.      -9048108.      -9033030.      -9032902.
      -9030768.      -9018975.      -9001754.      -8999508.      -8997600.
      -8973517.      -8966548.      -8954865.      -8944769.      -8939676.
      -8916295.      -8906370.      -8900290.      -8886159.      -8869449.
      -8852138.      -8838445.      -8823672.      -8806397.      -8784204.
      -8775020.      -8769178.      -8742115.      -8721703.      -8713729.
      -8696072.      -8667199.      -8646838.      -8634149.      -8607951.
      -8580351.      -8557445.      -8535079.      -8510238.      -8481371.
      -8462374.      -8429276.      -8388752.      -8373817.      -8345906.
      -8310945.      -8284959.      -8256191.      -8233296.      -8199708.
      -8168415.      -8141768.      -8111982.      -8085109.      -8051651.
      -8019053.      -7991864.      -7964047.      -7929145.      -7898511.
      -7864930.      -7824244.      -7785615.      -7746965.      -7718717.
      -7679727.      -7630544.      -7591573.      -7554501.      -7515114.
      -7473374.      -7430129.      -7384617.      -7340653.      -7294196.
      -7247893.      -7206210.      -7155024.      -7096655.      -7050495.
      -7002496.      -6950572.      -6907016.      -6850937.      -6804318.
      -6758562.      -6697565.      -6650164.      -6598531.      -6546132.
      -6496517.      -6436725.      -6379658.      -6327978.      -6273862.
      -6217623.      -6163632.      -6105406.      -6047801.      -5997526.
      -5937904.      -5876242.      -5821280.      -5760355.      -5702411.
      -5639263.      -5575787.      -5524573.      -5457250.      -5382426.
      -5320459.      -5254119.      -5188022.      -5126360.      -5058702.
      -4991454.      -4924476.      -4861285.      -4794171.      -4724358.
      -4665153.      -4593227.      -4526489.      -4468735.      -4392339.
      -4333296.      -4275040.      -4201549.      -4137533.      -4065665.
      -4002851.      -3941459.      -3866615.      -3804274.      -3736215.
      -3664415.      -3600060.      -3531793.      -3463666.      -3395395.
      -3329369.      -3256508.      -3188472.      -3119488.      -3042330.
      -2975840.      -2899804.      -2832049.      -2762847.      -2681634.
      -2617741.      -2549095.      -2482174.      -2415580.      -2338561.
      -2277200.      -2212619.      -2139205.      -2079672.      -2011059.
      -1939488.      -1879225.      -1815472.      -1754188.      -1689254.
      -1621046.      -1562535.      -1505098.      -1433734.      -1367914.
      -1318046.      -1249924.      -1190122.      -1139385.      -1065477.
      -1009116.      -949044.0      -877476.0      -822213.0      -759426.0
      -692709.0      -628172.0      -574911.0      -511844.0      -439861.0
      -390487.0      -326271.0      -261283.0      -201818.0      -127373.0
      -76921.00      -16264.00       57871.00       112354.0       174319.0
       238634.0       304100.0       360766.0       422542.0       490006.0
       537542.0       609294.0       679052.0       728729.0       798770.0
       850893.0       907500.0       981295.0       1025211.       1081745.
       1145169.       1196219.       1255369.       1305221.       1361885.
       1415352.       1464165.       1525337.       1568368.       1617773.
       1676684.       1718970.       1768398.       1815578.       1863509.
       1921269.       1960684.       2000433.       2061211.       2113567.
       2149914.       2203312.       2257196.       2292223.       2344859.
       2390445.       2427438.       2488290.       2528375.       2555424.
       2610133.       2656343.       2684931.       2728246.       2770633.
       2805339.       2838942.       2870243.       2910857.       2942206.
       2967536.       3013700.       3044549.       3062622.       3105220.
       3136978.       3163076.       3197387.       3223076.       3264280.
       3297508.       3318333.       3360990.       3390127.       3416751.
       3451355.       3468678.       3500295.       3527686.       3551339.
       3584043.       3601794.       3630012.       3652622.       3674813.
       3707385.       3722601.       3746824.       3774596.       3794261.
       3821967.       3844135.       3858286.       3880610.       3904219.
       3922723.       3943765.       3961529.       3973923.       3994068.
       4018688.       4029007.       4044734.       4063182.       4076519.
       4093875.       4100045.       4117444.       4125646.       4127472.
       4146348.       4148051.       4158378.       4166619.       4159624.
       4174167.       4180324.       4182150.       4195986.       4192476.
       4195380.       4202444.       4201193.       4206775.       4199919.
       4201927.       4208296.       4198393.       4204415.       4209726.
       4206723.       4204819.       4206689.       4215176.       4210236.
       4211793.       4219381.       4219137.       4220014.       4218417.
       4219307.       4211901.       4205702.       4208099.       4195995.
       4183384.       4180455.       4170968.       4155533.       4148064.
       4134507.       4112009.       4110756.       4096246.       4070418.
       4075196.       4062919.       4045032.       4036963.       4012142.
       4004065.       3986360.       3958945.       3954412.       3933722.
       3912774.       3902271.       3881583.       3872953.       3863661.
