     0.05000000      -12345.00      -12345.00   3.318330e+09      -12345.00
   0.0005390000       1859.951      -558.0195      -12345.00      -12345.00
      -12345.00      -12345.00      -12345.00      -12345.00      -12345.00
      -12345.00      -12345.00      -12345.00      -12345.00      -12345.00
      -12345.00      -12345.00      -12345.00      -12345.00      -12345.00
      -12345.00      -12345.00      -12345.00      -12345.00      -12345.00
      -12345.00       13.58930       144.8684       61.00000       109.0000
      -42.72450       173.0647      -12345.00       22.00000      -12345.00
      -12345.00      -12345.00      -12345.00      -12345.00      -12345.00
      -12345.00      -12345.00      -12345.00      -12345.00      -12345.00
       6863.465       328.5557       156.7129       61.72736      -12345.00
      -12345.00      -12345.00       0.000000       0.000000      -12345.00
      -12345.00      -12345.00      -12345.00      -12345.00      -12345.00
      -12345.00      -12345.00      -12345.00      -12345.00      -12345.00
      2016       318        11        12        17
        19         6    -12345    -12345     37200
    -12345    -12345    -12345    -12345    -12345
         1    -12345    -12345    -12345    -12345
    -12345    -12345    -12345    -12345    -12345
    -12345    -12345    -12345    -12345    -12345
    -12345    -12345    -12345    -12345    -12345
         1    -12345    -12345    -12345    -12345
GUMO    South Island, Ne
00      -12345  -12345  
-12345  -12345  -12345  
-12345  -12345  -12345  
-12345  -12345  -12345  
-12345  -12345  -12345  
-12345  -12345  BHZ     
IU      -12345  Geotech 
[...]
      -1076013.      -1078274.      -1080577.      -1082849.      -1085180.
      -1087572.      -1089947.      -1092317.      -1094629.      -1096845.
      -1098904.      -1100925.      -1103041.      -1104990.      -1106788.
      -1108496.      -1109970.      -1111089.      -1111875.      -1112410.
      -1112454.      -1112025.      -1111255.      -1110145.      -1108817.
      -1107408.      -1105996.      -1104452.      -1102843.      -1101159.
      -1099349.      -1097622.      -1095858.      -1093986.      -1092009.
      -1089971.      -1087819.      -1085438.      -1083032.      -1080613.
      -1078235.      -1075919.      -1073595.      -1071335.      -1069037.
      -1066577.      -1063964.      -1061267.      -1058435.      -1055445.
      -1052450.      -1049482.      -1046451.      -1043263.      -1039938.
      -1036435.      -1032634.      -1028774.      -1024966.      -1021110.
      -1017241.      -1013193.      -1008898.      -1004383.      -999691.0
      -994876.0      -990088.0      -985251.0      -980256.0      -975302.0
      -970148.0      -964854.0      -959531.0      -954101.0      -948589.0
      -942950.0      -937454.0      -932092.0      -926733.0      -921260.0
      -915456.0      -909450.0      -903362.0      -897150.0      -890799.0
      -884281.0      -877691.0      -871112.0      -864524.0      -857846.0
      -851070.0      -844161.0      -837169.0      -830207.0      -823181.0
      -816126.0      -809045.0      -802001.0      -795047.0      -788141.0
      -781167.0      -774047.0      -766889.0      -759667.0      -752408.0
      -745217.0      -738306.0      -731499.0      -724644.0      -717880.0
      -711089.0      -704250.0      -697343.0      -690472.0      -683798.0
      -677259.0      -670856.0      -664702.0      -658672.0      -652552.0
      -646399.0      -640278.0      -634214.0      -628207.0      -622350.0
      -616609.0      -610723.0      -604753.0      -598852.0      -592918.0
      -586906.0      -580808.0      -574503.0      -568153.0      -561885.0
      -555719.0      -549763.0      -543997.0      -538486.0      -533179.0
      -527954.0      -522625.0      -517213.0      -511859.0      -506502.0
      -501373.0      -496372.0      -491436.0      -486635.0      -481905.0
      -477193.0      -472448.0      -467991.0      -463677.0      -459546.0
      -455583.0      -451628.0      -447737.0      -443922.0      -440445.0
      -437133.0      -434071.0      -431280.0      -428711.0      -426471.0
      -424326.0      -422356.0      -420571.0      -418827.0      -417074.0
      -415364.0      -413785.0      -412346.0      -410979.0      -409533.0
      -408157.0      -406867.0      -405512.0      -404283.0      -403348.0
      -402539.0      -401516.0      -400247.0      -398897.0      -397625.0
      -396560.0      -395795.0      -395260.0      -394769.0      -394317.0
      -393999.0      -393998.0      -394248.0      -394668.0      -395376.0
      -396451.0      -397829.0      -399305.0      -400823.0      -402397.0
      -404073.0      -405861.0      -407834.0      -409850.0      -411698.0
      -413575.0      -415406.0      -417031.0      -418532.0      -420026.0
      -421666.0      -423552.0      -425643.0      -427753.0      -429992.0
      -432569.0      -435361.0      -438265.0      -441296.0      -444409.0
      -447555.0      -450777.0      -454072.0      -457429.0      -460883.0
      -464440.0      -468072.0      -471654.0      -475082.0      -478427.0
      -481825.0      -485407.0      -489108.0      -492828.0      -496635.0
      -500444.0      -504433.0      -508603.0      -512667.0      -516796.0
      -521221.0      -526003.0      -531079.0      -536388.0      -541717.0
      -546961.0      -552090.0      -557133.0      -562341.0      -567497.0
      -572534.0      -577672.0      -582836.0      -588053.0      -593245.0
      -598312.0      -603426.0      -608822.0      -614484.0      -620262.0
      -626164.0      -631980.0      -637674.0      -643440.0      -649129.0
      -654892.0      -660773.0      -666577.0      -672421.0      -678066.0
      -683458.0      -688896.0      -694374.0      -699767.0      -705154.0
      -710493.0      -715657.0      -720834.0      -725981.0      -731187.0
      -736497.0      -741777.0      -747040.0      -752109.0      -757017.0
      -761659.0      -765891.0      -769734.0      -773352.0      -777014.0
      -780515.0      -783895.0      -787353.0      -790800.0      -794229.0
      -797619.0      -801133.0      -804843.0      -808635.0      -812665.0
      -817013.0      -821336.0      -825425.0      -829486.0      -833513.0
      -837405.0      -841102.0      -844609.0      -847922.0      -850926.0
      -853795.0      -856489.0      -858874.0      -860970.0      -862774.0
      -864519.0      -866030.0      -867122.0      -868016.0      -868853.0
      -869708.0      -870420.0      -870976.0      -871357.0      -871553.0
      -871701.0      -871811.0      -871902.0      -871890.0      -871920.0
      -872227.0      -872759.0      -873185.0      -873214.0      -872918.0
      -872479.0      -872043.0      -871536.0      -870786.0      -869727.0
      -868416.0      -867036.0      -865565.0      -863946.0      -862196.0
      -860157.0      -857741.0      -855022.0      -851980.0      -848542.0
      -844928.0      -841219.0      -837418.0      -833555.0      -829503.0
      -825353.0      -821131.0      -816821.0      -812453.0      -807897.0
      -803055.0      -798146.0      -793287.0      -788456.0      -783651.0
      -778719.0      -773681.0      -768608.0      -763573.0      -758607.0
      -753649.0      -748554.0      -743251.0      -737887.0      -732473.0
      -726960.0      -721529.0      -716188.0      -710817.0      -705548.0
      -700373.0      -695130.0      -689611.0      -683859.0      -677970.0
      -672033.0      -666198.0      -660478.0      -654966.0      -649500.0
      -643986.0      -638463.0      -632973.0      -627632.0      -622257.0
      -616662.0      -610879.0      -605014.0      -599138.0      -593184.0
      -587280.0      -581510.0      -575642.0      -569732.0      -563823.0
      -557684.0      -551444.0      -545245.0      -539044.0      -532792.0
      -526349.0      -519858.0      -513610.0      -507638.0      -501863.0
      -496199.0      -490589.0      -484978.0      -479385.0      -473864.0
      -468298.0      -462625.0      -456905.0      -451184.0      -445432.0
      -439623.0      -433774.0      -427834.0      -422028.0      -416378.0
      -410759.0      -405212.0      -399526.0      -393975.0      -388650.0
      -383523.0      -378754.0      -373845.0      -368833.0      -364009.0
      -359228.0      -354499.0      -349718.0      -344927.0      -340259.0
      -335589.0      -331173.0      -326946.0      -322693.0      -318626.0
      -314581.0      -310693.0      -307010.0      -303352.0      -299862.0
      -296627.0      -293501.0      -290415.0      -287618.0      -284922.0
      -282317.0      -279883.0      -277534.0      -275450.0      -273643.0
      -272007.0      -270420.0      -268988.0      -267571.0      -265878.0
      -264413.0      -263159.0      -261719.0      -260534.0      -259537.0
      -258847.0      -258583.0      -258196.0      -257906.0      -257693.0
      -257312.0      -257193.0      -257560.0      -257999.0      -258521.0
      -259630.0      -260934.0      -262453.0      -264182.0      -265670.0
      -267327.0      -268929.0      -270558.0      -272374.0      -274115.0
      -276041.0      -277957.0      -279829.0      -281806.0      -283867.0
      -285885.0      -288212.0      -291072.0      -294133.0      -297568.0
      -301343.0      -305136.0      -308986.0      -312749.0      -316486.0
      -320547.0      -324458.0      -328489.0      -332942.0      -337365.0
      -341778.0      -346339.0      -351154.0      -355973.0      -361067.0
      -366263.0      -371399.0      -376784.0      -382132.0      -387642.0
      -393319.0      -399049.0      -404853.0      -410732.0      -416822.0
      -422923.0      -429073.0      -435383.0      -441886.0      -448817.0
      -455856.0      -463103.0      -470752.0      -478421.0      -486002.0
      -493307.0      -500797.0      -508306.0      -515728.0      -523641.0
      -531500.0      -539279.0      -546970.0      -554554.0      -562593.0
      -570673.0      -578872.0      -587521.0      -596075.0      -604371.0
      -612789.0      -621451.0      -630098.0      -638950.0      -647832.0
      -656841.0      -666230.0      -675635.0      -685047.0      -694435.0
      -703589.0      -712304.0      -720741.0      -729125.0      -737567.0
      -745592.0      -753438.0      -761337.0      -768895.0      -776557.0
      -783996.0      -791500.0      -799136.0      -806752.0      -814647.0
      -821924.0      -829051.0      -836497.0      -844019.0      -851529.0
      -859135.0      -867030.0      -874662.0      -882231.0      -889708.0
      -897056.0      -904673.0      -912095.0      -919345.0      -926728.0
      -933784.0      -940657.0      -947653.0      -954568.0      -961384.0
      -968062.0      -974605.0      -980957.0      -987352.0      -993843.0
      -1000133.      -1006263.      -1012020.      -1017395.      -1022701.
      -1027968.      -1033169.      -1038125.      -1042770.      -1047377.
      -1052068.      -1056607.      -1060920.      -1065295.      -1069839.
      -1074625.      -1079635.      -1084739.      -1090137.      -1095649.
      -1100962.      -1106248.      -1111502.      -1116552.      -1121496.
      -1126207.      -1130431.      -1134331.      -1138031.      -1141807.
      -1145676.      -1149316.      -1152850.      -1156342.      -1159791.
      -1163213.      -1166460.      -1169416.      -1172085.      -1174674.
      -1177137.      -1179508.      -1182061.      -1184442.      -1186625.
      -1188957.      -1191239.      -1193255.      -1195058.      -1196838.
      -1198622.      -1200469.      -1202115.      -1203352.      -1204421.
      -1205053.      -1205336.      -1205594.      -1205518.      -1205191.
      -1204850.      -1204388.      -1203845.      -1203139.      -1202278.
      -1201458.      -1200565.      -1199418.      -1198171.      -1196818.
      -1195321.      -1193770.      -1191910.      -1189748.      -1187384.
      -1184893.      -1182183.      -1179095.      -1175749.      -1171998.
      -1167989.      -1163993.      -1159936.      -1155841.      -1151693.
      -1147355.      -1142718.      -1137769.      -1132515.      -1126939.
      -1121076.      -1115134.      -1109205.      -1103072.      -1096871.
      -1090741.      -1084449.      -1077917.      -1071193.      -1064392.
      -1057597.      -1050891.      -1044242.      -1037487.      -1030529.
      -1023277.      -1015816.      -1008115.      -1000072.      -991869.0
      -983475.0      -974852.0      -966102.0      -957266.0      -948380.0
      -939322.0      -930251.0      -921286.0      -912396.0      -903539.0
      -894464.0      -885305.0      -876181.0      -867066.0      -857742.0
      -848010.0      -838129.0      -828011.0      -817651.0      -807309.0
      -796977.0      -786727.0      -776596.0      -766363.0      -755918.0
      -745381.0      -734723.0      -723920.0      -713056.0      -702076.0
      -690934.0      -679669.0      -668275.0      -656645.0      -644890.0
      -633173.0      -621361.0      -609471.0      -597612.0      -585753.0
      -574002.0      -562395.0      -550851.0      -539511.0      -528486.0
      -517714.0      -507014.0      -496274.0      -485562.0      -474812.0
      -463968.0      -453125.0      -442378.0      -431538.0      -420534.0
      -409513.0      -398484.0      -387561.0      -376563.0      -365442.0
      -354306.0      -343161.0      -332089.0      -320939.0      -309930.0
      -299208.0      -288656.0      -278452.0      -268645.0      -259100.0
      -249671.0      -240508.0      -231704.0      -223090.0      -214548.0
      -206001.0      -197713.0      -189607.0      -181555.0      -173760.0
      -166026.0      -158250.0      -150485.0      -142791.0      -135165.0
      -127665.0      -120285.0      -112994.0      -105982.0      -99216.00
      -92710.00      -86437.00      -80250.00      -74171.00      -68413.00
      -62989.00      -57844.00      -52976.00      -48284.00      -43741.00
      -39304.00      -35176.00      -31289.00      -27539.00      -23899.00
      -20169.00      -16542.00      -12873.00      -9020.000      -5178.000
      -1426.000       2156.000       5641.000       8998.000       12178.00
       15176.00       17983.00       20646.00       23035.00       25055.00
       26608.00       27611.00       28208.00       28611.00       28866.00
       28991.00       29158.00       29271.00       29154.00       28778.00
       28097.00       27237.00       26202.00       24931.00       23461.00
       21812.00       20036.00       18115.00       16073.00       13871.00
       11331.00       8540.000       5701.000       2782.000      -275.0000
      -3398.000      -6631.000      -10124.00      -13850.00      -17644.00
      -21341.00      -24869.00      -28364.00      -32014.00      -35584.00
      -39098.00      -42881.00      -46818.00      -51061.00      -55595.00
      -60447.00      -65692.00      -71077.00      -76843.00      -82974.00
      -89517.00      -96403.00      -103328.0      -110485.0      -117680.0
      -124863.0      -132176.0      -139519.0      -146857.0      -154282.0
      -161873.0      -169282.0      -176667.0      -184341.0      -192004.0
      -199547.0      -206995.0      -214332.0      -221557.0      -228723.0
      -235881.0      -243068.0      -250367.0      -257848.0      -265555.0
      -273432.0      -281583.0      -289884.0      -298277.0      -306823.0
      -315359.0      -324038.0      -332879.0      -341771.0      -350730.0
      -359919.0      -369406.0      -378884.0      -388133.0      -397088.0
      -405808.0      -414550.0      -423461.0      -432535.0      -441680.0
      -450733.0      -459926.0      -469367.0      -478886.0      -488575.0
      -498379.0      -508145.0      -517832.0      -527565.0      -537331.0
      -547097.0      -557079.0      -567138.0      -577126.0      -587096.0
      -597050.0      -606994.0      -616835.0      -626605.0      -636225.0
      -645615.0      -654844.0      -663946.0      -673218.0      -682555.0
      -691735.0      -700994.0      -710330.0      -719724.0      -729180.0
      -738675.0      -748234.0      -757672.0      -766793.0      -775765.0
      -784745.0      -793557.0      -802345.0      -811296.0      -820385.0
      -829554.0      -838577.0      -847480.0      -856303.0      -864892.0
      -873389.0      -881877.0      -890164.0      -898283.0      -906365.0
      -914441.0      -922397.0      -930085.0      -937484.0      -944605.0
      -951525.0      -958512.0      -965753.0      -973055.0      -980355.0
      -987534.0      -994496.0      -1001499.      -1008504.      -1015456.
      -1022474.      -1029509.      -1036542.      -1043416.      -1050178.
      -1057043.      -1063752.      -1070216.      -1076526.      -1082754.
      -1088884.      -1094843.      -1100598.      -1106138.      -1111622.
      -1116930.      -1122194.      -1127484.      -1132645.      -1137830.
      -1142858.      -1147633.      -1152096.      -1156199.      -1160342.
      -1164343.      -1168045.      -1171731.      -1175245.      -1178593.
      -1181808.      -1184983.      -1188231.      -1191336.      -1194315.
      -1197243.      -1200140.      -1202887.      -1205388.      -1207559.
      -1209373.      -1210913.      -1212135.      -1213016.      -1213401.
      -1213506.      -1213532.      -1213409.      -1213219.      -1212934.
      -1212570.      -1212098.      -1211600.      -1211300.      -1211219.
      -1210977.      -1210500.      -1210033.      -1209280.      -1208251.
      -1207185.      -1206001.      -1204557.      -1202797.      -1200770.
      -1198410.      -1195643.      -1192587.      -1189343.      -1185830.
      -1182222.      -1178772.      -1175379.      -1171916.      -1168513.
      -1165204.      -1161845.      -1158422.      -1155086.      -1151883.
      -1148399.      -1144595.      -1140726.      -1136711.      -1132699.
      -1128593.      -1124246.      -1119758.      -1115041.      -1110305.
      -1105629.      -1100873.      -1096194.      -1091530.      -1086673.
      -1081628.      -1076320.      -1070796.      -1065095.      -1059212.
      -1053282.      -1047233.      -1041057.      -1034812.      -1028393.
      -1021690.      -1014844.      -1008010.      -1001120.      -994178.0
      -987061.0      -979629.0      -972001.0      -964304.0      -956520.0
      -948651.0      -940628.0      -932418.0      -924134.0      -915636.0
      -906926.0      -898161.0      -889448.0      -880982.0      -872609.0
      -864183.0      -855787.0      -847362.0      -838941.0      -830589.0
      -822135.0      -813605.0      -805013.0      -796207.0      -787283.0
      -778252.0      -768872.0      -759231.0      -749571.0      -739841.0
      -730068.0      -720297.0      -710599.0      -700944.0      -691526.0
      -682479.0      -673582.0      -664940.0      -656287.0      -647635.0
      -639010.0      -630312.0      -621795.0      -613053.0      -604134.0
      -595204.0      -586231.0      -577449.0      -568670.0      -559955.0
      -551334.0      -542631.0      -533917.0      -525228.0      -516615.0
      -508018.0      -499334.0      -490690.0      -482403.0      -474448.0
      -466538.0      -458707.0      -450954.0      -443322.0      -436035.0
      -429240.0      -422855.0      -416498.0      -410145.0      -403967.0
      -397741.0      -391570.0      -385480.0      -379246.0      -373172.0
      -367136.0      -360971.0      -354897.0      -348682.0      -342379.0
      -336292.0      -330354.0      -324578.0      -319053.0      -313569.0
      -308267.0      -303445.0      -298864.0      -294599.0      -290682.0
      -286784.0      -283007.0      -279428.0      -275918.0      -272437.0
      -268954.0      -265498.0      -262068.0      -258755.0      -255639.0
      -252648.0      -249773.0      -246914.0      -244161.0      -241584.0
