     0.05000000      -12345.00      -12345.00   1.716310e+09      -12345.00
   0.0005380000       1859.951      -558.0195      -12345.00      -12345.00
      -12345.00      -12345.00      -12345.00      -12345.00      -12345.00
      -12345.00      -12345.00      -12345.00      -12345.00      -12345.00
      -12345.00      -12345.00      -12345.00      -12345.00      -12345.00
      -12345.00      -12345.00      -12345.00      -12345.00      -12345.00
      -12345.00       13.58930       144.8684       61.00000       109.0000
      -42.72450       173.0647      -12345.00       22.00000      -12345.00
      -12345.00      -12345.00      -12345.00      -12345.00      -12345.00
      -12345.00      -12345.00      -12345.00      -12345.00      -12345.00
       6863.465       328.5557       156.7129       61.72736      -12345.00
      -12345.00      -12345.00       89.00000       90.00000      -12345.00
      -12345.00      -12345.00      -12345.00      -12345.00      -12345.00
      -12345.00      -12345.00      -12345.00      -12345.00      -12345.00
      2016       318        11        12        17
        19         6    -12345    -12345     37200
    -12345    -12345    -12345    -12345    -12345
         1    -12345    -12345    -12345    -12345
    -12345    -12345    -12345    -12345    -12345
    -12345    -12345    -12345    -12345    -12345
    -12345    -12345    -12345    -12345    -12345
         1    -12345    -12345    -12345    -12345
GUMO    South Island, Ne
00      -12345  -12345  
-12345  -12345  -12345  
-12345  -12345  -12345  
-12345  -12345  -12345  
-12345  -12345  -12345  
-12345  -12345  BH2     
IU      -12345  Geotech 
[...]
       880130.0       884172.0       887870.0       891399.0       895063.0
       898798.0       902583.0       906555.0       910699.0       914402.0
       917824.0       921249.0       924425.0       927431.0       930193.0
       932915.0       935610.0       938206.0       940854.0       943307.0
       945612.0       947783.0       949747.0       951668.0       953551.0
       955240.0       956722.0       958108.0       959329.0       960430.0
       961499.0       962516.0       963678.0       964873.0       965950.0
       967120.0       968300.0       969358.0       970243.0       971018.0
       971798.0       972399.0       972712.0       972816.0       972738.0
       972613.0       972526.0       972435.0       972318.0       972150.0
       971874.0       971377.0       970792.0       970454.0       970383.0
       970366.0       970442.0       970374.0       970042.0       969834.0
       969855.0       969958.0       970129.0       970457.0       970726.0
       970786.0       970520.0       970094.0       969705.0       969084.0
       968303.0       967651.0       966966.0       966024.0       965030.0
       963967.0       962959.0       962099.0       961073.0       960051.0
       959152.0       958293.0       957655.0       957292.0       957210.0
       957282.0       957411.0       957645.0       957872.0       958299.0
       958858.0       959414.0       960121.0       960775.0       961370.0
       961957.0       962552.0       963313.0       964050.0       964652.0
       965394.0       966135.0       966522.0       966510.0       966460.0
       966520.0       966440.0       966218.0       965813.0       965309.0
       964750.0       964129.0       963459.0       962728.0       962086.0
       961367.0       960544.0       959549.0       958136.0       956633.0
       955360.0       954085.0       952630.0       951297.0       950299.0
       949423.0       948444.0       947235.0       945937.0       944645.0
       943036.0       941291.0       939699.0       938303.0       937131.0
       935738.0       934210.0       932779.0       931256.0       929758.0
       928234.0       926606.0       924959.0       923134.0       921144.0
       919207.0       917205.0       915126.0       913162.0       911325.0
       909462.0       907666.0       906037.0       904309.0       902651.0
       901081.0       899466.0       897916.0       896392.0       894976.0
       893511.0       892194.0       891117.0       889784.0       888400.0
       887139.0       885857.0       884672.0       883625.0       882868.0
       882366.0       882123.0       882361.0       882764.0       883090.0
       883397.0       883812.0       884234.0       884479.0       884651.0
       884781.0       884977.0       885349.0       885899.0       886417.0
       887053.0       887953.0       888920.0       889938.0       890934.0
       892234.0       893864.0       895602.0       897446.0       899017.0
       900344.0       901649.0       902736.0       903733.0       904803.0
       905790.0       906666.0       907373.0       908017.0       908535.0
       908707.0       908689.0       908556.0       908212.0       907622.0
       906908.0       906197.0       905389.0       904532.0       903881.0
       903334.0       902766.0       902199.0       901484.0       900538.0
       899372.0       897991.0       896450.0       894666.0       892724.0
       890829.0       888883.0       886894.0       884840.0       882758.0
       880616.0       878281.0       875863.0       873288.0       870643.0
       867875.0       864825.0       861626.0       858276.0       854734.0
       850996.0       847175.0       843467.0       839867.0       836344.0
       832946.0       829537.0       826075.0       822489.0       818830.0
       815373.0       812122.0       808957.0       805783.0       802599.0
       799285.0       795768.0       792064.0       788069.0       783693.0
       779000.0       774214.0       769295.0       764035.0       758559.0
       753056.0       747490.0       741769.0       735891.0       729926.0
       723885.0       717921.0       711927.0       705800.0       699880.0
       694026.0       687929.0       681661.0       675439.0       669265.0
       663120.0       657066.0       651134.0       645204.0       639095.0
       633084.0       627119.0       621092.0       615027.0       608878.0
       602819.0       596866.0       591259.0       586054.0       580916.0
       575857.0       570967.0       566127.0       561382.0       556711.0
       552215.0       548039.0       543922.0       539954.0       536213.0
       532676.0       529379.0       526241.0       523186.0       520180.0
       517494.0       514827.0       511932.0       509099.0       506355.0
       503869.0       501646.0       499602.0       497808.0       496300.0
       495240.0       494570.0       494113.0       493797.0       493565.0
       493443.0       493488.0       493756.0       494064.0       494317.0
       494569.0       494726.0       494843.0       494865.0       494523.0
       493987.0       493513.0       492724.0       491521.0       490090.0
       488348.0       486573.0       484777.0       482816.0       480931.0
       479075.0       477135.0       475119.0       473031.0       470753.0
       468233.0       465641.0       463180.0       460903.0       458750.0
       456741.0       454879.0       453126.0       451120.0       448851.0
       446548.0       444131.0       441783.0       439530.0       437247.0
       434705.0       431929.0       429071.0       425871.0       422490.0
       419121.0       415598.0       411863.0       407949.0       403992.0
       400072.0       395897.0       391337.0       386659.0       381910.0
       376999.0       371749.0       366367.0       361314.0       356328.0
       351236.0       346261.0       341438.0       336596.0       331515.0
       326248.0       320910.0       315504.0       309918.0       304402.0
       299108.0       293672.0       287959.0       281893.0       275394.0
       268623.0       261716.0       254563.0       247151.0       239602.0
       232033.0       224576.0       217166.0       209581.0       201793.0
       193989.0       186214.0       178396.0       170413.0       162094.0
       153545.0       144741.0       135665.0       126562.0       117296.0
       107902.0       98496.00       89161.00       80068.00       70807.00
       61334.00       51691.00       41691.00       31479.00       20983.00
       10328.00      -421.0000      -11354.00      -22331.00      -33268.00
      -44166.00      -55089.00      -65883.00      -76491.00      -87026.00
      -97578.00      -108224.0      -118962.0      -129854.0      -141025.0
      -152501.0      -164092.0      -175689.0      -187350.0      -199121.0
      -210984.0      -222737.0      -234268.0      -245696.0      -257126.0
      -268462.0      -279657.0      -290917.0      -302164.0      -313398.0
      -324738.0      -335955.0      -346908.0      -357649.0      -368306.0
      -379078.0      -389947.0      -400964.0      -412256.0      -423457.0
      -434692.0      -446289.0      -457930.0      -469483.0      -480975.0
      -492449.0      -503960.0      -515547.0      -527203.0      -538968.0
      -550861.0      -562726.0      -574666.0      -586743.0      -598825.0
      -610677.0      -622294.0      -633844.0      -645183.0      -656427.0
      -667542.0      -678373.0      -688996.0      -699450.0      -709712.0
      -719670.0      -729349.0      -738626.0      -747471.0      -755728.0
      -763454.0      -771017.0      -778302.0      -785331.0      -792108.0
      -798573.0      -804942.0      -811360.0      -817696.0      -823887.0
      -829955.0      -835742.0      -841387.0      -847110.0      -852760.0
      -858211.0      -863445.0      -868679.0      -873973.0      -878977.0
      -883717.0      -888264.0      -892660.0      -897053.0      -901297.0
      -905359.0      -909215.0      -912671.0      -915824.0      -918702.0
      -921246.0      -923549.0      -925606.0      -927434.0      -929007.0
      -930342.0      -931626.0      -932842.0      -933625.0      -934015.0
      -934072.0      -933524.0      -932681.0      -931748.0      -930660.0
      -929495.0      -928229.0      -926983.0      -925930.0      -924865.0
      -923546.0      -922174.0      -920642.0      -918627.0      -916257.0
      -913850.0      -911474.0      -908757.0      -905726.0      -902694.0
      -899748.0      -896803.0      -893735.0      -890733.0      -887637.0
      -884449.0      -881347.0      -878159.0      -875035.0      -871868.0
      -868602.0      -865256.0      -861686.0      -857941.0      -854093.0
      -850293.0      -846435.0      -842478.0      -838488.0      -834207.0
      -829528.0      -824544.0      -819591.0      -814767.0      -809689.0
      -804650.0      -799795.0      -795020.0      -790394.0      -785751.0
      -781100.0      -776384.0      -771536.0      -766522.0      -761487.0
      -756317.0      -750897.0      -745467.0      -740010.0      -734586.0
      -729293.0      -724096.0      -718944.0      -713847.0      -708849.0
      -703936.0      -699020.0      -694118.0      -689522.0      -685454.0
      -681601.0      -677592.0      -673711.0      -669997.0      -666252.0
      -662552.0      -659032.0      -655781.0      -652687.0      -649765.0
      -646803.0      -643923.0      -641230.0      -638406.0      -635621.0
      -632814.0      -630099.0      -627709.0      -625523.0      -623664.0
      -621962.0      -620125.0      -618297.0      -616530.0      -614621.0
      -612612.0      -610493.0      -608381.0      -606643.0      -605162.0
      -603929.0      -602943.0      -602056.0      -601250.0      -600403.0
      -599533.0      -598484.0      -597214.0      -596027.0      -595002.0
      -594100.0      -593234.0      -592429.0      -591761.0      -591206.0
      -590902.0      -590997.0      -591557.0      -592483.0      -593625.0
      -595003.0      -596622.0      -598568.0      -600672.0      -602624.0
      -604412.0      -606113.0      -608003.0      -610056.0      -611958.0
      -613879.0      -615980.0      -618215.0      -620624.0      -623204.0
      -625859.0      -628515.0      -631378.0      -634547.0      -637952.0
      -641604.0      -645416.0      -649253.0      -653125.0      -657251.0
      -661598.0      -665956.0      -670431.0      -675092.0      -679800.0
      -684465.0      -689061.0      -693673.0      -698292.0      -702823.0
      -707488.0      -712393.0      -717285.0      -722119.0      -726964.0
      -731796.0      -736623.0      -741558.0      -746526.0      -751478.0
      -756332.0      -760855.0      -765162.0      -769257.0      -773437.0
      -777805.0      -782098.0      -786440.0      -790758.0      -795189.0
      -799669.0      -804073.0      -808633.0      -813263.0      -817994.0
      -822821.0      -827732.0      -832725.0      -837623.0      -842554.0
      -847604.0      -852645.0      -857566.0      -862471.0      -867437.0
      -872377.0      -877519.0      -882954.0      -888646.0      -894426.0
      -900099.0      -905649.0      -911048.0      -916508.0      -921812.0
      -926919.0      -932131.0      -937449.0      -942940.0      -948489.0
      -953963.0      -959304.0      -964494.0      -969864.0      -975622.0
      -981512.0      -987319.0      -993073.0      -998853.0      -1004690.
      -1010679.      -1016785.      -1023035.      -1029555.      -1036338.
      -1043366.      -1050651.      -1058177.      -1065803.      -1073545.
      -1081153.      -1088562.      -1096140.      -1103791.      -1111510.
      -1119253.      -1126937.      -1134338.      -1141226.      -1148078.
      -1154911.      -1161524.      -1168153.      -1175054.      -1182182.
      -1189372.      -1196659.      -1204042.      -1211612.      -1219322.
      -1227115.      -1234941.      -1242700.      -1250491.      -1258254.
      -1265973.      -1273664.      -1281458.      -1289475.      -1297567.
      -1305881.      -1314284.      -1322710.      -1331244.      -1339596.
      -1347908.      -1356223.      -1364243.      -1372140.      -1380189.
      -1388333.      -1396750.      -1405416.      -1414055.      -1422774.
      -1431447.      -1439929.      -1448394.      -1456866.      -1465226.
      -1473595.      -1481957.      -1490095.      -1497986.      -1505531.
      -1512752.      -1519740.      -1526436.      -1532813.      -1538948.
      -1544942.      -1550682.      -1556043.      -1561010.      -1565620.
      -1570040.      -1574262.      -1578008.      -1581336.      -1584513.
      -1587428.      -1589984.      -1592125.      -1593841.      -1595166.
      -1596046.      -1596753.      -1597420.      -1597785.      -1597544.
      -1596838.      -1595877.      -1594589.      -1593045.      -1591164.
      -1588991.      -1586555.      -1583745.      -1580477.      -1576732.
      -1572753.      -1568428.      -1563793.      -1558969.      -1553789.
      -1548312.      -1542635.      -1536567.      -1529861.      -1522741.
      -1515328.      -1507637.      -1499668.      -1491523.      -1483251.
      -1474572.      -1465562.      -1456354.      -1446949.      -1437353.
      -1427523.      -1417290.      -1406696.      -1395709.      -1384146.
      -1372256.      -1360206.      -1347957.      -1335620.      -1323019.
      -1310011.      -1296863.      -1283411.      -1269647.      -1255675.
      -1241493.      -1227040.      -1212015.      -1196939.      -1181959.
      -1166872.      -1151973.      -1137132.      -1122226.      -1107195.
      -1092150.      -1077175.      -1062081.      -1046931.      -1031675.
      -1016486.      -1001454.      -986406.0      -971326.0      -955961.0
      -940350.0      -924837.0      -909247.0      -893379.0      -877427.0
      -861431.0      -845372.0      -829339.0      -813411.0      -797590.0
      -781815.0      -766008.0      -750231.0      -734620.0      -719234.0
      -704057.0      -689007.0      -674177.0      -659626.0      -645340.0
      -631126.0      -616987.0      -603071.0      -589287.0      -575779.0
      -562448.0      -549039.0      -535450.0      -521754.0      -508216.0
      -494794.0      -481418.0      -468065.0      -454531.0      -440813.0
      -427104.0      -413445.0      -399911.0      -386453.0      -373036.0
      -360060.0      -347523.0      -335198.0      -322995.0      -310857.0
      -299000.0      -287233.0      -275401.0      -263488.0      -251389.0
      -239316.0      -227096.0      -214739.0      -202448.0      -190064.0
      -177715.0      -165632.0      -153741.0      -141916.0      -130080.0
      -118396.0      -106880.0      -95168.00      -83305.00      -71214.00
      -58940.00      -46682.00      -34284.00      -21730.00      -9027.000
       3585.000       16042.00       28549.00       41053.00       53514.00
       65893.00       78175.00       90555.00       103300.0       116471.0
       129896.0       143386.0       156989.0       170684.0       184311.0
       197893.0       211387.0       224874.0       238404.0       251847.0
       265424.0       279129.0       292782.0       306558.0       320363.0
       334198.0       348172.0       361983.0       375662.0       389316.0
       402833.0       416247.0       429606.0       442913.0       455963.0
       468830.0       481646.0       494389.0       507023.0       519378.0
       531658.0       543810.0       555718.0       567433.0       579098.0
       590821.0       602439.0       614110.0       625853.0       637668.0
       649547.0       661365.0       673156.0       684986.0       696916.0
       708842.0       720645.0       732216.0       743568.0       754615.0
       765381.0       775988.0       786290.0       796394.0       806288.0
       815957.0       825417.0       834693.0       844084.0       853442.0
       862702.0       872107.0       881617.0       891127.0       900512.0
       909662.0       918597.0       927476.0       936155.0       944451.0
       952393.0       959996.0       967647.0       975349.0       982884.0
       990467.0       998068.0       1005454.       1012598.       1019687.
       1026753.       1033819.       1041017.       1048229.       1055319.
       1062248.       1069015.       1075706.       1082198.       1088349.
       1094260.       1100050.       1105771.       1111397.       1117023.
       1122655.       1128199.       1133773.       1139336.       1144924.
       1150447.       1155810.       1161064.       1166110.       1171114.
       1175893.       1180425.       1184899.       1189206.       1193347.
       1197412.       1201455.       1205348.       1209293.       1213216.
       1217013.       1220846.       1224514.       1228133.       1231582.
       1234770.       1237924.       1240918.       1243729.       1246348.
       1248614.       1250574.       1252438.       1254117.       1255694.
       1257273.       1258665.       1259978.       1261103.       1262025.
       1262791.       1263238.       1263418.       1263337.       1263056.
       1262554.       1261654.       1260397.       1258759.       1256702.
       1254672.       1252731.       1250568.       1248372.       1246199.
       1244055.       1242015.       1239862.       1237625.       1235350.
       1232786.       1229991.       1227008.       1223906.       1220917.
       1217856.       1214655.       1211398.       1208222.       1205084.
       1201806.       1198526.       1195182.       1191945.       1188801.
       1185544.       1182326.       1179114.       1175800.       1172257.
       1168760.       1165499.       1162211.       1158972.       1155618.
       1152036.       1148328.       1144500.       1140913.       1137538.
       1134059.       1130424.       1126718.       1122821.       1118717.
       1114425.       1109936.       1105335.       1100498.       1095556.
       1090317.       1084857.       1079390.       1073821.       1068288.
       1062595.       1057039.       1051674.       1046287.       1040861.
       1035187.       1029377.       1023258.       1016740.       1010012.
       1003191.       996261.0       989217.0       982046.0       974667.0
