     0.02500000      -12345.00      -12345.00   1.974680e+09      -12345.00
   0.0005380000       1859.976      -352.0196      -12345.00      -12345.00
      -12345.00      -12345.00      -12345.00      -12345.00      -12345.00
      -12345.00      -12345.00      -12345.00      -12345.00      -12345.00
      -12345.00      -12345.00      -12345.00      -12345.00      -12345.00
      -12345.00      -12345.00      -12345.00      -12345.00      -12345.00
      -12345.00      -9.438700       159.9475       29.00000       71.00000
      -42.72450       173.0647      -12345.00       22.00000      -12345.00
      -12345.00      -12345.00      -12345.00      -12345.00      -12345.00
      -12345.00      -12345.00      -12345.00      -12345.00      -12345.00
       3902.062       337.0785       163.0892       35.09364      -12345.00
      -12345.00      -12345.00       111.0000       90.00000      -12345.00
      -12345.00      -12345.00      -12345.00      -12345.00      -12345.00
      -12345.00      -12345.00      -12345.00      -12345.00      -12345.00
      2016       318        11         8        51
        19         6    -12345    -12345     74400
    -12345    -12345    -12345    -12345    -12345
         1    -12345    -12345    -12345    -12345
    -12345    -12345    -12345    -12345    -12345
    -12345    -12345    -12345    -12345    -12345
    -12345    -12345    -12345    -12345    -12345
         1    -12345    -12345    -12345    -12345
HNR     South Island, Ne
00      -12345  -12345  
-12345  -12345  -12345  
-12345  -12345  -12345  
-12345  -12345  -12345  
-12345  -12345  -12345  
-12345  -12345  BH2     
IU      -12345  T120 pos
[...]
      -165415.0      -162040.0      -158680.0      -155133.0      -151739.0
      -148482.0      -145097.0      -141722.0      -138483.0      -135220.0
      -131931.0      -128547.0      -125174.0      -121862.0      -118646.0
      -115588.0      -112309.0      -109130.0      -106217.0      -103168.0
      -99999.00      -97045.00      -94445.00      -91868.00      -89224.00
      -86672.00      -84388.00      -81972.00      -79426.00      -77395.00
      -75341.00      -73204.00      -71547.00      -69851.00      -68190.00
      -66789.00      -65258.00      -63965.00      -62880.00      -61905.00
      -61190.00      -60439.00      -59914.00      -59636.00      -59251.00
      -59090.00      -59102.00      -58979.00      -59295.00      -59884.00
      -60160.00      -60625.00      -61534.00      -62515.00      -63312.00
      -64384.00      -65829.00      -66995.00      -68413.00      -70162.00
      -71713.00      -73460.00      -75305.00      -77078.00      -78876.00
      -80786.00      -82896.00      -85034.00      -87092.00      -89239.00
      -91618.00      -93860.00      -96063.00      -98333.00      -100550.0
      -102972.0      -105431.0      -107952.0      -110459.0      -112876.0
      -115244.0      -117553.0      -120065.0      -122423.0      -124589.0
      -126789.0      -129005.0      -131285.0      -133452.0      -135608.0
      -137777.0      -139906.0      -141930.0      -143878.0      -145912.0
      -147594.0      -149199.0      -151079.0      -152589.0      -154020.0
      -155744.0      -157424.0      -158855.0      -160081.0      -161393.0
      -162564.0      -163724.0      -165050.0      -166079.0      -167036.0
      -168139.0      -169146.0      -169916.0      -170733.0      -171651.0
      -172317.0      -173053.0      -173942.0      -174471.0      -175108.0
      -176069.0      -176593.0      -177139.0      -178058.0      -178707.0
      -179241.0      -179967.0      -180569.0      -181055.0      -181776.0
      -182609.0      -183366.0      -184242.0      -185066.0      -185763.0
      -186613.0      -187352.0      -188208.0      -189274.0      -190128.0
      -191077.0      -192080.0      -193258.0      -194528.0      -195454.0
      -196704.0      -198153.0      -199409.0      -200807.0      -202199.0
      -203692.0      -205193.0      -206702.0      -208383.0      -209842.0
      -211352.0      -213148.0      -214981.0      -216829.0      -218672.0
      -220572.0      -222536.0      -224504.0      -226437.0      -228406.0
      -230545.0      -232747.0      -234994.0      -237280.0      -239543.0
      -242008.0      -244400.0      -246601.0      -249186.0      -251721.0
      -253918.0      -256485.0      -259139.0      -261544.0      -264195.0
      -266849.0      -269328.0      -272019.0      -274589.0      -277107.0
      -279985.0      -282671.0      -285219.0      -287865.0      -290513.0
      -293363.0      -295990.0      -298498.0      -301161.0      -303712.0
      -306285.0      -308878.0      -311349.0      -313687.0      -316120.0
      -318541.0      -320788.0      -323201.0      -325551.0      -327755.0
      -330065.0      -332192.0      -334296.0      -336464.0      -338420.0
      -340591.0      -342695.0      -344495.0      -346646.0      -348794.0
      -350591.0      -352234.0      -353962.0      -355698.0      -357088.0
      -358683.0      -360486.0      -361813.0      -363012.0      -364420.0
      -365642.0      -366726.0      -367852.0      -368918.0      -369989.0
      -370914.0      -371762.0      -372590.0      -373376.0      -374343.0
      -375077.0      -375710.0      -376586.0      -377190.0      -377679.0
      -378279.0      -378843.0      -379322.0      -379682.0      -380050.0
      -380437.0      -380887.0      -381362.0      -381746.0      -381996.0
      -382213.0      -382564.0      -382930.0      -383068.0      -382975.0
      -383044.0      -383261.0      -383297.0      -383207.0      -383246.0
      -383421.0      -383276.0      -383054.0      -383050.0      -382810.0
      -382516.0      -382346.0      -382035.0      -381640.0      -381222.0
      -380786.0      -380324.0      -379750.0      -379187.0      -378717.0
      -378305.0      -377788.0      -377156.0      -376641.0      -376001.0
      -375226.0      -374514.0      -373872.0      -373336.0      -372618.0
      -371919.0      -371392.0      -370731.0      -370089.0      -369412.0
      -368649.0      -367925.0      -367208.0      -366471.0      -365831.0
      -365352.0      -364669.0      -364052.0      -363517.0      -362657.0
      -361974.0      -361383.0      -360527.0      -359808.0      -359239.0
      -358403.0      -357653.0      -357091.0      -356203.0      -355384.0
      -354632.0      -353775.0      -353212.0      -352488.0      -351623.0
      -350976.0      -350289.0      -349565.0      -348626.0      -347799.0
      -347289.0      -346479.0      -345635.0      -344970.0      -344140.0
      -343249.0      -342462.0      -341656.0      -340667.0      -339730.0
      -338960.0      -337927.0      -336834.0      -335939.0      -334820.0
      -333759.0      -332708.0      -331445.0      -330451.0      -329279.0
      -327858.0      -326740.0      -325599.0      -324352.0      -323037.0
      -321576.0      -320175.0      -318696.0      -316991.0      -315439.0
      -313950.0      -312210.0      -310513.0      -308775.0      -306911.0
      -305173.0      -303372.0      -301271.0      -299255.0      -297533.0
      -295465.0      -293199.0      -291194.0      -289043.0      -286810.0
      -284579.0      -282112.0      -279853.0      -277719.0      -275227.0
      -272916.0      -270744.0      -268119.0      -265405.0      -262865.0
      -260293.0      -257560.0      -254719.0      -251981.0      -249287.0
      -246645.0      -243786.0      -240660.0      -237898.0      -235105.0
      -231991.0      -228987.0      -225990.0      -222897.0      -219927.0
      -217053.0      -213971.0      -210873.0      -207873.0      -204741.0
      -201649.0      -198573.0      -195504.0      -192581.0      -189647.0
      -186836.0      -184104.0      -181187.0      -178409.0      -175783.0
      -173027.0      -170423.0      -167866.0      -165233.0      -162801.0
      -160222.0      -157717.0      -155518.0      -152967.0      -150540.0
      -148583.0      -146291.0      -144005.0      -142093.0      -139907.0
      -137803.0      -136073.0      -133961.0      -131972.0      -130375.0
      -128487.0      -126629.0      -124866.0      -123161.0      -121409.0
      -119489.0      -117725.0      -115891.0      -114163.0      -112477.0
      -110535.0      -108759.0      -107083.0      -105294.0      -103356.0
      -101487.0      -99652.00      -97683.00      -95811.00      -93686.00
      -91540.00      -89640.00      -87413.00      -84972.00      -82651.00
      -80329.00      -77831.00      -75361.00      -72963.00      -70294.00
      -67518.00      -64718.00      -61730.00      -58707.00      -55678.00
      -52430.00      -48925.00      -45561.00      -42178.00      -38447.00
      -34898.00      -31270.00      -27309.00      -23406.00      -19410.00
      -15272.00      -10829.00      -6366.000      -2057.000       2528.000
       7205.000       11932.00       16751.00       21583.00       26508.00
       31668.00       37003.00       42190.00       47371.00       52752.00
       58341.00       63974.00       69491.00       75171.00       80893.00
       86612.00       92588.00       98535.00       104585.0       110854.0
       116955.0       123053.0       129294.0       135548.0       141783.0
       147900.0       154067.0       160356.0       166574.0       172904.0
       179431.0       185781.0       191939.0       198435.0       204981.0
       211185.0       217500.0       223841.0       230140.0       236527.0
       242772.0       249031.0       255406.0       261731.0       268050.0
       274346.0       280556.0       286725.0       292894.0       299093.0
       305523.0       311921.0       318201.0       324875.0       331359.0
       337684.0       344265.0       350637.0       357082.0       363594.0
       369854.0       376272.0       383040.0       389642.0       396371.0
       403507.0       410262.0       417040.0       424288.0       431354.0
       438239.0       445301.0       452398.0       459472.0       466535.0
       473691.0       481028.0       488435.0       496113.0       503897.0
       511679.0       519373.0       526905.0       534873.0       542835.0
       550317.0       558142.0       566185.0       573797.0       581629.0
       589806.0       597712.0       605653.0       613620.0       621610.0
       629754.0       637547.0       645304.0       653168.0       660933.0
       668826.0       676609.0       684295.0       692099.0       700082.0
       707915.0       715324.0       722890.0       730431.0       737636.0
       745095.0       752419.0       759242.0       766484.0       773992.0
       781138.0       788465.0       795647.0       802451.0       809636.0
       816766.0       823409.0       829998.0       836627.0       843209.0
       849709.0       856138.0       862568.0       868944.0       875432.0
       881874.0       887959.0       894224.0       900384.0       906271.0
       912229.0       918010.0       923946.0       929676.0       935117.0
       940933.0       946703.0       952175.0       957760.0       963472.0
       968900.0       974266.0       979654.0       984757.0       989929.0
       995179.0       1000200.       1005203.       1010285.       1015262.
       1020267.       1025464.       1030580.       1035457.       1040210.
       1045035.       1049928.       1054680.       1059439.       1064173.
       1068845.       1073798.       1078720.       1083413.       1088188.
       1093009.       1097792.       1102595.       1107299.       1111959.
       1116835.       1121590.       1126314.       1131268.       1136057.
       1140778.       1145649.       1150645.       1155556.       1160415.
       1165449.       1170346.       1175270.       1180235.       1185124.
       1190108.       1194932.       1199825.       1204761.       1209489.
       1214300.       1219200.       1224044.       1228921.       1233822.
       1238633.       1243494.       1248280.       1252883.       1257524.
       1262150.       1266779.       1271362.       1275937.       1280493.
       1284802.       1289253.       1293766.       1297975.       1302201.
       1306525.       1310696.       1314738.       1318887.       1322893.
       1326842.       1331082.       1334943.       1338527.       1342487.
       1346214.       1349481.       1353057.       1356796.       1360235.
       1363787.       1367245.       1370444.       1373838.       1377361.
       1380886.       1384214.       1387405.       1390818.       1394275.
       1397475.       1400593.       1403930.       1407244.       1410369.
       1413617.       1416849.       1419907.       1423117.       1426304.
       1429503.       1432779.       1435683.       1438705.       1441959.
       1445056.       1448174.       1451230.       1454252.       1457336.
       1460496.       1463677.       1466570.       1469483.       1472500.
       1475363.       1478487.       1481460.       1484144.       1487175.
       1490162.       1493007.       1495845.       1498549.       1501447.
       1504469.       1507385.       1510170.       1512831.       1515645.
       1518433.       1521229.       1524101.       1526686.       1529426.
       1532330.       1534978.       1537743.       1540503.       1543030.
       1545690.       1548442.       1551065.       1553594.       1556262.
       1558926.       1561417.       1564026.       1566517.       1568944.
       1571674.       1574207.       1576602.       1579304.       1581942.
       1584484.       1587059.       1589482.       1591920.       1594422.
       1596742.       1599062.       1601536.       1603799.       1606074.
       1608596.       1610801.       1612858.       1615214.       1617473.
       1619460.       1621728.       1624105.       1626156.       1628213.
       1630221.       1632350.       1634419.       1636233.       1638202.
       1640042.       1641817.       1643525.       1645066.       1646614.
       1648042.       1649413.       1650742.       1652068.       1653405.
       1654688.       1655967.       1657106.       1658215.       1659313.
       1660243.       1661273.       1662122.       1662924.       1663882.
       1664513.       1665112.       1665726.       1666224.       1666722.
       1667043.       1667255.       1667669.       1668038.       1668084.
       1668336.       1668661.       1668631.       1668591.       1668662.
       1668689.       1668619.       1668406.       1668258.       1668071.
       1667696.       1667556.       1667352.       1666888.       1666583.
       1666291.       1666026.       1665718.       1665297.       1664949.
       1664510.       1663923.       1663420.       1663063.       1662399.
       1661698.       1661175.       1660477.       1660040.       1659695.
       1659156.       1658677.       1658267.       1657946.       1657545.
       1657121.       1656775.       1656427.       1656086.       1655697.
       1655382.       1655202.       1654887.       1654415.       1654132.
       1653844.       1653212.       1652783.       1652665.       1652357.
       1652064.       1651902.       1651552.       1651100.       1650859.
       1650617.       1650273.       1649938.       1649529.       1649245.
       1648817.       1648451.       1648284.       1647693.       1647161.
       1646710.       1645999.       1645485.       1645031.       1644479.
       1644098.       1643529.       1642803.       1642239.       1641530.
       1640863.       1640179.       1639354.       1638626.       1637787.
       1636883.       1635869.       1634801.       1633724.       1632402.
       1631077.       1629809.       1628492.       1627013.       1625419.
       1623806.       1621960.       1620101.       1618170.       1616091.
       1614014.       1611648.       1609390.       1607099.       1604223.
       1601452.       1598838.       1595870.       1592699.       1589495.
       1586204.       1582664.       1579019.       1575462.       1571693.
       1567777.       1563980.       1559897.       1555799.       1551918.
       1547639.       1543280.       1539024.       1534408.       1529566.
       1524722.       1519775.       1514633.       1509499.       1504253.
       1498738.       1493488.       1488177.       1482387.       1476831.
       1471344.       1465497.       1459631.       1453754.       1447758.
       1441674.       1435504.       1429244.       1422926.       1416546.
       1409955.       1403333.       1396666.       1389917.       1383249.
       1376360.       1369484.       1362719.       1355768.       1348812.
       1341902.       1335009.       1328093.       1321186.       1314148.
       1306909.       1299797.       1292612.       1285320.       1278065.
       1270680.       1263353.       1255738.       1247911.       1240417.
       1232839.       1225159.       1217507.       1209875.       1202265.
       1194396.       1186630.       1178939.       1170915.       1162927.
       1155088.       1147120.       1139055.       1131003.       1123028.
       1114946.       1106681.       1098416.       1090103.       1081818.
       1073476.       1065141.       1057031.       1048742.       1040373.
       1032219.       1023951.       1015470.       1007013.       998683.0
       990284.0       981719.0       973160.0       964628.0       956105.0
       947476.0       938620.0       929796.0       921214.0       912639.0
       903785.0       894989.0       886441.0       877657.0       868811.0
       860097.0       851163.0       842382.0       833635.0       824328.0
       815131.0       806277.0       797098.0       787915.0       779043.0
       769998.0       760781.0       751627.0       742400.0       733192.0
       724221.0       715013.0       705609.0       696637.0       687443.0
       677980.0       668868.0       659628.0       650262.0       641122.0
       632062.0       622698.0       613259.0       604229.0       595065.0
       585777.0       576741.0       567592.0       558407.0       549320.0
       540223.0       531206.0       522256.0       513260.0       504157.0
       495120.0       486291.0       477275.0       468132.0       459402.0
       450540.0       441297.0       432380.0       423466.0       414303.0
       405481.0       396664.0       387644.0       378799.0       369915.0
       361003.0       352005.0       342842.0       333714.0       324608.0
       315553.0       306370.0       297015.0       287716.0       278586.0
       269360.0       259938.0       250714.0       241374.0       231916.0
       222864.0       213735.0       204402.0       195159.0       185862.0
       176606.0       167309.0       158000.0       148826.0       139510.0
       130142.0       120806.0       111449.0       102129.0       92602.00
       83190.00       73990.00       64532.00       55155.00       45848.00
       36456.00       27233.00       18069.00       8774.000      -629.0000
      -9836.000      -19061.00      -28470.00      -37728.00      -46936.00
      -56364.00      -65813.00      -75077.00      -84455.00      -93881.00
      -103128.0      -112386.0      -121771.0      -131151.0      -140393.0
      -149658.0      -159031.0      -168375.0      -177759.0      -187172.0
      -196447.0      -205852.0      -215458.0      -224876.0      -234305.0
      -243925.0      -253477.0      -263072.0      -272790.0      -282311.0
      -291782.0      -301448.0      -310893.0      -320350.0      -330107.0
      -339669.0      -349227.0      -358869.0      -368463.0      -378243.0
      -387830.0      -397412.0      -407244.0      -416919.0      -426726.0
      -436555.0      -446153.0      -455917.0      -465764.0      -475483.0
      -485058.0      -494472.0      -504030.0      -513502.0      -522734.0
      -532105.0      -541285.0      -550323.0      -559471.0      -568530.0
      -577407.0      -586370.0      -595498.0      -604300.0      -612871.0
