     0.02500000      -12345.00      -12345.00   3.262830e+10      -12345.00
   0.0005390000       1859.976      -352.0196      -12345.00      -12345.00
      -12345.00      -12345.00      -12345.00      -12345.00      -12345.00
      -12345.00      -12345.00      -12345.00      -12345.00      -12345.00
      -12345.00      -12345.00      -12345.00      -12345.00      -12345.00
      -12345.00      -12345.00      -12345.00      -12345.00      -12345.00
      -12345.00      -9.438700       159.9475       99.00000       1.000000
      -42.72450       173.0647      -12345.00       22.00000      -12345.00
      -12345.00      -12345.00      -12345.00      -12345.00      -12345.00
      -12345.00      -12345.00      -12345.00      -12345.00      -12345.00
       3902.062       337.0785       163.0892       35.09364      -12345.00
      -12345.00      -12345.00       3.000000       90.00000      -12345.00
      -12345.00      -12345.00      -12345.00      -12345.00      -12345.00
      -12345.00      -12345.00      -12345.00      -12345.00      -12345.00
      2016       318        11         8        51
        19         6    -12345    -12345     74400
    -12345    -12345    -12345    -12345    -12345
         1    -12345    -12345    -12345    -12345
    -12345    -12345    -12345    -12345    -12345
    -12345    -12345    -12345    -12345    -12345
    -12345    -12345    -12345    -12345    -12345
         1    -12345    -12345    -12345    -12345
HNR     South Island, Ne
10      -12345  -12345  
-12345  -12345  -12345  
-12345  -12345  -12345  
-12345  -12345  -12345  
-12345  -12345  -12345  
-12345  -12345  BH1     
IU      -12345  Streckei
[...]
       1214055.       1379588.       1523025.       1673793.       1834527.
       1978939.       2130808.       2283682.       2436178.       2591713.
       2738754.       2888401.       3039280.       3194878.       3340363.
       3487068.       3642207.       3782904.       3934949.       4090506.
       4238505.       4387671.       4532210.       4681644.       4831775.
       4983413.       5131878.       5274059.       5421514.       5576072.
       5737030.       5876365.       6015193.       6171556.       6306028.
       6459031.       6620156.       6747879.       6900831.       7056406.
       7188582.       7340149.       7480906.       7612377.       7770249.
       7921486.       8050015.       8184423.       8335065.       8487263.
       8626127.       8759024.       8904371.       9038406.       9167024.
       9312507.       9446086.       9575007.       9706423.       9843609.
       9987736.   1.011566e+07   1.024232e+07   1.038156e+07   1.052278e+07
   1.064931e+07   1.077486e+07   1.091735e+07   1.104185e+07   1.115838e+07
   1.129041e+07   1.141917e+07   1.154806e+07   1.166658e+07   1.178905e+07
   1.192743e+07   1.204420e+07   1.216543e+07   1.230125e+07   1.241921e+07
   1.253874e+07   1.265584e+07   1.276140e+07   1.287592e+07   1.299732e+07
   1.311467e+07   1.323663e+07   1.335724e+07   1.345175e+07   1.355922e+07
   1.367326e+07   1.376923e+07   1.390001e+07   1.400677e+07   1.408465e+07
   1.420811e+07   1.430979e+07   1.439890e+07   1.451334e+07   1.461260e+07
   1.471332e+07   1.481107e+07   1.491512e+07   1.502006e+07   1.509917e+07
   1.520013e+07   1.530324e+07   1.538902e+07   1.549318e+07   1.558323e+07
   1.565620e+07   1.576071e+07   1.585366e+07   1.592570e+07   1.603380e+07
   1.612492e+07   1.618632e+07   1.626471e+07   1.635493e+07   1.644249e+07
   1.650646e+07   1.658092e+07   1.667944e+07   1.673956e+07   1.679551e+07
   1.689639e+07   1.696835e+07   1.702172e+07   1.711557e+07   1.718937e+07
   1.724888e+07   1.733257e+07   1.739496e+07   1.745993e+07   1.753507e+07
   1.757556e+07   1.763837e+07   1.772238e+07   1.776785e+07   1.783008e+07
   1.790088e+07   1.795309e+07   1.802119e+07   1.807105e+07   1.812439e+07
   1.818267e+07   1.822506e+07   1.829160e+07   1.834997e+07   1.839842e+07
   1.845372e+07   1.849770e+07   1.854096e+07   1.858645e+07   1.863368e+07
   1.868667e+07   1.873680e+07   1.876861e+07   1.880419e+07   1.885263e+07
   1.889912e+07   1.894352e+07   1.896440e+07   1.899020e+07   1.904114e+07
   1.907225e+07   1.909924e+07   1.913903e+07   1.916342e+07   1.918743e+07
   1.922414e+07   1.925578e+07   1.927204e+07   1.928923e+07   1.931646e+07
   1.934348e+07   1.937444e+07   1.936570e+07   1.936631e+07   1.942047e+07
   1.941411e+07   1.942538e+07   1.945765e+07   1.941330e+07   1.944922e+07
   1.948279e+07   1.944510e+07   1.947807e+07   1.946563e+07   1.944633e+07
   1.947697e+07   1.944597e+07   1.944979e+07   1.945476e+07   1.941675e+07
   1.943245e+07   1.942393e+07   1.939462e+07   1.938381e+07   1.934825e+07
   1.934724e+07   1.934496e+07   1.930199e+07   1.929094e+07   1.927096e+07
   1.923309e+07   1.922362e+07   1.918546e+07   1.914575e+07   1.913458e+07
   1.908989e+07   1.905936e+07   1.902461e+07   1.897237e+07   1.895828e+07
   1.890404e+07   1.885141e+07   1.883407e+07   1.878734e+07   1.875353e+07
   1.870025e+07   1.863370e+07   1.860136e+07   1.855447e+07   1.850346e+07
   1.843670e+07   1.839260e+07   1.836084e+07   1.825598e+07   1.820656e+07
   1.815704e+07   1.806612e+07   1.804831e+07   1.797382e+07   1.789423e+07
   1.784735e+07   1.774965e+07   1.768997e+07   1.763374e+07   1.754621e+07
   1.747771e+07   1.741394e+07   1.732394e+07   1.725442e+07   1.719007e+07
   1.707214e+07   1.700043e+07   1.693358e+07   1.682798e+07   1.675706e+07
   1.666643e+07   1.657444e+07   1.648664e+07   1.637774e+07   1.628847e+07
   1.618398e+07   1.608845e+07   1.600160e+07   1.587734e+07   1.578911e+07
   1.569633e+07   1.556220e+07   1.547023e+07   1.536421e+07   1.522546e+07
   1.513009e+07   1.502458e+07   1.488462e+07   1.477523e+07   1.465446e+07
   1.452208e+07   1.442323e+07   1.428448e+07   1.414989e+07   1.405519e+07
   1.390912e+07   1.376503e+07   1.365277e+07   1.351646e+07   1.338269e+07
   1.325391e+07   1.310992e+07   1.297207e+07   1.284309e+07   1.271156e+07
   1.257293e+07   1.241675e+07   1.226652e+07   1.215347e+07   1.200833e+07
   1.184540e+07   1.173191e+07   1.157365e+07   1.139866e+07   1.126816e+07
   1.110600e+07   1.094445e+07   1.081909e+07   1.066310e+07   1.049432e+07
   1.034591e+07   1.017455e+07   1.001390e+07       9860008.       9700232.
       9569607.       9391508.       9194742.       9049264.       8885034.
       8710141.       8540952.       8365337.       8207500.       8030188.
       7853562.       7691720.       7518168.       7345604.       7162141.
       6995790.       6823289.       6636724.       6462272.       6279209.
       6116033.       5937530.       5753072.       5577548.       5376193.
       5209559.       5032479.       4834162.       4669886.       4481726.
       4286772.       4105978.       3908766.       3719094.       3550810.
       3360943.       3158445.       2990163.       2811624.       2607893.
       2407206.       2218697.       2035543.       1833516.       1633918.
       1453808.       1270688.       1075544.       882923.0       695669.0
       501647.0       306806.0       125230.0      -68908.00      -260367.0
      -440429.0      -649405.0      -841252.0      -1020880.      -1209937.
      -1393220.      -1594076.      -1778775.      -1966705.      -2167971.
      -2334839.      -2536606.      -2744148.      -2900877.      -3111826.
      -3317941.      -3489972.      -3703768.      -3888469.      -4075156.
      -4262105.      -4419876.      -4621877.      -4819976.      -5013001.
      -5202250.      -5369646.      -5581949.      -5763809.      -5923022.
      -6140090.      -6322387.      -6493175.      -6690942.      -6866035.
      -7050832.      -7234699.      -7402594.      -7593642.      -7787987.
      -7956311.      -8138291.      -8323475.      -8487304.      -8675736.
      -8851788.      -9017346.      -9204218.      -9369472.      -9544541.
      -9725268.      -9896295.  -1.007429e+07  -1.024472e+07  -1.041312e+07
  -1.056948e+07  -1.073237e+07  -1.091402e+07  -1.108334e+07  -1.125074e+07
  -1.142157e+07  -1.158770e+07  -1.175855e+07  -1.191582e+07  -1.207022e+07
  -1.223976e+07  -1.240417e+07  -1.256457e+07  -1.272214e+07  -1.288179e+07
  -1.305009e+07  -1.321299e+07  -1.337113e+07  -1.352578e+07  -1.366482e+07
  -1.381793e+07  -1.398274e+07  -1.413014e+07  -1.429411e+07  -1.446173e+07
  -1.459702e+07  -1.473968e+07  -1.490618e+07  -1.505275e+07  -1.519340e+07
  -1.535407e+07  -1.550473e+07  -1.565313e+07  -1.579933e+07  -1.592643e+07
  -1.607077e+07  -1.622646e+07  -1.635717e+07  -1.649423e+07  -1.664449e+07
  -1.677026e+07  -1.689796e+07  -1.704741e+07  -1.718399e+07  -1.731235e+07
  -1.744460e+07  -1.757956e+07  -1.772046e+07  -1.784735e+07  -1.796322e+07
  -1.808610e+07  -1.821352e+07  -1.834313e+07  -1.847180e+07  -1.859099e+07
  -1.871134e+07  -1.884207e+07  -1.894944e+07  -1.905824e+07  -1.918892e+07
  -1.929001e+07  -1.940350e+07  -1.952831e+07  -1.962672e+07  -1.973322e+07
  -1.983738e+07  -1.995554e+07  -2.007254e+07  -2.016773e+07  -2.026893e+07
  -2.035634e+07  -2.045471e+07  -2.056457e+07  -2.065625e+07  -2.075486e+07
  -2.084989e+07  -2.094569e+07  -2.104721e+07  -2.113257e+07  -2.121283e+07
  -2.129485e+07  -2.138516e+07  -2.147121e+07  -2.154927e+07  -2.162927e+07
  -2.169614e+07  -2.177007e+07  -2.185459e+07  -2.192203e+07  -2.198295e+07
  -2.205080e+07  -2.213394e+07  -2.220714e+07  -2.226331e+07  -2.233179e+07
  -2.238862e+07  -2.245100e+07  -2.250656e+07  -2.255419e+07  -2.263367e+07
  -2.267255e+07  -2.271102e+07  -2.278193e+07  -2.282145e+07  -2.286342e+07
  -2.290402e+07  -2.294383e+07  -2.299680e+07  -2.303604e+07  -2.308052e+07
  -2.312230e+07  -2.314369e+07  -2.317876e+07  -2.320629e+07  -2.322909e+07
  -2.326842e+07  -2.330176e+07  -2.333193e+07  -2.332794e+07  -2.333142e+07
  -2.336093e+07  -2.338174e+07  -2.340394e+07  -2.339604e+07  -2.339931e+07
  -2.341195e+07  -2.339900e+07  -2.339741e+07  -2.341530e+07  -2.343698e+07
  -2.341340e+07  -2.338106e+07  -2.337838e+07  -2.336040e+07  -2.334851e+07
  -2.332697e+07  -2.328072e+07  -2.326970e+07  -2.324292e+07  -2.318679e+07
  -2.319136e+07  -2.316612e+07  -2.308623e+07  -2.306197e+07  -2.302901e+07
  -2.298088e+07  -2.294270e+07  -2.288853e+07  -2.284654e+07  -2.278086e+07
  -2.271790e+07  -2.266316e+07  -2.259659e+07  -2.255951e+07  -2.247969e+07
  -2.237820e+07  -2.232217e+07  -2.224839e+07  -2.216824e+07  -2.210361e+07
  -2.202345e+07  -2.193539e+07  -2.183040e+07  -2.172997e+07  -2.166936e+07
  -2.157885e+07  -2.146528e+07  -2.136427e+07  -2.124719e+07  -2.116056e+07
  -2.106318e+07  -2.094509e+07  -2.084556e+07  -2.072512e+07  -2.060976e+07
  -2.048632e+07  -2.038593e+07  -2.030168e+07  -2.014721e+07  -2.000307e+07
  -1.989476e+07  -1.976672e+07  -1.962729e+07  -1.950130e+07  -1.938672e+07
  -1.923046e+07  -1.907250e+07  -1.895224e+07  -1.881453e+07  -1.866763e+07
  -1.852452e+07  -1.836888e+07  -1.821570e+07  -1.806448e+07  -1.789988e+07
  -1.774542e+07  -1.759251e+07  -1.742357e+07  -1.726175e+07  -1.710558e+07
  -1.694611e+07  -1.675174e+07  -1.655751e+07  -1.641314e+07  -1.624582e+07
  -1.605592e+07  -1.588206e+07  -1.568142e+07  -1.549053e+07  -1.533900e+07
  -1.514774e+07  -1.494063e+07  -1.476677e+07  -1.456924e+07  -1.436281e+07
  -1.416434e+07  -1.396137e+07  -1.377130e+07  -1.356567e+07  -1.334913e+07
  -1.314113e+07  -1.293974e+07  -1.274051e+07  -1.252679e+07  -1.230944e+07
  -1.209429e+07  -1.187597e+07  -1.165395e+07  -1.144074e+07  -1.123585e+07
  -1.101060e+07  -1.078749e+07  -1.057565e+07  -1.035135e+07  -1.012848e+07
      -9900602.      -9666761.      -9430193.      -9196741.      -8986225.
      -8762762.      -8514821.      -8279029.      -8051690.      -7830193.
      -7609781.      -7356111.      -7104122.      -6884502.      -6648852.
      -6404365.      -6174828.      -5951373.      -5721820.      -5466389.
      -5221379.      -4994641.      -4751782.      -4515117.      -4277101.
      -4032646.      -3798252.      -3552006.      -3319009.      -3099777.
      -2839413.      -2577336.      -2348825.      -2106227.      -1863274.
      -1625924.      -1378758.      -1145092.      -897704.0      -646782.0
      -412511.0      -171471.0       73075.00       324971.0       566517.0
       799126.0       1058719.       1307138.       1541212.       1793247.
       2020847.       2265982.       2533475.       2762719.       3003433.
       3241106.       3476809.       3735655.       3964337.       4200234.
       4465151.       4692792.       4909046.       5162271.       5408570.
       5640705.       5871070.       6100510.       6342994.       6574179.
       6806285.       7057089.       7292595.       7504312.       7720683.
       7967173.       8222988.       8442761.       8647246.       8884894.
       9129161.       9339612.       9552333.       9811070.   1.005566e+07
   1.022741e+07   1.041792e+07   1.067418e+07   1.090849e+07   1.110624e+07
   1.131050e+07   1.153167e+07   1.176194e+07   1.196748e+07   1.215726e+07
   1.237892e+07   1.259385e+07   1.276560e+07   1.296776e+07   1.320281e+07
   1.340150e+07   1.358901e+07   1.379658e+07   1.399913e+07   1.417237e+07
   1.435496e+07   1.457375e+07   1.476862e+07   1.493367e+07   1.511460e+07
   1.531328e+07   1.550771e+07   1.568235e+07   1.585597e+07   1.604149e+07
   1.622207e+07   1.639490e+07   1.656115e+07   1.674979e+07   1.693733e+07
   1.707023e+07   1.723528e+07   1.742759e+07   1.757345e+07   1.775209e+07
   1.794002e+07   1.807599e+07   1.823181e+07   1.840126e+07   1.854501e+07
   1.869438e+07   1.885801e+07   1.902106e+07   1.915927e+07   1.929115e+07
   1.945413e+07   1.959276e+07   1.972076e+07   1.988096e+07   2.000818e+07
   2.013899e+07   2.028399e+07   2.039976e+07   2.054681e+07   2.067617e+07
   2.078255e+07   2.092681e+07   2.103837e+07   2.115273e+07   2.128472e+07
   2.138145e+07   2.150372e+07   2.162265e+07   2.170973e+07   2.182313e+07
   2.193394e+07   2.202585e+07   2.213773e+07   2.223444e+07   2.231364e+07
   2.242564e+07   2.250976e+07   2.258061e+07   2.268924e+07   2.276673e+07
   2.283252e+07   2.291356e+07   2.299748e+07   2.309112e+07   2.314194e+07
   2.318437e+07   2.328631e+07   2.335530e+07   2.338601e+07   2.345953e+07
   2.351722e+07   2.356763e+07   2.363310e+07   2.366136e+07   2.371087e+07
   2.378255e+07   2.379906e+07   2.382570e+07   2.388188e+07   2.389417e+07
   2.391577e+07   2.396902e+07   2.400312e+07   2.400832e+07   2.400825e+07
   2.405122e+07   2.408888e+07   2.406671e+07   2.408046e+07   2.412780e+07
   2.409838e+07   2.408807e+07   2.412550e+07   2.411147e+07   2.410310e+07
   2.409490e+07   2.408143e+07   2.409169e+07   2.405705e+07   2.403785e+07
   2.403977e+07   2.399130e+07   2.396172e+07   2.394853e+07   2.391971e+07
   2.388666e+07   2.384559e+07   2.381262e+07   2.377893e+07   2.371193e+07
   2.366523e+07   2.366694e+07   2.361459e+07   2.353896e+07   2.349518e+07
   2.343302e+07   2.336883e+07   2.330458e+07   2.325785e+07   2.321855e+07
   2.311987e+07   2.303422e+07   2.298473e+07   2.289935e+07   2.281641e+07
   2.274258e+07   2.264828e+07   2.258033e+07   2.250288e+07   2.237709e+07
   2.231176e+07   2.224948e+07   2.210874e+07   2.200230e+07   2.191086e+07
   2.179796e+07   2.169728e+07   2.160433e+07   2.149364e+07   2.136937e+07
   2.126998e+07   2.115277e+07   2.102199e+07   2.090523e+07   2.079400e+07
   2.066049e+07   2.051214e+07   2.041604e+07   2.028685e+07   2.013011e+07
   2.001803e+07   1.988240e+07   1.974492e+07   1.960360e+07   1.943983e+07
   1.931453e+07   1.919372e+07   1.902495e+07   1.885388e+07   1.872092e+07
   1.858583e+07   1.843322e+07   1.828244e+07   1.811177e+07   1.795917e+07
   1.780867e+07   1.762337e+07   1.747340e+07   1.731561e+07   1.713599e+07
   1.698139e+07   1.681258e+07   1.663277e+07   1.644656e+07   1.627204e+07
   1.613436e+07   1.597522e+07   1.575367e+07   1.555950e+07   1.541730e+07
   1.522016e+07   1.504349e+07   1.488785e+07   1.466115e+07   1.448001e+07
   1.430003e+07   1.408068e+07   1.392842e+07   1.375041e+07   1.352323e+07
   1.334255e+07   1.314375e+07   1.294134e+07   1.276680e+07   1.254038e+07
   1.234926e+07   1.216303e+07   1.190764e+07   1.173040e+07   1.155893e+07
   1.130993e+07   1.109595e+07   1.089623e+07   1.069285e+07   1.049013e+07
   1.025793e+07   1.005609e+07       9845952.       9594606.       9415415.
       9232240.       8969173.       8764033.       8564944.       8301069.
       8094565.       7902159.       7664934.       7439735.       7217795.
       6998067.       6776198.       6538997.       6340108.       6123012.
       5850493.       5638576.       5430553.       5187897.       4969727.
       4757639.       4521238.       4282031.       4075630.       3831564.
       3599159.       3398319.       3155982.       2927657.       2694253.
       2449543.       2240414.       2018350.       1769542.       1563158.
       1337824.       1062692.       835721.0       639678.0       429084.0
       156719.0      -85976.00      -271800.0      -528342.0      -751203.0
      -956988.0      -1211504.      -1433635.      -1684962.      -1915327.
      -2095141.      -2351862.      -2593687.      -2792198.      -3034757.
      -3245437.      -3458126.      -3732507.      -3961065.      -4148905.
      -4382045.      -4616311.      -4819944.      -5045814.      -5291235.
      -5485079.      -5681168.      -5941053.      -6139551.      -6329625.
      -6587275.      -6787643.      -6988386.      -7225081.      -7411738.
      -7615177.      -7847836.      -8033579.      -8236384.      -8474823.
      -8671294.      -8861026.      -9089073.      -9294170.      -9472785.
      -9679659.      -9877788.  -1.007922e+07  -1.028860e+07  -1.046432e+07
  -1.064836e+07  -1.085037e+07  -1.106154e+07  -1.124325e+07  -1.140971e+07
  -1.162545e+07  -1.182176e+07  -1.199562e+07  -1.217161e+07  -1.234505e+07
  -1.254536e+07  -1.271142e+07  -1.288059e+07  -1.307262e+07  -1.321792e+07
  -1.340391e+07  -1.360409e+07  -1.374433e+07  -1.391730e+07  -1.410038e+07
  -1.425724e+07  -1.441363e+07  -1.458048e+07  -1.476902e+07  -1.490961e+07
  -1.505241e+07  -1.522348e+07  -1.538932e+07  -1.556664e+07  -1.569238e+07
  -1.583358e+07  -1.600290e+07  -1.614332e+07  -1.629747e+07  -1.643512e+07
  -1.657613e+07  -1.672139e+07  -1.685733e+07  -1.701558e+07  -1.714928e+07
  -1.729155e+07  -1.743866e+07  -1.755491e+07  -1.768874e+07  -1.782217e+07
  -1.795097e+07  -1.809152e+07  -1.821639e+07  -1.833606e+07  -1.848288e+07
  -1.858808e+07  -1.868730e+07  -1.884751e+07  -1.893342e+07  -1.902625e+07
  -1.917774e+07  -1.927600e+07  -1.938983e+07  -1.948374e+07  -1.959632e+07
  -1.973586e+07  -1.979038e+07  -1.988718e+07  -2.002664e+07  -2.010092e+07
  -2.017700e+07  -2.028421e+07  -2.038503e+07  -2.047548e+07  -2.055278e+07
  -2.062759e+07  -2.069886e+07  -2.078104e+07  -2.088695e+07  -2.094770e+07
  -2.098806e+07  -2.109972e+07  -2.118034e+07  -2.120610e+07  -2.128028e+07
  -2.136071e+07  -2.143489e+07  -2.146157e+07  -2.149678e+07  -2.161179e+07
  -2.165772e+07  -2.168794e+07  -2.176403e+07  -2.179963e+07  -2.182286e+07
  -2.185165e+07  -2.191342e+07  -2.197833e+07  -2.198146e+07  -2.201375e+07
  -2.205231e+07  -2.207054e+07  -2.212299e+07  -2.212008e+07  -2.212114e+07
  -2.216416e+07  -2.218222e+07  -2.221317e+07  -2.220274e+07  -2.220548e+07
  -2.224660e+07  -2.221736e+07  -2.221755e+07  -2.224040e+07  -2.222421e+07
  -2.223037e+07  -2.222885e+07  -2.221912e+07  -2.219655e+07  -2.219044e+07
  -2.219777e+07  -2.214337e+07  -2.212935e+07  -2.214452e+07  -2.209615e+07
  -2.207653e+07  -2.206159e+07  -2.201298e+07  -2.199374e+07  -2.195881e+07
  -2.193738e+07  -2.190945e+07  -2.183216e+07  -2.181329e+07  -2.178552e+07
  -2.171700e+07  -2.167689e+07  -2.163137e+07  -2.157100e+07  -2.150533e+07
  -2.146115e+07  -2.142311e+07  -2.134540e+07  -2.126454e+07  -2.122283e+07
  -2.116396e+07  -2.107481e+07  -2.101083e+07  -2.094014e+07  -2.087050e+07
  -2.079019e+07  -2.070679e+07  -2.065452e+07  -2.053556e+07  -2.043588e+07
