     0.02500000      -12345.00      -12345.00   1.974680e+09      -12345.00
   0.0005390000       1859.976      -352.0196      -12345.00      -12345.00
      -12345.00      -12345.00      -12345.00      -12345.00      -12345.00
      -12345.00      -12345.00      -12345.00      -12345.00      -12345.00
      -12345.00      -12345.00      -12345.00      -12345.00      -12345.00
      -12345.00      -12345.00      -12345.00      -12345.00      -12345.00
      -12345.00      -9.438700       159.9475       29.00000       71.00000
      -42.72450       173.0647      -12345.00       22.00000      -12345.00
      -12345.00      -12345.00      -12345.00      -12345.00      -12345.00
      -12345.00      -12345.00      -12345.00      -12345.00      -12345.00
       3902.062       337.0785       163.0892       35.09364      -12345.00
      -12345.00      -12345.00       21.00000       90.00000      -12345.00
      -12345.00      -12345.00      -12345.00      -12345.00      -12345.00
      -12345.00      -12345.00      -12345.00      -12345.00      -12345.00
      2016       318        11         8        51
        19         6    -12345    -12345     74400
    -12345    -12345    -12345    -12345    -12345
         1    -12345    -12345    -12345    -12345
    -12345    -12345    -12345    -12345    -12345
    -12345    -12345    -12345    -12345    -12345
    -12345    -12345    -12345    -12345    -12345
         1    -12345    -12345    -12345    -12345
HNR     South Island, Ne
00      -12345  -12345  
-12345  -12345  -12345  
-12345  -12345  -12345  
-12345  -12345  -12345  
-12345  -12345  -12345  
-12345  -12345  BH1     
IU      -12345  T120 pos
[...]
      -54869.00      -47724.00      -40738.00      -33561.00      -26346.00
      -19307.00      -11777.00      -4506.000       2462.000       10192.00
       17632.00       24847.00       32301.00       39555.00       47020.00
       54582.00       62103.00       69641.00       77018.00       84626.00
       92276.00       99646.00       107245.0       114725.0       122035.0
       129554.0       136983.0       144438.0       151956.0       159515.0
       166973.0       174450.0       182091.0       189457.0       197052.0
       204750.0       212162.0       219784.0       227290.0       234818.0
       242434.0       249836.0       257438.0       264950.0       272489.0
       280223.0       287636.0       295228.0       302873.0       310318.0
       317870.0       325408.0       332861.0       340089.0       347573.0
       355171.0       362418.0       369899.0       377402.0       384600.0
       391846.0       399149.0       406463.0       413527.0       420792.0
       428386.0       435336.0       442469.0       449914.0       456674.0
       463710.0       471022.0       477887.0       485240.0       492531.0
       499289.0       506497.0       513415.0       520239.0       527389.0
       534136.0       540890.0       548129.0       555197.0       561690.0
       568517.0       575308.0       581839.0       588845.0       595377.0
       601701.0       608492.0       614968.0       621517.0       628022.0
       634460.0       641098.0       647359.0       653881.0       660457.0
       666600.0       673068.0       679744.0       685919.0       692122.0
       698556.0       704766.0       711067.0       717270.0       723501.0
       729714.0       735653.0       741738.0       747957.0       754027.0
       759956.0       766030.0       772073.0       778083.0       783943.0
       789792.0       795946.0       801824.0       807591.0       813374.0
       819165.0       825167.0       830738.0       836245.0       842065.0
       847514.0       852975.0       858640.0       864048.0       869342.0
       874624.0       880138.0       885703.0       890957.0       896212.0
       901306.0       906332.0       911578.0       916639.0       921451.0
       926300.0       931246.0       936075.0       940725.0       945411.0
       950138.0       954691.0       959026.0       963383.0       967847.0
       972285.0       976426.0       980525.0       984738.0       988738.0
       992632.0       996492.0       1000575.       1004307.       1007624.
       1011716.       1015552.       1018598.       1022248.       1025838.
       1028961.       1032359.       1035438.       1038480.       1041655.
       1044549.       1047541.       1050400.       1053078.       1055966.
       1058767.       1061504.       1064189.       1066296.       1068841.
       1071494.       1073656.       1076135.       1078260.       1080490.
       1082497.       1084093.       1086437.       1088433.       1089967.
       1091856.       1093466.       1095010.       1096649.       1097851.
       1099348.       1100634.       1101713.       1103154.       1104111.
       1105288.       1105949.       1106381.       1107576.       1108141.
       1109004.       1109743.       1109784.       1110286.       1110667.
       1110766.       1110805.       1111075.       1111051.       1110483.
       1110155.       1109779.       1109259.       1108539.       1107620.
       1106817.       1105914.       1104811.       1103722.       1102366.
       1100841.       1099327.       1097484.       1095874.       1093995.
       1091713.       1089741.       1087379.       1084901.       1082528.
       1079963.       1077257.       1074372.       1071513.       1068543.
       1065237.       1062073.       1059011.       1055283.       1051635.
       1048246.       1044357.       1040623.       1036875.       1032768.
       1028591.       1024192.       1019884.       1015602.       1011202.
       1006499.       1001600.       996938.0       991758.0       986555.0
       981603.0       976206.0       970834.0       965206.0       959401.0
       953760.0       948131.0       942356.0       936310.0       930307.0
       924131.0       917727.0       911296.0       904992.0       898453.0
       891590.0       884850.0       878015.0       871110.0       863995.0
       856815.0       849806.0       842446.0       835104.0       827956.0
       820198.0       812523.0       805023.0       796920.0       789122.0
       781489.0       773479.0       765420.0       757189.0       748858.0
       740482.0       732083.0       723698.0       715127.0       706395.0
       697669.0       688855.0       679909.0       671056.0       661954.0
       652720.0       643702.0       634200.0       624831.0       615632.0
       605871.0       596357.0       586955.0       577107.0       567240.0
       557524.0       547673.0       537909.0       527992.0       517984.0
       508119.0       497939.0       487719.0       477555.0       467383.0
       456864.0       446373.0       436230.0       425690.0       415065.0
       404480.0       393829.0       383088.0       372214.0       361572.0
       350642.0       339370.0       328319.0       317056.0       305869.0
       294836.0       283346.0       271925.0       260619.0       248985.0
       237482.0       226245.0       214613.0       203041.0       191671.0
       179832.0       168093.0       156360.0       144533.0       132801.0
       120721.0       108742.0       96896.00       85065.00       73470.00
       61461.00       49366.00       37712.00       25704.00       13515.00
       1573.000      -10532.00      -22723.00      -34904.00      -47195.00
      -59453.00      -71666.00      -83933.00      -96021.00      -108060.0
      -120153.0      -132409.0      -144980.0      -157040.0      -169171.0
      -181749.0      -193684.0      -205937.0      -218573.0      -230951.0
      -243483.0      -255805.0      -268296.0      -280648.0      -292885.0
      -305527.0      -317811.0      -330055.0      -342407.0      -354835.0
      -367359.0      -379750.0      -392140.0      -404444.0      -416949.0
      -429361.0      -441622.0      -454160.0      -466627.0      -479043.0
      -491468.0      -503797.0      -516182.0      -528729.0      -541109.0
      -553182.0      -565446.0      -577824.0      -590038.0      -602312.0
      -614573.0      -626713.0      -638822.0      -650956.0      -663123.0
      -675168.0      -687316.0      -699456.0      -711466.0      -723425.0
      -735122.0      -747189.0      -759122.0      -770597.0      -782618.0
      -794433.0      -805959.0      -817714.0      -829344.0      -840932.0
      -852429.0      -864024.0      -875528.0      -886810.0      -898117.0
      -909146.0      -920400.0      -931940.0      -943088.0      -953941.0
      -964907.0      -976014.0      -986775.0      -997406.0      -1008243.
      -1018944.      -1029417.      -1040012.      -1050655.      -1061058.
      -1071440.      -1081826.      -1092153.      -1102334.      -1112489.
      -1122400.      -1132072.      -1142235.      -1152078.      -1161434.
      -1171031.      -1180563.      -1189917.      -1199277.      -1208704.
      -1217836.      -1226907.      -1236007.      -1244890.      -1253828.
      -1262626.      -1271243.      -1279839.      -1288558.      -1297256.
      -1305621.      -1313861.      -1322060.      -1330140.      -1338035.
      -1346041.      -1353716.      -1361135.      -1369194.      -1376646.
      -1383699.      -1391237.      -1398348.      -1405287.      -1412102.
      -1418703.      -1425690.      -1432423.      -1438549.      -1444757.
      -1450939.      -1456992.      -1462661.      -1468287.      -1474079.
      -1479161.      -1484328.      -1489585.      -1494564.      -1499537.
      -1503987.      -1508356.      -1512642.      -1516763.      -1520877.
      -1524609.      -1528168.      -1531526.      -1534630.      -1537757.
      -1540814.      -1543574.      -1546203.      -1548777.      -1551072.
      -1553340.      -1555473.      -1557105.      -1558658.      -1560246.
      -1561483.      -1562693.      -1563780.      -1564329.      -1564957.
      -1565505.      -1565652.      -1565592.      -1565506.      -1565547.
      -1565101.      -1564345.      -1563654.      -1562796.      -1561719.
      -1560430.      -1559137.      -1557582.      -1555650.      -1553603.
      -1551534.      -1549527.      -1547131.      -1544429.      -1541831.
      -1538869.      -1535965.      -1533158.      -1529511.      -1525873.
      -1522458.      -1518363.      -1514397.      -1510430.      -1505744.
      -1501176.      -1496690.      -1492018.      -1487019.      -1481702.
      -1476497.      -1470859.      -1465015.      -1459375.      -1453235.
      -1446928.      -1440760.      -1434058.      -1427362.      -1420646.
      -1413319.      -1406110.      -1398824.      -1391285.      -1383666.
      -1375663.      -1367677.      -1359495.      -1350890.      -1342432.
      -1333694.      -1324645.      -1315823.      -1306707.      -1297205.
      -1287504.      -1277837.      -1268065.      -1257741.      -1247715.
      -1237597.      -1227195.      -1216933.      -1206006.      -1195081.
      -1184096.      -1172829.      -1161820.      -1150537.      -1139219.
      -1127592.      -1115656.      -1103864.      -1091841.      -1079759.
      -1067643.      -1055361.      -1042631.      -1030217.      -1017964.
      -1004841.      -992086.0      -979332.0      -966087.0      -953025.0
      -939701.0      -926263.0      -913030.0      -899449.0      -885622.0
      -872161.0      -858470.0      -844746.0      -831014.0      -816832.0
      -802796.0      -788672.0      -774572.0      -760422.0      -745917.0
      -731426.0      -716760.0      -702039.0      -687468.0      -672712.0
      -657748.0      -642970.0      -627988.0      -612682.0      -597673.0
      -582602.0      -567103.0      -551488.0      -536257.0      -520679.0
      -504705.0      -489334.0      -473444.0      -457301.0      -441625.0
      -425666.0      -409721.0      -393700.0      -377458.0      -361234.0
      -344990.0      -328582.0      -312214.0      -295915.0      -279147.0
      -262588.0      -246553.0      -230281.0      -213687.0      -197068.0
      -180384.0      -163651.0      -147164.0      -130440.0      -113789.0
      -97252.00      -80265.00      -63589.00      -47008.00      -30039.00
      -13119.00       3721.000       20492.00       37191.00       53937.00
       70658.00       87502.00       104563.0       121570.0       138133.0
       154755.0       171812.0       188548.0       205534.0       222493.0
       238760.0       255228.0       271893.0       288498.0       305139.0
       321943.0       338234.0       354328.0       370756.0       386957.0
       403224.0       419321.0       435269.0       451252.0       467309.0
       483344.0       499114.0       515245.0       531236.0       546730.0
       562387.0       578140.0       593736.0       609101.0       624378.0
       639699.0       654869.0       669819.0       685002.0       700208.0
       715095.0       730003.0       744761.0       759387.0       774012.0
       788663.0       803264.0       817696.0       831990.0       846251.0
       860817.0       874893.0       888422.0       902577.0       916773.0
       930243.0       943728.0       957365.0       970746.0       984001.0
       997123.0       1010288.       1023467.       1036192.       1048708.
       1061372.       1073809.       1086361.       1098868.       1110859.
       1122894.       1134778.       1146506.       1158168.       1169630.
       1180912.       1192255.       1203468.       1214390.       1225352.
       1235948.       1246570.       1257092.       1267220.       1277274.
       1287108.       1297090.       1306855.       1316214.       1325731.
       1334889.       1343704.       1352693.       1361503.       1370304.
       1378766.       1386702.       1394747.       1402792.       1410698.
       1418383.       1425832.       1432921.       1440116.       1447237.
       1453781.       1460499.       1466842.       1472840.       1479036.
       1484873.       1490546.       1496210.       1501674.       1506780.
       1511685.       1516715.       1521598.       1526141.       1530391.
       1534639.       1538712.       1542358.       1546290.       1549825.
       1552906.       1556186.       1559025.       1561811.       1564471.
       1566930.       1569324.       1571236.       1573266.       1575133.
       1576181.       1577566.       1579031.       1579872.       1581123.
       1581741.       1581986.       1582980.       1583004.       1582931.
       1583091.       1582531.       1582212.       1581582.       1580857.
       1580131.       1578965.       1577694.       1576098.       1574660.
       1572797.       1570709.       1568877.       1566370.       1563950.
       1561450.       1558476.       1555659.       1552692.       1549389.
       1545844.       1542408.       1538796.       1534832.       1530817.
       1526639.       1522430.       1518099.       1513359.       1508500.
       1503815.       1498726.       1493473.       1488337.       1482560.
       1476834.       1471247.       1465131.       1459228.       1453164.
       1446678.       1440463.       1433722.       1426932.       1420388.
       1413025.       1405898.       1398813.       1391282.       1383949.
       1376245.       1368335.       1360464.       1352385.       1344044.
       1335592.       1327235.       1318805.       1309940.       1300894.
       1292201.       1283152.       1274030.       1264890.       1255128.
       1245729.       1236175.       1226264.       1216584.       1206450.
       1196156.       1186080.       1175928.       1165379.       1154677.
       1144034.       1133146.       1122215.       1111244.       1100300.
       1089313.       1077837.       1066103.       1054623.       1043131.
       1031325.       1019523.       1007560.       995627.0       983767.0
       971345.0       959116.0       947282.0       934826.0       922352.0
       909929.0       897046.0       884577.0       871980.0       859012.0
       846417.0       833481.0       820463.0       807455.0       794145.0
       781110.0       767911.0       754706.0       741532.0       727871.0
       714588.0       701301.0       687442.0       674140.0       660585.0
       646597.0       633126.0       619422.0       605979.0       592235.0
       577928.0       564325.0       550416.0       536271.0       522399.0
       508323.0       494202.0       479924.0       466002.0       452119.0
       437357.0       423124.0       409105.0       394207.0       379889.0
       365695.0       351112.0       336722.0       322016.0       307638.0
       293389.0       278513.0       263925.0       249465.0       234670.0
       220120.0       205601.0       190833.0       176294.0       161644.0
       146716.0       131936.0       117351.0       102461.0       87522.00
       73348.00       58549.00       43454.00       28946.00       14186.00
      -488.0000      -15152.00      -29746.00      -44376.00      -58934.00
      -73441.00      -88250.00      -102667.0      -117059.0      -131569.0
      -145861.0      -160433.0      -175090.0      -189491.0      -203794.0
      -218219.0      -232689.0      -246914.0      -261194.0      -275520.0
      -289798.0      -304036.0      -318246.0      -332365.0      -346332.0
      -360482.0      -374303.0      -388156.0      -402284.0      -416025.0
      -429786.0      -443623.0      -457422.0      -470984.0      -484503.0
      -498290.0      -511701.0      -525046.0      -538498.0      -551656.0
      -564901.0      -578295.0      -591373.0      -604429.0      -617652.0
      -630406.0      -643160.0      -656291.0      -669150.0      -681675.0
      -694479.0      -707296.0      -719653.0      -732321.0      -744946.0
      -756971.0      -769233.0      -781738.0      -793836.0      -805911.0
      -818033.0      -829902.0      -841959.0      -853872.0      -865702.0
      -877789.0      -889335.0      -900863.0      -912731.0      -924035.0
      -935377.0      -946756.0      -957903.0      -969108.0      -980081.0
      -991009.0      -1001782.      -1012446.      -1022941.      -1033640.
      -1044191.      -1054233.      -1064770.      -1074959.      -1084897.
      -1095030.      -1104913.      -1114533.      -1123995.      -1133822.
      -1143301.      -1152450.      -1161682.      -1170683.      -1179579.
      -1188296.      -1197020.      -1205601.      -1213885.      -1222134.
      -1230603.      -1238731.      -1246291.      -1254268.      -1262129.
      -1269614.      -1277214.      -1284476.      -1291671.      -1298936.
      -1305787.      -1312612.      -1319293.      -1325482.      -1331926.
      -1338217.      -1344199.      -1350203.      -1355798.      -1361613.
      -1367102.      -1372097.      -1377600.      -1382551.      -1387109.
      -1391924.      -1396292.      -1400567.      -1404767.      -1408753.
      -1412739.      -1416378.      -1419831.      -1423391.      -1426731.
      -1429683.      -1432920.      -1435965.      -1438267.      -1440967.
      -1443424.      -1445218.      -1447530.      -1449744.      -1451426.
      -1453140.      -1454648.      -1455874.      -1457319.      -1458661.
      -1459508.      -1460238.      -1460869.      -1461439.      -1461771.
      -1461858.      -1462032.      -1461934.      -1461515.      -1460926.
      -1460241.      -1459559.      -1458444.      -1457198.      -1456291.
      -1454876.      -1453215.      -1451786.      -1449837.      -1447873.
      -1445849.      -1443411.      -1441127.      -1438544.      -1435722.
      -1432976.      -1430111.      -1427006.      -1423753.      -1420584.
      -1416910.      -1413256.      -1409967.      -1405886.      -1401802.
      -1397997.      -1393534.      -1389283.      -1384938.      -1380004.
      -1375580.      -1370882.      -1365453.      -1360228.      -1355055.
      -1349685.      -1344056.      -1338264.      -1332450.      -1326410.
      -1320247.      -1314066.      -1307751.      -1301439.      -1294884.
