     0.02500000      -12345.00      -12345.00   1.974680e+09      -12345.00
   0.0005390000       1859.976      -352.0196      -12345.00      -12345.00
      -12345.00      -12345.00      -12345.00      -12345.00      -12345.00
      -12345.00      -12345.00      -12345.00      -12345.00      -12345.00
      -12345.00      -12345.00      -12345.00      -12345.00      -12345.00
      -12345.00      -12345.00      -12345.00      -12345.00      -12345.00
      -12345.00      -9.438700       159.9475       29.00000       71.00000
      -42.72450       173.0647      -12345.00       22.00000      -12345.00
      -12345.00      -12345.00      -12345.00      -12345.00      -12345.00
      -12345.00      -12345.00      -12345.00      -12345.00      -12345.00
       3902.062       337.0785       163.0892       35.09364      -12345.00
      -12345.00      -12345.00       0.000000       0.000000      -12345.00
      -12345.00      -12345.00      -12345.00      -12345.00      -12345.00
      -12345.00      -12345.00      -12345.00      -12345.00      -12345.00
      2016       318        11         8        51
        19         6    -12345    -12345     74400
    -12345    -12345    -12345    -12345    -12345
         1    -12345    -12345    -12345    -12345
    -12345    -12345    -12345    -12345    -12345
    -12345    -12345    -12345    -12345    -12345
    -12345    -12345    -12345    -12345    -12345
         1    -12345    -12345    -12345    -12345
HNR     South Island, Ne
00      -12345  -12345  
-12345  -12345  -12345  
-12345  -12345  -12345  
-12345  -12345  -12345  
-12345  -12345  -12345  
-12345  -12345  BHZ     
IU      -12345  T120 pos
[...]
      -751980.0      -761786.0      -772076.0      -782650.0      -792601.0
      -802487.0      -812580.0      -822522.0      -832313.0      -842064.0
      -851683.0      -861552.0      -871141.0      -880537.0      -890127.0
      -899308.0      -908543.0      -917791.0      -927066.0      -936511.0
      -945589.0      -954632.0      -963460.0      -971910.0      -980534.0
      -989373.0      -998300.0      -1006626.      -1014958.      -1023911.
      -1032109.      -1040063.      -1048471.      -1056787.      -1064668.
      -1072351.      -1080793.      -1088765.      -1096025.      -1104028.
      -1111656.      -1118961.      -1126414.      -1133267.      -1140489.
      -1147828.      -1154906.      -1161931.      -1168626.      -1175722.
      -1182400.      -1188452.      -1194838.      -1201267.      -1207526.
      -1213629.      -1219685.      -1225479.      -1231107.      -1236974.
      -1242771.      -1248265.      -1253854.      -1259286.      -1264328.
      -1269606.      -1274785.      -1279507.      -1284542.      -1289595.
      -1293939.      -1298352.      -1303020.      -1307524.      -1311739.
      -1315701.      -1319964.      -1324062.      -1327543.      -1331198.
      -1334869.      -1338005.      -1341293.      -1344609.      -1347615.
      -1350611.      -1353637.      -1356694.      -1359317.      -1361906.
      -1364444.      -1366513.      -1368788.      -1371184.      -1373328.
      -1375318.      -1377515.      -1379655.      -1381204.      -1382621.
      -1384246.      -1385639.      -1386970.      -1388446.      -1389552.
      -1390574.      -1391557.      -1392277.      -1392903.      -1393505.
      -1394156.      -1394539.      -1394819.      -1394970.      -1394961.
      -1395151.      -1395061.      -1394659.      -1394262.      -1393742.
      -1393017.      -1392229.      -1390914.      -1389600.      -1388657.
      -1386903.      -1385472.      -1384359.      -1382395.      -1380505.
      -1378849.      -1376809.      -1374317.      -1371810.      -1369429.
      -1366906.      -1364213.      -1361615.      -1358677.      -1355678.
      -1352842.      -1349151.      -1345432.      -1342039.      -1338295.
      -1334280.      -1330075.      -1326109.      -1322009.      -1317719.
      -1313353.      -1308531.      -1303940.      -1299623.      -1294852.
      -1289812.      -1284881.      -1279809.      -1274682.      -1269506.
      -1264040.      -1258733.      -1253352.      -1247600.      -1241782.
      -1235880.      -1229841.      -1223767.      -1217648.      -1211275.
      -1204842.      -1198497.      -1192021.      -1185286.      -1178396.
      -1171476.      -1164436.      -1157559.      -1150419.      -1142863.
      -1135312.      -1127494.      -1119796.      -1111799.      -1103495.
      -1095861.      -1087953.      -1079617.      -1071601.      -1063319.
      -1054868.      -1046630.      -1038140.      -1029174.      -1020142.
      -1011501.      -1002667.      -993404.0      -984192.0      -974958.0
      -965668.0      -956249.0      -946734.0      -937229.0      -927687.0
      -917981.0      -908011.0      -897980.0      -887976.0      -877972.0
      -867844.0      -857750.0      -847648.0      -837313.0      -826817.0
      -815906.0      -805068.0      -794501.0      -783685.0      -772808.0
      -761858.0      -750893.0      -739883.0      -728653.0      -717698.0
      -706659.0      -695176.0      -683933.0      -672631.0      -661211.0
      -649863.0      -638173.0      -626519.0      -614800.0      -602940.0
      -591129.0      -579083.0      -567233.0      -555551.0      -543613.0
      -531675.0      -519660.0      -507681.0      -495761.0      -483596.0
      -471559.0      -459287.0      -446640.0      -434413.0      -422217.0
      -409703.0      -397325.0      -384936.0      -372540.0      -360360.0
      -347967.0      -335608.0      -323275.0      -310680.0      -298380.0
      -286046.0      -273658.0      -261415.0      -248939.0      -236704.0
      -224493.0      -211939.0      -199415.0      -187022.0      -174664.0
      -161978.0      -149398.0      -136932.0      -124195.0      -111773.0
      -99392.00      -86833.00      -74414.00      -61922.00      -49354.00
      -36862.00      -24620.00      -12226.00       455.0000       12727.00
       25145.00       37664.00       49995.00       62562.00       74856.00
       87344.00       99909.00       111987.0       124528.0       137037.0
       149089.0       161538.0       173931.0       185974.0       198274.0
       210689.0       222676.0       234771.0       247143.0       259057.0
       271175.0       283536.0       295588.0       307704.0       319574.0
       331230.0       343156.0       355096.0       366715.0       378349.0
       390102.0       401640.0       413218.0       424762.0       436192.0
       447894.0       459547.0       470911.0       482472.0       494135.0
       505415.0       516805.0       528349.0       539606.0       551200.0
       562722.0       573687.0       584996.0       596316.0       607317.0
       618504.0       629567.0       640507.0       651610.0       662659.0
       673696.0       684697.0       695590.0       706325.0       716861.0
       727638.0       738347.0       748980.0       759773.0       770203.0
       780865.0       791548.0       801760.0       812362.0       822892.0
       832973.0       843379.0       853698.0       863554.0       873826.0
       884177.0       894108.0       904014.0       913737.0       923505.0
       933162.0       942929.0       953074.0       962842.0       972684.0
       982585.0       992173.0       1001832.       1011329.       1020693.
       1030119.       1039348.       1048342.       1057502.       1066784.
       1075795.       1084893.       1093941.       1102827.       1112033.
       1120853.       1129515.       1138271.       1146549.       1154950.
       1163203.       1171468.       1179757.       1187549.       1195867.
       1204018.       1211704.       1219818.       1227459.       1235014.
       1242892.       1250394.       1257890.       1265323.       1272592.
       1279923.       1287186.       1294376.       1301552.       1308576.
       1315355.       1322339.       1329249.       1335834.       1342672.
       1349265.       1355341.       1361707.       1368129.       1373974.
       1380299.       1386643.       1392186.       1398390.       1404489.
       1410134.       1415792.       1421136.       1426545.       1431761.
       1437023.       1442134.       1447213.       1452134.       1456684.
       1461727.       1466133.       1470291.       1475029.       1479074.
       1482879.       1487104.       1491155.       1494896.       1498867.
       1502619.       1505993.       1509517.       1512921.       1516061.
       1518995.       1522107.       1524840.       1527349.       1530385.
       1532821.       1535079.       1537564.       1539658.       1541755.
       1543824.       1545807.       1547483.       1549027.       1550751.
       1552056.       1553114.       1554372.       1555465.       1556225.
       1557182.       1558032.       1558304.       1558853.       1559274.
       1559322.       1559677.       1559596.       1559253.       1559199.
       1559059.       1558687.       1558169.       1557622.       1557013.
       1556498.       1555571.       1554497.       1553705.       1552132.
       1550719.       1549616.       1547764.       1546025.       1544163.
       1542034.       1540039.       1537962.       1535897.       1533261.
       1530445.       1528012.       1525096.       1522013.       1518931.
       1515800.       1512832.       1509367.       1505905.       1502476.
       1498623.       1494925.       1490946.       1486840.       1482830.
       1478565.       1474413.       1470003.       1465557.       1461209.
       1456429.       1451597.       1446806.       1441905.       1436794.
       1431635.       1426243.       1420539.       1415130.       1409434.
       1403457.       1397689.       1391758.       1385600.       1379463.
       1373383.       1366746.       1360128.       1353528.       1346507.
       1339961.       1333060.       1325740.       1318757.       1311486.
       1303974.       1296463.       1288948.       1281274.       1273406.
       1265322.       1257006.       1248905.       1240663.       1232324.
       1224180.       1215607.       1206899.       1198230.       1189282.
       1180162.       1171143.       1162180.       1152679.       1143159.
       1133962.       1124440.       1114928.       1105513.       1095830.
       1085900.       1075674.       1065787.       1056009.       1045724.
       1035619.       1025380.       1015052.       1004763.       994185.0
       983820.0       973220.0       962565.0       951933.0       940812.0
       930075.0       919352.0       908093.0       897165.0       886199.0
       874883.0       863671.0       852305.0       840862.0       829418.0
       817787.0       806246.0       794779.0       783141.0       771489.0
       759923.0       748163.0       736297.0       724586.0       712757.0
       700874.0       689089.0       677194.0       665350.0       653403.0
       641067.0       628676.0       616370.0       604014.0       591628.0
       579097.0       566655.0       554328.0       541434.0       528657.0
       516313.0       503460.0       490635.0       477986.0       465065.0
       452277.0       439590.0       426717.0       413896.0       400918.0
       387704.0       374882.0       361575.0       348181.0       335490.0
       322348.0       309343.0       296411.0       283352.0       270558.0
       257355.0       244317.0       231393.0       218227.0       205320.0
       192358.0       179192.0       165954.0       152371.0       139191.0
       126283.0       112780.0       99577.00       86284.00       72774.00
       59619.00       46169.00       32663.00       19227.00       5769.000
      -7794.000      -21481.00      -35026.00      -48618.00      -62146.00
      -75788.00      -89383.00      -102817.0      -116267.0      -129392.0
      -142926.0      -156366.0      -169471.0      -183144.0      -196733.0
      -210203.0      -223556.0      -236965.0      -250553.0      -263892.0
      -277346.0      -290810.0      -304242.0      -317690.0      -330799.0
      -344024.0      -357507.0      -370527.0      -383609.0      -397275.0
      -410428.0      -423476.0      -437020.0      -450408.0      -463873.0
      -477057.0      -490347.0      -504070.0      -517021.0      -529915.0
      -543252.0      -556244.0      -569046.0      -582096.0      -595224.0
      -608083.0      -621104.0      -634101.0      -646657.0      -659523.0
      -672496.0      -685068.0      -697868.0      -710518.0      -722828.0
      -735418.0      -747895.0      -760408.0      -772968.0      -785474.0
      -797996.0      -810134.0      -822429.0      -834837.0      -846883.0
      -858863.0      -871004.0      -883115.0      -895080.0      -907164.0
      -919293.0      -931147.0      -942728.0      -954532.0      -966341.0
      -977949.0      -989732.0      -1001348.      -1013163.      -1024771.
      -1035904.      -1047442.      -1058747.      -1069954.      -1081157.
      -1092235.      -1103363.      -1114196.      -1125172.      -1135904.
      -1146662.      -1157462.      -1167951.      -1178729.      -1188871.
      -1199094.      -1209572.      -1219375.      -1229472.      -1239421.
      -1249368.      -1259202.      -1268349.      -1277909.      -1287469.
      -1296701.      -1306181.      -1315568.      -1324617.      -1333566.
      -1342325.      -1350930.      -1359788.      -1368343.      -1376618.
      -1385172.      -1393623.      -1402042.      -1410147.      -1418149.
      -1426377.      -1433894.      -1441637.      -1449505.      -1456395.
      -1464080.      -1471713.      -1478241.      -1485672.      -1492880.
      -1499188.      -1505994.      -1512461.      -1518588.      -1525034.
      -1531089.      -1536924.      -1543121.      -1549295.      -1554831.
      -1560231.      -1565886.      -1571291.      -1576595.      -1581701.
      -1586894.      -1591891.      -1596359.      -1601261.      -1605863.
      -1610119.      -1614581.      -1618673.      -1622507.      -1626297.
      -1630125.      -1633781.      -1637215.      -1640662.      -1644122.
      -1647363.      -1650212.      -1653169.      -1655982.      -1658431.
      -1660975.      -1663112.      -1665270.      -1667503.      -1669113.
      -1670762.      -1672399.      -1674168.      -1675666.      -1676711.
      -1678173.      -1678942.      -1679777.      -1680799.      -1681111.
      -1681979.      -1682418.      -1682656.      -1683147.      -1682903.
      -1682847.      -1682893.      -1682511.      -1682095.      -1681695.
      -1680984.      -1680409.      -1679755.      -1678526.      -1677427.
      -1676061.      -1674640.      -1673071.      -1671068.      -1669373.
      -1667285.      -1665123.      -1662923.      -1660141.      -1657734.
      -1655215.      -1652295.      -1649528.      -1646568.      -1643635.
      -1640599.      -1637187.      -1633781.      -1630106.      -1626211.
      -1622200.      -1617917.      -1613763.      -1609517.      -1604955.
      -1600331.      -1595572.      -1590633.      -1585515.      -1580165.
      -1574833.      -1569291.      -1563374.      -1557942.      -1552210.
      -1545596.      -1539342.      -1533064.      -1526419.      -1519933.
      -1513299.      -1506369.      -1499249.      -1492040.      -1484707.
      -1477206.      -1469939.      -1462424.      -1454480.      -1446653.
      -1438703.      -1430621.      -1422369.      -1414035.      -1405630.
      -1397077.      -1388387.      -1379229.      -1370293.      -1361359.
      -1351846.      -1342515.      -1333242.      -1323775.      -1314037.
      -1304244.      -1294295.      -1283956.      -1273810.      -1263236.
      -1252560.      -1242151.      -1231260.      -1220419.      -1209591.
      -1198252.      -1186893.      -1175781.      -1164073.      -1152623.
      -1141409.      -1129240.      -1117636.      -1105637.      -1093030.
      -1081332.      -1068922.      -1056470.      -1044555.      -1032088.
      -1019521.      -1006653.      -993979.0      -981451.0      -968432.0
      -955590.0      -942395.0      -928904.0      -915678.0      -902127.0
      -888272.0      -874659.0      -860935.0      -846697.0      -832899.0
      -819205.0      -804748.0      -790621.0      -776719.0      -762094.0
      -747739.0      -733445.0      -718588.0      -704254.0      -689815.0
      -674970.0      -660367.0      -645481.0      -630457.0      -615366.0
      -600214.0      -585278.0      -570095.0      -554850.0      -539675.0
      -524298.0      -509085.0      -493937.0      -478651.0      -463209.0
      -447736.0      -432353.0      -416770.0      -401452.0      -386039.0
      -370047.0      -354321.0      -338582.0      -322701.0      -306715.0
      -290429.0      -274251.0      -258027.0      -241848.0      -225559.0
      -209162.0      -193144.0      -176797.0      -160108.0      -143754.0
      -127364.0      -110641.0      -94212.00      -78234.00      -61722.00
      -45094.00      -28822.00      -12293.00       4143.000       20530.00
       37145.00       53679.00       69947.00       86298.00       102838.0
       119125.0       135482.0       152048.0       168425.0       184492.0
       200889.0       217368.0       233228.0       249633.0       266063.0
       282276.0       298908.0       314925.0       331054.0       347222.0
       363080.0       379412.0       395428.0       411230.0       427219.0
       443197.0       459072.0       474844.0       490562.0       506256.0
       522120.0       537754.0       553308.0       568806.0       584356.0
       599963.0       615245.0       630821.0       646189.0       661247.0
       676652.0       691902.0       706837.0       721655.0       736638.0
       751615.0       766233.0       781058.0       795919.0       810415.0
       824902.0       839035.0       853378.0       867743.0       881290.0
       895176.0       908745.0       922154.0       936086.0       949322.0
       962776.0       976257.0       989316.0       1002508.       1015255.
       1027983.       1040823.       1053514.       1065942.       1078352.
       1090626.       1102469.       1114518.       1126507.       1138514.
       1150121.       1161325.       1173084.       1184409.       1195382.
       1206515.       1217448.       1228432.       1239212.       1249855.
       1260504.       1270813.       1281076.       1291619.       1302013.
       1311789.       1321484.       1331174.       1340324.       1349656.
       1359132.       1368119.       1377091.       1386036.       1394757.
       1403448.       1411881.       1420125.       1428425.       1436312.
       1444047.       1451875.       1459282.       1466590.       1473936.
       1480871.       1487781.       1494957.       1501522.       1507927.
       1514521.       1520681.       1526845.       1532813.       1538811.
       1544758.       1550077.       1555228.       1560719.       1566158.
       1570868.       1575844.       1580706.       1585135.       1589772.
       1593913.       1598161.       1602406.       1605934.       1609462.
       1613227.       1616636.       1619815.       1623136.       1626231.
       1629105.       1631872.       1634276.       1636195.       1638319.
       1640480.       1642253.       1644068.       1645623.       1647051.
       1648196.       1649196.       1650328.       1651042.       1651658.
       1651991.       1652403.       1652915.       1652857.       1652902.
       1652713.       1652254.       1651691.       1650852.       1650187.
       1649162.       1648136.       1647079.       1645505.       1644216.
       1642681.       1640874.       1639253.       1637363.       1635079.
       1632644.       1630436.       1627965.       1625214.       1622369.
       1619146.       1615776.       1612424.       1609115.       1605366.
       1601624.       1598047.       1593844.       1589566.       1585450.
