     0.02500000      -12345.00      -12345.00   3.262830e+10      -12345.00
   0.0005390000       1859.976      -352.0196      -12345.00      -12345.00
      -12345.00      -12345.00      -12345.00      -12345.00      -12345.00
      -12345.00      -12345.00      -12345.00      -12345.00      -12345.00
      -12345.00      -12345.00      -12345.00      -12345.00      -12345.00
      -12345.00      -12345.00      -12345.00      -12345.00      -12345.00
      -12345.00      -9.438700       159.9475       99.00000       1.000000
      -42.72450       173.0647      -12345.00       22.00000      -12345.00
      -12345.00      -12345.00      -12345.00      -12345.00      -12345.00
      -12345.00      -12345.00      -12345.00      -12345.00      -12345.00
       3902.062       337.0785       163.0892       35.09364      -12345.00
      -12345.00      -12345.00       0.000000       0.000000      -12345.00
      -12345.00      -12345.00      -12345.00      -12345.00      -12345.00
      -12345.00      -12345.00      -12345.00      -12345.00      -12345.00
      2016       318        11         8        51
        19         6    -12345    -12345     74400
    -12345    -12345    -12345    -12345    -12345
         1    -12345    -12345    -12345    -12345
    -12345    -12345    -12345    -12345    -12345
    -12345    -12345    -12345    -12345    -12345
    -12345    -12345    -12345    -12345    -12345
         1    -12345    -12345    -12345    -12345
HNR     South Island, Ne
10      -12345  -12345  
-12345  -12345  -12345  
-12345  -12345  -12345  
-12345  -12345  -12345  
-12345  -12345  -12345  
-12345  -12345  BHZ     
IU      -12345  Streckei
[...]
  -1.248350e+07  -1.264262e+07  -1.280891e+07  -1.298988e+07  -1.315074e+07
  -1.330938e+07  -1.347876e+07  -1.362984e+07  -1.378564e+07  -1.396126e+07
  -1.413068e+07  -1.427826e+07  -1.441994e+07  -1.458578e+07  -1.475373e+07
  -1.490423e+07  -1.505222e+07  -1.520331e+07  -1.536077e+07  -1.550618e+07
  -1.564524e+07  -1.579681e+07  -1.594214e+07  -1.607960e+07  -1.622706e+07
  -1.637772e+07  -1.652176e+07  -1.666403e+07  -1.679072e+07  -1.692377e+07
  -1.707248e+07  -1.720190e+07  -1.733336e+07  -1.746775e+07  -1.760083e+07
  -1.773345e+07  -1.785155e+07  -1.798459e+07  -1.811925e+07  -1.823898e+07
  -1.836784e+07  -1.850660e+07  -1.862142e+07  -1.872196e+07  -1.884919e+07
  -1.896109e+07  -1.906976e+07  -1.920474e+07  -1.931469e+07  -1.940972e+07
  -1.952121e+07  -1.963199e+07  -1.973160e+07  -1.983183e+07  -1.993239e+07
  -2.002378e+07  -2.012257e+07  -2.023653e+07  -2.033029e+07  -2.041296e+07
  -2.051367e+07  -2.060847e+07  -2.068377e+07  -2.076902e+07  -2.087115e+07
  -2.094911e+07  -2.102420e+07  -2.111555e+07  -2.119035e+07  -2.126077e+07
  -2.133790e+07  -2.141358e+07  -2.148484e+07  -2.156426e+07  -2.164198e+07
  -2.169179e+07  -2.175500e+07  -2.183274e+07  -2.187712e+07  -2.192357e+07
  -2.199140e+07  -2.205440e+07  -2.210933e+07  -2.215389e+07  -2.220198e+07
  -2.226127e+07  -2.230756e+07  -2.234635e+07  -2.239594e+07  -2.243387e+07
  -2.247148e+07  -2.251783e+07  -2.254905e+07  -2.259070e+07  -2.263226e+07
  -2.265324e+07  -2.268051e+07  -2.271195e+07  -2.273654e+07  -2.275627e+07
  -2.279084e+07  -2.282684e+07  -2.284892e+07  -2.286644e+07  -2.287238e+07
  -2.288858e+07  -2.291342e+07  -2.292634e+07  -2.292483e+07  -2.292524e+07
  -2.293771e+07  -2.294328e+07  -2.294841e+07  -2.295513e+07  -2.296256e+07
  -2.296482e+07  -2.295176e+07  -2.294545e+07  -2.293611e+07  -2.290748e+07
  -2.289756e+07  -2.289438e+07  -2.286340e+07  -2.284180e+07  -2.283706e+07
  -2.281646e+07  -2.277877e+07  -2.275049e+07  -2.272189e+07  -2.267956e+07
  -2.265045e+07  -2.262165e+07  -2.258847e+07  -2.255140e+07  -2.250132e+07
  -2.245832e+07  -2.241705e+07  -2.236768e+07  -2.231208e+07  -2.225738e+07
  -2.220665e+07  -2.214940e+07  -2.209127e+07  -2.203520e+07  -2.197338e+07
  -2.191313e+07  -2.184736e+07  -2.175822e+07  -2.167931e+07  -2.162780e+07
  -2.156407e+07  -2.147918e+07  -2.139696e+07  -2.132364e+07  -2.124323e+07
  -2.115727e+07  -2.108259e+07  -2.100401e+07  -2.091066e+07  -2.082247e+07
  -2.074213e+07  -2.065654e+07  -2.055693e+07  -2.045256e+07  -2.035703e+07
  -2.025814e+07  -2.015850e+07  -2.006180e+07  -1.995534e+07  -1.984642e+07
  -1.973725e+07  -1.963131e+07  -1.952954e+07  -1.942360e+07  -1.930929e+07
  -1.918181e+07  -1.906212e+07  -1.894927e+07  -1.882738e+07  -1.870829e+07
  -1.857768e+07  -1.843930e+07  -1.831479e+07  -1.819003e+07  -1.806272e+07
  -1.792943e+07  -1.779572e+07  -1.766852e+07  -1.752964e+07  -1.738879e+07
  -1.724889e+07  -1.710136e+07  -1.695432e+07  -1.681240e+07  -1.667139e+07
  -1.652471e+07  -1.637783e+07  -1.623057e+07  -1.608399e+07  -1.593100e+07
  -1.576416e+07  -1.560102e+07  -1.544565e+07  -1.529459e+07  -1.513863e+07
  -1.497381e+07  -1.480965e+07  -1.464761e+07  -1.448203e+07  -1.431582e+07
  -1.415689e+07  -1.397878e+07  -1.379230e+07  -1.362924e+07  -1.346300e+07
  -1.328219e+07  -1.309937e+07  -1.292546e+07  -1.275552e+07  -1.257118e+07
  -1.238746e+07  -1.221082e+07  -1.202293e+07  -1.183479e+07  -1.165206e+07
  -1.146334e+07  -1.127732e+07  -1.109466e+07  -1.090322e+07  -1.070761e+07
  -1.052228e+07  -1.034294e+07  -1.014546e+07      -9941472.      -9757390.
      -9570081.      -9364363.      -9166770.      -8978363.      -8779439.
      -8579084.      -8379083.      -8179758.      -7980002.      -7772231.
      -7572863.      -7375876.      -7174771.      -6977492.      -6774431.
      -6563892.      -6356336.      -6148465.      -5939658.      -5741305.
      -5538137.      -5331830.      -5133086.      -4923991.      -4714944.
      -4517803.      -4315810.      -4107444.      -3904720.      -3706651.
      -3500053.      -3281633.      -3074015.      -2880731.      -2674956.
      -2462928.      -2263275.      -2059235.      -1843490.      -1635289.
      -1429787.      -1223299.      -1021784.      -811450.0      -604392.0
      -406611.0      -199594.0       7132.000       210521.0       419813.0
       625652.0       826061.0       1029857.       1240742.       1453504.
       1652448.       1853172.       2065992.       2266952.       2464274.
       2667315.       2872897.       3077170.       3280315.       3486084.
       3679789.       3880358.       4091040.       4280956.       4474170.
       4679768.       4874137.       5070693.       5277063.       5475641.
       5665282.       5866285.       6069939.       6262083.       6455003.
       6648731.       6841578.       7029411.       7218732.       7409039.
       7590497.       7781014.       7971070.       8159651.       8358798.
       8544138.       8730613.       8927080.       9111683.       9291180.
       9471418.       9665358.       9858990.   1.003589e+07   1.022114e+07
   1.040958e+07   1.059166e+07   1.077771e+07   1.096427e+07   1.114151e+07
   1.131500e+07   1.149316e+07   1.167122e+07   1.184585e+07   1.201731e+07
   1.219743e+07   1.238279e+07   1.255700e+07   1.272865e+07   1.289974e+07
   1.307194e+07   1.324473e+07   1.341357e+07   1.359885e+07   1.377920e+07
   1.394347e+07   1.411589e+07   1.427718e+07   1.444118e+07   1.461398e+07
   1.477138e+07   1.493564e+07   1.510333e+07   1.526256e+07   1.542598e+07
   1.558916e+07   1.575744e+07   1.592165e+07   1.607866e+07   1.624476e+07
   1.639754e+07   1.654205e+07   1.669954e+07   1.685748e+07   1.701184e+07
   1.716888e+07   1.733197e+07   1.748371e+07   1.762759e+07   1.778598e+07
   1.793706e+07   1.807750e+07   1.822751e+07   1.837476e+07   1.851838e+07
   1.866300e+07   1.879960e+07   1.893866e+07   1.908536e+07   1.923083e+07
   1.936635e+07   1.949324e+07   1.963104e+07   1.976555e+07   1.989334e+07
   2.003144e+07   2.015711e+07   2.028047e+07   2.041115e+07   2.053394e+07
   2.066101e+07   2.079064e+07   2.091530e+07   2.103323e+07   2.115553e+07
   2.128309e+07   2.139268e+07   2.149759e+07   2.162026e+07   2.174699e+07
   2.185641e+07   2.196215e+07   2.207334e+07   2.218241e+07   2.229212e+07
   2.239960e+07   2.251220e+07   2.261517e+07   2.271077e+07   2.282441e+07
   2.292993e+07   2.301864e+07   2.310858e+07   2.320221e+07   2.329527e+07
   2.338953e+07   2.349112e+07   2.357949e+07   2.365925e+07   2.375253e+07
   2.384154e+07   2.392400e+07   2.400450e+07   2.408292e+07   2.416087e+07
   2.423582e+07   2.430855e+07   2.436990e+07   2.444131e+07   2.452130e+07
   2.458161e+07   2.464655e+07   2.471943e+07   2.477997e+07   2.483794e+07
   2.489532e+07   2.495468e+07   2.501372e+07   2.506258e+07   2.511503e+07
   2.516064e+07   2.520712e+07   2.526619e+07   2.529862e+07   2.533033e+07
   2.538491e+07   2.542798e+07   2.546150e+07   2.549584e+07   2.552973e+07
   2.555475e+07   2.558246e+07   2.561618e+07   2.563769e+07   2.566965e+07
   2.569088e+07   2.569114e+07   2.571748e+07   2.574058e+07   2.574582e+07
   2.576173e+07   2.578078e+07   2.579185e+07   2.578901e+07   2.578739e+07
   2.579738e+07   2.579940e+07   2.579098e+07   2.578502e+07   2.578256e+07
   2.577886e+07   2.577133e+07   2.575799e+07   2.574689e+07   2.573963e+07
   2.571990e+07   2.569894e+07   2.568416e+07   2.566024e+07   2.564050e+07
   2.562283e+07   2.558995e+07   2.556582e+07   2.554407e+07   2.549924e+07
   2.546706e+07   2.544410e+07   2.539381e+07   2.534973e+07   2.531970e+07
   2.526899e+07   2.521800e+07   2.517952e+07   2.512960e+07   2.507704e+07
   2.502780e+07   2.496425e+07   2.489818e+07   2.484968e+07   2.479591e+07
   2.472056e+07   2.465081e+07   2.459907e+07   2.453588e+07   2.444943e+07
   2.437766e+07   2.431428e+07   2.423593e+07   2.416682e+07   2.409145e+07
   2.400198e+07   2.392417e+07   2.384584e+07   2.375961e+07   2.367503e+07
   2.359109e+07   2.350377e+07   2.340492e+07   2.330587e+07   2.322081e+07
   2.313128e+07   2.302550e+07   2.291570e+07   2.281534e+07   2.271405e+07
   2.260340e+07   2.249151e+07   2.238302e+07   2.227955e+07   2.217037e+07
   2.205032e+07   2.191969e+07   2.179819e+07   2.169041e+07   2.157147e+07
   2.144689e+07   2.131434e+07   2.118648e+07   2.106830e+07   2.093234e+07
   2.079741e+07   2.066679e+07   2.053222e+07   2.039977e+07   2.024736e+07
   2.009843e+07   1.997110e+07   1.982713e+07   1.967281e+07   1.952706e+07
   1.938580e+07   1.923953e+07   1.908220e+07   1.892534e+07   1.876546e+07
   1.860399e+07   1.845178e+07   1.829790e+07   1.813122e+07   1.796976e+07
   1.781332e+07   1.764206e+07   1.747881e+07   1.731890e+07   1.714716e+07
   1.697746e+07   1.680433e+07   1.663417e+07   1.646640e+07   1.628790e+07
   1.610730e+07   1.593256e+07   1.576064e+07   1.558500e+07   1.539924e+07
   1.521786e+07   1.504436e+07   1.485916e+07   1.467521e+07   1.449353e+07
   1.430227e+07   1.411801e+07   1.393153e+07   1.373931e+07   1.355503e+07
   1.336650e+07   1.317305e+07   1.297950e+07   1.278691e+07   1.259508e+07
   1.240154e+07   1.221081e+07   1.201897e+07   1.182167e+07   1.161970e+07
   1.142094e+07   1.122619e+07   1.102423e+07   1.082620e+07   1.063224e+07
   1.042862e+07   1.022607e+07   1.002728e+07       9825844.       9617918.
       9410803.       9205701.       8988742.       8773189.       8569859.
       8362732.       8149751.       7940526.       7730467.       7519506.
       7308444.       7098172.       6884163.       6656133.       6442007.
       6234323.       6007905.       5802196.       5599248.       5374603.
       5162804.       4944942.       4721034.       4510018.       4297358.
       4084350.       3862699.       3642848.       3436332.       3220234.
       2998649.       2782057.       2563466.       2347927.       2131006.
       1904916.       1688034.       1477161.       1253981.       1025536.
       801725.0       583970.0       364923.0       140738.0      -79869.00
      -301774.0      -533222.0      -755830.0      -970873.0      -1193093.
      -1419116.      -1646622.      -1870622.      -2093062.      -2312237.
      -2535875.      -2768029.      -2987436.      -3200866.      -3419381.
      -3640737.      -3866464.      -4084786.      -4298309.      -4526575.
      -4755278.      -4970008.      -5191288.      -5418924.      -5643245.
      -5857075.      -6067407.      -6296339.      -6519644.      -6729292.
      -6948699.      -7171636.      -7390671.      -7607901.      -7827882.
      -8050280.      -8263695.      -8475253.      -8698953.      -8915666.
      -9125756.      -9346789.      -9567589.      -9788722.  -1.000446e+07
  -1.021060e+07  -1.042029e+07  -1.063275e+07  -1.084992e+07  -1.106075e+07
  -1.126520e+07  -1.147575e+07  -1.167326e+07  -1.187397e+07  -1.209331e+07
  -1.229737e+07  -1.250164e+07  -1.271643e+07  -1.291248e+07  -1.311057e+07
  -1.332075e+07  -1.352478e+07  -1.372662e+07  -1.392291e+07  -1.412603e+07
  -1.433885e+07  -1.453065e+07  -1.472110e+07  -1.492746e+07  -1.512364e+07
  -1.531492e+07  -1.551213e+07  -1.571294e+07  -1.590814e+07  -1.609743e+07
  -1.629231e+07  -1.647630e+07  -1.666128e+07  -1.686280e+07  -1.705422e+07
  -1.723461e+07  -1.741747e+07  -1.760781e+07  -1.779962e+07  -1.798477e+07
  -1.816520e+07  -1.834225e+07  -1.852599e+07  -1.870495e+07  -1.887720e+07
  -1.905547e+07  -1.922542e+07  -1.939967e+07  -1.957179e+07  -1.973419e+07
  -1.991391e+07  -2.009126e+07  -2.024705e+07  -2.040105e+07  -2.056870e+07
  -2.072902e+07  -2.088215e+07  -2.105088e+07  -2.121120e+07  -2.136284e+07
  -2.151885e+07  -2.166320e+07  -2.180836e+07  -2.196170e+07  -2.210455e+07
  -2.225090e+07  -2.239997e+07  -2.253519e+07  -2.268373e+07  -2.283082e+07
  -2.295939e+07  -2.308984e+07  -2.321943e+07  -2.335796e+07  -2.348497e+07
  -2.361054e+07  -2.375685e+07  -2.387177e+07  -2.398754e+07  -2.412100e+07
  -2.423328e+07  -2.435674e+07  -2.447663e+07  -2.457954e+07  -2.468958e+07
  -2.480507e+07  -2.492418e+07  -2.502704e+07  -2.512631e+07  -2.523368e+07
  -2.533411e+07  -2.543717e+07  -2.553090e+07  -2.561982e+07  -2.571229e+07
  -2.579793e+07  -2.589365e+07  -2.597588e+07  -2.605086e+07  -2.615112e+07
  -2.623637e+07  -2.631090e+07  -2.637833e+07  -2.645385e+07  -2.654395e+07
  -2.659796e+07  -2.667581e+07  -2.674601e+07  -2.678499e+07  -2.686763e+07
  -2.692532e+07  -2.697896e+07  -2.704376e+07  -2.707998e+07  -2.714154e+07
  -2.719352e+07  -2.724012e+07  -2.729791e+07  -2.732964e+07  -2.738381e+07
  -2.742288e+07  -2.743075e+07  -2.748513e+07  -2.752337e+07  -2.753934e+07
  -2.758553e+07  -2.759672e+07  -2.760384e+07  -2.763840e+07  -2.765501e+07
  -2.767672e+07  -2.768806e+07  -2.769071e+07  -2.771096e+07  -2.772036e+07
  -2.772286e+07  -2.773180e+07  -2.774253e+07  -2.774061e+07  -2.773538e+07
  -2.773905e+07  -2.772960e+07  -2.772493e+07  -2.772625e+07  -2.771053e+07
  -2.769256e+07  -2.767754e+07  -2.766175e+07  -2.764398e+07  -2.762543e+07
  -2.760476e+07  -2.757949e+07  -2.755223e+07  -2.752000e+07  -2.748229e+07
  -2.744029e+07  -2.740455e+07  -2.737852e+07  -2.733765e+07  -2.728337e+07
  -2.723574e+07  -2.719136e+07  -2.714288e+07  -2.708404e+07  -2.702804e+07
  -2.697803e+07  -2.691758e+07  -2.686097e+07  -2.679529e+07  -2.671566e+07
  -2.666473e+07  -2.660306e+07  -2.651906e+07  -2.645712e+07  -2.637707e+07
  -2.629220e+07  -2.621215e+07  -2.611648e+07  -2.604265e+07  -2.595625e+07
  -2.585701e+07  -2.577605e+07  -2.567508e+07  -2.557001e+07  -2.548254e+07
  -2.538162e+07  -2.526655e+07  -2.515739e+07  -2.505443e+07  -2.494573e+07
  -2.482572e+07  -2.471242e+07  -2.459190e+07  -2.446748e+07  -2.435650e+07
  -2.422269e+07  -2.409915e+07  -2.398272e+07  -2.383445e+07  -2.370476e+07
  -2.357574e+07  -2.343661e+07  -2.330854e+07  -2.316282e+07  -2.301751e+07
  -2.287536e+07  -2.272806e+07  -2.258576e+07  -2.242687e+07  -2.227630e+07
  -2.213967e+07  -2.197434e+07  -2.181226e+07  -2.165760e+07  -2.147977e+07
  -2.131839e+07  -2.116085e+07  -2.098469e+07  -2.082409e+07  -2.065116e+07
  -2.046616e+07  -2.030124e+07  -2.012181e+07  -1.992985e+07  -1.975271e+07
  -1.957530e+07  -1.938368e+07  -1.918568e+07  -1.899616e+07  -1.881417e+07
  -1.861411e+07  -1.840772e+07  -1.821987e+07  -1.801429e+07  -1.780906e+07
  -1.762269e+07  -1.741876e+07  -1.721460e+07  -1.699523e+07  -1.677875e+07
  -1.659178e+07  -1.637389e+07  -1.615051e+07  -1.594934e+07  -1.573975e+07
  -1.551729e+07  -1.529025e+07  -1.508418e+07  -1.487569e+07  -1.463939e+07
  -1.441055e+07  -1.419328e+07  -1.396145e+07  -1.372583e+07  -1.349582e+07
  -1.326370e+07  -1.303196e+07  -1.279259e+07  -1.254807e+07  -1.231343e+07
  -1.207844e+07  -1.182818e+07  -1.159072e+07  -1.135814e+07  -1.110183e+07
  -1.086880e+07  -1.063580e+07  -1.037582e+07  -1.013737e+07      -9890154.
      -9634538.      -9386708.      -9127973.      -8890495.      -8636190.
      -8365263.      -8126747.      -7864793.      -7606040.      -7369936.
      -7103755.      -6843891.      -6595581.      -6345202.      -6091152.
      -5816260.      -5550102.      -5303132.      -5040932.      -4765725.
      -4511002.      -4241171.      -3961134.      -3713993.      -3441268.
      -3160856.      -2894749.      -2610764.      -2350862.      -2090050.
      -1809825.      -1539568.      -1269954.      -997430.0      -725794.0
      -463750.0      -178103.0       103261.0       363234.0       644483.0
       897186.0       1161615.       1457198.       1718493.       1994251.
       2270769.       2512212.       2796397.       3088350.       3327448.
       3600191.       3882218.       4151679.       4417558.       4658179.
       4957610.       5224357.       5468762.       5765348.       6001908.
       6266211.       6550617.       6807067.       7078449.       7328103.
       7605982.       7872087.       8120830.       8381187.       8630683.
       8902561.       9149601.       9398339.       9654156.       9912675.
   1.018982e+07   1.042080e+07   1.068176e+07   1.094809e+07   1.117385e+07
   1.143330e+07   1.168618e+07   1.193566e+07   1.218035e+07   1.241705e+07
   1.266806e+07   1.290755e+07   1.315833e+07   1.338769e+07   1.363241e+07
   1.388494e+07   1.407885e+07   1.433499e+07   1.457576e+07   1.478631e+07
   1.503659e+07   1.523815e+07   1.547164e+07   1.569164e+07   1.590140e+07
   1.614654e+07   1.634222e+07   1.656932e+07   1.678689e+07   1.699064e+07
   1.720925e+07   1.740628e+07   1.762251e+07   1.781070e+07   1.802068e+07
   1.823138e+07   1.841792e+07   1.863571e+07   1.881209e+07   1.900593e+07
   1.920409e+07   1.938137e+07   1.959042e+07   1.976210e+07   1.995058e+07
   2.014160e+07   2.029584e+07   2.049495e+07   2.066704e+07   2.082291e+07
   2.101653e+07   2.118647e+07   2.134728e+07   2.152271e+07   2.168694e+07
   2.183171e+07   2.201161e+07   2.217004e+07   2.229835e+07   2.248474e+07
   2.263095e+07   2.276681e+07   2.292687e+07   2.305837e+07   2.320588e+07
   2.332642e+07   2.346732e+07   2.362436e+07   2.373454e+07   2.388036e+07
   2.400722e+07   2.410662e+07   2.425767e+07   2.439890e+07   2.448794e+07
   2.458153e+07   2.473300e+07   2.484592e+07   2.491609e+07   2.505530e+07
   2.515828e+07   2.522874e+07   2.535988e+07   2.545970e+07   2.554453e+07
   2.564672e+07   2.572901e+07   2.581919e+07   2.589808e+07   2.597862e+07
   2.607338e+07   2.613111e+07   2.621248e+07   2.631157e+07   2.634920e+07
   2.642128e+07   2.650892e+07   2.654047e+07   2.662472e+07   2.670037e+07
   2.672716e+07   2.679957e+07   2.685428e+07   2.688942e+07   2.692601e+07
   2.696838e+07   2.703755e+07   2.706381e+07   2.710085e+07   2.715187e+07
   2.716455e+07   2.719161e+07   2.722873e+07   2.726715e+07   2.725954e+07
   2.726344e+07   2.730363e+07   2.729330e+07   2.731381e+07   2.733596e+07
   2.733758e+07   2.735665e+07   2.734229e+07   2.734273e+07   2.734737e+07
   2.733879e+07   2.733609e+07   2.731918e+07   2.730457e+07   2.729443e+07
   2.727889e+07   2.724541e+07   2.723690e+07   2.722108e+07   2.716572e+07
   2.715752e+07   2.713287e+07   2.708448e+07   2.706419e+07   2.702470e+07
   2.698151e+07   2.693459e+07   2.689586e+07   2.684871e+07   2.678048e+07
   2.674693e+07   2.669810e+07   2.662701e+07   2.657080e+07   2.651073e+07
   2.645293e+07   2.637791e+07   2.630976e+07   2.624511e+07   2.616209e+07
