     0.02500000      -12345.00      -12345.00   3.262830e+10      -12345.00
   0.0005380000       1859.976      -352.0196      -12345.00      -12345.00
      -12345.00      -12345.00      -12345.00      -12345.00      -12345.00
      -12345.00      -12345.00      -12345.00      -12345.00      -12345.00
      -12345.00      -12345.00      -12345.00      -12345.00      -12345.00
      -12345.00      -12345.00      -12345.00      -12345.00      -12345.00
      -12345.00      -9.438700       159.9475       99.00000       1.000000
      -42.72450       173.0647      -12345.00       22.00000      -12345.00
      -12345.00      -12345.00      -12345.00      -12345.00      -12345.00
      -12345.00      -12345.00      -12345.00      -12345.00      -12345.00
       3902.062       337.0785       163.0892       35.09364      -12345.00
      -12345.00      -12345.00       93.00000       90.00000      -12345.00
      -12345.00      -12345.00      -12345.00      -12345.00      -12345.00
      -12345.00      -12345.00      -12345.00      -12345.00      -12345.00
      2016       318        11         8        51
        19         6    -12345    -12345     74400
    -12345    -12345    -12345    -12345    -12345
         1    -12345    -12345    -12345    -12345
    -12345    -12345    -12345    -12345    -12345
    -12345    -12345    -12345    -12345    -12345
    -12345    -12345    -12345    -12345    -12345
         1    -12345    -12345    -12345    -12345
HNR     South Island, Ne
10      -12345  -12345  
-12345  -12345  -12345  
-12345  -12345  -12345  
-12345  -12345  -12345  
-12345  -12345  -12345  
-12345  -12345  BH2     
IU      -12345  Streckei
[...]
      -5348864.      -5312344.      -5254993.      -5222797.      -5179640.
      -5131261.      -5102677.      -5052860.      -5003640.      -4962824.
      -4904601.      -4854945.      -4816171.      -4767343.      -4717280.
      -4675522.      -4625242.      -4564511.      -4507350.      -4457496.
      -4409573.      -4356492.      -4302407.      -4254526.      -4205499.
      -4145155.      -4091850.      -4037932.      -3981040.      -3943541.
      -3884629.      -3818902.      -3775584.      -3724524.      -3677084.
      -3622774.      -3568106.      -3526273.      -3469625.      -3417908.
      -3376944.      -3317963.      -3260623.      -3216644.      -3169010.
      -3124004.      -3077472.      -3032383.      -2987481.      -2944852.
      -2905894.      -2862731.      -2833689.      -2795524.      -2751691.
      -2724087.      -2684575.      -2647544.      -2634822.      -2613328.
      -2575009.      -2558068.      -2544286.      -2517780.      -2502117.
      -2485927.      -2474278.      -2457405.      -2441215.      -2451916.
      -2446131.      -2425373.      -2435451.      -2456067.      -2448883.
      -2452820.      -2480751.      -2478771.      -2477286.      -2500667.
      -2519190.      -2538594.      -2554170.      -2567377.      -2591947.
      -2604942.      -2629286.      -2677375.      -2708619.      -2738232.
      -2761391.      -2781904.      -2819360.      -2847442.      -2874840.
      -2903774.      -2936118.      -2964944.      -2994665.      -3051160.
      -3075624.      -3087160.      -3135098.      -3177990.      -3211076.
      -3237600.      -3271321.      -3318910.      -3346877.      -3366808.
      -3409056.      -3437964.      -3453610.      -3492786.      -3522910.
      -3535600.      -3560305.      -3599627.      -3628030.      -3647444.
      -3678353.      -3698839.      -3714087.      -3727944.      -3731190.
      -3747999.      -3766085.      -3777541.      -3790181.      -3801219.
      -3815456.      -3820503.      -3830397.      -3842371.      -3840581.
      -3843262.      -3844232.      -3841121.      -3842366.      -3843166.
      -3852893.      -3852973.      -3823302.      -3830534.      -3854519.
      -3835066.      -3825769.      -3835448.      -3833256.      -3818004.
      -3816465.      -3817958.      -3805578.      -3803379.      -3797945.
      -3791336.      -3788667.      -3786208.      -3784421.      -3783285.
      -3790118.      -3785709.      -3781982.      -3790852.      -3791620.
      -3791369.      -3803337.      -3814414.      -3813649.      -3820774.
      -3834071.      -3848308.      -3872713.      -3881479.      -3887947.
      -3926975.      -3945349.      -3934859.      -3956758.      -3986091.
      -4009179.      -4035989.      -4056795.      -4087209.      -4114681.
      -4139604.      -4173080.      -4203622.      -4230529.      -4266838.
      -4301957.      -4327277.      -4363246.      -4399059.      -4446307.
      -4497244.      -4521559.      -4562609.      -4620656.      -4661572.
      -4691524.      -4732432.      -4789542.      -4825253.      -4858346.
      -4912923.      -4960890.      -5009154.      -5058530.      -5102260.
      -5152537.      -5204959.      -5243008.      -5283935.      -5339966.
      -5385301.      -5428136.      -5485493.      -5535964.      -5571477.
      -5619854.      -5678431.      -5723841.      -5763436.      -5805461.
      -5854335.      -5904550.      -5945418.      -5985759.      -6037322.
      -6083139.      -6119281.      -6163924.      -6208484.      -6253187.
      -6296362.      -6341205.      -6382621.      -6411482.      -6459471.
      -6505771.      -6530574.      -6566627.      -6605488.      -6633779.
      -6663188.      -6691050.      -6715437.      -6740284.      -6762953.
      -6790276.      -6814994.      -6825360.      -6841711.      -6868596.
      -6885576.      -6893820.      -6908149.      -6922176.      -6922421.
      -6926063.      -6941973.      -6949754.      -6947820.      -6956239.
      -6967824.      -6958209.      -6953027.      -6967272.      -6971918.
      -6963406.      -6958845.      -6959878.      -6954461.      -6948612.
      -6940417.      -6937842.      -6943843.      -6925119.      -6905955.
      -6906649.      -6900340.      -6889274.      -6877207.      -6861984.
      -6852433.      -6842069.      -6827892.      -6821173.      -6808875.
      -6787289.      -6768179.      -6751505.      -6738939.      -6724322.
      -6705266.      -6683299.      -6661424.      -6642329.      -6618267.
      -6594959.      -6577277.      -6557290.      -6535430.      -6515597.
      -6490084.      -6467068.      -6453837.      -6430590.      -6405438.
      -6382513.      -6359735.      -6337648.      -6301365.      -6274433.
      -6261041.      -6239239.      -6216219.      -6196278.      -6176532.
      -6149700.      -6124318.      -6105460.      -6075083.      -6046925.
      -6024774.      -5992695.      -5966331.      -5941460.      -5906574.
      -5880994.      -5862492.      -5840576.      -5814728.      -5776625.
      -5746173.      -5726470.      -5693552.      -5657207.      -5627417.
      -5600750.      -5568631.      -5538822.      -5517643.      -5487090.
      -5453478.      -5424465.      -5391556.      -5356133.      -5327318.
      -5299325.      -5266409.      -5236643.      -5202942.      -5169090.
      -5141085.      -5105180.      -5065140.      -5033197.      -5005528.
      -4972350.      -4932988.      -4901887.      -4874280.      -4834054.
      -4792130.      -4755701.      -4725811.      -4691926.      -4645785.
      -4605906.      -4572947.      -4538579.      -4500555.      -4457405.
      -4411619.      -4370968.      -4341968.      -4302860.      -4252856.
      -4217050.      -4183695.      -4140825.      -4097948.      -4056146.
      -4016843.      -3976744.      -3933502.      -3898704.      -3860431.
      -3808633.      -3760324.      -3717117.      -3671077.      -3628060.
      -3586433.      -3540193.      -3492984.      -3445812.      -3402635.
      -3352846.      -3296352.      -3247351.      -3199828.      -3150158.
      -3095704.      -3043816.      -2999355.      -2947153.      -2890611.
      -2841601.      -2785706.      -2724896.      -2675981.      -2623253.
      -2565661.      -2509613.      -2448648.      -2394324.      -2340848.
      -2280943.      -2228778.      -2180774.      -2123163.      -2063193.
      -2015133.      -1966577.      -1905081.      -1854526.      -1819045.
      -1769557.      -1710378.      -1655961.      -1609397.      -1563768.
      -1517203.      -1483012.      -1437392.      -1379815.      -1336016.
      -1294217.      -1250177.      -1206487.      -1164416.      -1129512.
      -1088703.      -1040604.      -1006188.      -967729.0      -919546.0
      -887167.0      -851258.0      -817370.0      -787946.0      -738116.0
      -702827.0      -669189.0      -615149.0      -582464.0      -545338.0
      -495188.0      -466557.0      -422241.0      -368626.0      -337618.0
      -292407.0      -246537.0      -207614.0      -151202.0      -109896.0
      -74080.00      -20929.00       28908.00       77497.00       125999.0
       178025.0       236611.0       290625.0       351890.0       411595.0
       461355.0       520071.0       586998.0       654476.0       706720.0
       761085.0       839555.0       910605.0       974296.0       1048559.
       1126216.       1200293.       1269359.       1351062.       1439185.
       1510852.       1587752.       1672838.       1747523.       1830342.
       1922522.       2009663.       2095632.       2182353.       2275419.
       2371843.       2461515.       2549574.       2641274.       2741348.
       2845988.       2939809.       3030910.       3129594.       3226998.
       3331073.       3443147.       3545239.       3641273.       3742840.
       3844160.       3938265.       4039912.       4152066.       4250414.
       4350789.       4469627.       4573758.       4668290.       4777593.
       4884739.       4987212.       5092793.       5193977.       5297727.
       5402657.       5502701.       5612004.       5715922.       5810120.
       5917543.       6019257.       6117180.       6228761.       6335868.
       6439619.       6544929.       6643935.       6743122.       6848173.
       6954775.       7061264.       7171038.       7279126.       7383103.
       7494960.       7612288.       7728410.       7842912.       7950305.
       8060743.       8173393.       8283419.       8402806.       8517120.
       8628036.       8750045.       8869690.       8995385.       9125951.
       9246609.       9373461.       9499308.       9625888.       9764383.
       9881559.       9999199.   1.014162e+07   1.027303e+07   1.039930e+07
   1.053949e+07   1.068394e+07   1.082274e+07   1.096446e+07   1.111134e+07
   1.124978e+07   1.138526e+07   1.152972e+07   1.166847e+07   1.179533e+07
   1.194116e+07   1.208971e+07   1.222462e+07   1.237728e+07   1.252622e+07
   1.266313e+07   1.280850e+07   1.294760e+07   1.308466e+07   1.322504e+07
   1.336699e+07   1.350772e+07   1.364226e+07   1.378813e+07   1.393318e+07
   1.406602e+07   1.420857e+07   1.435659e+07   1.449445e+07   1.462652e+07
   1.476431e+07   1.490100e+07   1.502998e+07   1.516413e+07   1.529903e+07
   1.542541e+07   1.555870e+07   1.569455e+07   1.581926e+07   1.595537e+07
   1.609263e+07   1.621448e+07   1.634277e+07   1.647439e+07   1.660354e+07
   1.672028e+07   1.683210e+07   1.696000e+07   1.708330e+07   1.720511e+07
   1.733101e+07   1.744682e+07   1.756844e+07   1.769079e+07   1.780258e+07
   1.791486e+07   1.802994e+07   1.814976e+07   1.826648e+07   1.837945e+07
   1.848622e+07   1.858935e+07   1.870374e+07   1.881248e+07   1.891587e+07
   1.902257e+07   1.912984e+07   1.924042e+07   1.934373e+07   1.944041e+07
   1.954144e+07   1.964829e+07   1.974685e+07   1.984049e+07   1.993948e+07
   2.003568e+07   2.013450e+07   2.022936e+07   2.031848e+07   2.041826e+07
   2.051606e+07   2.060558e+07   2.069933e+07   2.079288e+07   2.088598e+07
   2.097879e+07   2.106576e+07   2.115962e+07   2.125618e+07   2.134045e+07
   2.143052e+07   2.152474e+07   2.160887e+07   2.169949e+07   2.179133e+07
   2.188212e+07   2.197734e+07   2.206414e+07   2.215464e+07   2.224620e+07
   2.233178e+07   2.242509e+07   2.251521e+07   2.260582e+07   2.270262e+07
   2.278850e+07   2.287492e+07   2.297068e+07   2.306181e+07   2.314653e+07
   2.323590e+07   2.333255e+07   2.342437e+07   2.350931e+07   2.359764e+07
   2.368591e+07   2.377133e+07   2.386264e+07   2.395046e+07   2.403818e+07
   2.413512e+07   2.422953e+07   2.431567e+07   2.439597e+07   2.447571e+07
   2.455499e+07   2.464318e+07   2.472994e+07   2.480359e+07   2.488668e+07
   2.497269e+07   2.504462e+07   2.511902e+07   2.520880e+07   2.529045e+07
   2.535755e+07   2.543884e+07   2.551654e+07   2.557970e+07   2.565738e+07
   2.573818e+07   2.580986e+07   2.587768e+07   2.594271e+07   2.601022e+07
   2.608400e+07   2.615345e+07   2.621367e+07   2.628550e+07   2.634974e+07
   2.640150e+07   2.646728e+07   2.652848e+07   2.659018e+07   2.666454e+07
   2.673052e+07   2.678356e+07   2.684258e+07   2.690762e+07   2.696374e+07
   2.702390e+07   2.708391e+07   2.714026e+07   2.719836e+07   2.724396e+07
   2.730315e+07   2.737885e+07   2.742966e+07   2.746934e+07   2.752716e+07
   2.758751e+07   2.764323e+07   2.770543e+07   2.775958e+07   2.780838e+07
   2.786518e+07   2.792185e+07   2.798142e+07   2.803202e+07   2.807571e+07
   2.813863e+07   2.819644e+07   2.824504e+07   2.830177e+07   2.835195e+07
   2.840282e+07   2.844846e+07   2.849179e+07   2.854653e+07   2.860079e+07
   2.865113e+07   2.869040e+07   2.873552e+07   2.879500e+07   2.884623e+07
   2.888946e+07   2.893147e+07   2.898090e+07   2.903461e+07   2.907834e+07
   2.912895e+07   2.918067e+07   2.921636e+07   2.926326e+07   2.931679e+07
   2.935798e+07   2.939693e+07   2.944096e+07   2.948685e+07   2.953106e+07
   2.957669e+07   2.961454e+07   2.965988e+07   2.971034e+07   2.974306e+07
   2.978590e+07   2.982936e+07   2.985978e+07   2.990283e+07   2.994569e+07
   2.997840e+07   3.001482e+07   3.006025e+07   3.010575e+07   3.013724e+07
   3.017077e+07   3.020983e+07   3.023755e+07   3.027205e+07   3.031308e+07
   3.034377e+07   3.037139e+07   3.040270e+07   3.043751e+07   3.047018e+07
   3.050152e+07   3.053192e+07   3.056184e+07   3.059733e+07   3.062804e+07
   3.064886e+07   3.067145e+07   3.069599e+07   3.071858e+07   3.074700e+07
   3.077404e+07   3.079178e+07   3.081404e+07   3.083700e+07   3.085783e+07
   3.087987e+07   3.089137e+07   3.090056e+07   3.091927e+07   3.092921e+07
   3.093342e+07   3.094575e+07   3.094679e+07   3.095261e+07   3.096968e+07
   3.097303e+07   3.097417e+07   3.097907e+07   3.098038e+07   3.097463e+07
   3.097440e+07   3.097499e+07   3.096278e+07   3.095918e+07   3.095560e+07
   3.093828e+07   3.093029e+07   3.092921e+07   3.091583e+07   3.090064e+07
   3.089290e+07   3.088114e+07   3.086721e+07   3.085489e+07   3.083858e+07
   3.082047e+07   3.080294e+07   3.078711e+07   3.076412e+07   3.073956e+07
   3.072433e+07   3.070038e+07   3.067586e+07   3.065897e+07   3.063580e+07
   3.061745e+07   3.060340e+07   3.057914e+07   3.055375e+07   3.053164e+07
   3.050203e+07   3.047389e+07   3.045425e+07   3.043388e+07   3.040442e+07
   3.037675e+07   3.036348e+07   3.034000e+07   3.030847e+07   3.028020e+07
   3.024167e+07   3.020655e+07   3.018324e+07   3.016388e+07   3.013987e+07
   3.011247e+07   3.009368e+07   3.007013e+07   3.004252e+07   3.002738e+07
   3.000684e+07   2.998094e+07   2.996478e+07   2.994232e+07   2.991422e+07
   2.989085e+07   2.986252e+07   2.983774e+07   2.982185e+07   2.980009e+07
   2.977446e+07   2.975334e+07   2.973239e+07   2.971067e+07   2.969298e+07
   2.967328e+07   2.965130e+07   2.962765e+07   2.959923e+07   2.957887e+07
   2.956201e+07   2.953356e+07   2.950741e+07   2.948714e+07   2.946289e+07
   2.943727e+07   2.940938e+07   2.938645e+07   2.936743e+07   2.934117e+07
   2.931278e+07   2.928935e+07   2.926741e+07   2.924126e+07   2.921570e+07
   2.918996e+07   2.916115e+07   2.913735e+07   2.911260e+07   2.908054e+07
   2.904909e+07   2.902013e+07   2.899404e+07   2.896056e+07   2.893243e+07
   2.891564e+07   2.887816e+07   2.884176e+07   2.881399e+07   2.877241e+07
   2.873324e+07   2.869800e+07   2.866132e+07   2.862274e+07   2.858520e+07
   2.854950e+07   2.850575e+07   2.846354e+07   2.842685e+07   2.838253e+07
   2.833472e+07   2.828541e+07   2.823212e+07   2.818300e+07   2.813495e+07
   2.808281e+07   2.802547e+07   2.796238e+07   2.790099e+07   2.784605e+07
   2.779273e+07   2.773747e+07   2.767815e+07   2.761145e+07   2.754868e+07
   2.748297e+07   2.740789e+07   2.734616e+07   2.727813e+07   2.719247e+07
   2.712335e+07   2.705683e+07   2.697453e+07   2.690017e+07   2.683260e+07
   2.675797e+07   2.667597e+07   2.659415e+07   2.651983e+07   2.644127e+07
   2.635440e+07   2.626908e+07   2.618540e+07   2.609453e+07   2.600423e+07
   2.591727e+07   2.582792e+07   2.574628e+07   2.565731e+07   2.556517e+07
   2.548037e+07   2.538380e+07   2.528699e+07   2.518942e+07   2.508230e+07
   2.498490e+07   2.489099e+07   2.478642e+07   2.468786e+07   2.459204e+07
   2.449071e+07   2.439676e+07   2.429703e+07   2.418890e+07   2.408843e+07
   2.398955e+07   2.388966e+07   2.378339e+07   2.366433e+07   2.355808e+07
   2.346524e+07   2.335030e+07   2.323499e+07   2.313412e+07   2.301812e+07
   2.290643e+07   2.280424e+07   2.269229e+07   2.258123e+07   2.246904e+07
   2.235442e+07   2.224738e+07   2.213864e+07   2.201924e+07   2.190301e+07
   2.179352e+07   2.167762e+07   2.155048e+07   2.142792e+07   2.131617e+07
   2.119249e+07   2.106882e+07   2.095601e+07   2.083031e+07   2.069989e+07
   2.057703e+07   2.046030e+07   2.034158e+07   2.021362e+07   2.009754e+07
   1.997521e+07   1.983232e+07   1.970670e+07   1.958186e+07   1.945377e+07
   1.933792e+07   1.920764e+07   1.907344e+07   1.893685e+07   1.879871e+07
   1.867664e+07   1.854169e+07   1.839824e+07   1.826909e+07   1.813384e+07
   1.799077e+07   1.785467e+07   1.772063e+07   1.757688e+07   1.743009e+07
   1.729000e+07   1.714755e+07   1.700284e+07   1.685743e+07   1.670830e+07
   1.656462e+07   1.641637e+07   1.626062e+07   1.611388e+07   1.596544e+07
   1.581192e+07   1.565690e+07   1.550194e+07   1.534794e+07   1.518924e+07
   1.503345e+07   1.487685e+07   1.472248e+07   1.456765e+07   1.440426e+07
   1.424741e+07   1.408774e+07   1.391542e+07   1.375514e+07   1.360208e+07
   1.343146e+07   1.326142e+07   1.310044e+07   1.293964e+07   1.277898e+07
   1.261027e+07   1.243864e+07   1.227247e+07   1.211720e+07   1.196400e+07
   1.179742e+07   1.162636e+07   1.146261e+07   1.130419e+07   1.113998e+07
   1.097886e+07   1.081988e+07   1.065135e+07   1.049136e+07   1.033352e+07
   1.016982e+07   1.001226e+07       9848384.       9685772.       9532505.
       9373192.       9211746.       9050045.       8896322.       8743639.
       8578115.       8415445.       8250403.       8091792.       7943078.
       7780265.       7617420.       7457439.       7291525.       7130437.
       6969348.       6807129.       6649565.       6489799.       6326412.
       6164315.       5999072.       5826647.       5662616.       5501235.
       5329538.       5164259.       4996410.       4827671.       4673370.
       4513932.       4346728.       4184112.       4021186.       3857413.
       3690317.       3514066.       3348114.       3192623.       3022079.
       2845178.       2676043.       2507278.       2338870.       2171433.
       2003553.       1835463.       1660155.       1488310.       1333796.
       1168791.       981662.0       809056.0       647228.0       471761.0
       298429.0       129904.0      -36805.00      -202359.0      -376121.0
      -545754.0      -718737.0      -898527.0      -1072956.      -1244484.
      -1412495.      -1585503.      -1756959.      -1926908.      -2098499.
      -2271714.      -2452856.      -2624680.      -2797030.      -2973382.
      -3140988.      -3320780.      -3503739.      -3668919.      -3843623.
      -4028322.      -4196754.      -4368700.      -4547667.      -4717524.
      -4887537.      -5060286.      -5237420.      -5416154.      -5590143.
