     0.02500000      -12345.00      -12345.00   2.000060e+09      -12345.00
   0.0005380000       1859.976      -555.0195      -12345.00      -12345.00
      -12345.00      -12345.00      -12345.00      -12345.00      -12345.00
      -12345.00      -12345.00      -12345.00      -12345.00      -12345.00
      -12345.00      -12345.00      -12345.00      -12345.00      -12345.00
      -12345.00      -12345.00      -12345.00      -12345.00      -12345.00
      -12345.00       16.73290      -169.5292       2.500000       0.000000
      -42.72450       173.0647      -12345.00       22.00000      -12345.00
      -12345.00      -12345.00      -12345.00      -12345.00      -12345.00
      -12345.00      -12345.00      -12345.00      -12345.00      -12345.00
       6815.299       19.07459       194.5559       61.29418      -12345.00
      -12345.00      -12345.00       86.00000       90.00000      -12345.00
      -12345.00      -12345.00      -12345.00      -12345.00      -12345.00
      -12345.00      -12345.00      -12345.00      -12345.00      -12345.00
      2016       318        11        12        14
        19         6    -12345    -12345     74400
    -12345    -12345    -12345    -12345    -12345
         1    -12345    -12345    -12345    -12345
    -12345    -12345    -12345    -12345    -12345
    -12345    -12345    -12345    -12345    -12345
    -12345    -12345    -12345    -12345    -12345
         1    -12345    -12345    -12345    -12345
JOHN    South Island, Ne
10      -12345  -12345  
-12345  -12345  -12345  
-12345  -12345  -12345  
-12345  -12345  -12345  
-12345  -12345  -12345  
-12345  -12345  BH2     
IU      -12345  Trillium
[...]
       314399.0       313853.0       313380.0       312507.0       311508.0
       310421.0       309391.0       308708.0       307925.0       307177.0
       306407.0       305442.0       304735.0       303798.0       302674.0
       301729.0       300605.0       299630.0       298940.0       298179.0
       297364.0       296378.0       295360.0       294387.0       293493.0
       292857.0       292209.0       291697.0       290738.0       289498.0
       288821.0       288266.0       287778.0       287024.0       286288.0
       285524.0       284458.0       283523.0       282572.0       281919.0
       281229.0       280537.0       279931.0       278969.0       278043.0
       277004.0       276228.0       275801.0       274971.0       274178.0
       273447.0       272475.0       271452.0       270439.0       269557.0
       268902.0       268244.0       267229.0       266288.0       265133.0
       263909.0       263230.0       262271.0       261128.0       259994.0
       258751.0       257333.0       255829.0       254752.0       253686.0
       252590.0       251594.0       250303.0       248858.0       247401.0
       245953.0       244729.0       243551.0       242067.0       240389.0
       238580.0       236841.0       235275.0       233762.0       232089.0
       229984.0       228075.0       226555.0       224906.0       222989.0
       220564.0       218005.0       215981.0       214125.0       212216.0
       210331.0       208420.0       206410.0       204082.0       201814.0
       199704.0       197618.0       195314.0       192714.0       190482.0
       188398.0       186231.0       183889.0       181234.0       178919.0
       176565.0       173897.0       171691.0       169626.0       167177.0
       164276.0       161327.0       158791.0       156441.0       154059.0
       151400.0       148783.0       146171.0       143476.0       141053.0
       138384.0       135758.0       133444.0       131036.0       128654.0
       126066.0       123357.0       120778.0       118344.0       115853.0
       113003.0       110040.0       107100.0       104405.0       102090.0
       99455.00       96454.00       93778.00       90507.00       87213.00
       84987.00       82155.00       79308.00       76624.00       73570.00
       71022.00       68249.00       65587.00       62950.00       60029.00
       57340.00       54660.00       51944.00       48792.00       45980.00
       43425.00       40151.00       37317.00       34382.00       31067.00
       28223.00       24926.00       21799.00       18951.00       15801.00
       13056.00       10236.00       7028.000       4059.000       1270.000
      -1733.000      -4778.000      -7717.000      -10622.00      -13525.00
      -16295.00      -18935.00      -21787.00      -24508.00      -27148.00
      -30233.00      -32973.00      -35482.00      -38368.00      -41126.00
      -44142.00      -47047.00      -49706.00      -52783.00      -55833.00
      -58939.00      -61947.00      -64927.00      -67718.00      -70387.00
      -73439.00      -76262.00      -79537.00      -82781.00      -85380.00
      -88310.00      -91067.00      -93898.00      -96876.00      -99675.00
      -102715.0      -105375.0      -107932.0      -110840.0      -113575.0
      -116223.0      -118826.0      -121713.0      -124572.0      -127023.0
      -129675.0      -132106.0      -134461.0      -137094.0      -139741.0
      -142516.0      -145089.0      -147769.0      -150541.0      -152947.0
      -155665.0      -158388.0      -160871.0      -163672.0      -166253.0
      -168528.0      -170844.0      -173114.0      -175693.0      -178388.0
      -180811.0      -183503.0      -186048.0      -188388.0      -191024.0
      -193345.0      -195681.0      -198207.0      -200580.0      -203169.0
      -205963.0      -208601.0      -211055.0      -213398.0      -215526.0
      -217803.0      -220517.0      -222922.0      -225009.0      -227382.0
      -229730.0      -232157.0      -234714.0      -237295.0      -239984.0
      -242383.0      -244960.0      -247409.0      -249526.0      -252418.0
      -254566.0      -256353.0      -258912.0      -261320.0      -264168.0
      -266424.0      -268753.0      -271042.0      -272739.0      -275471.0
      -277631.0      -279800.0      -282432.0      -284578.0      -286884.0
      -288939.0      -291083.0      -293656.0      -296102.0      -298090.0
      -300230.0      -302423.0      -304232.0      -306223.0      -308637.0
      -311221.0      -313395.0      -315437.0      -317736.0      -320363.0
      -322812.0      -324972.0      -327505.0      -329772.0      -332012.0
      -334446.0      -336584.0      -339065.0      -341664.0      -343858.0
      -346044.0      -348138.0      -350094.0      -352328.0      -354571.0
      -356871.0      -359032.0      -360815.0      -362981.0      -365056.0
      -366901.0      -369213.0      -371385.0      -373017.0      -374952.0
      -377295.0      -379369.0      -381603.0      -384079.0      -386424.0
      -388417.0      -390505.0      -392918.0      -394551.0      -396452.0
      -398800.0      -400770.0      -403157.0      -405602.0      -407935.0
      -410047.0      -412123.0      -414409.0      -416430.0      -418427.0
      -420459.0      -422492.0      -424630.0      -426719.0      -428598.0
      -430556.0      -432676.0      -434883.0      -437417.0      -439616.0
      -441540.0      -443650.0      -445468.0      -447456.0      -449628.0
      -451369.0      -453308.0      -455373.0      -457218.0      -459162.0
      -461236.0      -463710.0      -465945.0      -467919.0      -470002.0
      -471589.0      -473390.0      -475364.0      -477492.0      -479988.0
      -481674.0      -483245.0      -485156.0      -487083.0      -489243.0
      -491237.0      -493011.0      -494401.0      -495984.0      -497845.0
      -499146.0      -500822.0      -502707.0      -503934.0      -505449.0
      -507082.0      -508219.0      -509432.0      -510835.0      -512140.0
      -513240.0      -514070.0      -515005.0      -516223.0      -517217.0
      -518125.0      -519168.0      -520024.0      -520709.0      -521275.0
      -521973.0      -522848.0      -523815.0      -524744.0      -525219.0
      -525852.0      -526533.0      -527194.0      -528222.0      -528657.0
      -528746.0      -528893.0      -529040.0      -529632.0      -530490.0
      -531025.0      -531071.0      -530975.0      -530922.0      -531308.0
      -531757.0      -531816.0      -531728.0      -531270.0      -530953.0
      -531176.0      -531446.0      -531613.0      -531419.0      -530732.0
      -530240.0      -529995.0      -529876.0      -529770.0      -529124.0
      -528578.0      -527948.0      -527326.0      -527138.0      -526464.0
      -526082.0      -525817.0      -524991.0      -524378.0      -523535.0
      -522896.0      -522662.0      -521937.0      -521469.0      -520810.0
      -519541.0      -518449.0      -517160.0      -516063.0      -515393.0
      -514686.0      -513688.0      -512277.0      -511089.0      -510015.0
      -508748.0      -507506.0      -506066.0      -504450.0      -502980.0
      -501679.0      -500098.0      -498468.0      -496841.0      -495041.0
      -493541.0      -491897.0      -490208.0      -488509.0      -486499.0
      -484657.0      -482898.0      -481321.0      -479761.0      -477949.0
      -476101.0      -473971.0      -471848.0      -470036.0      -468114.0
      -466163.0      -464200.0      -462015.0      -459800.0      -457491.0
      -455098.0      -452886.0      -450678.0      -448289.0      -445787.0
      -443369.0      -440779.0      -437962.0      -435194.0      -432424.0
      -429653.0      -426735.0      -424092.0      -421397.0      -418332.0
      -415357.0      -412178.0      -409099.0      -405978.0      -402655.0
      -399444.0      -396023.0      -392658.0      -389396.0      -386290.0
      -383466.0      -380232.0      -376684.0      -373269.0      -369933.0
      -366727.0      -363519.0      -360018.0      -356332.0      -352736.0
      -349140.0      -345252.0      -341670.0      -338221.0      -334144.0
      -330250.0      -326606.0      -322840.0      -318949.0      -315072.0
      -311267.0      -307236.0      -303419.0      -299794.0      -295994.0
      -292305.0      -288566.0      -284467.0      -280559.0      -276480.0
      -272103.0      -268203.0      -264054.0      -259604.0      -255459.0
      -251237.0      -246957.0      -242560.0      -238084.0      -233989.0
      -229695.0      -225162.0      -220747.0      -216160.0      -211746.0
      -207239.0      -202998.0      -199136.0      -194538.0      -190055.0
      -185931.0      -181435.0      -177242.0      -172909.0      -167914.0
      -163643.0      -159524.0      -154909.0      -150552.0      -145938.0
      -141421.0      -137242.0      -132857.0      -128432.0      -124188.0
      -119942.0      -115458.0      -110725.0      -105923.0      -101464.0
      -97117.00      -92819.00      -88436.00      -83654.00      -78937.00
      -74373.00      -69926.00      -65609.00      -61032.00      -56020.00
      -51397.00      -47048.00      -42497.00      -38152.00      -33703.00
      -29167.00      -24513.00      -19788.00      -15374.00      -11070.00
      -6597.000      -1827.000       2728.000       7037.000       11655.00
       16274.00       21002.00       25915.00       30527.00       35184.00
       39931.00       44459.00       48980.00       53547.00       58174.00
       62896.00       67498.00       72052.00       76849.00       81582.00
       86026.00       90450.00       94998.00       99595.00       104014.0
       108228.0       112358.0       116563.0       120788.0       125084.0
       129513.0       133661.0       137614.0       141679.0       145759.0
       149631.0       153453.0       157373.0       161151.0       165215.0
       169298.0       173049.0       176923.0       180518.0       183924.0
       187609.0       191712.0       195614.0       198793.0       202114.0
       205752.0       209450.0       212990.0       216474.0       220205.0
       223899.0       227546.0       231067.0       234672.0       238504.0
       242036.0       245628.0       249611.0       253253.0       256671.0
       260070.0       263428.0       266893.0       270203.0       273805.0
       277560.0       280977.0       284513.0       287985.0       291179.0
       294502.0       297847.0       301240.0       304654.0       307870.0
       311277.0       314700.0       318055.0       321434.0       324479.0
       327845.0       331588.0       335186.0       338486.0       341402.0
       344569.0       347896.0       351320.0       354716.0       357697.0
       360831.0       364241.0       367397.0       370217.0       373335.0
       376723.0       379842.0       383013.0       386180.0       388946.0
       391875.0       394894.0       397879.0       401201.0       404394.0
       407477.0       410466.0       413480.0       416770.0       419819.0
       422841.0       425896.0       428922.0       431991.0       434684.0
       437394.0       440186.0       442749.0       445584.0       448451.0
       451204.0       454206.0       456861.0       459352.0       461884.0
       464259.0       467006.0       469730.0       472209.0       474913.0
       477862.0       480644.0       483175.0       485800.0       488404.0
       491182.0       494014.0       496740.0       499563.0       502319.0
       505307.0       508319.0       510972.0       513685.0       516433.0
       519052.0       521803.0       524744.0       527660.0       530468.0
       533089.0       535858.0       538787.0       541188.0       543504.0
       545956.0       548559.0       551385.0       553885.0       556530.0
       559183.0       561558.0       564278.0       567150.0       570003.0
       572370.0       574167.0       576249.0       578436.0       580709.0
       583292.0       585702.0       587937.0       590239.0       592430.0
       594497.0       596710.0       598924.0       600943.0       602749.0
       604493.0       606264.0       608104.0       610129.0       612107.0
       614024.0       615844.0       617581.0       619284.0       620624.0
       621884.0       623216.0       624390.0       625742.0       627137.0
       628370.0       629708.0       631022.0       631966.0       632445.0
       633047.0       633740.0       634197.0       634760.0       635223.0
       635909.0       636904.0       637705.0       638393.0       638905.0
       639255.0       639264.0       639650.0       640618.0       641367.0
       642258.0       642916.0       643380.0       644001.0       644316.0
       644564.0       644715.0       644877.0       645168.0       645662.0
       646178.0       646272.0       646205.0       646015.0       645619.0
       645280.0       645390.0       645687.0       645794.0       645583.0
       645168.0       644868.0       644670.0       644510.0       644446.0
       644558.0       644578.0       644445.0       644033.0       643476.0
       643222.0       642990.0       642487.0       642077.0       641964.0
       641809.0       641618.0       641077.0       640277.0       639773.0
       639293.0       639060.0       638928.0       638498.0       637924.0
       636765.0       635528.0       634722.0       634122.0       633821.0
       633341.0       632587.0       631450.0       629925.0       628495.0
       627397.0       626914.0       626634.0       625887.0       624593.0
       622734.0       620544.0       619018.0       618250.0       617460.0
       616163.0       614233.0       612305.0       610650.0       609147.0
       607674.0       605969.0       604424.0       602861.0       600774.0
       598793.0       596779.0       594553.0       592658.0       590887.0
       589050.0       586757.0       584307.0       581925.0       579180.0
       576955.0       575073.0       572857.0       570570.0       568092.0
       565845.0       563553.0       560739.0       557975.0       555228.0
       552627.0       550306.0       547969.0       545642.0       543152.0
       540368.0       537550.0       534962.0       532601.0       530316.0
       527941.0       525021.0       522093.0       519780.0       517360.0
       514490.0       511505.0       508633.0       505854.0       503267.0
       500589.0       497826.0       495113.0       492173.0       489244.0
       486181.0       483319.0       480890.0       478290.0       475476.0
       472696.0       469834.0       466796.0       464117.0       461413.0
       458457.0       455612.0       452694.0       449574.0       446563.0
       443925.0       441139.0       438298.0       435162.0       431716.0
       428816.0       426167.0       423450.0       420581.0       417582.0
       414604.0       411674.0       408916.0       405839.0       402759.0
       400312.0       397559.0       394609.0       391828.0       388992.0
       386208.0       383145.0       380265.0       377315.0       373921.0
       370969.0       368380.0       365809.0       363311.0       361026.0
       358386.0       355409.0       352764.0       349833.0       347217.0
       345047.0       342465.0       339865.0       336966.0       334057.0
       331673.0       329285.0       326807.0       324245.0       321768.0
       319160.0       316101.0       313033.0       309765.0       306815.0
       304530.0       302080.0       299440.0       296502.0       293527.0
       290938.0       288174.0       285282.0       282509.0       279568.0
       276828.0       274202.0       271335.0       268870.0       266442.0
       263466.0       260671.0       257844.0       254790.0       252017.0
       249181.0       246377.0       243512.0       240625.0       238052.0
       235021.0       232019.0       229403.0       226461.0       223663.0
       220987.0       218492.0       216209.0       213583.0       210846.0
       208077.0       205331.0       202727.0       200280.0       197772.0
       195086.0       192170.0       189385.0       186984.0       184432.0
       181875.0       179413.0       176857.0       174103.0       171511.0
       169093.0       166512.0       163967.0       161537.0       159221.0
       156759.0       154433.0       152332.0       150162.0       148010.0
       145779.0       143453.0       141089.0       139080.0       137005.0
       134601.0       132397.0       129943.0       127418.0       125255.0
       123209.0       121126.0       118883.0       116438.0       114135.0
       111983.0       109676.0       107554.0       105420.0       103092.0
       100960.0       98825.00       96750.00       94737.00       92437.00
       90150.00       87941.00       85743.00       83683.00       81578.00
       79313.00       76894.00       74271.00       71624.00       69180.00
       67016.00       64899.00       62170.00       59310.00       56800.00
       54361.00       52289.00       50214.00       47632.00       44891.00
       42364.00       39914.00       37516.00       35159.00       32531.00
       29946.00       27558.00       25226.00       22919.00       20485.00
       18197.00       16007.00       13632.00       11402.00       9290.000
       7069.000       4868.000       2815.000       831.0000      -1063.000
      -2872.000      -4700.000      -6616.000      -8621.000      -10403.00
      -12125.00      -13600.00      -15036.00      -16900.00      -18524.00
      -20367.00      -22127.00      -23235.00      -24495.00      -25643.00
      -27175.00      -28882.00      -30300.00      -32082.00      -33403.00
      -34642.00      -35982.00      -37227.00      -39081.00      -40463.00
      -41670.00      -42996.00      -43849.00      -45190.00      -46638.00
      -47982.00      -49449.00      -50741.00      -52052.00      -53214.00
      -54363.00      -55464.00      -56413.00      -57504.00      -58717.00
      -60040.00      -61189.00      -62236.00      -63557.00      -64727.00
      -65785.00      -66886.00      -67868.00      -68839.00      -69699.00
      -70802.00      -71978.00      -72877.00      -74156.00      -75359.00
      -76285.00      -77323.00      -78303.00      -79674.00      -80620.00
      -81388.00      -82309.00      -82865.00      -84586.00      -85928.00
