     0.02500000      -12345.00      -12345.00   2.000040e+09      -12345.00
   0.0005380000       1859.976      -555.0195      -12345.00      -12345.00
      -12345.00      -12345.00      -12345.00      -12345.00      -12345.00
      -12345.00      -12345.00      -12345.00      -12345.00      -12345.00
      -12345.00      -12345.00      -12345.00      -12345.00      -12345.00
      -12345.00      -12345.00      -12345.00      -12345.00      -12345.00
      -12345.00       16.73290      -169.5292       2.500000       0.000000
      -42.72450       173.0647      -12345.00       22.00000      -12345.00
      -12345.00      -12345.00      -12345.00      -12345.00      -12345.00
      -12345.00      -12345.00      -12345.00      -12345.00      -12345.00
       6815.299       19.07459       194.5559       61.29418      -12345.00
      -12345.00      -12345.00       356.0000       90.00000      -12345.00
      -12345.00      -12345.00      -12345.00      -12345.00      -12345.00
      -12345.00      -12345.00      -12345.00      -12345.00      -12345.00
      2016       318        11        12        14
        19         6    -12345    -12345     74400
    -12345    -12345    -12345    -12345    -12345
         1    -12345    -12345    -12345    -12345
    -12345    -12345    -12345    -12345    -12345
    -12345    -12345    -12345    -12345    -12345
    -12345    -12345    -12345    -12345    -12345
         1    -12345    -12345    -12345    -12345
JOHN    South Island, Ne
10      -12345  -12345  
-12345  -12345  -12345  
-12345  -12345  -12345  
-12345  -12345  -12345  
-12345  -12345  -12345  
-12345  -12345  BH1     
IU      -12345  Trillium
[...]
       916742.0       918403.0       920271.0       921993.0       924033.0
       925712.0       926909.0       928174.0       929115.0       930532.0
       932332.0       933847.0       935218.0       936090.0       937061.0
       938304.0       939246.0       940168.0       941239.0       942265.0
       943188.0       944125.0       944932.0       945742.0       946624.0
       947108.0       947544.0       947966.0       948340.0       948972.0
       949301.0       949546.0       949381.0       949181.0       949646.0
       949989.0       950099.0       949318.0       948455.0       948224.0
       947735.0       947183.0       946447.0       945441.0       944834.0
       944281.0       943330.0       942727.0       941857.0       940358.0
       939087.0       937983.0       937000.0       936056.0       934691.0
       933390.0       932075.0       930346.0       928903.0       927094.0
       925318.0       923948.0       922331.0       920750.0       918860.0
       916697.0       914880.0       913280.0       911207.0       909138.0
       906861.0       904649.0       903222.0       901190.0       898293.0
       895375.0       892845.0       890592.0       888043.0       885016.0
       882071.0       879364.0       876649.0       873849.0       870688.0
       867501.0       864513.0       861394.0       858360.0       855453.0
       852292.0       848925.0       845696.0       842280.0       838465.0
       834645.0       830794.0       826945.0       823390.0       819840.0
       815900.0       811785.0       807512.0       803478.0       799372.0
       794759.0       790445.0       785983.0       781569.0       777358.0
       772455.0       767752.0       763333.0       758682.0       754205.0
       748958.0       743448.0       738714.0       734002.0       729452.0
       724438.0       718968.0       713944.0       708953.0       704026.0
       698955.0       693790.0       688690.0       683555.0       678549.0
       673282.0       667941.0       662492.0       657160.0       652248.0
       647246.0       641927.0       636212.0       630585.0       624980.0
       619577.0       613994.0       608113.0       602943.0       597649.0
       592055.0       586467.0       580583.0       574775.0       569251.0
       563759.0       557893.0       551938.0       546359.0       541055.0
       535562.0       529833.0       524100.0       518001.0       511785.0
       505648.0       499773.0       494109.0       487980.0       481964.0
       475907.0       469422.0       463160.0       457073.0       451090.0
       445133.0       439080.0       433230.0       427106.0       420568.0
       414052.0       407601.0       401805.0       395765.0       389388.0
       383314.0       376676.0       370301.0       364080.0       357798.0
       351512.0       344964.0       339180.0       332896.0       326039.0
       319756.0       313082.0       306433.0       300249.0       293892.0
       287364.0       280923.0       274546.0       267837.0       261210.0
       254715.0       247846.0       241098.0       234044.0       227050.0
       220791.0       213753.0       206590.0       200078.0       193227.0
       186156.0       178729.0       171363.0       164608.0       158043.0
       151104.0       143904.0       136968.0       130018.0       122910.0
       115919.0       108930.0       101861.0       94964.00       88208.00
       81557.00       74616.00       67274.00       60464.00       53946.00
       46854.00       40026.00       33524.00       26582.00       19817.00
       13219.00       6472.000      -370.0000      -7431.000      -14612.00
      -21330.00      -27785.00      -34598.00      -41477.00      -48849.00
      -56294.00      -63001.00      -69685.00      -76663.00      -83840.00
      -90772.00      -97466.00      -104216.0      -110872.0      -118297.0
      -125590.0      -131981.0      -138930.0      -145997.0      -152750.0
      -159766.0      -167025.0      -174053.0      -180715.0      -187247.0
      -193704.0      -200549.0      -207492.0      -214104.0      -220913.0
      -227544.0      -234026.0      -240883.0      -247601.0      -254506.0
      -261597.0      -268104.0      -274541.0      -281135.0      -287618.0
      -294441.0      -301065.0      -307291.0      -313808.0      -320382.0
      -327118.0      -333829.0      -340026.0      -345967.0      -352002.0
      -358152.0      -364506.0      -370938.0      -377116.0      -383410.0
      -389663.0      -395693.0      -401759.0      -407833.0      -414089.0
      -420425.0      -426482.0      -432413.0      -438614.0      -444764.0
      -450720.0      -456594.0      -462664.0      -469199.0      -475427.0
      -481281.0      -487211.0      -493109.0      -499201.0      -505310.0
      -511089.0      -517054.0      -523083.0      -529009.0      -534762.0
      -540198.0      -546198.0      -552322.0      -558022.0      -563839.0
      -569622.0      -575423.0      -581341.0      -587034.0      -592597.0
      -598213.0      -603568.0      -609067.0      -614730.0      -620196.0
      -625820.0      -631341.0      -636787.0      -642115.0      -647451.0
      -653125.0      -658576.0      -663748.0      -668725.0      -673778.0
      -679240.0      -684834.0      -690429.0      -695654.0      -700620.0
      -705909.0      -711258.0      -716455.0      -721468.0      -726333.0
      -731498.0      -736833.0      -741929.0      -746809.0      -751610.0
      -756423.0      -761276.0      -766370.0      -771345.0      -776028.0
      -781017.0      -785914.0      -790683.0      -795562.0      -800215.0
      -805075.0      -810235.0      -815108.0      -819565.0      -824028.0
      -828607.0      -833501.0      -838266.0      -842717.0      -847457.0
      -851814.0      -856043.0      -860435.0      -864599.0      -868718.0
      -872639.0      -876518.0      -880526.0      -884711.0      -888708.0
      -892166.0      -895943.0      -899983.0      -903852.0      -907776.0
      -911269.0      -914752.0      -918463.0      -922145.0      -925882.0
      -928923.0      -931876.0      -935521.0      -939031.0      -942253.0
      -945310.0      -948061.0      -950824.0      -954012.0      -957433.0
      -960523.0      -963337.0      -965907.0      -968280.0      -970520.0
      -972859.0      -975371.0      -977372.0      -979367.0      -981542.0
      -983620.0      -985845.0      -987924.0      -989946.0      -991781.0
      -993311.0      -994797.0      -996214.0      -997605.0      -999103.0
      -1000728.      -1002299.      -1003458.      -1004138.      -1004986.
      -1005921.      -1007063.      -1008353.      -1009271.      -1010381.
      -1011130.      -1011927.      -1012779.      -1012924.      -1013683.
      -1014303.      -1014776.      -1016063.      -1016545.      -1016613.
      -1017139.      -1017511.      -1017900.      -1018104.      -1018209.
      -1018416.      -1018364.      -1017995.      -1017632.      -1017456.
      -1016944.      -1016480.      -1016076.      -1015301.      -1014791.
      -1014167.      -1013465.      -1012875.      -1011967.      -1010968.
      -1009753.      -1008676.      -1007724.      -1006358.      -1004980.
      -1003333.      -1001915.      -1000792.      -999036.0      -997590.0
      -996087.0      -994231.0      -992295.0      -990069.0      -988323.0
      -986334.0      -984115.0      -982240.0      -980058.0      -977866.0
      -975778.0      -973466.0      -971149.0      -968840.0      -966110.0
      -963175.0      -960299.0      -957575.0      -955199.0      -952490.0
      -949310.0      -945945.0      -942426.0      -938911.0      -935653.0
      -932692.0      -929406.0      -925978.0      -922929.0      -919631.0
      -915927.0      -912507.0      -909052.0      -905371.0      -901667.0
      -897870.0      -894208.0      -890575.0      -887118.0      -883413.0
      -878947.0      -874594.0      -870465.0      -866356.0      -862203.0
      -857938.0      -853791.0      -849355.0      -844948.0      -840356.0
      -835430.0      -830829.0      -825922.0      -821060.0      -816331.0
      -811299.0      -806552.0      -801900.0      -797011.0      -792023.0
      -786736.0      -781142.0      -775962.0      -770978.0      -765745.0
      -760362.0      -754960.0      -749819.0      -744425.0      -738688.0
      -733051.0      -727285.0      -721613.0      -716161.0      -710241.0
      -704060.0      -697814.0      -691525.0      -685395.0      -679397.0
      -673472.0      -667205.0      -661132.0      -655198.0      -648977.0
      -642776.0      -636210.0      -629727.0      -623383.0      -616684.0
      -610247.0      -603771.0      -597135.0      -590480.0      -583497.0
      -576851.0      -570341.0      -563696.0      -557058.0      -549992.0
      -542842.0      -535662.0      -528699.0      -522262.0      -515590.0
      -508430.0      -500900.0      -493561.0      -486601.0      -479480.0
      -472307.0      -465307.0      -458137.0      -450690.0      -443326.0
      -435901.0      -428493.0      -421221.0      -413990.0      -406897.0
      -399764.0      -392339.0      -384622.0      -377008.0      -369669.0
      -362350.0      -355019.0      -347496.0      -339810.0      -332296.0
      -324386.0      -316648.0      -309441.0      -301404.0      -293366.0
      -285199.0      -276673.0      -268849.0      -260362.0      -252392.0
      -244728.0      -236013.0      -228261.0      -219994.0      -211330.0
      -203370.0      -194788.0      -186579.0      -178249.0      -169663.0
      -161430.0      -152947.0      -144659.0      -136068.0      -127421.0
      -119090.0      -110740.0      -102811.0      -94441.00      -85861.00
      -77477.00      -68766.00      -60456.00      -52000.00      -43475.00
      -35057.00      -26272.00      -17827.00      -9059.000      -229.0000
       8400.000       17212.00       26015.00       35103.00       43764.00
       52372.00       61457.00       70580.00       79754.00       88615.00
       97391.00       106468.0       115486.0       124452.0       133752.0
       143160.0       152198.0       160820.0       169697.0       179024.0
       187937.0       196669.0       205571.0       214370.0       223427.0
       232562.0       241499.0       250489.0       259141.0       267803.0
       277019.0       286002.0       294695.0       303290.0       311724.0
       320502.0       329224.0       338145.0       347509.0       356325.0
       364963.0       373406.0       381956.0       390984.0       399835.0
       408794.0       417570.0       426012.0       434642.0       443174.0
       451967.0       461388.0       470242.0       478498.0       486602.0
       494605.0       503109.0       511684.0       519869.0       528083.0
       536556.0       544858.0       553009.0       561045.0       568866.0
       577042.0       585041.0       593137.0       601505.0       609436.0
       617499.0       625255.0       632899.0       640674.0       648631.0
       656840.0       664297.0       672105.0       679853.0       687092.0
       694930.0       702046.0       709425.0       717449.0       724892.0
       732842.0       740229.0       747377.0       755130.0       762357.0
       769633.0       776706.0       783842.0       790982.0       797775.0
       805009.0       812311.0       818967.0       824898.0       831276.0
       838022.0       844796.0       851687.0       858010.0       864270.0
       870393.0       876415.0       882767.0       889114.0       895373.0
       901505.0       907380.0       913070.0       918945.0       924777.0
       930470.0       935975.0       941475.0       947370.0       953189.0
       958622.0       963529.0       968445.0       973950.0       979436.0
       984288.0       989130.0       994127.0       998957.0       1003979.
       1008594.       1013260.       1018368.       1022793.       1027076.
       1031333.       1035166.       1039280.       1043266.       1047339.
       1051463.       1054984.       1058941.       1062503.       1065616.
       1069266.       1072718.       1075997.       1078969.       1081898.
       1085140.       1088272.       1091126.       1094019.       1096727.
       1099079.       1101505.       1103635.       1105961.       1108357.
       1110705.       1113481.       1115486.       1117064.       1118858.
       1120659.       1122657.       1124597.       1126507.       1128091.
       1129164.       1130151.       1131518.       1133060.       1134362.
       1135960.       1137072.       1137663.       1138810.       1139653.
       1140387.       1141490.       1142105.       1142832.       1143776.
       1144052.       1144618.       1144718.       1144559.       1145262.
       1145212.       1145944.       1146801.       1146032.       1145367.
       1144683.       1144635.       1144904.       1144269.       1143481.
       1142513.       1141541.       1141253.       1140964.       1139582.
       1137971.       1137350.       1136393.       1134715.       1133434.
       1132242.       1131176.       1129911.       1128214.       1126435.
       1124925.       1123678.       1121636.       1119831.       1118324.
       1116035.       1114042.       1112267.       1110088.       1107533.
       1104870.       1102125.       1099334.       1096927.       1094108.
       1091247.       1088643.       1085474.       1082286.       1079045.
       1075746.       1072619.       1069465.       1066154.       1062757.
       1059390.       1055666.       1051916.       1048170.       1044333.
       1040943.       1037246.       1033155.       1029325.       1025284.
       1021282.       1017676.       1013674.       1008997.       1004205.
       999964.0       996240.0       992040.0       987327.0       982222.0
       977449.0       973152.0       968119.0       963511.0       958754.0
       953090.0       947814.0       942391.0       937128.0       931856.0
       926224.0       920541.0       914055.0       907827.0       901707.0
       895287.0       889421.0       883076.0       876479.0       870081.0
       863590.0       857061.0       850214.0       843062.0       836140.0
       829598.0       822999.0       816185.0       808886.0       801735.0
       794808.0       787230.0       779826.0       772516.0       765089.0
       757941.0       750437.0       742985.0       735513.0       727985.0
       720407.0       712306.0       704558.0       696839.0       689062.0
       681534.0       673667.0       665747.0       657621.0       649642.0
       641789.0       633314.0       625168.0       617233.0       608997.0
       600820.0       592661.0       584637.0       576460.0       568222.0
       559860.0       551380.0       543437.0       535451.0       527214.0
       519031.0       510856.0       502760.0       494459.0       486285.0
       478174.0       469795.0       461690.0       453403.0       445050.0
       437021.0       428771.0       420512.0       412184.0       404090.0
       396132.0       388083.0       379851.0       371189.0       362816.0
       354476.0       346306.0       337872.0       328934.0       320479.0
       312121.0       303963.0       295803.0       287267.0       278906.0
       270639.0       262351.0       253824.0       245106.0       236870.0
       228967.0       220843.0       212608.0       204545.0       196293.0
       188180.0       180047.0       171687.0       163697.0       155652.0
       147838.0       139809.0       131511.0       123514.0       115283.0
       107131.0       98952.00       91176.00       83641.00       75522.00
       67336.00       59132.00       50959.00       42601.00       34378.00
       26350.00       18119.00       10242.00       2186.000      -5967.000
      -14059.00      -22465.00      -30766.00      -38744.00      -46615.00
      -54860.00      -62787.00      -70535.00      -78606.00      -86604.00
      -95008.00      -103364.0      -111359.0      -119101.0      -126475.0
      -133941.0      -141587.0      -149611.0      -158027.0      -166208.0
      -173927.0      -181557.0      -189123.0      -196413.0      -204028.0
      -212140.0      -219759.0      -227422.0      -235399.0      -242912.0
      -250202.0      -257097.0      -264322.0      -271751.0      -278890.0
      -286316.0      -293370.0      -300733.0      -308069.0      -314707.0
      -321797.0      -328769.0      -335845.0      -343247.0      -350322.0
      -357729.0      -365129.0      -371947.0      -378881.0      -386055.0
      -393428.0      -400680.0      -407507.0      -414603.0      -421932.0
      -428849.0      -435742.0      -443110.0      -450050.0      -457009.0
      -463944.0      -470524.0      -477655.0      -484257.0      -490832.0
      -497999.0      -504276.0      -510537.0      -517656.0      -524368.0
      -530843.0      -537082.0      -543092.0      -549844.0      -556233.0
      -562313.0      -568551.0      -574492.0      -580295.0      -585644.0
      -591441.0      -597566.0      -603478.0      -608934.0      -613863.0
      -619406.0      -624934.0      -630518.0      -635914.0      -640716.0
      -645894.0      -651368.0      -657059.0      -662437.0      -667744.0
      -673172.0      -678106.0      -683057.0      -688157.0      -693143.0
      -698220.0      -703182.0      -707849.0      -712673.0      -717305.0
      -721730.0      -726449.0      -731097.0      -735699.0      -740259.0
      -744448.0      -748564.0      -753038.0      -757598.0      -761884.0
      -765956.0      -770187.0      -774525.0      -778456.0      -782570.0
      -786809.0      -790518.0      -794367.0      -798001.0      -801504.0
      -805559.0      -809308.0      -812818.0      -816290.0      -819625.0
      -823091.0      -826222.0      -829346.0      -832587.0      -835616.0
      -838606.0      -841168.0      -844144.0      -847304.0      -849843.0
      -852549.0      -854997.0      -857261.0      -859861.0      -862535.0
      -865008.0      -867149.0      -869011.0      -870869.0      -873022.0
      -875086.0      -877050.0      -879040.0      -880839.0      -882729.0
      -884514.0      -886021.0      -887692.0      -889368.0      -891057.0
      -892487.0      -893463.0      -894794.0      -896263.0      -897587.0
