     0.02500000      -12345.00      -12345.00   2.490470e+09      -12345.00
   0.0005380000       1859.976      -555.0195      -12345.00      -12345.00
      -12345.00      -12345.00      -12345.00      -12345.00      -12345.00
      -12345.00      -12345.00      -12345.00      -12345.00      -12345.00
      -12345.00      -12345.00      -12345.00      -12345.00      -12345.00
      -12345.00      -12345.00      -12345.00      -12345.00      -12345.00
      -12345.00       16.73290      -169.5292       2.500000       0.000000
      -42.72450       173.0647      -12345.00       22.00000      -12345.00
      -12345.00      -12345.00      -12345.00      -12345.00      -12345.00
      -12345.00      -12345.00      -12345.00      -12345.00      -12345.00
       6815.299       19.07459       194.5559       61.29418      -12345.00
      -12345.00      -12345.00       90.00000       90.00000      -12345.00
      -12345.00      -12345.00      -12345.00      -12345.00      -12345.00
      -12345.00      -12345.00      -12345.00      -12345.00      -12345.00
      2016       318        11        12        14
        19         6    -12345    -12345     74400
    -12345    -12345    -12345    -12345    -12345
         1    -12345    -12345    -12345    -12345
    -12345    -12345    -12345    -12345    -12345
    -12345    -12345    -12345    -12345    -12345
    -12345    -12345    -12345    -12345    -12345
         1    -12345    -12345    -12345    -12345
JOHN    South Island, Ne
00      -12345  -12345  
-12345  -12345  -12345  
-12345  -12345  -12345  
-12345  -12345  -12345  
-12345  -12345  -12345  
-12345  -12345  BH2     
IU      -12345  Streckei
[...]
       74203.00       74117.00       74086.00       74425.00       74378.00
       74157.00       73802.00       73372.00       73513.00       73797.00
       73776.00       73668.00       73195.00       73277.00       73632.00
       73392.00       73884.00       73964.00       73421.00       73537.00
       73327.00       73375.00       73291.00       73058.00       73253.00
       72780.00       72741.00       72714.00       72595.00       72776.00
       72443.00       72344.00       71712.00       71092.00       71256.00
       71051.00       70866.00       70645.00       70234.00       70201.00
       70159.00       69938.00       69841.00       69905.00       69745.00
       69904.00       70370.00       70041.00       69951.00       70231.00
       70244.00       70421.00       70418.00       70146.00       70010.00
       70140.00       70201.00       70106.00       70441.00       70770.00
       70661.00       70870.00       71354.00       71718.00       71781.00
       71788.00       72088.00       72286.00       72812.00       73455.00
       73719.00       74349.00       74462.00       74521.00       75007.00
       74875.00       75382.00       75986.00       76353.00       76496.00
       76158.00       76557.00       76589.00       76643.00       76825.00
       76668.00       76793.00       76590.00       76851.00       77095.00
       76902.00       76767.00       76821.00       77119.00       77069.00
       77229.00       77538.00       78025.00       78502.00       78632.00
       78572.00       78206.00       78066.00       78181.00       78552.00
       78866.00       79188.00       79877.00       80332.00       80557.00
       80845.00       80864.00       80956.00       81682.00       82505.00
       83369.00       84338.00       85202.00       85957.00       86629.00
       87391.00       88345.00       89520.00       90312.00       91267.00
       92204.00       92687.00       93859.00       95172.00       96429.00
       97684.00       98520.00       99181.00       100007.0       101284.0
       102882.0       104290.0       105323.0       106587.0       107956.0
       109006.0       110429.0       112060.0       113182.0       114388.0
       115567.0       117040.0       118687.0       119566.0       121107.0
       122362.0       123006.0       125062.0       126642.0       127508.0
       128852.0       129775.0       130782.0       131881.0       132796.0
       133927.0       135058.0       136429.0       137564.0       138544.0
       139565.0       140178.0       141245.0       142333.0       143140.0
       144051.0       144663.0       145509.0       146696.0       147616.0
       148268.0       148858.0       149424.0       149956.0       150410.0
       151284.0       152310.0       152931.0       153543.0       154147.0
       154955.0       155930.0       156880.0       157977.0       158879.0
       159434.0       160260.0       161138.0       162081.0       163573.0
       164776.0       165811.0       166789.0       167682.0       168622.0
       169347.0       170371.0       171405.0       172547.0       173922.0
       174982.0       176010.0       177435.0       179021.0       180008.0
       180842.0       182114.0       183227.0       184336.0       185731.0
       186853.0       187586.0       188392.0       189367.0       190391.0
       191660.0       193220.0       194662.0       195752.0       196862.0
       198085.0       199441.0       200919.0       202252.0       203570.0
       205043.0       206560.0       207818.0       209138.0       210603.0
       211772.0       212872.0       214283.0       215994.0       216936.0
       217789.0       219606.0       221065.0       222369.0       223641.0
       224640.0       225805.0       226885.0       228171.0       229938.0
       231558.0       232745.0       234197.0       235696.0       237025.0
       238349.0       239465.0       240594.0       241806.0       243440.0
       245494.0       247423.0       249065.0       250786.0       252388.0
       253623.0       254520.0       255172.0       256556.0       258114.0
       259570.0       261719.0       263879.0       265662.0       267501.0
       268640.0       268897.0       270044.0       271975.0       274520.0
       277666.0       280308.0       282374.0       283427.0       284024.0
       285368.0       288217.0       291729.0       294007.0       295139.0
       295604.0       296521.0       299092.0       301967.0       304058.0
       305836.0       307280.0       309273.0       311025.0       311872.0
       313570.0       315972.0       318495.0       320195.0       321042.0
       322609.0       324642.0       326712.0       328604.0       329721.0
       331171.0       332540.0       334809.0       337616.0       337521.0
       338842.0       341421.0       342316.0       344802.0       347204.0
       348303.0       349767.0       351524.0       353341.0       355110.0
       357039.0       358209.0       358889.0       360620.0       362760.0
       364646.0       365719.0       366259.0       367094.0       368358.0
       369719.0       370715.0       371785.0       372259.0       372928.0
       373948.0       374672.0       375856.0       376318.0       376519.0
       377393.0       378474.0       379547.0       380264.0       381049.0
       382226.0       383068.0       383412.0       383768.0       384572.0
       385785.0       386665.0       387282.0       388270.0       389320.0
       389866.0       390520.0       391048.0       391506.0       392381.0
       392853.0       393052.0       393165.0       393487.0       393775.0
       393681.0       394093.0       394374.0       394355.0       394767.0
       394824.0       394736.0       395102.0       395674.0       396476.0
       396715.0       396683.0       397095.0       397212.0       397854.0
       399094.0       399534.0       399909.0       400720.0       401344.0
       402245.0       403035.0       403157.0       403750.0       404406.0
       404880.0       406019.0       406494.0       406846.0       408126.0
       409116.0       409726.0       410088.0       410374.0       411005.0
       412391.0       413668.0       413935.0       414365.0       415055.0
       415872.0       416880.0       417730.0       418896.0       419586.0
       419490.0       420013.0       420992.0       421805.0       422494.0
       423006.0       423383.0       423680.0       424382.0       425192.0
       425734.0       426266.0       426490.0       426765.0       427449.0
       428506.0       429311.0       429588.0       430222.0       431059.0
       431764.0       432157.0       432189.0       432634.0       433491.0
       434262.0       434851.0       434852.0       434747.0       435182.0
       435565.0       435595.0       435707.0       436339.0       436854.0
       437149.0       437586.0       437923.0       438118.0       438100.0
       437988.0       437738.0       438089.0       438669.0       438311.0
       438068.0       437960.0       437584.0       437743.0       437605.0
       437047.0       436772.0       436521.0       436464.0       436059.0
       435495.0       435106.0       434059.0       433450.0       433651.0
       432532.0       431463.0       431484.0       430386.0       429571.0
       429243.0       428273.0       427375.0       426215.0       425508.0
       424800.0       423653.0       422674.0       421650.0       420954.0
       420031.0       418563.0       417118.0       415648.0       414418.0
       413620.0       412420.0       410957.0       409691.0       408224.0
       406820.0       405474.0       403993.0       402772.0       401185.0
       399364.0       397999.0       395901.0       394150.0       393327.0
       391684.0       389899.0       388156.0       386167.0       384631.0
       383267.0       381215.0       379060.0       377412.0       375159.0
       373317.0       371785.0       369579.0       367697.0       365307.0
       362825.0       360546.0       358339.0       356789.0       354523.0
       352154.0       350380.0       348412.0       346204.0       343663.0
       341264.0       338847.0       336660.0       334783.0       332542.0
       330135.0       327705.0       325161.0       322464.0       319851.0
       317046.0       314488.0       312333.0       309762.0       307049.0
       304654.0       302436.0       299888.0       297297.0       295141.0
       293243.0       290987.0       288518.0       286369.0       283960.0
       281572.0       279576.0       277043.0       274313.0       272266.0
       269776.0       267020.0       264791.0       262065.0       259189.0
       256540.0       253785.0       250990.0       248188.0       245141.0
       241926.0       239150.0       236252.0       233380.0       230695.0
       227869.0       225083.0       221949.0       219183.0       216393.0
       213280.0       210541.0       207455.0       204520.0       201438.0
       197954.0       194930.0       191914.0       188967.0       185846.0
       182402.0       179184.0       176278.0       173439.0       170165.0
       166662.0       163216.0       159633.0       156284.0       152973.0
       149386.0       145946.0       142193.0       138521.0       135118.0
       131309.0       127615.0       124073.0       120315.0       116448.0
       112678.0       108819.0       104831.0       100959.0       97144.00
       93356.00       89175.00       84730.00       80595.00       76181.00
       71817.00       67635.00       63109.00       58794.00       54243.00
       49734.00       45571.00       41451.00       37440.00       32958.00
       28464.00       23996.00       19245.00       14776.00       10761.00
       6263.000       1419.000      -2902.000      -7299.000      -11638.00
      -16375.00      -21422.00      -26349.00      -31411.00      -36216.00
      -41154.00      -45803.00      -50374.00      -55356.00      -60041.00
      -64645.00      -69265.00      -73870.00      -78793.00      -83680.00
      -88596.00      -93551.00      -97763.00      -101959.0      -106582.0
      -110991.0      -115669.0      -120466.0      -125148.0      -129964.0
      -134600.0      -139434.0      -144134.0      -148357.0      -152765.0
      -157414.0      -162257.0      -167007.0      -171800.0      -176809.0
      -181947.0      -187190.0      -192175.0      -196916.0      -201766.0
      -206524.0      -210832.0      -215674.0      -220694.0      -225236.0
      -230111.0      -234837.0      -239708.0      -244733.0      -249377.0
      -254494.0      -259324.0      -263553.0      -268293.0      -273133.0
      -277657.0      -282422.0      -287371.0      -292071.0      -296543.0
      -300880.0      -305453.0      -310035.0      -314274.0      -318700.0
      -323257.0      -328129.0      -333300.0      -337942.0      -342395.0
      -346617.0      -350689.0      -354953.0      -359277.0      -363835.0
      -368346.0      -373151.0      -377726.0      -381833.0      -386001.0
      -390352.0      -395086.0      -399601.0      -404013.0      -408302.0
      -412444.0      -416374.0      -420052.0      -424383.0      -429296.0
      -434173.0      -438251.0      -441705.0      -445709.0      -450294.0
      -454702.0      -458531.0      -462076.0      -465652.0      -469626.0
      -473867.0      -477763.0      -481227.0      -485026.0      -489402.0
      -493215.0      -496700.0      -500244.0      -503854.0      -507696.0
      -511127.0      -514547.0      -518233.0      -521881.0      -525564.0
      -529280.0      -532895.0      -536242.0      -539612.0      -542952.0
      -546288.0      -549835.0      -553588.0      -557303.0      -560460.0
      -563978.0      -568295.0      -571914.0      -575030.0      -578569.0
      -581715.0      -585020.0      -588341.0      -591227.0      -594585.0
      -597862.0      -601612.0      -605234.0      -608062.0      -611190.0
      -614565.0      -618043.0      -621181.0      -623919.0      -627046.0
      -630467.0      -633471.0      -636297.0      -639127.0      -642244.0
      -645190.0      -647791.0      -650912.0      -653870.0      -656611.0
      -659222.0      -661345.0      -664098.0      -667964.0      -671572.0
      -674032.0      -675697.0      -677441.0      -679883.0      -683080.0
      -686507.0      -689001.0      -690676.0      -692642.0      -695036.0
      -697109.0      -698891.0      -701335.0      -703519.0      -704653.0
      -706201.0      -708598.0      -711145.0      -713183.0      -714616.0
      -715672.0      -716610.0      -718056.0      -719825.0      -721409.0
      -722696.0      -723894.0      -724877.0      -725809.0      -726984.0
      -728070.0      -728876.0      -729160.0      -729513.0      -730323.0
      -731339.0      -731869.0      -731735.0      -731525.0      -731022.0
      -730642.0      -730545.0      -731023.0      -731342.0      -730926.0
      -730828.0      -730348.0      -729913.0      -729852.0      -729600.0
      -729323.0      -728682.0      -728059.0      -727572.0      -727286.0
      -726863.0      -725623.0      -724809.0      -724333.0      -723121.0
      -721901.0      -720317.0      -719003.0      -718245.0      -716537.0
      -714607.0      -712783.0      -710705.0      -708857.0      -707146.0
      -705046.0      -703002.0      -701116.0      -698954.0      -697094.0
      -695419.0      -693249.0      -690893.0      -688350.0      -685410.0
      -682929.0      -680807.0      -678755.0      -676574.0      -674020.0
      -671460.0      -668426.0      -665710.0      -663714.0      -661360.0
      -658724.0      -656094.0      -653279.0      -650260.0      -647503.0
      -645188.0      -642945.0      -640226.0      -637130.0      -634325.0
      -632221.0      -630222.0      -627491.0      -624609.0      -621872.0
      -619065.0      -616166.0      -613614.0      -611631.0      -609368.0
      -606595.0      -603139.0      -599668.0      -597016.0      -594424.0
      -591540.0      -588609.0      -585522.0      -582100.0      -579073.0
      -576063.0      -572810.0      -570330.0      -567775.0      -564855.0
      -561782.0      -558355.0      -555159.0      -552256.0      -549556.0
      -547151.0      -544759.0      -541862.0      -538504.0      -535506.0
      -533224.0      -530890.0      -528074.0      -524841.0      -521611.0
      -519020.0      -516397.0      -513381.0      -510382.0      -507136.0
      -504019.0      -501088.0      -497940.0      -494966.0      -492126.0
      -489337.0      -486144.0      -482719.0      -479860.0      -477040.0
      -473976.0      -470796.0      -467496.0      -464546.0      -462110.0
      -459265.0      -456100.0      -453317.0      -450328.0      -447398.0
      -444724.0      -441701.0      -438716.0      -435902.0      -433415.0
      -430855.0      -428026.0      -425371.0      -421892.0      -418530.0
      -415557.0      -412340.0      -409428.0      -406282.0      -402898.0
      -399263.0      -396313.0      -393892.0      -390955.0      -387586.0
      -383780.0      -380365.0      -377207.0      -374787.0      -372363.0
      -368769.0      -365796.0      -363011.0      -359872.0      -357245.0
      -354374.0      -350883.0      -347839.0      -345218.0      -342568.0
      -339973.0      -336700.0      -333379.0      -330884.0      -328312.0
      -325525.0      -322749.0      -319722.0      -316601.0      -313456.0
      -310554.0      -307615.0      -304341.0      -300862.0      -297347.0
      -294497.0      -291680.0      -288570.0      -285289.0      -281598.0
      -278430.0      -275610.0      -272554.0      -269367.0      -266180.0
      -262894.0      -259534.0      -256996.0      -254376.0      -251154.0
      -248194.0      -244781.0      -241278.0      -238222.0      -235227.0
      -232228.0      -228785.0      -225260.0      -221790.0      -218589.0
      -215535.0      -211942.0      -208435.0      -205046.0      -201621.0
      -197726.0      -193637.0      -190170.0      -186574.0      -183388.0
      -180154.0      -175985.0      -172234.0      -168404.0      -164369.0
      -160832.0      -157208.0      -153850.0      -150708.0      -147476.0
      -144171.0      -140638.0      -137311.0      -134349.0      -130906.0
      -126875.0      -123567.0      -120623.0      -117367.0      -114115.0
      -110840.0      -107618.0      -104312.0      -101034.0      -97479.00
      -93697.00      -91233.00      -88858.00      -84857.00      -80781.00
      -77479.00      -75030.00      -72318.00      -68518.00      -64868.00
      -61712.00      -58413.00      -54865.00      -51474.00      -48343.00
      -44987.00      -41215.00      -38079.00      -34912.00      -31229.00
      -27756.00      -24068.00      -20814.00      -17807.00      -14239.00
      -10804.00      -7490.000      -3864.000      -636.0000       2225.000
       5401.000       8678.000       12067.00       15517.00       18325.00
       20865.00       24206.00       27613.00       30400.00       33154.00
       36029.00       38926.00       42180.00       44837.00       47033.00
       50507.00       53894.00       57107.00       60604.00       63258.00
       66034.00       69110.00       72242.00       75248.00       78104.00
       81824.00       85311.00       87947.00       90791.00       93802.00
       97176.00       101043.0       104427.0       107057.0       109374.0
       112097.0       115390.0       118272.0       120734.0       123461.0
       126599.0       129484.0       131801.0       134199.0       136903.0
       140025.0       143597.0       146456.0       148877.0       151906.0
       154438.0       156987.0       160201.0       163236.0       166496.0
       169751.0       172594.0       175579.0       178545.0       181055.0
       183055.0       185342.0       188369.0       191335.0       194477.0
       197662.0       200178.0       202273.0       204354.0       207298.0
       210837.0       213823.0       216090.0       217933.0       220184.0
       223096.0       226026.0       229079.0       231688.0       233366.0
       235412.0       238340.0       241834.0       244967.0       247508.0
       250148.0       252482.0       255434.0       258737.0       261379.0
       264375.0       266552.0       268563.0       271947.0       274649.0
