     0.02500000      -12345.00      -12345.00   2.516080e+09      -12345.00
   0.0005360000       1859.976      -555.0195      -12345.00      -12345.00
      -12345.00      -12345.00      -12345.00      -12345.00      -12345.00
      -12345.00      -12345.00      -12345.00      -12345.00      -12345.00
      -12345.00      -12345.00      -12345.00      -12345.00      -12345.00
      -12345.00      -12345.00      -12345.00      -12345.00      -12345.00
      -12345.00       16.73290      -169.5292       2.500000       0.000000
      -42.72450       173.0647      -12345.00       22.00000      -12345.00
      -12345.00      -12345.00      -12345.00      -12345.00      -12345.00
      -12345.00      -12345.00      -12345.00      -12345.00      -12345.00
       6815.299       19.07459       194.5559       61.29418      -12345.00
      -12345.00      -12345.00       0.000000       90.00000      -12345.00
      -12345.00      -12345.00      -12345.00      -12345.00      -12345.00
      -12345.00      -12345.00      -12345.00      -12345.00      -12345.00
      2016       318        11        12        14
        19         6    -12345    -12345     74400
    -12345    -12345    -12345    -12345    -12345
         1    -12345    -12345    -12345    -12345
    -12345    -12345    -12345    -12345    -12345
    -12345    -12345    -12345    -12345    -12345
    -12345    -12345    -12345    -12345    -12345
         1    -12345    -12345    -12345    -12345
JOHN    South Island, Ne
00      -12345  -12345  
-12345  -12345  -12345  
-12345  -12345  -12345  
-12345  -12345  -12345  
-12345  -12345  -12345  
-12345  -12345  BH1     
IU      -12345  Streckei
[...]
       1152784.       1154552.       1156654.       1158425.       1160190.
       1161501.       1163106.       1165206.       1166577.       1168020.
       1169074.       1169762.       1170811.       1172084.       1173562.
       1174737.       1175799.       1176779.       1177825.       1179272.
       1180243.       1180829.       1181203.       1181258.       1181777.
       1182632.       1183545.       1184290.       1184206.       1184072.
       1184423.       1184645.       1184708.       1184667.       1184750.
       1184736.       1184662.       1184577.       1184317.       1184437.
       1183969.       1183119.       1182593.       1181732.       1181366.
       1180762.       1179750.       1178677.       1176891.       1175914.
       1175370.       1174422.       1172654.       1170094.       1168249.
       1166559.       1164673.       1162587.       1160057.       1157887.
       1156117.       1153853.       1151530.       1149434.       1146566.
       1143477.       1140938.       1138357.       1135880.       1133397.
       1130278.       1127313.       1124183.       1120939.       1117779.
       1114267.       1111084.       1107990.       1104724.       1101192.
       1097457.       1093809.       1090518.       1087050.       1083162.
       1079212.       1075093.       1071573.       1068336.       1063996.
       1058918.       1054521.       1050441.       1046054.       1041383.
       1036359.       1031778.       1027331.       1022523.       1017576.
       1012499.       1007584.       1002659.       997658.0       992844.0
       987936.0       982537.0       977272.0       972094.0       966341.0
       960433.0       954499.0       948569.0       942866.0       937458.0
       931580.0       925268.0       918981.0       912679.0       906627.0
       899957.0       893261.0       886837.0       880106.0       873777.0
       867106.0       859845.0       853121.0       846563.0       839835.0
       832760.0       824853.0       817586.0       810844.0       804040.0
       797215.0       789449.0       782015.0       774980.0       767806.0
       760826.0       753412.0       746038.0       738826.0       731515.0
       724301.0       716969.0       709149.0       701602.0       694583.0
       687412.0       680307.0       672461.0       664438.0       656735.0
       649036.0       641487.0       633310.0       625661.0       618579.0
       610978.0       603172.0       595236.0       587120.0       579316.0
       571840.0       563857.0       555747.0       547837.0       540429.0
       533060.0       525143.0       517349.0       509186.0       500768.0
       492434.0       484298.0       476620.0       468496.0       460141.0
       452101.0       443540.0       434919.0       426756.0       418664.0
       410709.0       402490.0       394509.0       386611.0       377940.0
       369253.0       360521.0       352425.0       344607.0       336082.0
       328033.0       319370.0       310616.0       302477.0       294001.0
       285749.0       277039.0       268969.0       261100.0       251994.0
       243525.0       235020.0       225950.0       217748.0       209573.0
       200837.0       192376.0       184027.0       175353.0       166616.0
       157934.0       149125.0       140306.0       131227.0       122052.0
       113635.0       104787.0       95393.00       86743.00       78045.00
       69050.00       59497.00       49787.00       40794.00       32178.00
       23524.00       14293.00       5167.000      -3734.000      -12809.00
      -21865.00      -30961.00      -39902.00      -48912.00      -57663.00
      -66002.00      -74743.00      -83976.00      -93000.00      -101361.0
      -110077.0      -118968.0      -127197.0      -135755.0      -144599.0
      -153078.0      -161349.0      -170008.0      -178820.0      -187856.0
      -196745.0      -204687.0      -213195.0      -221818.0      -230692.0
      -240343.0      -248918.0      -257082.0      -265623.0      -274450.0
      -283334.0      -291758.0      -300135.0      -308330.0      -317122.0
      -326497.0      -334681.0      -342814.0      -351782.0      -360220.0
      -368573.0      -377607.0      -386351.0      -394632.0      -402781.0
      -410575.0      -418783.0      -427379.0      -435555.0      -443799.0
      -452001.0      -459938.0      -468114.0      -476329.0      -484725.0
      -493296.0      -501486.0      -509267.0      -517064.0      -525056.0
      -533116.0      -541197.0      -549012.0      -556645.0      -564530.0
      -572623.0      -580669.0      -588461.0      -595583.0      -602681.0
      -610094.0      -617402.0      -625136.0      -632764.0      -640094.0
      -647658.0      -654841.0      -661926.0      -669183.0      -676360.0
      -683997.0      -691370.0      -698185.0      -705426.0      -712673.0
      -719744.0      -726660.0      -733556.0      -741144.0      -748604.0
      -755533.0      -762448.0      -769275.0      -776298.0      -783415.0
      -790229.0      -797005.0      -803967.0      -810947.0      -817577.0
      -823845.0      -830510.0      -837627.0      -844377.0      -850900.0
      -857590.0      -864206.0      -870888.0      -877570.0      -883954.0
      -890264.0      -896417.0      -902546.0      -908928.0      -915297.0
      -921511.0      -927691.0      -934025.0      -939887.0      -945756.0
      -952206.0      -958254.0      -964277.0      -969803.0      -975110.0
      -981190.0      -987307.0      -993650.0      -999555.0      -1004987.
      -1010714.      -1016486.      -1022294.      -1027877.      -1033136.
      -1038555.      -1044363.      -1050005.      -1055345.      -1060460.
      -1065518.      -1070676.      -1075996.      -1081508.      -1086523.
      -1091577.      -1096910.      -1101851.      -1107014.      -1112014.
      -1116899.      -1122365.      -1127656.      -1132417.      -1136887.
      -1141430.      -1146367.      -1151497.      -1156076.      -1160697.
      -1165339.      -1169412.      -1173775.      -1178061.      -1182050.
      -1185953.      -1189576.      -1193305.      -1197494.      -1201451.
      -1204698.      -1208103.      -1211872.      -1215665.      -1219360.
      -1222658.      -1225770.      -1229094.      -1232545.      -1236006.
      -1238884.      -1241184.      -1244136.      -1247542.      -1250423.
      -1253017.      -1255348.      -1257298.      -1259815.      -1262861.
      -1265509.      -1267822.      -1269870.      -1271527.      -1273018.
      -1274530.      -1276263.      -1277682.      -1278640.      -1279979.
      -1281257.      -1282594.      -1283943.      -1285023.      -1286251.
      -1286827.      -1287171.      -1287635.      -1287930.      -1288460.
      -1289047.      -1289659.      -1289934.      -1289508.      -1289126.
      -1288856.      -1288791.      -1289076.      -1288861.      -1288709.
      -1288458.      -1288019.      -1287696.      -1286622.      -1285857.
      -1285411.      -1284526.      -1284406.      -1284058.      -1282588.
      -1281657.      -1280779.      -1279723.      -1278759.      -1277380.
      -1276181.      -1274714.      -1272939.      -1271044.      -1269240.
      -1267390.      -1265132.      -1263254.      -1260974.      -1258639.
      -1256605.      -1254209.      -1252106.      -1249596.      -1246946.
      -1244166.      -1240971.      -1238498.      -1235516.      -1232245.
      -1228955.      -1225384.      -1222756.      -1219323.      -1215823.
      -1212788.      -1208851.      -1205154.      -1200985.      -1197093.
      -1193523.      -1189192.      -1185360.      -1181416.      -1177141.
      -1173124.      -1168930.      -1164564.      -1160287.      -1155766.
      -1150737.      -1145649.      -1140750.      -1136226.      -1131661.
      -1126555.      -1121150.      -1115311.      -1109479.      -1103944.
      -1098752.      -1093653.      -1087953.      -1082606.      -1077406.
      -1071404.      -1065729.      -1060311.      -1054318.      -1048443.
      -1042502.      -1036400.      -1030628.      -1024971.      -1019296.
      -1012707.      -1005750.      -999308.0      -992917.0      -986593.0
      -979977.0      -973432.0      -966771.0      -959966.0      -953273.0
      -945887.0      -938787.0      -931732.0      -924252.0      -917182.0
      -909865.0      -902529.0      -895588.0      -888478.0      -881121.0
      -873520.0      -865437.0      -857517.0      -850191.0      -842649.0
      -834790.0      -827040.0      -819412.0      -811742.0      -803619.0
      -795321.0      -787193.0      -778914.0      -771035.0      -762876.0
      -754005.0      -745255.0      -736385.0      -727599.0      -719064.0
      -710671.0      -701870.0      -693186.0      -684829.0      -676160.0
      -667552.0      -658406.0      -649275.0      -640454.0      -631160.0
      -622075.0      -613067.0      -603921.0      -594789.0      -585182.0
      -575878.0      -566793.0      -557605.0      -548610.0      -538976.0
      -529250.0      -519405.0      -509611.0      -500767.0      -491737.0
      -482191.0      -472109.0      -461916.0      -452380.0      -442778.0
      -433024.0      -423504.0      -413837.0      -403936.0      -394067.0
      -384124.0      -374176.0      -364245.0      -354472.0      -344881.0
      -335381.0      -325619.0      -315339.0      -305199.0      -295332.0
      -285524.0      -275724.0      -265926.0      -255646.0      -245663.0
      -235585.0      -224833.0      -215426.0      -205223.0      -194361.0
      -184181.0      -172828.0      -162331.0      -151739.0      -140796.0
      -131002.0      -120062.0      -109414.0      -99094.00      -87881.00
      -77383.00      -66573.00      -55712.00      -45176.00      -34059.00
      -23420.00      -12667.00      -1783.000       8946.000       20187.00
       30901.00       41425.00       51924.00       62216.00       73191.00
       83955.00       94767.00       105658.0       116113.0       127039.0
       137748.0       148689.0       159692.0       170358.0       181525.0
       192548.0       203485.0       214539.0       225865.0       236969.0
       247660.0       258841.0       270298.0       281736.0       292928.0
       303799.0       314862.0       326183.0       337284.0       348588.0
       360374.0       371636.0       382243.0       393061.0       404448.0
       415676.0       426417.0       437155.0       447925.0       458846.0
       470010.0       481100.0       492000.0       502727.0       513142.0
       524008.0       535292.0       545877.0       556348.0       566673.0
       576902.0       587606.0       598136.0       609241.0       620380.0
       630623.0       640870.0       651088.0       661483.0       672271.0
       682948.0       693467.0       703707.0       713714.0       723979.0
       734258.0       745181.0       756156.0       766002.0       775456.0
       784775.0       794548.0       804682.0       814424.0       823989.0
       833750.0       843542.0       853044.0       862405.0       871558.0
       880752.0       890097.0       899369.0       908989.0       918412.0
       927560.0       936614.0       945313.0       954109.0       963119.0
       972474.0       981243.0       989948.0       998877.0       1006999.
       1015613.       1023914.       1031911.       1040871.       1049490.
       1058179.       1066710.       1074633.       1083049.       1091363.
       1099420.       1107185.       1115078.       1123048.       1130395.
       1138250.       1146291.       1153732.       1160227.       1166763.
       1174065.       1181343.       1188944.       1195926.       1202520.
       1209099.       1215377.       1222135.       1228752.       1235444.
       1242092.       1248175.       1254180.       1260209.       1266307.
       1272362.       1278055.       1283589.       1289502.       1295522.
       1301329.       1306348.       1311069.       1316543.       1322109.
       1327205.       1331926.       1336664.       1341509.       1346368.
       1350992.       1355447.       1360275.       1364865.       1368702.
       1372597.       1376354.       1379828.       1383607.       1387233.
       1390899.       1394162.       1397334.       1400667.       1403239.
       1406073.       1409177.       1411893.       1414189.       1416497.
       1418938.       1421431.       1423764.       1425678.       1427838.
       1429459.       1430842.       1432300.       1433503.       1434984.
       1436502.       1438320.       1439602.       1440253.       1440864.
       1441508.       1442530.       1443408.       1444324.       1444867.
       1444766.       1444597.       1444513.       1444935.       1445142.
       1445359.       1445643.       1444926.       1444621.       1444352.
       1443508.       1443334.       1442871.       1442113.       1441746.
       1440856.       1439828.       1438685.       1437011.       1436037.
       1434733.       1433687.       1433521.       1431608.       1429104.
       1426693.       1424783.       1423725.       1421576.       1419160.
       1416519.       1413598.       1411632.       1409832.       1407082.
       1403464.       1400751.       1398450.       1394956.       1391769.
       1388820.       1385818.       1382950.       1379493.       1375775.
       1372193.       1369256.       1365566.       1361453.       1358221.
       1354157.       1349984.       1346317.       1342282.       1337842.
       1333002.       1328234.       1323314.       1318649.       1314007.
       1308897.       1304149.       1299094.       1293688.       1288187.
       1282634.       1277401.       1272030.       1266587.       1260902.
       1255189.       1249506.       1243416.       1237327.       1231168.
       1225433.       1219719.       1213192.       1206945.       1200730.
       1194304.       1188337.       1182194.       1175287.       1167958.
       1160965.       1154914.       1148748.       1141743.       1134114.
       1126489.       1119904.       1112690.       1105325.       1098496.
       1090336.       1082134.       1074279.       1066287.       1058636.
       1050454.       1042049.       1033161.       1023796.       1015076.
       1005926.       997093.0       988450.0       978725.0       969580.0
       960491.0       951054.0       941713.0       931508.0       921586.0
       912158.0       902692.0       893345.0       883176.0       873084.0
       863526.0       853110.0       842467.0       832196.0       821968.0
       811985.0       801621.0       791341.0       781092.0       770534.0
       760130.0       749079.0       738164.0       727512.0       716918.0
       706714.0       696005.0       685097.0       673986.0       662702.0
       651976.0       640859.0       629562.0       618879.0       607844.0
       596656.0       585601.0       574523.0       563495.0       552340.0
       541137.0       529810.0       518713.0       508032.0       497227.0
       486028.0       474929.0       464088.0       452962.0       441948.0
       431109.0       419920.0       408981.0       398046.0       386906.0
       376169.0       365240.0       354128.0       343093.0       332241.0
       321646.0       311031.0       300271.0       288924.0       277704.0
       266806.0       255911.0       244873.0       233357.0       221896.0
       210837.0       200163.0       189424.0       178499.0       167356.0
       156400.0       145759.0       134630.0       123337.0       112262.0
       101708.0       91294.00       80452.00       69934.00       59376.00
       48781.00       38275.00       27359.00       16925.00       6553.000
      -3700.000      -13871.00      -24504.00      -34940.00      -45441.00
      -55835.00      -66522.00      -76728.00      -86185.00      -96482.00
      -106921.0      -117415.0      -127966.0      -138448.0      -149107.0
      -159374.0      -169765.0      -179996.0      -190014.0      -200449.0
      -210748.0      -221191.0      -231828.0      -242028.0      -251897.0
      -262171.0      -272334.0      -282029.0      -292075.0      -302042.0
      -312390.0      -322897.0      -332986.0      -342843.0      -352015.0
      -361248.0      -370575.0      -380281.0      -390764.0      -400992.0
      -410690.0      -420064.0      -429392.0      -438434.0      -447529.0
      -457527.0      -466964.0      -476116.0      -486047.0      -495404.0
      -504406.0      -512888.0      -521390.0      -530450.0      -539142.0
      -548094.0      -556722.0      -565412.0      -574508.0      -582624.0
      -590876.0      -599433.0      -607833.0      -616655.0      -625227.0
      -633942.0      -642918.0      -651131.0      -659285.0      -667775.0
      -676660.0      -685444.0      -693420.0      -701797.0      -710294.0
      -718761.0      -726874.0      -735153.0      -743807.0      -751754.0
      -759930.0      -767803.0      -775831.0      -783928.0      -791431.0
      -799552.0      -807406.0      -814287.0      -822394.0      -830557.0
      -837748.0      -845376.0      -852102.0      -859583.0      -867293.0
      -874007.0      -881362.0      -888113.0      -894668.0      -900802.0
      -906933.0      -913955.0      -920687.0      -927057.0      -932491.0
      -938265.0      -944674.0      -950729.0      -956935.0      -962465.0
      -967684.0      -973672.0      -980020.0      -986049.0      -991909.0
      -997842.0      -1003438.      -1008671.      -1014086.      -1019619.
      -1024944.      -1030441.      -1035577.      -1040571.      -1045655.
      -1050262.      -1055182.      -1060175.      -1064989.      -1069797.
      -1074169.      -1078387.      -1082920.      -1087753.      -1092190.
      -1096201.      -1100528.      -1105003.      -1109035.      -1113050.
      -1117434.      -1121288.      -1124875.      -1128525.      -1131847.
      -1135624.      -1139471.      -1142804.      -1146102.      -1149276.
      -1152346.      -1155353.      -1158133.      -1161022.      -1163828.
      -1166336.      -1168596.      -1171025.      -1173745.      -1175990.
      -1178034.      -1180058.      -1181900.      -1183709.      -1185943.
      -1187993.      -1189374.      -1190753.      -1191862.      -1193132.
