     0.02500000      -12345.00      -12345.00   2.490410e+09      -12345.00
   0.0005380000       1859.976      -555.0195      -12345.00      -12345.00
      -12345.00      -12345.00      -12345.00      -12345.00      -12345.00
      -12345.00      -12345.00      -12345.00      -12345.00      -12345.00
      -12345.00      -12345.00      -12345.00      -12345.00      -12345.00
      -12345.00      -12345.00      -12345.00      -12345.00      -12345.00
      -12345.00       16.73290      -169.5292       2.500000       0.000000
      -42.72450       173.0647      -12345.00       22.00000      -12345.00
      -12345.00      -12345.00      -12345.00      -12345.00      -12345.00
      -12345.00      -12345.00      -12345.00      -12345.00      -12345.00
       6815.299       19.07459       194.5559       61.29418      -12345.00
      -12345.00      -12345.00       0.000000       0.000000      -12345.00
      -12345.00      -12345.00      -12345.00      -12345.00      -12345.00
      -12345.00      -12345.00      -12345.00      -12345.00      -12345.00
      2016       318        11        12        14
        19         6    -12345    -12345     74400
    -12345    -12345    -12345    -12345    -12345
         1    -12345    -12345    -12345    -12345
    -12345    -12345    -12345    -12345    -12345
    -12345    -12345    -12345    -12345    -12345
    -12345    -12345    -12345    -12345    -12345
         1    -12345    -12345    -12345    -12345
JOHN    South Island, Ne
00      -12345  -12345  
-12345  -12345  -12345  
-12345  -12345  -12345  
-12345  -12345  -12345  
-12345  -12345  -12345  
-12345  -12345  BHZ     
IU      -12345  Streckei
[...]
      -783081.0      -784287.0      -785220.0      -786452.0      -787579.0
      -788128.0      -788777.0      -789520.0      -790012.0      -790425.0
      -790903.0      -791470.0      -792125.0      -792607.0      -793105.0
      -793557.0      -793831.0      -794061.0      -794132.0      -794045.0
      -793799.0      -793598.0      -793552.0      -793483.0      -793337.0
      -793025.0      -792791.0      -792564.0      -791959.0      -791014.0
      -790042.0      -789749.0      -789551.0      -788787.0      -787650.0
      -786247.0      -785167.0      -784455.0      -783561.0      -782154.0
      -780777.0      -779553.0      -778152.0      -776835.0      -775318.0
      -773564.0      -771830.0      -769927.0      -768152.0      -766468.0
      -764243.0      -761777.0      -759725.0      -758104.0      -756637.0
      -754925.0      -752356.0      -749254.0      -746753.0      -744880.0
      -743054.0      -740883.0      -738531.0      -736710.0      -735061.0
      -732966.0      -730563.0      -728033.0      -726098.0      -724743.0
      -722790.0      -720348.0      -718068.0      -715923.0      -713828.0
      -711562.0      -708973.0      -706264.0      -703702.0      -701199.0
      -698440.0      -695490.0      -692600.0      -689672.0      -686638.0
      -683442.0      -680239.0      -677280.0      -674325.0      -671210.0
      -668009.0      -664787.0      -661436.0      -658079.0      -655010.0
      -652356.0      -649756.0      -646701.0      -643643.0      -640393.0
      -636833.0      -633748.0      -630900.0      -628078.0      -625179.0
      -621969.0      -618608.0      -615187.0      -611840.0      -608528.0
      -604998.0      -601363.0      -597704.0      -593794.0      -590096.0
      -586738.0      -583264.0      -579724.0      -576071.0      -572488.0
      -568972.0      -564887.0      -560459.0      -556499.0      -552906.0
      -549192.0      -545222.0      -541021.0      -536888.0      -533046.0
      -529055.0      -524359.0      -519185.0      -514359.0      -510216.0
      -506129.0      -501698.0      -497020.0      -492103.0      -487293.0
      -482671.0      -477757.0      -472555.0      -467545.0      -462782.0
      -458153.0      -453511.0      -448621.0      -443592.0      -438527.0
      -433561.0      -428698.0      -423451.0      -417946.0      -412815.0
      -407945.0      -403048.0      -397914.0      -392720.0      -387678.0
      -382484.0      -377273.0      -372029.0      -366696.0      -361598.0
      -356676.0      -351558.0      -346423.0      -341302.0      -335754.0
      -329922.0      -323991.0      -318003.0      -312259.0      -306671.0
      -300856.0      -295120.0      -289478.0      -283738.0      -278049.0
      -272135.0      -265942.0      -259533.0      -253142.0      -247166.0
      -241275.0      -235135.0      -228839.0      -222290.0      -215550.0
      -209054.0      -202919.0      -196816.0      -190402.0      -183664.0
      -177090.0      -170698.0      -164311.0      -158197.0      -152071.0
      -145668.0      -139195.0      -132850.0      -126501.0      -120133.0
      -113682.0      -107297.0      -101248.0      -94902.00      -88460.00
      -82148.00      -75791.00      -69760.00      -63758.00      -57455.00
      -50911.00      -44254.00      -37841.00      -31643.00      -25159.00
      -19012.00      -13381.00      -6884.000       197.0000       7467.000
       14821.00       21219.00       27286.00       33430.00       39687.00
       46766.00       54020.00       60988.00       67825.00       74725.00
       81804.00       88598.00       94983.00       101108.0       107327.0
       113981.0       121031.0       128495.0       136001.0       142956.0
       149373.0       155661.0       162270.0       169066.0       175635.0
       182195.0       188905.0       195857.0       202918.0       209842.0
       216877.0       223657.0       229921.0       236245.0       242833.0
       249552.0       256386.0       263389.0       270398.0       277099.0
       283373.0       289593.0       296323.0       303170.0       309908.0
       316426.0       322421.0       328876.0       335706.0       342314.0
       349062.0       355398.0       361340.0       367336.0       373309.0
       379562.0       385590.0       391330.0       397171.0       403011.0
       409408.0       415811.0       421875.0       427762.0       433116.0
       438465.0       444110.0       450106.0       456056.0       461588.0
       467082.0       472698.0       478437.0       483864.0       488649.0
       493688.0       499710.0       506206.0       512364.0       517624.0
       522476.0       527457.0       532544.0       538060.0       543788.0
       549510.0       555335.0       560816.0       565858.0       570881.0
       576186.0       581816.0       587295.0       592606.0       597740.0
       602824.0       608286.0       613777.0       619125.0       624007.0
       628800.0       633876.0       638769.0       643582.0       648179.0
       652898.0       657877.0       662852.0       667778.0       672380.0
       676802.0       681374.0       686057.0       690526.0       695197.0
       699975.0       704710.0       709508.0       713999.0       718546.0
       723154.0       727814.0       732285.0       736463.0       740667.0
       744669.0       748973.0       753436.0       757243.0       760858.0
       764643.0       768540.0       772624.0       776450.0       780002.0
       783679.0       787250.0       790582.0       794000.0       797444.0
       800872.0       804520.0       808190.0       811987.0       815826.0
       819336.0       822971.0       826602.0       829868.0       833286.0
       836897.0       840056.0       842841.0       845681.0       848360.0
       851317.0       854511.0       857272.0       859681.0       861948.0
       864592.0       867461.0       869939.0       872012.0       874057.0
       876136.0       878061.0       879886.0       881716.0       883658.0
       885703.0       887623.0       889028.0       890076.0       891491.0
       893272.0       894918.0       896215.0       896927.0       897629.0
       898666.0       899483.0       900163.0       901181.0       902325.0
       902907.0       903337.0       903992.0       904458.0       905040.0
       905896.0       906316.0       906450.0       906847.0       907037.0
       906826.0       906664.0       906772.0       906686.0       906231.0
       906068.0       905748.0       904990.0       904566.0       904003.0
       903265.0       902798.0       902214.0       901297.0       900218.0
       899512.0       898885.0       898003.0       897261.0       896564.0
       895745.0       894740.0       893535.0       892530.0       891526.0
       890513.0       889624.0       888302.0       887086.0       885856.0
       884298.0       882732.0       881050.0       879539.0       877847.0
       875753.0       873671.0       872092.0       870823.0       869387.0
       867900.0       865804.0       863330.0       861523.0       860283.0
       858817.0       856747.0       854523.0       852134.0       849633.0
       847361.0       845077.0       842522.0       839738.0       837238.0
       835026.0       832759.0       829904.0       826517.0       823330.0
       820438.0       818019.0       815820.0       813331.0       810035.0
       806373.0       803290.0       800268.0       797330.0       794701.0
       791644.0       788069.0       784325.0       780454.0       776832.0
       773517.0       770050.0       766572.0       763403.0       760175.0
       756348.0       752042.0       747922.0       744389.0       741304.0
       738043.0       734212.0       730308.0       726352.0       722378.0
       718471.0       714404.0       710531.0       706850.0       702959.0
       698617.0       694129.0       689951.0       686002.0       681785.0
       677357.0       673039.0       668854.0       664607.0       659961.0
       655447.0       650880.0       646061.0       641341.0       636978.0
       633155.0       628753.0       623738.0       618868.0       614252.0
       609958.0       605519.0       600659.0       595698.0       590949.0
       586492.0       581781.0       576352.0       570571.0       565175.0
       560392.0       555394.0       549980.0       544344.0       538998.0
       534125.0       528858.0       523502.0       518124.0       512820.0
       507858.0       502638.0       497289.0       491879.0       486488.0
       481437.0       476547.0       471418.0       465788.0       460226.0
       455093.0       450000.0       444618.0       438943.0       433443.0
       427998.0       422594.0       417230.0       411462.0       405715.0
       399663.0       393484.0       387935.0       382247.0       376271.0
       370035.0       363619.0       357242.0       350629.0       344003.0
       337401.0       330904.0       324344.0       317585.0       310891.0
       304414.0       298105.0       291336.0       284709.0       278368.0
       271865.0       265809.0       259819.0       253543.0       247081.0
       240673.0       234603.0       228885.0       222930.0       216256.0
       209684.0       203409.0       197441.0       191612.0       185338.0
       178687.0       172062.0       165862.0       159647.0       153251.0
       146977.0       140363.0       133623.0       127550.0       121236.0
       114422.0       107817.0       101283.0       94800.00       88163.00
       81724.00       75395.00       68737.00       62139.00       55525.00
       49054.00       42929.00       36966.00       31014.00       24715.00
       18323.00       12087.00       5965.000      -241.0000      -6591.000
      -12960.00      -19598.00      -25889.00      -31962.00      -38190.00
      -44376.00      -50664.00      -56916.00      -63304.00      -69647.00
      -76071.00      -82765.00      -88991.00      -94934.00      -101286.0
      -107497.0      -113552.0      -120000.0      -126389.0      -132714.0
      -139146.0      -145439.0      -151745.0      -158108.0      -164279.0
      -170316.0      -176497.0      -182860.0      -189188.0      -195552.0
      -201734.0      -207726.0      -213934.0      -220235.0      -226835.0
      -233233.0      -239756.0      -246441.0      -252271.0      -258293.0
      -264505.0      -270835.0      -277694.0      -284452.0      -290985.0
      -297126.0      -302891.0      -308823.0      -315276.0      -321968.0
      -328832.0      -335506.0      -341629.0      -347754.0      -353808.0
      -360270.0      -367199.0      -373495.0      -379885.0      -386487.0
      -392708.0      -399108.0      -405134.0      -411003.0      -417385.0
      -423445.0      -429434.0      -435158.0      -440463.0      -446302.0
      -452423.0      -458237.0      -463658.0      -469384.0      -475616.0
      -481759.0      -487809.0      -493537.0      -498770.0      -504125.0
      -509871.0      -515802.0      -521792.0      -527521.0      -532922.0
      -538314.0      -543933.0      -549960.0      -555902.0      -561685.0
      -567855.0      -573952.0      -579532.0      -584957.0      -590578.0
      -596217.0      -602106.0      -608183.0      -613932.0      -619237.0
      -624136.0      -629061.0      -633999.0      -639022.0      -644361.0
      -649601.0      -654410.0      -659252.0      -664149.0      -668735.0
      -673609.0      -678436.0      -682951.0      -687990.0      -693252.0
      -698274.0      -703159.0      -707919.0      -712590.0      -717382.0
      -722579.0      -727642.0      -731921.0      -735699.0      -739911.0
      -744808.0      -749612.0      -754342.0      -758729.0      -762575.0
      -766538.0      -770569.0      -774751.0      -778757.0      -782447.0
      -786317.0      -790220.0      -794243.0      -798377.0      -802085.0
      -805239.0      -808262.0      -811603.0      -815322.0      -819141.0
      -822901.0      -826314.0      -829265.0      -832293.0      -835398.0
      -838304.0      -841335.0      -844660.0      -847778.0      -850480.0
      -853182.0      -855762.0      -858276.0      -860702.0      -863314.0
      -866508.0      -869268.0      -871357.0      -873128.0      -874824.0
      -876898.0      -879007.0      -880944.0      -882808.0      -884481.0
      -886088.0      -887950.0      -890049.0      -891684.0      -892755.0
      -893783.0      -894837.0      -895932.0      -896950.0      -898113.0
      -899444.0      -900388.0      -901101.0      -901794.0      -902505.0
      -903321.0      -904208.0      -904901.0      -905457.0      -906314.0
      -907188.0      -908272.0      -909268.0      -909980.0      -910851.0
      -911054.0      -911285.0      -911984.0      -912456.0      -913232.0
      -914147.0      -914685.0      -914933.0      -915012.0      -915094.0
      -915045.0      -914642.0      -914635.0      -914723.0      -914215.0
      -914092.0      -913957.0      -913364.0      -913134.0      -912945.0
      -912530.0      -912322.0      -912420.0      -912376.0      -911986.0
      -911531.0      -911212.0      -911207.0      -911106.0      -911119.0
      -911197.0      -910595.0      -910280.0      -910078.0      -909333.0
      -908543.0      -907547.0      -906586.0      -905684.0      -904855.0
      -904072.0      -902742.0      -901169.0      -899659.0      -898164.0
      -896676.0      -895125.0      -893653.0      -892223.0      -890593.0
      -888721.0      -887051.0      -885913.0      -884590.0      -882657.0
      -880528.0      -878377.0      -876428.0      -874469.0      -872132.0
      -869484.0      -866885.0      -864491.0      -862118.0      -859745.0
      -857008.0      -853931.0      -850522.0      -847351.0      -844657.0
      -841323.0      -837807.0      -834373.0      -830861.0      -827847.0
      -824948.0      -821724.0      -818247.0      -814947.0      -811732.0
      -808145.0      -804444.0      -800573.0      -796386.0      -792165.0
      -788179.0      -784422.0      -780444.0      -776151.0      -771971.0
      -767333.0      -762420.0      -758085.0      -753637.0      -749025.0
      -744481.0      -739936.0      -735285.0      -730402.0      -725567.0
      -720533.0      -715619.0      -710812.0      -705769.0      -700945.0
      -695715.0      -690233.0      -684914.0      -679446.0      -674239.0
      -668852.0      -663351.0      -658063.0      -652550.0      -646887.0
      -640957.0      -635019.0      -629150.0      -623050.0      -617086.0
      -610969.0      -604786.0      -598608.0      -592080.0      -585784.0
      -579297.0      -572885.0      -566703.0      -560293.0      -554314.0
      -547918.0      -541370.0      -535125.0      -528548.0      -522085.0
      -515939.0      -510075.0      -504004.0      -497965.0      -491957.0
      -485320.0      -478444.0      -471745.0      -465365.0      -459132.0
      -452772.0      -445964.0      -439019.0      -432195.0      -425121.0
      -418226.0      -411601.0      -404868.0      -397973.0      -391102.0
      -384527.0      -377940.0      -371214.0      -364563.0      -357839.0
      -351046.0      -344199.0      -337446.0      -330976.0      -324578.0
      -318186.0      -311475.0      -304407.0      -297706.0      -291305.0
      -284736.0      -277950.0      -270849.0      -263788.0      -256930.0
      -250022.0      -242943.0      -235506.0      -228161.0      -220924.0
      -213631.0      -206719.0      -199724.0      -192347.0      -184993.0
      -177713.0      -170358.0      -162953.0      -155696.0      -148744.0
      -141905.0      -134747.0      -127338.0      -119861.0      -112523.0
      -105618.0      -98732.00      -91711.00      -84319.00      -76644.00
      -69451.00      -62240.00      -55225.00      -48649.00      -41578.00
      -33922.00      -26170.00      -18476.00      -10751.00      -3420.000
       3659.000       10862.00       18536.00       26828.00       34720.00
       42013.00       48927.00       55809.00       63424.00       71178.00
       78772.00       86584.00       93775.00       100679.0       108066.0
       115086.0       122287.0       129882.0       137162.0       144681.0
       151955.0       159072.0       166520.0       173689.0       181160.0
       189004.0       196412.0       203765.0       211577.0       219285.0
       226731.0       234520.0       242428.0       250131.0       258013.0
       265900.0       273720.0       281530.0       289041.0       296868.0
       304771.0       312354.0       319812.0       326876.0       334198.0
       341484.0       348650.0       356569.0       364083.0       371073.0
       378002.0       384393.0       391181.0       398592.0       405757.0
       412524.0       419483.0       426618.0       433433.0       440470.0
       447787.0       454903.0       462049.0       469090.0       475589.0
       481951.0       488597.0       495481.0       502481.0       509408.0
       516124.0       522617.0       529231.0       535821.0       542232.0
       548917.0       555681.0       562083.0       568422.0       574939.0
       581340.0       587785.0       594052.0       599874.0       605757.0
       612101.0       618918.0       625202.0       630979.0       636669.0
       641850.0       647165.0       652599.0       657969.0       663225.0
       668171.0       673536.0       678970.0       684200.0       689130.0
       693971.0       699206.0       703771.0       708318.0       713413.0
       718312.0       723052.0       727406.0       731791.0       736249.0
       740801.0       745380.0       749431.0       753482.0       757637.0
       761810.0       765778.0       769477.0       772840.0       776004.0
       779788.0       783526.0       787101.0       790879.0       794498.0
       797807.0       800595.0       803392.0       806403.0       809169.0
       812115.0       815297.0       818299.0       821144.0       823619.0
       826045.0       828565.0       831179.0       833784.0       835951.0
       838039.0       840260.0       842639.0       845027.0       847417.0
       849764.0       851928.0       853890.0       855340.0       856763.0
       858804.0       861159.0       863396.0       865227.0       866847.0
       868707.0       870519.0       872088.0       873224.0       874362.0
