     0.02500000      -12345.00      -12345.00   1.980160e+09      -12345.00
   0.0005380000       1859.976      -555.0195      -12345.00      -12345.00
      -12345.00      -12345.00      -12345.00      -12345.00      -12345.00
      -12345.00      -12345.00      -12345.00      -12345.00      -12345.00
      -12345.00      -12345.00      -12345.00      -12345.00      -12345.00
      -12345.00      -12345.00      -12345.00      -12345.00      -12345.00
      -12345.00       16.73290      -169.5292       2.500000       0.000000
      -42.72450       173.0647      -12345.00       22.00000      -12345.00
      -12345.00      -12345.00      -12345.00      -12345.00      -12345.00
      -12345.00      -12345.00      -12345.00      -12345.00      -12345.00
       6815.299       19.07459       194.5559       61.29418      -12345.00
      -12345.00      -12345.00       0.000000       0.000000      -12345.00
      -12345.00      -12345.00      -12345.00      -12345.00      -12345.00
      -12345.00      -12345.00      -12345.00      -12345.00      -12345.00
      2016       318        11        12        14
        19         6    -12345    -12345     74400
    -12345    -12345    -12345    -12345    -12345
         1    -12345    -12345    -12345    -12345
    -12345    -12345    -12345    -12345    -12345
    -12345    -12345    -12345    -12345    -12345
    -12345    -12345    -12345    -12345    -12345
         1    -12345    -12345    -12345    -12345
JOHN    South Island, Ne
10      -12345  -12345  
-12345  -12345  -12345  
-12345  -12345  -12345  
-12345  -12345  -12345  
-12345  -12345  -12345  
-12345  -12345  BHZ     
IU      -12345  Trillium
[...]
      -635250.0      -635721.0      -636064.0      -636115.0      -635896.0
      -635853.0      -636417.0      -636700.0      -636558.0      -636176.0
      -635664.0      -635558.0      -635671.0      -635410.0      -634777.0
      -634341.0      -633924.0      -633489.0      -633013.0      -632244.0
      -631519.0      -630671.0      -629696.0      -628998.0      -628121.0
      -626774.0      -625483.0      -624537.0      -623893.0      -623336.0
      -622332.0      -620574.0      -618744.0      -617579.0      -616714.0
      -615716.0      -614439.0      -613205.0      -612431.0      -611603.0
      -610356.0      -608896.0      -607515.0      -606771.0      -606222.0
      -604981.0      -603519.0      -602330.0      -601250.0      -600111.0
      -598763.0      -597134.0      -595559.0      -594127.0      -592612.0
      -590915.0      -589038.0      -587258.0      -585508.0      -583519.0
      -581411.0      -579518.0      -577649.0      -575735.0      -573813.0
      -571676.0      -569598.0      -567421.0      -565225.0      -563412.0
      -561883.0      -560185.0      -558144.0      -556217.0      -553983.0
      -551692.0      -549864.0      -548017.0      -546301.0      -544382.0
      -542212.0      -540039.0      -537719.0      -535575.0      -533393.0
      -530925.0      -528497.0      -525994.0      -523275.0      -520932.0
      -518705.0      -516307.0      -513968.0      -511411.0      -509025.0
      -506636.0      -503600.0      -500539.0      -497977.0      -495541.0
      -492948.0      -490125.0      -487151.0      -484348.0      -481726.0
      -478814.0      -475260.0      -471514.0      -468232.0      -465483.0
      -462506.0      -459223.0      -455871.0      -452193.0      -448862.0
      -445584.0      -441780.0      -438060.0      -434483.0      -431078.0
      -427788.0      -424263.0      -420674.0      -417050.0      -413289.0
      -409723.0      -406116.0      -402041.0      -398075.0      -394415.0
      -390803.0      -387175.0      -383306.0      -379517.0      -375753.0
      -371854.0      -368012.0      -364019.0      -360100.0      -356401.0
      -352642.0      -348839.0      -345058.0      -341091.0      -336867.0
      -332371.0      -327851.0      -323425.0      -319043.0      -314827.0
      -310448.0      -306036.0      -301774.0      -297451.0      -293029.0
      -288445.0      -283614.0      -278628.0      -273872.0      -269329.0
      -264769.0      -260017.0      -255042.0      -249939.0      -244706.0
      -239784.0      -235097.0      -230272.0      -225231.0      -219908.0
      -214846.0      -209916.0      -204932.0      -200216.0      -195391.0
      -190272.0      -185225.0      -180331.0      -175304.0      -170278.0
      -165224.0      -160230.0      -155429.0      -150403.0      -145373.0
      -140370.0      -135343.0      -130688.0      -125857.0      -120746.0
      -115558.0      -110167.0      -105235.0      -100288.0      -94997.00
      -90446.00      -85786.00      -80312.00      -74668.00      -68621.00
      -63043.00      -58093.00      -53065.00      -48336.00      -43006.00
      -37126.00      -31423.00      -25756.00      -20366.00      -14681.00
      -8884.000      -3570.000       1527.000       6488.000       11654.00
       17173.00       23016.00       29193.00       35214.00       40685.00
       45862.00       51102.00       56603.00       62128.00       67442.00
       72903.00       78528.00       84270.00       90046.00       95713.00
       101558.0       107041.0       112109.0       117535.0       122981.0
       128541.0       134295.0       140071.0       145923.0       151374.0
       156469.0       161808.0       167614.0       173242.0       178800.0
       184112.0       189132.0       194877.0       200532.0       206042.0
       211732.0       216843.0       221982.0       227056.0       232022.0
       237565.0       242530.0       247246.0       252430.0       257445.0
       262968.0       268436.0       273400.0       278366.0       282995.0
       287561.0       292643.0       297856.0       302729.0       307587.0
       312273.0       317142.0       322239.0       326635.0       330804.0
       335490.0       340792.0       346530.0       351661.0       355926.0
       360296.0       364713.0       369247.0       374251.0       379208.0
       384249.0       389366.0       393943.0       398363.0       402939.0
       407726.0       412675.0       417468.0       422144.0       426619.0
       431302.0       436150.0       441008.0       445730.0       449917.0
       454411.0       458936.0       463246.0       467648.0       471757.0
       476124.0       480629.0       485028.0       489551.0       493678.0
       497592.0       502006.0       506209.0       510219.0       514704.0
       518934.0       523303.0       527661.0       531754.0       536038.0
       540283.0       544585.0       548563.0       552537.0       556423.0
       560177.0       564482.0       568395.0       571863.0       575521.0
       579070.0       582887.0       586746.0       590212.0       593810.0
       597387.0       600684.0       603957.0       607350.0       610717.0
       614165.0       617693.0       621242.0       625050.0       628572.0
       631978.0       635707.0       639042.0       642316.0       645829.0
       649260.0       652369.0       655203.0       658084.0       660953.0
       664133.0       667216.0       669941.0       672484.0       675070.0
       677994.0       680862.0       683407.0       685703.0       688035.0
       690377.0       692614.0       694717.0       696874.0       699126.0
       701462.0       703700.0       705298.0       706811.0       708820.0
       710910.0       712946.0       714565.0       715659.0       717013.0
       718560.0       719854.0       721092.0       722737.0       724286.0
       725267.0       726364.0       727620.0       728630.0       729909.0
       731277.0       732123.0       733066.0       734000.0       734774.0
       735379.0       735858.0       736753.0       737272.0       737583.0
       738355.0       738517.0       738602.0       739158.0       739259.0
       739447.0       739766.0       739894.0       739810.0       739653.0
       739896.0       740005.0       739976.0       740130.0       740259.0
       740266.0       740024.0       739774.0       739781.0       739580.0
       739526.0       739385.0       738918.0       738867.0       738385.0
       737740.0       737219.0       736523.0       736051.0       735269.0
       734167.0       733291.0       732861.0       732470.0       732046.0
       731385.0       730074.0       728961.0       728359.0       728084.0
       727477.0       726274.0       725195.0       723914.0       722574.0
       721466.0       720254.0       718796.0       717233.0       715919.0
       714881.0       713650.0       711741.0       709698.0       707807.0
       706262.0       705105.0       703920.0       702431.0       700143.0
       697906.0       696214.0       694437.0       692768.0       691259.0
       689257.0       686857.0       684479.0       682067.0       679804.0
       677721.0       675592.0       673423.0       671542.0       669422.0
       666665.0       663876.0       661302.0       659189.0       657388.0
       655107.0       652560.0       650076.0       647359.0       644830.0
       642209.0       639454.0       637099.0       634651.0       631941.0
       628953.0       625870.0       623225.0       620596.0       617563.0
       614633.0       611734.0       608909.0       605953.0       602672.0
       599623.0       596382.0       593018.0       589825.0       587007.0
       584370.0       581085.0       577571.0       574200.0       571086.0
       568189.0       564923.0       561467.0       557966.0       554712.0
       551736.0       548084.0       544106.0       540008.0       536226.0
       533006.0       529230.0       525194.0       521154.0       517427.0
       513953.0       510067.0       506109.0       502248.0       498527.0
       494831.0       491073.0       487096.0       483114.0       479366.0
       475620.0       472144.0       468319.0       463955.0       460087.0
       456363.0       452555.0       448598.0       444282.0       440282.0
       436290.0       432291.0       428260.0       423927.0       419639.0
       414955.0       410507.0       406443.0       402068.0       397511.0
       392728.0       387980.0       383049.0       378038.0       373017.0
       367946.0       363130.0       358006.0       352835.0       347800.0
       342904.0       337999.0       332713.0       327801.0       322857.0
       317883.0       313380.0       308742.0       303815.0       298772.0
       293906.0       289378.0       285052.0       280149.0       274922.0
       269956.0       265119.0       260656.0       256030.0       251004.0
       245797.0       240694.0       235947.0       231069.0       226054.0
       221115.0       215828.0       210684.0       206019.0       200866.0
       195515.0       190343.0       185259.0       180103.0       174824.0
       169859.0       164741.0       159430.0       154217.0       148995.0
       143959.0       139119.0       134419.0       129598.0       124507.0
       119424.0       114498.0       109695.0       104612.0       99547.00
       94381.00       89071.00       84166.00       79214.00       74263.00
       69230.00       64195.00       59087.00       53929.00       48924.00
       43511.00       38173.00       33309.00       28360.00       23223.00
       18271.00       13183.00       7942.000       2815.000      -2430.000
      -7632.000      -12777.00      -17951.00      -23114.00      -28197.00
      -33066.00      -38224.00      -43568.00      -48660.00      -53925.00
      -58930.00      -63876.00      -69068.00      -74319.00      -79796.00
      -85010.00      -90576.00      -95889.00      -100652.0      -105773.0
      -110904.0      -116408.0      -122046.0      -127617.0      -133034.0
      -137970.0      -142813.0      -147927.0      -153415.0      -159065.0
      -164832.0      -170233.0      -175332.0      -180520.0      -185599.0
      -191269.0      -197033.0      -202227.0      -207762.0      -213213.0
      -218523.0      -223945.0      -228880.0      -234106.0      -239511.0
      -244572.0      -249752.0      -254447.0      -259078.0      -264309.0
      -269486.0      -274302.0      -279035.0      -284153.0      -289513.0
      -294806.0      -299874.0      -304691.0      -309330.0      -313962.0
      -319101.0      -324339.0      -329349.0      -334335.0      -338986.0
      -343673.0      -348783.0      -354015.0      -359064.0      -364241.0
      -369678.0      -374856.0      -379637.0      -384464.0      -389442.0
      -394462.0      -399715.0      -404936.0      -410011.0      -414543.0
      -418891.0      -423459.0      -427780.0      -432407.0      -437209.0
      -441741.0      -446095.0      -450532.0      -454860.0      -459018.0
      -463542.0      -467825.0      -472017.0      -476676.0      -481314.0
      -485895.0      -490298.0      -494573.0      -498902.0      -503379.0
      -508174.0      -512625.0      -516331.0      -519942.0      -524165.0
      -528696.0      -533105.0      -537362.0      -541239.0      -545002.0
      -548735.0      -552593.0      -556602.0      -560186.0      -563778.0
      -567563.0      -571250.0      -575221.0      -579058.0      -582375.0
      -585509.0      -588559.0      -591998.0      -595699.0      -599279.0
      -602958.0      -606172.0      -609071.0      -612246.0      -615246.0
      -618269.0      -621450.0      -624702.0      -627767.0      -630488.0
      -633346.0      -636073.0      -638660.0      -641245.0      -644159.0
      -647422.0      -650116.0      -652315.0      -654322.0      -656436.0
      -658868.0      -661177.0      -663399.0      -665490.0      -667426.0
      -669502.0      -671748.0      -674075.0      -675886.0      -677311.0
      -678872.0      -680453.0      -681984.0      -683455.0      -685219.0
      -686892.0      -688199.0      -689518.0      -690734.0      -692003.0
      -693368.0      -694754.0      -695920.0      -697083.0      -698520.0
      -699993.0      -701561.0      -702866.0      -704235.0      -705448.0
      -706242.0      -707374.0      -708440.0      -709573.0      -711059.0
      -712347.0      -713431.0      -714307.0      -714920.0      -715853.0
      -716404.0      -716661.0      -717681.0      -718136.0      -718466.0
      -719260.0      -719571.0      -719956.0      -720458.0      -720905.0
      -721361.0      -721927.0      -722748.0      -723269.0      -723561.0
      -723960.0      -724504.0      -725197.0      -725762.0      -726579.0
      -727157.0      -727283.0      -727901.0      -728335.0      -728413.0
      -728376.0      -728238.0      -728282.0      -728178.0      -728286.0
      -728326.0      -727766.0      -727178.0      -726726.0      -726261.0
      -725684.0      -725134.0      -724721.0      -724173.0      -723465.0
      -722685.0      -722157.0      -722003.0      -721410.0      -720470.0
      -719483.0      -718400.0      -717628.0      -716657.0      -715247.0
      -713833.0      -712546.0      -711262.0      -710070.0      -708722.0
      -707102.0      -705269.0      -703051.0      -701455.0      -699871.0
      -697614.0      -695552.0      -693346.0      -691300.0      -689626.0
      -687786.0      -685831.0      -683635.0      -681652.0      -679719.0
      -677346.0      -675052.0      -672449.0      -669591.0      -667017.0
      -664420.0      -661993.0      -659393.0      -656499.0      -653732.0
      -650399.0      -647152.0      -644395.0      -641332.0      -638181.0
      -635130.0      -632090.0      -628816.0      -625511.0      -622109.0
      -618552.0      -615408.0      -611967.0      -608481.0      -605149.0
      -601284.0      -597595.0      -593745.0      -589953.0      -586384.0
      -582393.0      -578624.0      -574846.0      -570905.0      -566833.0
      -562464.0      -558318.0      -554020.0      -549615.0      -545352.0
      -540807.0      -536480.0      -531804.0      -527028.0      -522561.0
      -517579.0      -513134.0      -508488.0      -503779.0      -499590.0
      -494604.0      -489898.0      -485326.0      -480344.0      -475646.0
      -471301.0      -466904.0      -462365.0      -458066.0      -453421.0
      -448377.0      -443309.0      -438357.0      -433696.0      -429039.0
      -424167.0      -419056.0      -413846.0      -408596.0      -403319.0
      -398167.0      -393185.0      -388076.0      -382797.0      -377691.0
      -372734.0      -367722.0      -362608.0      -357535.0      -352427.0
      -347262.0      -341989.0      -336909.0      -332093.0      -327152.0
      -322327.0      -317021.0      -311549.0      -306673.0      -301658.0
      -296631.0      -291346.0      -285777.0      -280519.0      -275111.0
      -269800.0      -264277.0      -258380.0      -252898.0      -247128.0
      -241498.0      -236317.0      -230591.0      -224899.0      -219234.0
      -213427.0      -207755.0      -201884.0      -196241.0      -190974.0
      -185476.0      -179764.0      -173957.0      -167947.0      -162346.0
      -156969.0      -151423.0      -145974.0      -139849.0      -133811.0
      -128330.0      -122455.0      -117084.0      -111920.0      -106006.0
      -99843.00      -93712.00      -87555.00      -81473.00      -75693.00
      -70042.00      -64217.00      -57806.00      -51192.00      -45019.00
      -39144.00      -33764.00      -28136.00      -21737.00      -15572.00
      -9381.000      -3067.000       2495.000       8286.000       14268.00
       19744.00       25913.00       32029.00       37916.00       44156.00
       49848.00       55848.00       61983.00       67672.00       73972.00
       80392.00       86317.00       92511.00       98961.00       105132.0
       111351.0       117840.0       124332.0       130697.0       137180.0
       143668.0       150186.0       156629.0       162846.0       169428.0
       175935.0       182198.0       188324.0       194237.0       200441.0
       206428.0       212596.0       219256.0       225320.0       231233.0
       236962.0       242305.0       248291.0       254548.0       260437.0
       266209.0       272147.0       278122.0       283937.0       289972.0
       296188.0       302222.0       308254.0       314159.0       319657.0
       325125.0       330911.0       336872.0       342818.0       348774.0
       354462.0       359993.0       365780.0       371426.0       376960.0
       382787.0       388595.0       394054.0       399619.0       405324.0
       410854.0       416443.0       421783.0       426911.0       432132.0
       437845.0       443822.0       449018.0       454166.0       459104.0
       463668.0       468615.0       473351.0       478167.0       482779.0
       487308.0       492264.0       496995.0       501673.0       506040.0
       510580.0       515246.0       519253.0       523627.0       528163.0
       532605.0       536879.0       540871.0       545137.0       549201.0
       553500.0       557634.0       561372.0       565309.0       569129.0
       573067.0       576720.0       580213.0       583340.0       586453.0
       590228.0       593802.0       597424.0       601006.0       604418.0
       607578.0       610273.0       613257.0       616227.0       619038.0
       622182.0       625181.0       628229.0       631104.0       633449.0
       636068.0       638756.0       641503.0       644184.0       646562.0
       648909.0       651272.0       653852.0       656450.0       658998.0
       661428.0       663747.0       665905.0       667600.0       669529.0
       671945.0       674405.0       676916.0       678884.0       680852.0
       683212.0       685203.0       686926.0       688384.0       690108.0
       692375.0       694698.0       696756.0       698494.0       700213.0
       701807.0       703237.0       704625.0       706131.0       707797.0
       709104.0       710056.0       710601.0       711359.0       712720.0
       713723.0       715263.0       716718.0       717426.0       718810.0
       719835.0       720369.0       720926.0       721439.0       722551.0
