     0.05000000      -12345.00      -12345.00   5.971010e+09      -12345.00
   0.0005390000       1859.951      -606.0195      -12345.00      -12345.00
      -12345.00      -12345.00      -12345.00      -12345.00      -12345.00
      -12345.00      -12345.00      -12345.00      -12345.00      -12345.00
      -12345.00      -12345.00      -12345.00      -12345.00      -12345.00
      -12345.00      -12345.00      -12345.00      -12345.00      -12345.00
      -12345.00       21.42000      -158.0112       77.00000       33.00000
      -42.72450       173.0647      -12345.00       22.00000      -12345.00
      -12345.00      -12345.00      -12345.00      -12345.00      -12345.00
      -12345.00      -12345.00      -12345.00      -12345.00      -12345.00
       7691.589       28.82545       202.4147       69.17519      -12345.00
      -12345.00      -12345.00       0.000000       0.000000      -12345.00
      -12345.00      -12345.00      -12345.00      -12345.00      -12345.00
      -12345.00      -12345.00      -12345.00      -12345.00      -12345.00
      2016       318        11        13         5
        19         6    -12345    -12345     37200
    -12345    -12345    -12345    -12345    -12345
         1    -12345    -12345    -12345    -12345
    -12345    -12345    -12345    -12345    -12345
    -12345    -12345    -12345    -12345    -12345
    -12345    -12345    -12345    -12345    -12345
         1    -12345    -12345    -12345    -12345
KIP     South Island, Ne
00      -12345  -12345  
-12345  -12345  -12345  
-12345  -12345  -12345  
-12345  -12345  -12345  
-12345  -12345  -12345  
-12345  -12345  BHZ     
IU      -12345  Streckei
[...]
      -441265.0      -446195.0      -451183.0      -455853.0      -460486.0
      -465360.0      -469719.0      -473870.0      -477944.0      -481848.0
      -485577.0      -489099.0      -492457.0      -495633.0      -498735.0
      -501723.0      -504569.0      -507090.0      -509410.0      -511710.0
      -513737.0      -515643.0      -517351.0      -518689.0      -520114.0
      -521521.0      -522737.0      -523851.0      -524665.0      -525502.0
      -526475.0      -527347.0      -528120.0      -528771.0      -529473.0
      -530026.0      -530510.0      -531094.0      -531573.0      -532020.0
      -532272.0      -532611.0      -532855.0      -532864.0      -532929.0
      -532659.0      -532317.0      -531898.0      -531330.0      -530662.0
      -529817.0      -528954.0      -527966.0      -526735.0      -525200.0
      -523540.0      -521782.0      -519931.0      -517818.0      -515591.0
      -513404.0      -510949.0      -508353.0      -505548.0      -502465.0
      -499265.0      -495905.0      -492384.0      -488679.0      -484920.0
      -481184.0      -477118.0      -472864.0      -468666.0      -464456.0
      -460313.0      -456073.0      -451631.0      -447193.0      -442770.0
      -438380.0      -433811.0      -429077.0      -424411.0      -419768.0
      -415180.0      -410265.0      -405365.0      -400511.0      -395526.0
      -390827.0      -386018.0      -381146.0      -376390.0      -371537.0
      -366607.0      -361758.0      -357008.0      -352135.0      -347079.0
      -341974.0      -336947.0      -331991.0      -326820.0      -321618.0
      -316590.0      -311366.0      -306190.0      -301121.0      -295880.0
      -290693.0      -285511.0      -280267.0      -274916.0      -269431.0
      -264222.0      -259110.0      -253708.0      -248225.0      -242912.0
      -237738.0      -232569.0      -227340.0      -222163.0      -217125.0
      -212153.0      -207382.0      -202806.0      -198274.0      -193902.0
      -189790.0      -185669.0      -181563.0      -177660.0      -173962.0
      -170375.0      -166743.0      -163252.0      -159742.0      -156142.0
      -152602.0      -149135.0      -145871.0      -142601.0      -139250.0
      -135935.0      -132577.0      -129258.0      -125984.0      -122735.0
      -119613.0      -116581.0      -113484.0      -110193.0      -106841.0
      -103525.0      -100301.0      -96955.00      -93460.00      -90028.00
      -86427.00      -82851.00      -79186.00      -75196.00      -71213.00
      -67084.00      -62648.00      -58324.00      -54014.00      -49182.00
      -44096.00      -38954.00      -33656.00      -28206.00      -22536.00
      -16767.00      -10813.00      -4557.000       1822.000       8225.000
       14781.00       21542.00       28450.00       35467.00       42399.00
       49424.00       56640.00       63930.00       71318.00       78829.00
       86413.00       93859.00       101313.0       108700.0       116063.0
       123560.0       130987.0       138248.0       145484.0       152762.0
       160031.0       167327.0       174539.0       181825.0       189127.0
       196402.0       203691.0       210916.0       218126.0       225152.0
       232180.0       239248.0       246129.0       252966.0       259613.0
       266061.0       272533.0       278978.0       285300.0       291433.0
       297368.0       303168.0       308980.0       314940.0       320868.0
       326494.0       332127.0       337695.0       343085.0       348467.0
       353620.0       358772.0       363853.0       368792.0       373852.0
       378750.0       383495.0       388120.0       392723.0       397432.0
       402039.0       406517.0       410979.0       415625.0       420236.0
       424856.0       429451.0       434052.0       438903.0       443751.0
       448624.0       453510.0       458405.0       463352.0       468358.0
       473260.0       478216.0       483317.0       488193.0       493024.0
       497971.0       503000.0       507877.0       512590.0       517409.0
       522167.0       526979.0       531708.0       536253.0       540764.0
       545158.0       549638.0       554108.0       558441.0       562507.0
       566489.0       570403.0       574002.0       577628.0       581331.0
       584889.0       588393.0       591752.0       594699.0       597585.0
       600436.0       603135.0       605833.0       608372.0       610662.0
       612813.0       614951.0       616927.0       618629.0       620371.0
       621985.0       623316.0       624815.0       626163.0       627261.0
       628276.0       629302.0       630551.0       631607.0       632447.0
       633229.0       634006.0       634861.0       635455.0       635959.0
       636368.0       636372.0       636599.0       636861.0       636807.0
       636704.0       636630.0       636656.0       636300.0       635776.0
       635129.0       634084.0       633084.0       632136.0       631236.0
       630124.0       628902.0       627928.0       626804.0       625517.0
       624284.0       623199.0       622006.0       620773.0       619735.0
       618549.0       617501.0       616588.0       615676.0       615022.0
       614237.0       613348.0       612606.0       611977.0       611457.0
       610675.0       609722.0       608712.0       607597.0       606525.0
       605458.0       604388.0       603066.0       601707.0       600377.0
       598758.0       597063.0       595260.0       593377.0       591723.0
       589711.0       587414.0       585279.0       582802.0       580362.0
       578011.0       575353.0       572564.0       569555.0       566359.0
       562965.0       559580.0       556144.0       552230.0       548404.0
       544525.0       540125.0       535618.0       530869.0       526093.0
       521211.0       515884.0       510624.0       505101.0       499312.0
       493456.0       487198.0       481002.0       474662.0       467951.0
       461208.0       454299.0       447188.0       440084.0       432883.0
       425459.0       418026.0       410421.0       402969.0       395578.0
       387702.0       379925.0       372288.0       364406.0       356374.0
       348428.0       340339.0       332045.0       323918.0       315732.0
       307380.0       298808.0       290220.0       281823.0       273247.0
       264572.0       255882.0       247120.0       238458.0       229719.0
       220628.0       211634.0       202840.0       194003.0       185020.0
       175772.0       166583.0       157260.0       147956.0       138913.0
       129783.0       120503.0       110941.0       101564.0       92443.00
       82936.00       73596.00       64551.00       55474.00       46249.00
       36679.00       27216.00       17796.00       8514.000      -942.0000
      -10922.00      -20876.00      -30718.00      -40369.00      -50064.00
      -60105.00      -70249.00      -80379.00      -90647.00      -101101.0
      -111675.0      -122183.0      -132928.0      -143456.0      -153957.0
      -165137.0      -176134.0      -187146.0      -197987.0      -208818.0
      -220240.0      -231521.0      -242622.0      -253812.0      -265089.0
      -276516.0      -288064.0      -299155.0      -309878.0      -320884.0
      -331968.0      -343024.0      -353871.0      -364384.0      -374947.0
      -385443.0      -395882.0      -406124.0      -416089.0      -426171.0
      -436409.0      -446658.0      -456638.0      -466500.0      -476507.0
      -486784.0      -497042.0      -506887.0      -516647.0      -526639.0
      -536629.0      -546500.0      -556410.0      -566159.0      -576209.0
      -586268.0      -596067.0      -606083.0      -615954.0      -626143.0
      -636356.0      -646078.0      -655715.0      -665270.0      -674882.0
      -684494.0      -693911.0      -703221.0      -712409.0      -721579.0
      -730872.0      -740009.0      -748830.0      -757538.0      -766342.0
      -775182.0      -783931.0      -792454.0      -800850.0      -809121.0
      -817488.0      -826056.0      -834344.0      -842314.0      -850232.0
      -858467.0      -866697.0      -874558.0      -882206.0      -889449.0
      -896730.0      -904158.0      -911292.0      -918317.0      -925246.0
      -932077.0      -938627.0      -944950.0      -951213.0      -957425.0
      -963576.0      -969512.0      -975232.0      -980670.0      -986087.0
      -991196.0      -995833.0      -1000373.      -1004591.      -1008551.
      -1012354.      -1015724.      -1018501.      -1020983.      -1023401.
      -1025690.      -1027684.      -1029253.      -1030520.      -1031651.
      -1032643.      -1033368.      -1033926.      -1034336.      -1034684.
      -1034870.      -1034995.      -1034975.      -1034828.      -1034824.
      -1034534.      -1034298.      -1034097.      -1033844.      -1033694.
      -1033301.      -1032908.      -1032659.      -1032353.      -1032061.
      -1031909.      -1031653.      -1031152.      -1030568.      -1030158.
      -1029809.      -1029187.      -1028478.      -1027661.      -1026605.
      -1025664.      -1024504.      -1022941.      -1021314.      -1019320.
      -1017100.      -1014711.      -1011981.      -1009237.      -1006260.
      -1002791.      -999197.0      -995599.0      -991752.0      -987487.0
      -982933.0      -978337.0      -973622.0      -968644.0      -963315.0
      -957577.0      -951833.0      -946160.0      -940196.0      -934063.0
      -927760.0      -921353.0      -914742.0      -907700.0      -900518.0
      -893449.0      -886374.0      -878981.0      -871463.0      -863921.0
      -856332.0      -848681.0      -840770.0      -832816.0      -824944.0
      -817137.0      -809295.0      -801336.0      -793275.0      -785173.0
      -777304.0      -769611.0      -761822.0      -753950.0      -746140.0
      -738334.0      -730523.0      -722792.0      -715073.0      -707341.0
      -699608.0      -691859.0      -684260.0      -676651.0      -668963.0
      -661257.0      -653339.0      -645469.0      -637760.0      -629948.0
      -621930.0      -613831.0      -605627.0      -597382.0      -589203.0
      -580838.0      -572201.0      -563420.0      -554588.0      -545773.0
      -537069.0      -528212.0      -519093.0      -509908.0      -500674.0
      -491440.0      -481998.0      -472420.0      -462730.0      -452911.0
      -443121.0      -433096.0      -422847.0      -412251.0      -401620.0
      -390973.0      -379778.0      -368710.0      -357633.0      -346183.0
      -334648.0      -322846.0      -311015.0      -299069.0      -286910.0
      -274470.0      -261695.0      -248804.0      -235552.0      -222313.0
      -208737.0      -194682.0      -180743.0      -166404.0      -151907.0
      -137135.0      -122107.0      -107223.0      -92019.00      -76761.00
      -61348.00      -45818.00      -30209.00      -14542.00       1067.000
       16921.00       32697.00       48581.00       64672.00       80819.00
       96936.00       113162.0       129541.0       145702.0       161820.0
       177979.0       194304.0       210434.0       226219.0       242166.0
       257945.0       273605.0       289021.0       304206.0       319543.0
       334761.0       349763.0       364307.0       378832.0       393345.0
       407634.0       421903.0       435848.0       449558.0       463327.0
       477066.0       490525.0       503875.0       517156.0       530424.0
       543506.0       556322.0       568939.0       581331.0       593851.0
       606315.0       618436.0       630543.0       642561.0       654595.0
       666922.0       678997.0       690927.0       702786.0       714437.0
       725858.0       737192.0       748790.0       760176.0       771200.0
       782165.0       793216.0       804152.0       814854.0       825267.0
       835439.0       845692.0       855772.0       865470.0       874869.0
       884227.0       893515.0       902643.0       911454.0       920065.0
       928805.0       937304.0       945611.0       953613.0       961405.0
       969142.0       976470.0       983631.0       990817.0       997812.0
       1004463.       1010959.       1017478.       1023676.       1029627.
       1035475.       1041046.       1046659.       1052056.       1057348.
       1062714.       1067943.       1072944.       1077638.       1082493.
       1087197.       1091841.       1096470.       1100824.       1105347.
       1109726.       1113895.       1117880.       1121761.       1125762.
       1129513.       1133197.       1136758.       1139997.       1143240.
       1146496.       1149596.       1152510.       1155322.       1158064.
       1160690.       1163169.       1165508.       1167692.       1169622.
       1171267.       1172687.       1173851.       1174955.       1176005.
       1176756.       1177323.       1177683.       1177777.       1177700.
       1177378.       1176876.       1176307.       1175454.       1174503.
       1173599.       1172400.       1170840.       1169096.       1167389.
       1165438.       1163078.       1160405.       1157658.       1154843.
       1151599.       1148193.       1144529.       1140707.       1136820.
       1132608.       1128288.       1123773.       1119174.       1114505.
       1109500.       1104426.       1099156.       1093635.       1088134.
       1082569.       1076923.       1071138.       1065346.       1059440.
       1053458.       1047512.       1041336.       1035080.       1028856.
       1022448.       1016036.       1009632.       1002963.       996351.0
       989747.0       982982.0       976332.0       969730.0       963018.0
       956330.0       949568.0       942785.0       936066.0       929341.0
       922629.0       915866.0       909095.0       902318.0       895509.0
       888662.0       881866.0       875077.0       868116.0       861051.0
       854013.0       846997.0       839733.0       832223.0       824685.0
       816811.0       808744.0       800748.0       792447.0       783916.0
       775357.0       766512.0       757486.0       748231.0       738879.0
       729424.0       719520.0       709567.0       699314.0       688930.0
       678570.0       668012.0       657320.0       646433.0       635749.0
       624869.0       613826.0       602934.0       591857.0       580790.0
       569808.0       558768.0       547599.0       536596.0       525692.0
       514568.0       503476.0       492393.0       481320.0       470274.0
       459094.0       447930.0       436884.0       425704.0       414465.0
       403383.0       392198.0       380915.0       369586.0       358056.0
       346523.0       335044.0       323531.0       311870.0       300115.0
       288575.0       276684.0       264598.0       252685.0       240448.0
       228208.0       215916.0       203464.0       190924.0       178183.0
       165664.0       153137.0       140389.0       127550.0       114752.0
       102141.0       89300.00       76537.00       63772.00       50832.00
       38017.00       25108.00       12370.00      -384.0000      -13183.00
      -25925.00      -38852.00      -51641.00      -64252.00      -76882.00
      -89419.00      -102039.0      -114638.0      -127071.0      -140094.0
      -153105.0      -165672.0      -178494.0      -191408.0      -204295.0
      -217289.0      -230377.0      -243269.0      -256412.0      -269564.0
      -282219.0      -295174.0      -307981.0      -320618.0      -333287.0
      -345701.0      -358228.0      -370385.0      -382363.0      -394295.0
      -406013.0      -417813.0      -429182.0      -440343.0      -451644.0
      -462699.0      -473557.0      -484324.0      -494997.0      -505482.0
      -515840.0      -526302.0      -536572.0      -546643.0      -556785.0
      -566843.0      -576978.0      -587342.0      -597767.0      -608072.0
      -618238.0      -628563.0      -639003.0      -649424.0      -659578.0
      -669825.0      -680447.0      -690896.0      -701467.0      -711991.0
      -722513.0      -733218.0      -743883.0      -754700.0      -765412.0
      -776219.0      -787041.0      -797870.0      -808793.0      -819557.0
      -830424.0      -841248.0      -851981.0      -862655.0      -873249.0
      -883664.0      -893835.0      -904053.0      -913982.0      -923626.0
      -933358.0      -942834.0      -952091.0      -961274.0      -970108.0
      -978710.0      -987217.0      -995654.0      -1003791.      -1011607.
      -1019355.      -1026861.      -1034248.      -1041320.      -1047991.
      -1054398.      -1060444.      -1066267.      -1071807.      -1077265.
      -1082526.      -1087526.      -1092381.      -1096933.      -1101348.
      -1105460.      -1109478.      -1113544.      -1117312.      -1121099.
      -1124440.      -1127423.      -1130543.      -1133284.      -1135886.
      -1138224.      -1140401.      -1142541.      -1144305.      -1145883.
      -1147361.      -1148740.      -1149954.      -1151146.      -1152172.
      -1152998.      -1153783.      -1154520.      -1155209.      -1155821.
      -1156440.      -1156860.      -1157152.      -1157628.      -1158120.
      -1158491.      -1158831.      -1159091.      -1159338.      -1159708.
      -1159861.      -1159744.      -1159697.      -1159423.      -1158970.
      -1158683.      -1158147.      -1157399.      -1156753.      -1155876.
      -1154818.      -1153728.      -1152450.      -1151055.      -1149421.
      -1147357.      -1145284.      -1143203.      -1140845.      -1138305.
      -1135522.      -1132589.      -1129427.      -1125906.      -1121914.
      -1117649.      -1113169.      -1108426.      -1103388.      -1097819.
      -1092197.      -1086377.      -1080118.      -1073730.      -1066987.
      -1059925.      -1052812.      -1045361.      -1037658.      -1029971.
      -1022146.      -1014182.      -1005932.      -997310.0      -988539.0
      -979690.0      -970664.0      -961588.0      -952575.0      -943351.0
      -933859.0      -924282.0      -914570.0      -904776.0      -894897.0
      -884803.0      -874723.0      -864507.0      -854067.0      -843570.0
      -832873.0      -822090.0      -811111.0      -799993.0      -788738.0
      -777136.0      -765402.0      -753600.0      -741598.0      -729360.0
      -717006.0      -704403.0      -691688.0      -678873.0      -665604.0
