     0.05000000      -12345.00      -12345.00   3.446040e+09      -12345.00
   0.0005390000       1859.951      -606.0195      -12345.00      -12345.00
      -12345.00      -12345.00      -12345.00      -12345.00      -12345.00
      -12345.00      -12345.00      -12345.00      -12345.00      -12345.00
      -12345.00      -12345.00      -12345.00      -12345.00      -12345.00
      -12345.00      -12345.00      -12345.00      -12345.00      -12345.00
      -12345.00       21.42000      -158.0112       77.00000       33.00000
      -42.72450       173.0647      -12345.00       22.00000      -12345.00
      -12345.00      -12345.00      -12345.00      -12345.00      -12345.00
      -12345.00      -12345.00      -12345.00      -12345.00      -12345.00
       7691.589       28.82545       202.4147       69.17519      -12345.00
      -12345.00      -12345.00       357.0000       90.00000      -12345.00
      -12345.00      -12345.00      -12345.00      -12345.00      -12345.00
      -12345.00      -12345.00      -12345.00      -12345.00      -12345.00
      2016       318        11        13         5
        19         6    -12345    -12345     37200
    -12345    -12345    -12345    -12345    -12345
         1    -12345    -12345    -12345    -12345
    -12345    -12345    -12345    -12345    -12345
    -12345    -12345    -12345    -12345    -12345
    -12345    -12345    -12345    -12345    -12345
         1    -12345    -12345    -12345    -12345
KIP     South Island, Ne
00      -12345  -12345  
-12345  -12345  -12345  
-12345  -12345  -12345  
-12345  -12345  -12345  
-12345  -12345  -12345  
-12345  -12345  BH1     
IU      -12345  Streckei
[...]
      -545843.0      -545923.0      -545965.0      -546007.0      -545928.0
      -545658.0      -545364.0      -544924.0      -544346.0      -543747.0
      -543067.0      -542211.0      -541247.0      -540265.0      -539086.0
      -537782.0      -536345.0      -534821.0      -533197.0      -531362.0
      -529412.0      -527280.0      -525038.0      -522649.0      -520106.0
      -517458.0      -514730.0      -511914.0      -508887.0      -505773.0
      -502625.0      -499439.0      -496144.0      -492611.0      -488977.0
      -485278.0      -481513.0      -477738.0      -473825.0      -469818.0
      -465770.0      -461566.0      -457164.0      -452693.0      -448254.0
      -443695.0      -439049.0      -434186.0      -429183.0      -424223.0
      -419144.0      -414025.0      -408812.0      -403514.0      -398090.0
      -392562.0      -387001.0      -381390.0      -375781.0      -370079.0
      -364401.0      -358529.0      -352491.0      -346451.0      -340413.0
      -334527.0      -328604.0      -322710.0      -316822.0      -310968.0
      -305124.0      -299255.0      -293506.0      -287760.0      -282092.0
      -276437.0      -270722.0      -265014.0      -259379.0      -253834.0
      -248358.0      -243045.0      -237724.0      -232351.0      -227011.0
      -221676.0      -216497.0      -211289.0      -206129.0      -201136.0
      -196153.0      -191223.0      -186265.0      -181350.0      -176453.0
      -171649.0      -166827.0      -161938.0      -156999.0      -151898.0
      -146899.0      -141891.0      -136920.0      -131904.0      -126849.0
      -121836.0      -116701.0      -111621.0      -106327.0      -100984.0
      -95656.00      -90265.00      -85026.00      -79649.00      -74257.00
      -68790.00      -63312.00      -57979.00      -52537.00      -47286.00
      -42048.00      -36740.00      -31582.00      -26293.00      -21083.00
      -15951.00      -10837.00      -5846.000      -935.0000       3982.000
       8952.000       13845.00       18805.00       23688.00       28491.00
       33287.00       38055.00       42892.00       47715.00       52555.00
       57334.00       62076.00       66907.00       71807.00       76723.00
       81638.00       86442.00       91325.00       96284.00       101199.0
       106249.0       111216.0       116179.0       121094.0       126002.0
       131064.0       136048.0       141059.0       146097.0       151141.0
       156118.0       161101.0       166033.0       170905.0       175924.0
       180892.0       185955.0       190922.0       195753.0       200591.0
       205418.0       210357.0       215286.0       220206.0       225100.0
       229817.0       234345.0       238850.0       243225.0       247707.0
       252215.0       256680.0       261152.0       265339.0       269516.0
       273520.0       277543.0       281667.0       285639.0       289720.0
       293706.0       297612.0       301472.0       305246.0       309131.0
       313005.0       316986.0       321023.0       324902.0       328744.0
       332440.0       336200.0       340013.0       343738.0       347563.0
       351430.0       355306.0       359109.0       362985.0       366768.0
       370501.0       374290.0       378063.0       381976.0       385772.0
       389571.0       393257.0       396866.0       400549.0       404202.0
       407897.0       411513.0       415095.0       418641.0       422185.0
       425706.0       429155.0       432572.0       436026.0       439509.0
       442987.0       446438.0       449855.0       453291.0       456738.0
       460194.0       463555.0       466911.0       470223.0       473510.0
       476804.0       480113.0       483504.0       486712.0       489860.0
       493057.0       496329.0       499509.0       502593.0       505723.0
       508747.0       511851.0       514879.0       517846.0       520686.0
       523401.0       526095.0       528559.0       531051.0       533419.0
       535629.0       537697.0       539611.0       541558.0       543357.0
       545094.0       546753.0       548313.0       549797.0       551074.0
       552270.0       553330.0       554237.0       555049.0       555740.0
       556479.0       557096.0       557448.0       557755.0       557992.0
       558016.0       557982.0       557899.0       557797.0       557705.0
       557432.0       557079.0       556637.0       556162.0       555604.0
       555052.0       554524.0       553904.0       553364.0       552647.0
       551935.0       551184.0       550346.0       549692.0       548913.0
       548132.0       547384.0       546519.0       545693.0       544818.0
       543950.0       543079.0       542227.0       541421.0       540491.0
       539661.0       538720.0       537774.0       536946.0       536048.0
       535248.0       534248.0       533134.0       531948.0       530752.0
       529669.0       528357.0       526953.0       525509.0       524029.0
       522566.0       520989.0       519379.0       517685.0       515833.0
       513899.0       511899.0       509823.0       507678.0       505494.0
       503279.0       500896.0       498502.0       496121.0       493503.0
       490905.0       488259.0       485487.0       482646.0       479637.0
       476640.0       473536.0       470280.0       466930.0       463458.0
       459971.0       456280.0       452464.0       448704.0       444808.0
       440871.0       436840.0       432708.0       428574.0       424343.0
       420038.0       415675.0       411225.0       406694.0       402220.0
       397660.0       393038.0       388406.0       383703.0       379043.0
       374343.0       369700.0       365039.0       360323.0       355732.0
       351116.0       346369.0       341608.0       336862.0       332092.0
       327287.0       322389.0       317458.0       312458.0       307379.0
       302278.0       297102.0       291817.0       286440.0       280992.0
       275468.0       269816.0       264008.0       258220.0       252314.0
       246374.0       240379.0       234192.0       228025.0       221684.0
       215301.0       208905.0       202439.0       196074.0       189630.0
       183045.0       176370.0       169732.0       163163.0       156434.0
       149733.0       143131.0       136434.0       129638.0       122664.0
       115675.0       108728.0       101764.0       94741.00       87678.00
       80584.00       73474.00       66400.00       59180.00       52042.00
       45013.00       37830.00       30627.00       23497.00       16356.00
       9207.000       2024.000      -5078.000      -12024.00      -18956.00
      -25927.00      -32979.00      -39979.00      -46881.00      -53768.00
      -60523.00      -67290.00      -74062.00      -80641.00      -87346.00
      -94054.00      -100736.0      -107566.0      -114420.0      -121337.0
      -128131.0      -134900.0      -141801.0      -148711.0      -155635.0
      -162544.0      -169405.0      -176341.0      -183251.0      -190115.0
      -196952.0      -203749.0      -210610.0      -217447.0      -224364.0
      -231292.0      -238146.0      -245063.0      -251899.0      -258774.0
      -265711.0      -272468.0      -279279.0      -286003.0      -292589.0
      -299209.0      -305704.0      -312210.0      -318651.0      -324976.0
      -331331.0      -337591.0      -343645.0      -349542.0      -355388.0
      -361213.0      -366949.0      -372595.0      -378168.0      -383652.0
      -389042.0      -394339.0      -399485.0      -404590.0      -409553.0
      -414295.0      -419031.0      -423646.0      -428264.0      -432667.0
      -436923.0      -441273.0      -445488.0      -449609.0      -453576.0
      -457528.0      -461421.0      -465325.0      -469153.0      -472777.0
      -476488.0      -480204.0      -483843.0      -487451.0      -490998.0
      -494488.0      -497985.0      -501409.0      -504827.0      -508246.0
      -511554.0      -514742.0      -517828.0      -520886.0      -523851.0
      -526737.0      -529515.0      -532188.0      -534848.0      -537461.0
      -540028.0      -542449.0      -544854.0      -547315.0      -549594.0
      -551855.0      -554140.0      -556385.0      -558663.0      -560794.0
      -562861.0      -564928.0      -566890.0      -568769.0      -570520.0
      -572268.0      -573948.0      -575502.0      -577077.0      -578569.0
      -580124.0      -581558.0      -582735.0      -584032.0      -585224.0
      -586268.0      -587219.0      -588014.0      -588765.0      -589435.0
      -590024.0      -590494.0      -590879.0      -591164.0      -591342.0
      -591482.0      -591428.0      -591364.0      -591265.0      -590927.0
      -590627.0      -590257.0      -589767.0      -589223.0      -588547.0
      -587808.0      -586995.0      -586104.0      -585209.0      -584210.0
      -583115.0      -582110.0      -581008.0      -579838.0      -578710.0
      -577552.0      -576287.0      -574977.0      -573598.0      -572219.0
      -570802.0      -569200.0      -567750.0      -566136.0      -564494.0
      -562957.0      -561193.0      -559469.0      -557746.0      -555995.0
      -554182.0      -552380.0      -550540.0      -548485.0      -546470.0
      -544353.0      -542093.0      -539977.0      -537769.0      -535518.0
      -533242.0      -530836.0      -528432.0      -525930.0      -523432.0
      -520887.0      -518242.0      -515619.0      -512939.0      -510119.0
      -507319.0      -504512.0      -501612.0      -498679.0      -495684.0
      -492713.0      -489670.0      -486599.0      -483396.0      -480107.0
      -476797.0      -473340.0      -469945.0      -466443.0      -462886.0
      -459279.0      -455587.0      -451949.0      -448221.0      -444382.0
      -440493.0      -436558.0      -432391.0      -428252.0      -424152.0
      -419968.0      -415889.0      -411690.0      -407528.0      -403355.0
      -399075.0      -394914.0      -390719.0      -386502.0      -382378.0
      -378272.0      -374066.0      -369936.0      -365854.0      -361667.0
      -357525.0      -353393.0      -349332.0      -345236.0      -341066.0
      -336970.0      -332854.0      -328704.0      -324514.0      -320263.0
      -315897.0      -311536.0      -307168.0      -302630.0      -298011.0
      -293282.0      -288524.0      -283822.0      -278969.0      -274074.0
      -269169.0      -264098.0      -258875.0      -253529.0      -248027.0
      -242319.0      -236573.0      -230682.0      -224686.0      -218612.0
      -212335.0      -206041.0      -199580.0      -192994.0      -186423.0
      -179705.0      -172869.0      -166020.0      -159035.0      -152006.0
      -144949.0      -137734.0      -130517.0      -123188.0      -115810.0
      -108310.0      -100672.0      -93077.00      -85395.00      -77732.00
      -69994.00      -62257.00      -54411.00      -46461.00      -38607.00
      -30498.00      -22320.00      -13986.00      -5564.000       2740.000
       11212.00       19723.00       28370.00       37210.00       46142.00
       55171.00       64253.00       73240.00       82205.00       91236.00
       100221.0       109335.0       118516.0       127701.0       136913.0
       146100.0       155280.0       164389.0       173475.0       182507.0
       191642.0       200804.0       209869.0       218991.0       228114.0
       237421.0       246673.0       255915.0       265336.0       274600.0
       283842.0       293076.0       302354.0       311738.0       321174.0
       330567.0       339953.0       349416.0       358795.0       368165.0
       377486.0       386844.0       396139.0       405256.0       414424.0
       423537.0       432599.0       441567.0       450441.0       459283.0
       467950.0       476582.0       485128.0       493515.0       501862.0
       510082.0       518236.0       526291.0       534209.0       541989.0
       549613.0       557167.0       564559.0       571881.0       579163.0
       586360.0       593442.0       600430.0       607463.0       614331.0
       621069.0       627733.0       634183.0       640593.0       646967.0
       653168.0       659267.0       665235.0       671122.0       676914.0
       682492.0       687930.0       693207.0       698403.0       703490.0
       708519.0       713519.0       718375.0       723195.0       727922.0
       732510.0       736962.0       741249.0       745365.0       749433.0
       753486.0       757412.0       761161.0       764779.0       768382.0
       771909.0       775353.0       778651.0       781812.0       784856.0
       787639.0       790300.0       792870.0       795236.0       797437.0
       799472.0       801339.0       802988.0       804420.0       805658.0
       806704.0       807664.0       808447.0       809002.0       809353.0
       809475.0       809426.0       809131.0       808665.0       808039.0
       807141.0       806074.0       804860.0       803438.0       801857.0
       800094.0       798095.0       795927.0       793537.0       790944.0
       788158.0       785130.0       781919.0       778589.0       775108.0
       771331.0       767394.0       763331.0       759111.0       754690.0
       750082.0       745386.0       740457.0       735313.0       730005.0
       724647.0       719181.0       713537.0       707737.0       701743.0
       695652.0       689416.0       683099.0       676597.0       669904.0
       663124.0       656150.0       649059.0       641805.0       634453.0
       626991.0       619367.0       611689.0       603853.0       595976.0
       587908.0       579693.0       571497.0       563081.0       554553.0
       545913.0       537104.0       528110.0       519045.0       509939.0
       500687.0       491372.0       481962.0       472514.0       462907.0
       453236.0       443505.0       433574.0       423686.0       413642.0
       403536.0       393442.0       383332.0       373188.0       362948.0
       352755.0       342340.0       331952.0       321529.0       311061.0
       300610.0       289987.0       279329.0       268411.0       257528.0
       246592.0       235476.0       224275.0       213006.0       201647.0
       190021.0       178411.0       166576.0       154694.0       142749.0
       130703.0       118693.0       106588.0       94606.00       82478.00
       70462.00       58512.00       46622.00       34797.00       23037.00
       11437.00      -276.0000      -11748.00      -23230.00      -34649.00
      -45886.00      -57247.00      -68339.00      -79298.00      -90275.00
      -101062.0      -111879.0      -122665.0      -133389.0      -144032.0
      -154522.0      -165058.0      -175433.0      -185671.0      -195774.0
      -205805.0      -215846.0      -225617.0      -235430.0      -245215.0
      -254753.0      -264123.0      -273355.0      -282444.0      -291177.0
      -299833.0      -308272.0      -316528.0      -324710.0      -332560.0
      -340284.0      -347778.0      -355071.0      -362030.0      -368873.0
      -375562.0      -381986.0      -388449.0      -394595.0      -400634.0
      -406502.0      -412057.0      -417444.0      -422665.0      -427645.0
      -432424.0      -437111.0      -441457.0      -445632.0      -449567.0
      -453354.0      -457092.0      -460607.0      -464144.0      -467523.0
      -470694.0      -473737.0      -476664.0      -479406.0      -481849.0
      -484365.0      -486705.0      -488806.0      -490864.0      -492587.0
      -494293.0      -495872.0      -497194.0      -498480.0      -499510.0
      -500423.0      -501240.0      -501851.0      -502327.0      -502672.0
      -502904.0      -503005.0      -502944.0      -502758.0      -502537.0
      -502204.0      -501731.0      -501146.0      -500437.0      -499608.0
      -498722.0      -497673.0      -496499.0      -495213.0      -493692.0
      -492175.0      -490583.0      -488835.0      -486954.0      -484891.0
      -482698.0      -480334.0      -477832.0      -475174.0      -472383.0
      -469421.0      -466283.0      -463061.0      -459633.0      -456145.0
      -452570.0      -448767.0      -444849.0      -440777.0      -436584.0
      -432241.0      -427694.0      -423070.0      -418379.0      -413569.0
      -408673.0      -403531.0      -398298.0      -393088.0      -387656.0
      -382189.0      -376558.0      -370770.0      -364995.0      -359012.0
      -352995.0      -346900.0      -340628.0      -334309.0      -327830.0
      -321289.0      -314732.0      -308058.0      -301348.0      -294603.0
      -287828.0      -280961.0      -273859.0      -266751.0      -259602.0
      -252375.0      -245268.0      -238048.0      -230861.0      -223760.0
      -216561.0      -209451.0      -202382.0      -195385.0      -188424.0
      -181456.0      -174672.0      -167894.0      -161189.0      -154644.0
      -148127.0      -141707.0      -135377.0      -129067.0      -122779.0
      -116579.0      -110456.0      -104414.0      -98474.00      -92537.00
      -86548.00      -80717.00      -75044.00      -69372.00      -63835.00
      -58390.00      -53028.00      -47750.00      -42509.00      -37435.00
      -32398.00      -27400.00      -22573.00      -17903.00      -13386.00
      -8907.000      -4497.000      -224.0000       4025.000       8193.000
       12205.00       16135.00       19986.00       23770.00       27388.00
       30923.00       34437.00       38001.00       41588.00       45059.00
       48537.00       51876.00       55199.00       58498.00       61746.00
       65053.00       68253.00       71417.00       74509.00       77498.00
       80374.00       83161.00       85965.00       88718.00       91436.00
       94087.00       96585.00       98999.00       101368.0       103739.0
       106039.0       108189.0       110235.0       112222.0       114117.0
       115872.0       117601.0       119253.0       120824.0       122346.0
       123600.0       124695.0       125823.0       126789.0       127690.0
       128555.0       129292.0       129972.0       130481.0       130839.0
       131131.0       131270.0       131283.0       131156.0       130835.0
       130478.0       130000.0       129367.0       128591.0       127699.0
       126687.0       125497.0       124227.0       122775.0       121126.0
       119390.0       117698.0       115943.0       114043.0       112047.0
