     0.02500000      -12345.00      -12345.00   2.447790e+09      -12345.00
   0.0005380000       1859.976      -606.0195      -12345.00      -12345.00
      -12345.00      -12345.00      -12345.00      -12345.00      -12345.00
      -12345.00      -12345.00      -12345.00      -12345.00      -12345.00
      -12345.00      -12345.00      -12345.00      -12345.00      -12345.00
      -12345.00      -12345.00      -12345.00      -12345.00      -12345.00
      -12345.00       21.42000      -158.0112       77.00000       33.00000
      -42.72450       173.0647      -12345.00       22.00000      -12345.00
      -12345.00      -12345.00      -12345.00      -12345.00      -12345.00
      -12345.00      -12345.00      -12345.00      -12345.00      -12345.00
       7691.589       28.82545       202.4147       69.17519      -12345.00
      -12345.00      -12345.00       0.000000       0.000000      -12345.00
      -12345.00      -12345.00      -12345.00      -12345.00      -12345.00
      -12345.00      -12345.00      -12345.00      -12345.00      -12345.00
      2016       318        11        13         5
        19         6    -12345    -12345     74400
    -12345    -12345    -12345    -12345    -12345
         1    -12345    -12345    -12345    -12345
    -12345    -12345    -12345    -12345    -12345
    -12345    -12345    -12345    -12345    -12345
    -12345    -12345    -12345    -12345    -12345
         1    -12345    -12345    -12345    -12345
KIP     South Island, Ne
10      -12345  -12345  
-12345  -12345  -12345  
-12345  -12345  -12345  
-12345  -12345  -12345  
-12345  -12345  -12345  
-12345  -12345  BHZ     
IU      -12345  Streckei
[...]
      -79965.00      -77639.00      -75273.00      -72900.00      -70477.00
      -68009.00      -65574.00      -63085.00      -60647.00      -58214.00
      -55672.00      -53124.00      -50576.00      -48020.00      -45469.00
      -42949.00      -40416.00      -37781.00      -35146.00      -32583.00
      -29936.00      -27238.00      -24590.00      -21923.00      -19255.00
      -16576.00      -13849.00      -11093.00      -8380.000      -5629.000
      -2769.000       61.00000       2927.000       5791.000       8647.000
       11618.00       14558.00       17469.00       20400.00       23388.00
       26457.00       29522.00       32612.00       35670.00       38717.00
       41886.00       45057.00       48192.00       51384.00       54589.00
       57819.00       61100.00       64352.00       67548.00       70790.00
       74080.00       77356.00       80671.00       83965.00       87241.00
       90596.00       93944.00       97230.00       100556.0       103946.0
       107297.0       110594.0       113909.0       117271.0       120639.0
       123982.0       127315.0       130659.0       134010.0       137384.0
       140787.0       144190.0       147572.0       150939.0       154360.0
       157734.0       161077.0       164531.0       167967.0       171334.0
       174666.0       178059.0       181449.0       184723.0       188067.0
       191452.0       194805.0       198169.0       201492.0       204768.0
       208036.0       211291.0       214500.0       217761.0       221005.0
       224185.0       227380.0       230503.0       233665.0       236792.0
       239800.0       242873.0       245977.0       249081.0       252134.0
       255136.0       258146.0       261121.0       264026.0       266849.0
       269736.0       272667.0       275525.0       278345.0       281142.0
       283989.0       286817.0       289555.0       292266.0       294951.0
       297660.0       300321.0       302925.0       305619.0       308316.0
       310930.0       313519.0       316080.0       318644.0       321219.0
       323737.0       326245.0       328769.0       331318.0       333822.0
       336214.0       338641.0       341061.0       343404.0       345741.0
       348062.0       350365.0       352698.0       355036.0       357337.0
       359612.0       361849.0       364081.0       366292.0       368494.0
       370716.0       372879.0       375057.0       377295.0       379560.0
       381800.0       383946.0       386116.0       388335.0       390433.0
       392538.0       394704.0       396742.0       398808.0       400878.0
       402835.0       404834.0       406885.0       408941.0       410945.0
       412935.0       414930.0       416854.0       418729.0       420630.0
       422543.0       424422.0       426333.0       428227.0       430075.0
       431904.0       433696.0       435469.0       437184.0       438875.0
       440573.0       442292.0       444010.0       445639.0       447290.0
       448902.0       450402.0       451938.0       453431.0       454920.0
       456421.0       457866.0       459353.0       460791.0       462205.0
       463598.0       464896.0       466228.0       467527.0       468863.0
       470245.0       471480.0       472738.0       474012.0       475204.0
       476402.0       477513.0       478613.0       479765.0       480868.0
       481913.0       482929.0       483928.0       484889.0       485867.0
       486812.0       487773.0       488771.0       489607.0       490454.0
       491309.0       492112.0       492966.0       493732.0       494518.0
       495324.0       496000.0       496674.0       497360.0       498021.0
       498662.0       499265.0       499844.0       500452.0       501071.0
       501623.0       502132.0       502662.0       503230.0       503768.0
       504279.0       504802.0       505316.0       505787.0       506189.0
       506601.0       507006.0       507388.0       507857.0       508251.0
       508543.0       508978.0       509407.0       509706.0       510063.0
       510391.0       510687.0       511057.0       511363.0       511703.0
       512034.0       512224.0       512503.0       512771.0       512923.0
       513138.0       513350.0       513551.0       513792.0       513944.0
       514069.0       514263.0       514387.0       514521.0       514640.0
       514659.0       514728.0       514772.0       514818.0       514879.0
       514909.0       514948.0       514938.0       514931.0       514882.0
       514822.0       514820.0       514737.0       514629.0       514588.0
       514493.0       514350.0       514229.0       514077.0       513901.0
       513728.0       513533.0       513292.0       513015.0       512736.0
       512399.0       512032.0       511685.0       511274.0       510863.0
       510441.0       509996.0       509601.0       509134.0       508629.0
       508114.0       507599.0       507057.0       506423.0       505858.0
       505250.0       504563.0       503897.0       503208.0       502521.0
       501726.0       500962.0       500250.0       499425.0       498628.0
       497804.0       496962.0       496102.0       495207.0       494407.0
       493563.0       492623.0       491672.0       490728.0       489734.0
       488660.0       487636.0       486669.0       485633.0       484546.0
       483466.0       482329.0       481130.0       479911.0       478694.0
       477462.0       476200.0       474987.0       473732.0       472362.0
       471003.0       469659.0       468271.0       466855.0       465407.0
       463955.0       462536.0       461070.0       459546.0       458032.0
       456496.0       454936.0       453385.0       451772.0       450162.0
       448599.0       446973.0       445367.0       443712.0       442012.0
       440358.0       438630.0       436909.0       435203.0       433449.0
       431645.0       429837.0       428090.0       426303.0       424503.0
       422694.0       420912.0       419122.0       417242.0       415428.0
       413602.0       411764.0       409942.0       408057.0       406209.0
       404347.0       402506.0       400673.0       398731.0       396827.0
       394963.0       393043.0       391127.0       389212.0       387308.0
       385389.0       383399.0       381492.0       379629.0       377657.0
       375659.0       373678.0       371746.0       369803.0       367812.0
       365858.0       363884.0       361902.0       359940.0       357998.0
       356063.0       354118.0       352182.0       350194.0       348208.0
       346317.0       344386.0       342333.0       340384.0       338507.0
       336514.0       334541.0       332629.0       330677.0       328762.0
       326862.0       324851.0       322923.0       321058.0       319058.0
       317114.0       315221.0       313268.0       311334.0       309375.0
       307432.0       305538.0       303593.0       301685.0       299773.0
       297796.0       295866.0       293885.0       291883.0       289947.0
       288003.0       286049.0       284053.0       282072.0       280072.0
       277996.0       275955.0       273921.0       271839.0       269708.0
       267562.0       265415.0       263267.0       261153.0       258998.0
       256784.0       254582.0       252354.0       250076.0       247832.0
       245604.0       243300.0       240980.0       238644.0       236289.0
       233963.0       231547.0       229096.0       226758.0       224369.0
       221885.0       219405.0       216902.0       214395.0       211858.0
       209315.0       206755.0       204114.0       201559.0       199031.0
       196390.0       193753.0       191160.0       188560.0       185860.0
       183153.0       180565.0       177969.0       175298.0       172626.0
       169987.0       167287.0       164598.0       161992.0       159315.0
       156622.0       153973.0       151279.0       148601.0       145971.0
       143337.0       140671.0       137984.0       135340.0       132692.0
       130023.0       127408.0       124830.0       122211.0       119537.0
       116921.0       114291.0       111635.0       109035.0       106402.0
       103791.0       101199.0       98579.00       95972.00       93344.00
       90706.00       88117.00       85509.00       82902.00       80353.00
       77750.00       75123.00       72479.00       69893.00       67367.00
       64740.00       62177.00       59617.00       56984.00       54390.00
       51778.00       49159.00       46506.00       43869.00       41246.00
       38585.00       35989.00       33403.00       30763.00       28124.00
       25495.00       22834.00       20159.00       17545.00       14942.00
       12311.00       9665.000       6970.000       4233.000       1536.000
      -1089.000      -3781.000      -6530.000      -9247.000      -11958.00
      -14687.00      -17426.00      -20157.00      -22921.00      -25669.00
      -28408.00      -31229.00      -34026.00      -36776.00      -39559.00
      -42307.00      -45036.00      -47793.00      -50553.00      -53365.00
      -56186.00      -58929.00      -61699.00      -64508.00      -67251.00
      -69975.00      -72726.00      -75521.00      -78303.00      -80984.00
      -83717.00      -86536.00      -89296.00      -92048.00      -94793.00
      -97543.00      -100303.0      -103026.0      -105762.0      -108450.0
      -111159.0      -113895.0      -116563.0      -119268.0      -121960.0
      -124663.0      -127392.0      -130074.0      -132816.0      -135476.0
      -138071.0      -140753.0      -143389.0      -145985.0      -148571.0
      -151237.0      -153884.0      -156407.0      -159053.0      -161697.0
      -164224.0      -166787.0      -169524.0      -172263.0      -174877.0
      -177536.0      -180094.0      -182673.0      -185328.0      -187931.0
      -190606.0      -193207.0      -195804.0      -198483.0      -201119.0
      -203741.0      -206377.0      -209074.0      -211671.0      -214212.0
      -216903.0      -219587.0      -222238.0      -224823.0      -227345.0
      -229942.0      -232461.0      -235033.0      -237698.0      -240143.0
      -242619.0      -245197.0      -247691.0      -250178.0      -252614.0
      -255064.0      -257531.0      -259967.0      -262354.0      -264667.0
      -267028.0      -269376.0      -271685.0      -273954.0      -276202.0
      -278522.0      -280786.0      -282995.0      -285190.0      -287324.0
      -289448.0      -291582.0      -293726.0      -295853.0      -297950.0
      -300013.0      -302055.0      -304091.0      -306089.0      -308095.0
      -310085.0      -312032.0      -314015.0      -315944.0      -317811.0
      -319752.0      -321689.0      -323571.0      -325450.0      -327307.0
      -329134.0      -330965.0      -332796.0      -334635.0      -336467.0
      -338262.0      -340088.0      -341943.0      -343815.0      -345689.0
      -347552.0      -349462.0      -351326.0      -353104.0      -354931.0
      -356768.0      -358573.0      -360451.0      -362315.0      -364147.0
      -366037.0      -367857.0      -369646.0      -371444.0      -373229.0
      -375082.0      -376951.0      -378805.0      -380652.0      -382496.0
      -384338.0      -386216.0      -388098.0      -389886.0      -391721.0
      -393593.0      -395434.0      -397336.0      -399185.0      -401041.0
      -402962.0      -404806.0      -406672.0      -408544.0      -410396.0
      -412295.0      -414163.0      -416020.0      -417877.0      -419763.0
      -421677.0      -423514.0      -425325.0      -427208.0      -429097.0
      -430941.0      -432771.0      -434588.0      -436421.0      -438263.0
      -440052.0      -441836.0      -443629.0      -445375.0      -447113.0
      -448851.0      -450525.0      -452170.0      -453864.0      -455553.0
      -457153.0      -458725.0      -460300.0      -461833.0      -463400.0
      -464976.0      -466444.0      -467932.0      -469407.0      -470798.0
      -472263.0      -473668.0      -474993.0      -476352.0      -477637.0
      -478905.0      -480190.0      -481448.0      -482714.0      -483952.0
      -485107.0      -486253.0      -487398.0      -488476.0      -489548.0
      -490632.0      -491679.0      -492686.0      -493673.0      -494669.0
      -495644.0      -496519.0      -497322.0      -498173.0      -498987.0
      -499675.0      -500393.0      -501121.0      -501749.0      -502359.0
      -502953.0      -503503.0      -504064.0      -504654.0      -505171.0
      -505622.0      -506126.0      -506597.0      -506991.0      -507391.0
      -507765.0      -508106.0      -508428.0      -508741.0      -509003.0
      -509213.0      -509497.0      -509735.0      -509944.0      -510202.0
      -510378.0      -510564.0      -510742.0      -510886.0      -511017.0
      -511045.0      -511057.0      -511064.0      -511086.0      -511135.0
      -511076.0      -510975.0      -510936.0      -510842.0      -510690.0
      -510536.0      -510351.0      -510197.0      -510025.0      -509795.0
      -509553.0      -509274.0      -508967.0      -508654.0      -508306.0
      -507969.0      -507662.0      -507289.0      -506876.0      -506509.0
      -506130.0      -505722.0      -505326.0      -504851.0      -504369.0
      -503955.0      -503461.0      -502936.0      -502486.0      -502014.0
      -501497.0      -500987.0      -500481.0      -499980.0      -499473.0
      -498954.0      -498409.0      -497837.0      -497258.0      -496682.0
      -496146.0      -495623.0      -495071.0      -494540.0      -493999.0
      -493394.0      -492859.0      -492316.0      -491668.0      -491110.0
      -490552.0      -489938.0      -489404.0      -488835.0      -488234.0
      -487625.0      -486940.0      -486269.0      -485641.0      -485009.0
      -484301.0      -483560.0      -482852.0      -482139.0      -481429.0
      -480718.0      -479971.0      -479199.0      -478423.0      -477640.0
      -476860.0      -476078.0      -475276.0      -474424.0      -473566.0
      -472723.0      -471873.0      -471010.0      -470092.0      -469156.0
      -468253.0      -467336.0      -466333.0      -465305.0      -464286.0
      -463182.0      -462094.0      -461056.0      -459982.0      -458912.0
      -457788.0      -456631.0      -455479.0      -454291.0      -453098.0
      -451851.0      -450610.0      -449386.0      -448074.0      -446741.0
      -445397.0      -443994.0      -442543.0      -441041.0      -439505.0
      -437964.0      -436416.0      -434835.0      -433196.0      -431544.0
      -429913.0      -428185.0      -426346.0      -424558.0      -422784.0
      -420948.0      -419124.0      -417232.0      -415302.0      -413398.0
      -411415.0      -409428.0      -407429.0      -405358.0      -403267.0
      -401149.0      -399048.0      -396969.0      -394790.0      -392534.0
      -390357.0      -388172.0      -385926.0      -383702.0      -381491.0
      -379252.0      -376968.0      -374697.0      -372398.0      -370043.0
      -367657.0      -365226.0      -362811.0      -360410.0      -357969.0
      -355510.0      -353048.0      -350580.0      -348119.0      -345652.0
      -343191.0      -340737.0      -338262.0      -335739.0      -333178.0
      -330643.0      -328094.0      -325521.0      -322957.0      -320360.0
      -317763.0      -315178.0      -312577.0      -309948.0      -307306.0
      -304669.0      -301999.0      -299384.0      -296751.0      -294025.0
      -291367.0      -288657.0      -285914.0      -283230.0      -280468.0
      -277730.0      -274972.0      -272168.0      -269429.0      -266600.0
      -263760.0      -260983.0      -258133.0      -255269.0      -252362.0
      -249420.0      -246531.0      -243591.0      -240609.0      -237666.0
      -234732.0      -231735.0      -228677.0      -225668.0      -222676.0
      -219588.0      -216480.0      -213417.0      -210325.0      -207201.0
      -204099.0      -200961.0      -197748.0      -194535.0      -191332.0
      -188111.0      -184868.0      -181604.0      -178327.0      -174987.0
      -171632.0      -168338.0      -165002.0      -161606.0      -158223.0
      -154829.0      -151442.0      -148035.0      -144561.0      -141095.0
      -137618.0      -134110.0      -130617.0      -127101.0      -123606.0
      -120138.0      -116653.0      -113180.0      -109710.0      -106244.0
      -102782.0      -99287.00      -95788.00      -92291.00      -88782.00
      -85318.00      -81835.00      -78388.00      -75011.00      -71572.00
      -68164.00      -64767.00      -61320.00      -57915.00      -54475.00
      -50996.00      -47558.00      -44139.00      -40757.00      -37421.00
      -34086.00      -30755.00      -27412.00      -24055.00      -20703.00
      -17353.00      -14058.00      -10752.00      -7461.000      -4280.000
      -1049.000       2175.000       5369.000       8589.000       11805.00
       15051.00       18204.00       21359.00       24536.00       27654.00
       30795.00       33873.00       36955.00       40056.00       43116.00
       46200.00       49238.00       52247.00       55290.00       58244.00
       61173.00       64171.00       67114.00       70047.00       72977.00
       75850.00       78765.00       81644.00       84473.00       87312.00
       90114.00       92915.00       95730.00       98546.00       101315.0
       104011.0       106693.0       109340.0       111963.0       114627.0
       117250.0       119823.0       122382.0       124871.0       127355.0
       129873.0       132348.0       134795.0       137268.0       139737.0
       142138.0       144544.0       146986.0       149349.0       151722.0
       154134.0       156470.0       158833.0       161201.0       163521.0
       165921.0       168265.0       170528.0       172877.0       175227.0
       177560.0       179891.0       182215.0       184593.0       186942.0
       189275.0       191633.0       193985.0       196360.0       198741.0
       201145.0       203535.0       205898.0       208300.0       210634.0
       212985.0       215406.0       217787.0       220204.0       222551.0
       224927.0       227425.0       229811.0       232231.0       234715.0
       237122.0       239555.0       241974.0       244375.0       246798.0
       249209.0       251648.0       254087.0       256550.0       259039.0
