     0.02500000      -12345.00      -12345.00   1.017960e+09      -12345.00
   0.0005380000       1859.976      -606.0195      -12345.00      -12345.00
      -12345.00      -12345.00      -12345.00      -12345.00      -12345.00
      -12345.00      -12345.00      -12345.00      -12345.00      -12345.00
      -12345.00      -12345.00      -12345.00      -12345.00      -12345.00
      -12345.00      -12345.00      -12345.00      -12345.00      -12345.00
      -12345.00       21.42000      -158.0112       109.0000       1.000000
      -42.72450       173.0647      -12345.00       22.00000      -12345.00
      -12345.00      -12345.00      -12345.00      -12345.00      -12345.00
      -12345.00      -12345.00      -12345.00      -12345.00      -12345.00
       7691.589       28.82545       202.4147       69.17519      -12345.00
      -12345.00      -12345.00       0.000000       90.00000      -12345.00
      -12345.00      -12345.00      -12345.00      -12345.00      -12345.00
      -12345.00      -12345.00      -12345.00      -12345.00      -12345.00
      2016       318        11        13         5
        19         6    -12345    -12345     74400
    -12345    -12345    -12345    -12345    -12345
         1    -12345    -12345    -12345    -12345
    -12345    -12345    -12345    -12345    -12345
    -12345    -12345    -12345    -12345    -12345
    -12345    -12345    -12345    -12345    -12345
         1    -12345    -12345    -12345    -12345
KIP     South Island, Ne
60      -12345  -12345  
-12345  -12345  -12345  
-12345  -12345  -12345  
-12345  -12345  -12345  
-12345  -12345  -12345  
-12345  -12345  BH1     
IU      -12345  Metrozet
[...]
       29161.00       28065.00       26985.00       25894.00       24804.00
       23751.00       22617.00       21538.00       20487.00       19360.00
       18269.00       17177.00       16075.00       14982.00       13897.00
       12838.00       11720.00       10616.00       9557.000       8426.000
       7319.000       6245.000       5146.000       4071.000       2959.000
       1848.000       787.0000      -325.0000      -1429.000      -2494.000
      -3569.000      -4626.000      -5691.000      -6750.000      -7803.000
      -8886.000      -9952.000      -11027.00      -12111.00      -13160.00
      -14227.00      -15280.00      -16323.00      -17400.00      -18424.00
      -19446.00      -20496.00      -21510.00      -22563.00      -23589.00
      -24583.00      -25613.00      -26602.00      -27637.00      -28688.00
      -29689.00      -30719.00      -31730.00      -32765.00      -33818.00
      -34845.00      -35903.00      -36957.00      -38008.00      -39048.00
      -40071.00      -41114.00      -42150.00      -43182.00      -44234.00
      -45293.00      -46341.00      -47402.00      -48465.00      -49498.00
      -50551.00      -51609.00      -52654.00      -53696.00      -54742.00
      -55818.00      -56864.00      -57890.00      -58956.00      -60002.00
      -61017.00      -62060.00      -63106.00      -64136.00      -65184.00
      -66227.00      -67259.00      -68315.00      -69371.00      -70415.00
      -71459.00      -72492.00      -73549.00      -74610.00      -75639.00
      -76682.00      -77725.00      -78756.00      -79814.00      -80871.00
      -81911.00      -82942.00      -83961.00      -84998.00      -86044.00
      -87055.00      -88056.00      -89068.00      -90071.00      -91069.00
      -92062.00      -93051.00      -94046.00      -95024.00      -96008.00
      -96997.00      -97949.00      -98908.00      -99881.00      -100833.0
      -101794.0      -102756.0      -103692.0      -104609.0      -105519.0
      -106418.0      -107310.0      -108200.0      -109071.0      -109947.0
      -110834.0      -111696.0      -112565.0      -113427.0      -114267.0
      -115119.0      -115962.0      -116783.0      -117595.0      -118426.0
      -119249.0      -120033.0      -120826.0      -121609.0      -122389.0
      -123163.0      -123904.0      -124669.0      -125426.0      -126130.0
      -126836.0      -127563.0      -128266.0      -128968.0      -129671.0
      -130344.0      -131038.0      -131716.0      -132362.0      -133025.0
      -133651.0      -134288.0      -134972.0      -135596.0      -136204.0
      -136848.0      -137465.0      -138049.0      -138625.0      -139241.0
      -139841.0      -140397.0      -140993.0      -141581.0      -142167.0
      -142746.0      -143282.0      -143860.0      -144415.0      -144924.0
      -145501.0      -146064.0      -146580.0      -147144.0      -147700.0
      -148232.0      -148773.0      -149294.0      -149817.0      -150362.0
      -150869.0      -151376.0      -151917.0      -152429.0      -152931.0
      -153443.0      -153957.0      -154469.0      -154964.0      -155458.0
      -155966.0      -156443.0      -156899.0      -157375.0      -157847.0
      -158293.0      -158734.0      -159191.0      -159635.0      -160056.0
      -160487.0      -160921.0      -161323.0      -161722.0      -162131.0
      -162516.0      -162915.0      -163314.0      -163689.0      -164075.0
      -164467.0      -164827.0      -165199.0      -165552.0      -165888.0
      -166287.0      -166636.0      -166969.0      -167340.0      -167672.0
      -168004.0      -168344.0      -168682.0      -169027.0      -169359.0
      -169696.0      -170047.0      -170363.0      -170677.0      -171005.0
      -171300.0      -171605.0      -171928.0      -172230.0      -172506.0
      -172795.0      -173088.0      -173347.0      -173608.0      -173866.0
      -174135.0      -174393.0      -174615.0      -174876.0      -175114.0
      -175329.0      -175580.0      -175803.0      -176033.0      -176254.0
      -176472.0      -176720.0      -176921.0      -177102.0      -177270.0
      -177474.0      -177681.0      -177838.0      -178028.0      -178183.0
      -178328.0      -178498.0      -178623.0      -178745.0      -178870.0
      -178984.0      -179095.0      -179200.0      -179291.0      -179392.0
      -179493.0      -179548.0      -179618.0      -179695.0      -179736.0
      -179784.0      -179831.0      -179857.0      -179881.0      -179920.0
      -179940.0      -179931.0      -179918.0      -179905.0      -179902.0
      -179888.0      -179863.0      -179823.0      -179773.0      -179744.0
      -179682.0      -179622.0      -179583.0      -179494.0      -179421.0
      -179358.0      -179274.0      -179171.0      -179051.0      -178951.0
      -178845.0      -178724.0      -178578.0      -178463.0      -178350.0
      -178182.0      -178049.0      -177911.0      -177752.0      -177599.0
      -177425.0      -177262.0      -177121.0      -176966.0      -176781.0
      -176603.0      -176441.0      -176275.0      -176087.0      -175911.0
      -175746.0      -175555.0      -175345.0      -175157.0      -174975.0
      -174738.0      -174536.0      -174339.0      -174105.0      -173910.0
      -173689.0      -173453.0      -173200.0      -172968.0      -172771.0
      -172506.0      -172257.0      -172024.0      -171762.0      -171529.0
      -171295.0      -171026.0      -170742.0      -170493.0      -170242.0
      -169945.0      -169683.0      -169444.0      -169159.0      -168878.0
      -168614.0      -168333.0      -168036.0      -167762.0      -167498.0
      -167173.0      -166845.0      -166543.0      -166237.0      -165925.0
      -165575.0      -165230.0      -164911.0      -164566.0      -164211.0
      -163889.0      -163564.0      -163202.0      -162850.0      -162512.0
      -162156.0      -161787.0      -161408.0      -161030.0      -160658.0
      -160292.0      -159896.0      -159496.0      -159128.0      -158729.0
      -158319.0      -157923.0      -157521.0      -157108.0      -156678.0
      -156270.0      -155874.0      -155432.0      -154983.0      -154554.0
      -154125.0      -153693.0      -153250.0      -152798.0      -152348.0
      -151901.0      -151450.0      -150979.0      -150508.0      -150060.0
      -149589.0      -149109.0      -148644.0      -148175.0      -147693.0
      -147196.0      -146698.0      -146184.0      -145681.0      -145181.0
      -144648.0      -144115.0      -143572.0      -143055.0      -142529.0
      -141971.0      -141446.0      -140892.0      -140326.0      -139787.0
      -139217.0      -138635.0      -138065.0      -137510.0      -136946.0
      -136352.0      -135780.0      -135198.0      -134589.0      -133998.0
      -133385.0      -132775.0      -132174.0      -131522.0      -130875.0
      -130249.0      -129593.0      -128950.0      -128331.0      -127676.0
      -127011.0      -126386.0      -125767.0      -125109.0      -124455.0
      -123817.0      -123165.0      -122521.0      -121869.0      -121210.0
      -120553.0      -119893.0      -119252.0      -118616.0      -117956.0
      -117291.0      -116658.0      -116017.0      -115356.0      -114733.0
      -114097.0      -113450.0      -112806.0      -112143.0      -111516.0
      -110888.0      -110237.0      -109597.0      -108958.0      -108314.0
      -107661.0      -107024.0      -106401.0      -105758.0      -105130.0
      -104507.0      -103865.0      -103221.0      -102575.0      -101948.0
      -101314.0      -100659.0      -100035.0      -99409.00      -98758.00
      -98110.00      -97459.00      -96810.00      -96159.00      -95483.00
      -94808.00      -94136.00      -93460.00      -92797.00      -92127.00
      -91420.00      -90716.00      -90035.00      -89306.00      -88563.00
      -87858.00      -87123.00      -86384.00      -85680.00      -84941.00
      -84191.00      -83459.00      -82708.00      -81955.00      -81205.00
      -80443.00      -79677.00      -78903.00      -78095.00      -77292.00
      -76497.00      -75660.00      -74820.00      -73981.00      -73119.00
      -72249.00      -71361.00      -70481.00      -69601.00      -68683.00
      -67766.00      -66863.00      -65940.00      -65002.00      -64044.00
      -63091.00      -62149.00      -61162.00      -60184.00      -59205.00
      -58199.00      -57209.00      -56197.00      -55186.00      -54180.00
      -53142.00      -52111.00      -51078.00      -50031.00      -48989.00
      -47930.00      -46853.00      -45793.00      -44742.00      -43661.00
      -42576.00      -41494.00      -40389.00      -39296.00      -38204.00
      -37089.00      -35976.00      -34860.00      -33735.00      -32609.00
      -31469.00      -30306.00      -29154.00      -28010.00      -26847.00
      -25684.00      -24535.00      -23371.00      -22192.00      -21031.00
      -19868.00      -18689.00      -17518.00      -16344.00      -15150.00
      -13939.00      -12740.00      -11566.00      -10378.00      -9155.000
      -7919.000      -6687.000      -5458.000      -4212.000      -2938.000
      -1667.000      -403.0000       859.0000       2102.000       3385.000
       4677.000       5936.000       7221.000       8523.000       9841.000
       11160.00       12479.00       13830.00       15189.00       16543.00
       17893.00       19254.00       20630.00       21985.00       23332.00
       24683.00       26028.00       27381.00       28750.00       30102.00
       31438.00       32807.00       34189.00       35560.00       36930.00
       38309.00       39694.00       41074.00       42461.00       43841.00
       45221.00       46594.00       47948.00       49335.00       50711.00
       52055.00       53421.00       54775.00       56125.00       57493.00
       58852.00       60238.00       61616.00       62955.00       64317.00
       65695.00       67055.00       68422.00       69789.00       71162.00
       72562.00       73958.00       75343.00       76706.00       78098.00
       79524.00       80908.00       82301.00       83696.00       85069.00
       86466.00       87830.00       89202.00       90612.00       91991.00
       93383.00       94792.00       96196.00       97604.00       99019.00
       100416.0       101809.0       103218.0       104623.0       106050.0
       107448.0       108831.0       110246.0       111639.0       113028.0
       114419.0       115814.0       117210.0       118597.0       119975.0
       121342.0       122698.0       124061.0       125430.0       126775.0
       128138.0       129505.0       130834.0       132169.0       133510.0
       134826.0       136148.0       137469.0       138766.0       140073.0
       141360.0       142628.0       143919.0       145192.0       146450.0
       147705.0       148947.0       150191.0       151423.0       152641.0
       153866.0       155077.0       156271.0       157482.0       158671.0
       159838.0       161017.0       162167.0       163313.0       164459.0
       165573.0       166692.0       167812.0       168906.0       169999.0
       171082.0       172155.0       173248.0       174318.0       175373.0
       176446.0       177485.0       178543.0       179586.0       180585.0
       181636.0       182678.0       183692.0       184705.0       185705.0
       186701.0       187681.0       188655.0       189622.0       190569.0
       191517.0       192464.0       193397.0       194340.0       195259.0
       196168.0       197075.0       197958.0       198854.0       199735.0
       200595.0       201462.0       202327.0       203172.0       204002.0
       204818.0       205620.0       206423.0       207206.0       207976.0
       208741.0       209502.0       210260.0       211006.0       211744.0
       212477.0       213224.0       213962.0       214668.0       215377.0
       216098.0       216810.0       217505.0       218194.0       218877.0
       219553.0       220219.0       220854.0       221493.0       222140.0
       222743.0       223334.0       223942.0       224540.0       225133.0
       225729.0       226313.0       226881.0       227443.0       227992.0
       228531.0       229054.0       229579.0       230119.0       230639.0
       231152.0       231665.0       232164.0       232651.0       233132.0
       233608.0       234068.0       234519.0       234958.0       235381.0
       235786.0       236165.0       236556.0       236954.0       237314.0
       237662.0       238001.0       238340.0       238659.0       238941.0
       239249.0       239533.0       239783.0       240046.0       240275.0
       240483.0       240694.0       240864.0       241043.0       241218.0
       241339.0       241483.0       241624.0       241733.0       241843.0
       241934.0       241994.0       242039.0       242093.0       242124.0
       242104.0       242099.0       242097.0       242048.0       241988.0
       241920.0       241837.0       241754.0       241641.0       241512.0
       241374.0       241203.0       241033.0       240861.0       240662.0
       240448.0       240237.0       240002.0       239749.0       239489.0
       239205.0       238917.0       238619.0       238288.0       237949.0
       237606.0       237235.0       236850.0       236453.0       236049.0
       235626.0       235162.0       234716.0       234250.0       233738.0
       233258.0       232765.0       232227.0       231704.0       231171.0
       230585.0       229998.0       229424.0       228814.0       228197.0
       227580.0       226946.0       226297.0       225625.0       224953.0
       224263.0       223565.0       222861.0       222136.0       221408.0
       220644.0       219850.0       219086.0       218308.0       217493.0
       216698.0       215903.0       215079.0       214254.0       213412.0
       212554.0       211690.0       210798.0       209911.0       209024.0
       208114.0       207185.0       206255.0       205329.0       204392.0
       203440.0       202457.0       201472.0       200493.0       199479.0
       198465.0       197461.0       196417.0       195356.0       194312.0
       193242.0       192160.0       191090.0       189986.0       188884.0
       187790.0       186660.0       185524.0       184391.0       183253.0
       182100.0       180933.0       179773.0       178603.0       177410.0
       176223.0       175005.0       173783.0       172601.0       171360.0
       170104.0       168887.0       167619.0       166345.0       165083.0
       163798.0       162494.0       161178.0       159871.0       158527.0
       157178.0       155860.0       154502.0       153139.0       151799.0
       150426.0       149032.0       147652.0       146281.0       144880.0
       143460.0       142069.0       140675.0       139240.0       137810.0
       136383.0       134927.0       133490.0       132038.0       130560.0
       129099.0       127626.0       126147.0       124655.0       123154.0
       121664.0       120180.0       118684.0       117173.0       115669.0
       114177.0       112673.0       111164.0       109659.0       108138.0
       106624.0       105093.0       103537.0       102001.0       100466.0
       98925.00       97377.00       95819.00       94266.00       92734.00
       91185.00       89602.00       88039.00       86454.00       84855.00
       83267.00       81634.00       80012.00       78416.00       76789.00
       75149.00       73520.00       71874.00       70205.00       68548.00
       66886.00       65198.00       63522.00       61825.00       60111.00
       58401.00       56656.00       54922.00       53184.00       51405.00
       49647.00       47886.00       46102.00       44327.00       42544.00
       40753.00       38958.00       37173.00       35389.00       33575.00
       31780.00       30000.00       28196.00       26398.00       24610.00
       22830.00       21050.00       19252.00       17476.00       15730.00
       13960.00       12197.00       10450.00       8697.000       6972.000
       5236.000       3482.000       1765.000       54.00000      -1668.000
      -3382.000      -5086.000      -6780.000      -8487.000      -10179.00
      -11846.00      -13528.00      -15200.00      -16859.00      -18514.00
      -20167.00      -21802.00      -23410.00      -25055.00      -26682.00
      -28266.00      -29886.00      -31507.00      -33119.00      -34721.00
      -36307.00      -37910.00      -39492.00      -41074.00      -42668.00
      -44228.00      -45795.00      -47368.00      -48919.00      -50451.00
      -51985.00      -53520.00      -55037.00      -56545.00      -58039.00
      -59544.00      -61033.00      -62513.00      -64003.00      -65463.00
      -66916.00      -68383.00      -69862.00      -71310.00      -72732.00
      -74162.00      -75585.00      -76988.00      -78365.00      -79739.00
      -81105.00      -82446.00      -83763.00      -85072.00      -86387.00
      -87671.00      -88924.00      -90184.00      -91453.00      -92692.00
      -93904.00      -95113.00      -96297.00      -97471.00      -98653.00
      -99795.00      -100917.0      -102046.0      -103144.0      -104222.0
      -105282.0      -106329.0      -107363.0      -108379.0      -109382.0
      -110377.0      -111366.0      -112329.0      -113289.0      -114248.0
      -115181.0      -116107.0      -117030.0      -117938.0      -118819.0
      -119693.0      -120549.0      -121383.0      -122207.0      -123005.0
      -123794.0      -124578.0      -125344.0      -126095.0      -126832.0
      -127542.0      -128245.0      -128952.0      -129627.0      -130279.0
      -130928.0      -131554.0      -132148.0      -132736.0      -133341.0
      -133917.0      -134473.0      -135040.0      -135579.0      -136120.0
      -136666.0      -137192.0      -137715.0      -138221.0      -138714.0
      -139212.0      -139687.0      -140132.0      -140590.0      -141054.0
      -141472.0      -141883.0      -142293.0      -142660.0      -143044.0
      -143435.0      -143791.0      -144160.0      -144515.0      -144829.0
      -145143.0      -145473.0      -145765.0      -146023.0      -146307.0
      -146577.0      -146832.0      -147086.0      -147303.0      -147511.0
      -147724.0      -147927.0      -148108.0      -148276.0      -148440.0
