     0.02500000      -12345.00      -12345.00   2.447790e+09      -12345.00
   0.0005380000       1859.976      -606.0195      -12345.00      -12345.00
      -12345.00      -12345.00      -12345.00      -12345.00      -12345.00
      -12345.00      -12345.00      -12345.00      -12345.00      -12345.00
      -12345.00      -12345.00      -12345.00      -12345.00      -12345.00
      -12345.00      -12345.00      -12345.00      -12345.00      -12345.00
      -12345.00       21.42000      -158.0112       77.00000       33.00000
      -42.72450       173.0647      -12345.00       22.00000      -12345.00
      -12345.00      -12345.00      -12345.00      -12345.00      -12345.00
      -12345.00      -12345.00      -12345.00      -12345.00      -12345.00
       7691.589       28.82545       202.4147       69.17519      -12345.00
      -12345.00      -12345.00       90.00000       90.00000      -12345.00
      -12345.00      -12345.00      -12345.00      -12345.00      -12345.00
      -12345.00      -12345.00      -12345.00      -12345.00      -12345.00
      2016       318        11        13         5
        19         6    -12345    -12345     74400
    -12345    -12345    -12345    -12345    -12345
         1    -12345    -12345    -12345    -12345
    -12345    -12345    -12345    -12345    -12345
    -12345    -12345    -12345    -12345    -12345
    -12345    -12345    -12345    -12345    -12345
         1    -12345    -12345    -12345    -12345
KIP     South Island, Ne
10      -12345  -12345  
-12345  -12345  -12345  
-12345  -12345  -12345  
-12345  -12345  -12345  
-12345  -12345  -12345  
-12345  -12345  BH2     
IU      -12345  Streckei
[...]
       125260.0       126427.0       127549.0       128651.0       129705.0
       130782.0       131857.0       132860.0       133885.0       134816.0
       135758.0       136753.0       137650.0       138546.0       139442.0
       140316.0       141186.0       142063.0       142904.0       143726.0
       144585.0       145427.0       146236.0       147001.0       147752.0
       148514.0       149205.0       149831.0       150458.0       151069.0
       151643.0       152149.0       152601.0       153086.0       153563.0
       153975.0       154433.0       154901.0       155355.0       155806.0
       156211.0       156625.0       157082.0       157466.0       157742.0
       158133.0       158480.0       158731.0       159054.0       159287.0
       159507.0       159722.0       159834.0       159971.0       160090.0
       160199.0       160345.0       160436.0       160559.0       160690.0
       160753.0       160846.0       160896.0       160980.0       161113.0
       161123.0       161157.0       161205.0       161248.0       161319.0
       161232.0       161127.0       161121.0       161076.0       160955.0
       160823.0       160741.0       160701.0       160600.0       160445.0
       160378.0       160290.0       160126.0       159988.0       159859.0
       159699.0       159490.0       159268.0       159012.0       158764.0
       158530.0       158204.0       157888.0       157538.0       157181.0
       156831.0       156407.0       156065.0       155614.0       155146.0
       154761.0       154247.0       153786.0       153326.0       152852.0
       152407.0       151864.0       151280.0       150695.0       150136.0
       149538.0       148838.0       148164.0       147534.0       146835.0
       146075.0       145283.0       144484.0       143750.0       142952.0
       142155.0       141391.0       140563.0       139826.0       139064.0
       138191.0       137343.0       136500.0       135572.0       134681.0
       133795.0       132797.0       131905.0       130979.0       129972.0
       129055.0       128015.0       126990.0       125984.0       124916.0
       123919.0       122766.0       121679.0       120708.0       119596.0
       118526.0       117435.0       116347.0       115327.0       114226.0
       113127.0       112027.0       110899.0       109811.0       108677.0
       107521.0       106441.0       105307.0       104109.0       102954.0
       101724.0       100522.0       99369.00       98149.00       96996.00
       95848.00       94716.00       93605.00       92472.00       91384.00
       90240.00       89107.00       88007.00       86797.00       85654.00
       84587.00       83465.00       82383.00       81295.00       80194.00
       79143.00       78080.00       76985.00       75960.00       74906.00
       73826.00       72894.00       71884.00       70880.00       69966.00
       68949.00       68012.00       67106.00       66133.00       65214.00
       64250.00       63289.00       62422.00       61465.00       60552.00
       59760.00       58933.00       58132.00       57269.00       56464.00
       55728.00       54885.00       54164.00       53462.00       52689.00
       52036.00       51365.00       50698.00       50014.00       49268.00
       48617.00       47879.00       47177.00       46564.00       45830.00
       45236.00       44714.00       44060.00       43408.00       42811.00
       42258.00       41621.00       40980.00       40447.00       39862.00
       39344.00       38812.00       38221.00       37747.00       37261.00
       36765.00       36246.00       35730.00       35262.00       34781.00
       34299.00       33835.00       33439.00       33063.00       32644.00
       32248.00       31939.00       31623.00       31257.00       30905.00
       30578.00       30278.00       29977.00       29651.00       29371.00
       29167.00       28925.00       28634.00       28378.00       28134.00
       27847.00       27588.00       27419.00       27209.00       26988.00
       26854.00       26690.00       26552.00       26486.00       26351.00
       26223.00       26146.00       26091.00       26047.00       25993.00
       26007.00       25966.00       25951.00       25989.00       25944.00
       25996.00       26016.00       25961.00       26018.00       26050.00
       26081.00       26222.00       26283.00       26381.00       26578.00
       26751.00       26989.00       27195.00       27465.00       27783.00
       28055.00       28448.00       28875.00       29280.00       29760.00
       30229.00       30684.00       31203.00       31731.00       32227.00
       32758.00       33384.00       33969.00       34564.00       35268.00
       35919.00       36643.00       37425.00       38122.00       38944.00
       39794.00       40571.00       41430.00       42302.00       43180.00
       44093.00       45028.00       46001.00       46977.00       47957.00
       48969.00       50030.00       51090.00       52117.00       53226.00
       54399.00       55535.00       56706.00       57943.00       59125.00
       60304.00       61564.00       62766.00       63925.00       65141.00
       66423.00       67726.00       69019.00       70337.00       71729.00
       73080.00       74358.00       75726.00       77107.00       78488.00
       79915.00       81361.00       82791.00       84227.00       85706.00
       87163.00       88607.00       90038.00       91474.00       92956.00
       94445.00       95885.00       97387.00       98944.00       100477.0
       102030.0       103553.0       105122.0       106656.0       108181.0
       109808.0       111320.0       112863.0       114492.0       116015.0
       117581.0       119261.0       120813.0       122351.0       124042.0
       125629.0       127234.0       128902.0       130511.0       132190.0
       133878.0       135497.0       137160.0       138859.0       140486.0
       142177.0       143841.0       145464.0       147176.0       148829.0
       150437.0       152069.0       153688.0       155319.0       156963.0
       158570.0       160163.0       161785.0       163442.0       165068.0
       166631.0       168187.0       169787.0       171352.0       172849.0
       174423.0       175979.0       177473.0       179021.0       180561.0
       182053.0       183548.0       185062.0       186560.0       188015.0
       189476.0       190951.0       192397.0       193828.0       195210.0
       196597.0       198006.0       199337.0       200735.0       202096.0
       203410.0       204868.0       206246.0       207549.0       208884.0
       210219.0       211589.0       212905.0       214170.0       215517.0
       216834.0       218095.0       219338.0       220551.0       221785.0
       222977.0       224161.0       225318.0       226479.0       227634.0
       228670.0       229685.0       230724.0       231752.0       232724.0
       233685.0       234662.0       235644.0       236623.0       237565.0
       238505.0       239434.0       240349.0       241201.0       241979.0
       242802.0       243632.0       244365.0       245079.0       245869.0
       246611.0       247261.0       247928.0       248614.0       249239.0
       249824.0       250443.0       251041.0       251611.0       252132.0
       252655.0       253206.0       253685.0       254192.0       254695.0
       255098.0       255551.0       255984.0       256315.0       256699.0
       257021.0       257278.0       257517.0       257747.0       258062.0
       258316.0       258506.0       258767.0       258977.0       259079.0
       259234.0       259338.0       259407.0       259494.0       259509.0
       259558.0       259596.0       259585.0       259554.0       259504.0
       259429.0       259347.0       259208.0       259014.0       258865.0
       258685.0       258480.0       258250.0       258036.0       257804.0
       257491.0       257181.0       256822.0       256466.0       256079.0
       255675.0       255283.0       254836.0       254415.0       253939.0
       253433.0       252991.0       252454.0       251853.0       251323.0
       250719.0       250051.0       249435.0       248809.0       248171.0
       247495.0       246739.0       246019.0       245246.0       244392.0
       243631.0       242808.0       241928.0       241069.0       240177.0
       239283.0       238295.0       237250.0       236261.0       235252.0
       234201.0       233176.0       232132.0       231059.0       230007.0
       228929.0       227846.0       226719.0       225545.0       224399.0
       223170.0       221883.0       220609.0       219325.0       218003.0
       216623.0       215296.0       213962.0       212521.0       211083.0
       209621.0       208122.0       206641.0       205107.0       203561.0
       202009.0       200408.0       198791.0       197137.0       195485.0
       193885.0       192211.0       190482.0       188855.0       187186.0
       185441.0       183690.0       181929.0       180198.0       178448.0
       176668.0       174866.0       173062.0       171242.0       169352.0
       167466.0       165626.0       163681.0       161666.0       159713.0
       157778.0       155767.0       153682.0       151641.0       149626.0
       147530.0       145409.0       143307.0       141137.0       138979.0
       136825.0       134560.0       132312.0       130055.0       127721.0
       125385.0       123007.0       120655.0       118308.0       115838.0
       113398.0       110985.0       108481.0       105933.0       103380.0
       100786.0       98106.00       95408.00       92715.00       89985.00
       87240.00       84438.00       81593.00       78760.00       75858.00
       72930.00       69999.00       66975.00       63984.00       61015.00
       58015.00       54983.00       51831.00       48718.00       45671.00
       42513.00       39391.00       36264.00       33017.00       29904.00
       26742.00       23453.00       20324.00       17121.00       13813.00
       10561.00       7283.000       3978.000       660.0000      -2673.000
      -6032.000      -9361.000      -12693.00      -16054.00      -19369.00
      -22698.00      -26055.00      -29408.00      -32828.00      -36287.00
      -39646.00      -42992.00      -46449.00      -49849.00      -53197.00
      -56631.00      -60005.00      -63376.00      -66835.00      -70247.00
      -73651.00      -77085.00      -80569.00      -84003.00      -87448.00
      -90967.00      -94347.00      -97730.00      -101171.0      -104564.0
      -108004.0      -111491.0      -114892.0      -118258.0      -121729.0
      -125145.0      -128440.0      -131799.0      -135221.0      -138576.0
      -141913.0      -145265.0      -148638.0      -151996.0      -155304.0
      -158682.0      -162014.0      -165286.0      -168702.0      -172063.0
      -175337.0      -178698.0      -182010.0      -185263.0      -188541.0
      -191931.0      -195288.0      -198461.0      -201739.0      -205077.0
      -208296.0      -211495.0      -214723.0      -217954.0      -221121.0
      -224268.0      -227416.0      -230519.0      -233607.0      -236725.0
      -239802.0      -242819.0      -245876.0      -248944.0      -251913.0
      -254832.0      -257910.0      -260923.0      -263790.0      -266799.0
      -269776.0      -272618.0      -275491.0      -278436.0      -281303.0
      -284125.0      -286977.0      -289774.0      -292625.0      -295428.0
      -298101.0      -300851.0      -303679.0      -306381.0      -309027.0
      -311749.0      -314407.0      -317050.0      -319656.0      -322168.0
      -324743.0      -327215.0      -329632.0      -332155.0      -334570.0
      -336928.0      -339290.0      -341598.0      -343901.0      -346163.0
      -348385.0      -350566.0      -352732.0      -354886.0      -356946.0
      -358868.0      -360792.0      -362877.0      -364797.0      -366568.0
      -368513.0      -370377.0      -372156.0      -374009.0      -375705.0
      -377316.0      -379055.0      -380626.0      -382115.0      -383721.0
      -385146.0      -386621.0      -388114.0      -389360.0      -390710.0
      -392098.0      -393275.0      -394414.0      -395654.0      -396846.0
      -397821.0      -398849.0      -400002.0      -400996.0      -401902.0
      -402840.0      -403744.0      -404568.0      -405379.0      -406211.0
      -406955.0      -407719.0      -408529.0      -409177.0      -409776.0
      -410427.0      -411039.0      -411559.0      -412080.0      -412651.0
      -413013.0      -413352.0      -413788.0      -414025.0      -414332.0
      -414677.0      -414876.0      -415187.0      -415498.0      -415741.0
      -416018.0      -416272.0      -416498.0      -416672.0      -416771.0
      -416867.0      -416914.0      -416897.0      -416911.0      -416876.0
      -416821.0      -416769.0      -416606.0      -416493.0      -416370.0
      -416121.0      -415962.0      -415791.0      -415510.0      -415235.0
      -414952.0      -414615.0      -414238.0      -413889.0      -413475.0
      -413008.0      -412540.0      -412011.0      -411534.0      -411026.0
      -410396.0      -409816.0      -409265.0      -408668.0      -408024.0
      -407372.0      -406715.0      -405951.0      -405150.0      -404359.0
      -403494.0      -402571.0      -401648.0      -400705.0      -399693.0
      -398692.0      -397654.0      -396476.0      -395322.0      -394115.0
      -392830.0      -391638.0      -390331.0      -388973.0      -387635.0
      -386153.0      -384720.0      -383261.0      -381702.0      -380127.0
      -378463.0      -376783.0      -375130.0      -373423.0      -371594.0
      -369766.0      -367895.0      -365982.0      -364127.0      -362122.0
      -360068.0      -358082.0      -356007.0      -353840.0      -351646.0
      -349402.0      -347188.0      -344969.0      -342655.0      -340380.0
      -338043.0      -335652.0      -333224.0      -330703.0      -328237.0
      -325667.0      -323083.0      -320554.0      -317830.0      -315142.0
      -312496.0      -309742.0      -306971.0      -304160.0      -301379.0
      -298532.0      -295657.0      -292803.0      -289870.0      -286972.0
      -284025.0      -281049.0      -278051.0      -275024.0      -272096.0
      -269106.0      -266066.0      -263140.0      -260200.0      -257169.0
      -254139.0      -251172.0      -248176.0      -245116.0      -242125.0
      -239132.0      -236042.0      -232969.0      -229922.0      -226845.0
      -223804.0      -220760.0      -217671.0      -214569.0      -211475.0
      -208397.0      -205252.0      -202112.0      -198997.0      -195901.0
      -192861.0      -189749.0      -186666.0      -183596.0      -180499.0
      -177416.0      -174233.0      -171135.0      -168062.0      -164885.0
      -161754.0      -158596.0      -155434.0      -152294.0      -149048.0
      -145871.0      -142709.0      -139407.0      -136215.0      -133002.0
      -129765.0      -126545.0      -123251.0      -120100.0      -116858.0
      -113528.0      -110330.0      -107052.0      -103758.0      -100538.0
      -97231.00      -93904.00      -90673.00      -87351.00      -83966.00
      -80654.00      -77331.00      -74008.00      -70631.00      -67245.00
      -63945.00      -60579.00      -57120.00      -53688.00      -50308.00
      -46956.00      -43555.00      -40073.00      -36650.00      -33268.00
      -29819.00      -26355.00      -22903.00      -19478.00      -16092.00
      -12672.00      -9174.000      -5635.000      -2102.000       1368.000
       4877.000       8476.000       11950.00       15378.00       18888.00
       22393.00       25942.00       29488.00       32972.00       36558.00
       40199.00       43679.00       47162.00       50693.00       54110.00
       57551.00       61022.00       64458.00       67874.00       71237.00
       74659.00       78073.00       81424.00       84789.00       88100.00
       91347.00       94577.00       97805.00       100938.0       104062.0
       107221.0       110345.0       113494.0       116574.0       119593.0
       122578.0       125547.0       128525.0       131379.0       134183.0
       137069.0       139910.0       142600.0       145272.0       147960.0
       150593.0       153220.0       155787.0       158242.0       160725.0
       163191.0       165575.0       167931.0       170222.0       172519.0
       174806.0       177025.0       179186.0       181329.0       183419.0
       185378.0       187346.0       189308.0       191185.0       193023.0
       194786.0       196535.0       198264.0       199846.0       201406.0
       202992.0       204496.0       205918.0       207289.0       208649.0
       209954.0       211144.0       212298.0       213472.0       214554.0
       215615.0       216704.0       217637.0       218541.0       219449.0
       220307.0       221176.0       221945.0       222655.0       223356.0
       224025.0       224619.0       225213.0       225806.0       226209.0
       226572.0       226959.0       227322.0       227637.0       227811.0
       228046.0       228305.0       228374.0       228462.0       228537.0
       228489.0       228555.0       228617.0       228542.0       228481.0
       228424.0       228269.0       228006.0       227769.0       227543.0
       227210.0       226898.0       226568.0       226143.0       225770.0
       225344.0       224819.0       224373.0       223902.0       223370.0
       222889.0       222417.0       221971.0       221458.0       220866.0
       220339.0       219782.0       219187.0       218565.0       217875.0
       217194.0       216498.0       215777.0       214988.0       214158.0
       213419.0       212691.0       211876.0       211018.0       210183.0
       209361.0       208480.0       207585.0       206771.0       205925.0
       205019.0       204117.0       203180.0       202210.0       201220.0
       200213.0       199118.0       197976.0       196887.0       195707.0
       194455.0       193298.0       192088.0       190829.0       189550.0
       188213.0       186971.0       185667.0       184305.0       182955.0
       181558.0       180192.0       178726.0       177245.0       175774.0
       174196.0       172671.0       171108.0       169472.0       167837.0
