     0.05000000      -12345.00      -12345.00   3.434290e+09      -12345.00
   0.0005380000       1859.951      -606.0195      -12345.00      -12345.00
      -12345.00      -12345.00      -12345.00      -12345.00      -12345.00
      -12345.00      -12345.00      -12345.00      -12345.00      -12345.00
      -12345.00      -12345.00      -12345.00      -12345.00      -12345.00
      -12345.00      -12345.00      -12345.00      -12345.00      -12345.00
      -12345.00       21.42000      -158.0112       77.00000       33.00000
      -42.72450       173.0647      -12345.00       22.00000      -12345.00
      -12345.00      -12345.00      -12345.00      -12345.00      -12345.00
      -12345.00      -12345.00      -12345.00      -12345.00      -12345.00
       7691.589       28.82545       202.4147       69.17519      -12345.00
      -12345.00      -12345.00       87.00000       90.00000      -12345.00
      -12345.00      -12345.00      -12345.00      -12345.00      -12345.00
      -12345.00      -12345.00      -12345.00      -12345.00      -12345.00
      2016       318        11        13         5
        19         6    -12345    -12345     37200
    -12345    -12345    -12345    -12345    -12345
         1    -12345    -12345    -12345    -12345
    -12345    -12345    -12345    -12345    -12345
    -12345    -12345    -12345    -12345    -12345
    -12345    -12345    -12345    -12345    -12345
         1    -12345    -12345    -12345    -12345
KIP     South Island, Ne
00      -12345  -12345  
-12345  -12345  -12345  
-12345  -12345  -12345  
-12345  -12345  -12345  
-12345  -12345  -12345  
-12345  -12345  BH2     
IU      -12345  Streckei
[...]
       500868.0       502457.0       503876.0       505200.0       506464.0
       507519.0       508607.0       509536.0       510424.0       511279.0
       511913.0       512505.0       512948.0       513292.0       513532.0
       513584.0       513453.0       513181.0       512753.0       512157.0
       511356.0       510479.0       509637.0       508588.0       507389.0
       505940.0       504398.0       502916.0       501180.0       499329.0
       497344.0       495142.0       492972.0       490673.0       488285.0
       485834.0       483152.0       480430.0       477544.0       474478.0
       471335.0       468057.0       464658.0       461238.0       457718.0
       454110.0       450365.0       446548.0       442837.0       438928.0
       434943.0       430834.0       426709.0       422634.0       418473.0
       414382.0       410121.0       405879.0       401573.0       397154.0
       392822.0       388390.0       383967.0       379582.0       375201.0
       370792.0       366394.0       361936.0       357501.0       353129.0
       348762.0       344488.0       340092.0       335669.0       331243.0
       326746.0       322299.0       317786.0       313194.0       308661.0
       304051.0       299443.0       294805.0       290037.0       285388.0
       280735.0       275988.0       271196.0       266248.0       261176.0
       256061.0       250863.0       245641.0       240330.0       234996.0
       229659.0       224181.0       218674.0       213114.0       207442.0
       201704.0       195938.0       190143.0       184388.0       178587.0
       172664.0       166733.0       160763.0       154683.0       148538.0
       142368.0       136213.0       130046.0       123817.0       117530.0
       111265.0       104985.0       98625.00       92346.00       85993.00
       79623.00       73302.00       66881.00       60570.00       54238.00
       47835.00       41486.00       35124.00       28839.00       22579.00
       16263.00       10014.00       3900.000      -2217.000      -8348.000
      -14402.00      -20462.00      -26470.00      -32388.00      -38286.00
      -44160.00      -50001.00      -55814.00      -61612.00      -67326.00
      -73013.00      -78650.00      -84216.00      -89762.00      -95197.00
      -100544.0      -105820.0      -110984.0      -116041.0      -121096.0
      -126184.0      -131240.0      -136197.0      -141111.0      -146005.0
      -150840.0      -155634.0      -160342.0      -165015.0      -169714.0
      -174437.0      -179082.0      -183664.0      -188141.0      -192464.0
      -196838.0      -201078.0      -205262.0      -209488.0      -213515.0
      -217531.0      -221461.0      -225258.0      -229027.0      -232724.0
      -236370.0      -239933.0      -243443.0      -246865.0      -250194.0
      -253371.0      -256495.0      -259648.0      -262725.0      -265694.0
      -268547.0      -271261.0      -273844.0      -276447.0      -279002.0
      -281443.0      -283814.0      -286034.0      -288131.0      -290225.0
      -292289.0      -294220.0      -296090.0      -297883.0      -299528.0
      -301150.0      -302583.0      -303899.0      -305269.0      -306442.0
      -307611.0      -308697.0      -309494.0      -310339.0      -311116.0
      -311817.0      -312483.0      -312898.0      -313408.0      -313924.0
      -314339.0      -314863.0      -315258.0      -315610.0      -316016.0
      -316383.0      -316765.0      -317234.0      -317733.0      -318217.0
      -318804.0      -319434.0      -320078.0      -320694.0      -321315.0
      -322066.0      -322829.0      -323595.0      -324360.0      -325246.0
      -326193.0      -327137.0      -328119.0      -329109.0      -330179.0
      -331159.0      -332114.0      -333135.0      -334224.0      -335308.0
      -336306.0      -337396.0      -338466.0      -339433.0      -340396.0
      -341303.0      -342243.0      -343136.0      -344070.0      -345103.0
      -346168.0      -347384.0      -348465.0      -349658.0      -350937.0
      -352079.0      -353298.0      -354476.0      -355750.0      -356959.0
      -358087.0      -359255.0      -360320.0      -361412.0      -362460.0
      -363452.0      -364340.0      -365103.0      -365825.0      -366499.0
      -367114.0      -367662.0      -368158.0      -368616.0      -369110.0
      -369514.0      -369826.0      -370056.0      -370231.0      -370299.0
      -370127.0      -370009.0      -369806.0      -369372.0      -368898.0
      -368326.0      -367754.0      -367106.0      -366396.0      -365688.0
      -364676.0      -363680.0      -362659.0      -361396.0      -360226.0
      -358827.0      -357231.0      -355666.0      -354012.0      -352282.0
      -350428.0      -348445.0      -346288.0      -344072.0      -341736.0
      -339206.0      -336639.0      -333899.0      -331045.0      -328141.0
      -325054.0      -321888.0      -318589.0      -315211.0      -311858.0
      -308449.0      -304972.0      -301333.0      -297551.0      -293656.0
      -289675.0      -285609.0      -281437.0      -277272.0      -272982.0
      -268608.0      -264185.0      -259602.0      -254963.0      -250200.0
      -245370.0      -240483.0      -235535.0      -230553.0      -225509.0
      -220434.0      -215227.0      -210033.0      -204713.0      -199263.0
      -193782.0      -188233.0      -182718.0      -177102.0      -171541.0
      -165916.0      -160265.0      -154761.0      -149188.0      -143618.0
      -137936.0      -132179.0      -126469.0      -120769.0      -115155.0
      -109668.0      -104187.0      -98651.00      -93195.00      -87765.00
      -82364.00      -76976.00      -71696.00      -66482.00      -61291.00
      -56138.00      -50981.00      -45945.00      -40900.00      -35900.00
      -30940.00      -26083.00      -21245.00      -16359.00      -11567.00
      -6682.000      -1868.000       2789.000       7401.000       11933.00
       16504.00       21013.00       25491.00       30092.00       34582.00
       39051.00       43481.00       47837.00       52207.00       56518.00
       60927.00       65308.00       69543.00       73769.00       77919.00
       81924.00       85970.00       89972.00       93818.00       97584.00
       101271.0       104928.0       108535.0       112202.0       115765.0
       119213.0       122622.0       125834.0       129016.0       132092.0
       135087.0       138069.0       140973.0       143884.0       146694.0
       149363.0       151879.0       154220.0       156387.0       158381.0
       160298.0       162252.0       164185.0       166059.0       167848.0
       169515.0       171113.0       172592.0       173898.0       175036.0
       176101.0       177180.0       178256.0       179206.0       180191.0
       181122.0       181994.0       182839.0       183472.0       184081.0
       184580.0       185093.0       185631.0       186078.0       186506.0
       186852.0       187056.0       187157.0       187199.0       187064.0
       186866.0       186579.0       186211.0       185735.0       185236.0
       184745.0       184015.0       183226.0       182269.0       181208.0
       180038.0       178644.0       177305.0       175889.0       174502.0
       173073.0       171410.0       169736.0       167912.0       166064.0
       164161.0       162064.0       159967.0       157707.0       155480.0
       153225.0       150915.0       148651.0       146252.0       143853.0
       141390.0       138917.0       136308.0       133609.0       130965.0
       128335.0       125824.0       123299.0       120762.0       118135.0
       115536.0       113074.0       110558.0       108106.0       105660.0
       103249.0       100974.0       98690.00       96497.00       94316.00
       92111.00       89939.00       87809.00       85906.00       83999.00
       82112.00       80366.00       78641.00       77101.00       75521.00
       73861.00       72228.00       70661.00       69257.00       67822.00
       66383.00       64957.00       63615.00       62333.00       61087.00
       59912.00       58723.00       57547.00       56439.00       55460.00
       54548.00       53741.00       52932.00       52127.00       51403.00
       50763.00       50176.00       49497.00       48882.00       48370.00
       47901.00       47556.00       47267.00       47013.00       46859.00
       46776.00       46720.00       46714.00       46717.00       46703.00
       46801.00       46987.00       47299.00       47779.00       48364.00
       49102.00       50050.00       51160.00       52349.00       53605.00
       54944.00       56414.00       58030.00       59804.00       61709.00
       63750.00       65891.00       68110.00       70498.00       72962.00
       75557.00       78266.00       81039.00       84047.00       87122.00
       90266.00       93410.00       96546.00       99900.00       103365.0
       106899.0       110410.0       114050.0       117824.0       121631.0
       125514.0       129322.0       133202.0       137128.0       141158.0
       145314.0       149408.0       153589.0       157790.0       161986.0
       166262.0       170548.0       174895.0       179274.0       183741.0
       188255.0       192761.0       197337.0       201861.0       206457.0
       210982.0       215446.0       219977.0       224408.0       228947.0
       233423.0       237794.0       242159.0       246476.0       250826.0
       255095.0       259362.0       263572.0       267750.0       271874.0
       275879.0       279872.0       283792.0       287798.0       291758.0
       295642.0       299528.0       303371.0       307181.0       310842.0
       314426.0       317955.0       321360.0       324576.0       327677.0
       330709.0       333705.0       336685.0       339612.0       342397.0
       345002.0       347536.0       349989.0       352364.0       354607.0
       356755.0       358859.0       360839.0       362744.0       364616.0
       366382.0       368034.0       369573.0       370911.0       372142.0
       373405.0       374592.0       375620.0       376533.0       377309.0
       378015.0       378645.0       379146.0       379533.0       379754.0
       379894.0       379964.0       379953.0       379779.0       379446.0
       379063.0       378572.0       378016.0       377365.0       376584.0
       375673.0       374641.0       373610.0       372434.0       371041.0
       369585.0       368021.0       366375.0       364546.0       362523.0
       360484.0       358387.0       356243.0       354045.0       351700.0
       349180.0       346510.0       343677.0       340792.0       337803.0
       334595.0       331299.0       327917.0       324377.0       320716.0
       317004.0       313226.0       309407.0       305455.0       301399.0
       297374.0       293192.0       288899.0       284514.0       279933.0
       275299.0       270510.0       265629.0       260665.0       255545.0
       250326.0       244933.0       239365.0       233656.0       227864.0
       221924.0       215847.0       209595.0       203061.0       196355.0
       189547.0       182499.0       175301.0       167900.0       160322.0
       152771.0       144948.0       137014.0       129060.0       120949.0
       112788.0       104559.0       96214.00       87746.00       79177.00
       70497.00       61795.00       53078.00       44365.00       35474.00
       26514.00       17618.00       8618.000      -324.0000      -9330.000
      -18439.00      -27551.00      -36811.00      -46000.00      -55077.00
      -64307.00      -73530.00      -82722.00      -91850.00      -100943.0
      -110083.0      -119166.0      -128301.0      -137398.0      -146522.0
      -155725.0      -164775.0      -173874.0      -183032.0      -192092.0
      -201126.0      -210091.0      -219001.0      -227794.0      -236513.0
      -245185.0      -253779.0      -262303.0      -270759.0      -279263.0
      -287619.0      -295925.0      -304202.0      -312351.0      -320516.0
      -328508.0      -336501.0      -344431.0      -352210.0      -359951.0
      -367419.0      -374807.0      -382094.0      -389172.0      -396165.0
      -402938.0      -409640.0      -416065.0      -422216.0      -428318.0
      -434222.0      -440085.0      -445731.0      -451118.0      -456329.0
      -461348.0      -466212.0      -470835.0      -475273.0      -479514.0
      -483520.0      -487428.0      -491157.0      -494657.0      -498022.0
      -501232.0      -504413.0      -507338.0      -510067.0      -512749.0
      -515125.0      -517284.0      -519294.0      -521229.0      -523194.0
      -525121.0      -526972.0      -528606.0      -529991.0      -531255.0
      -532392.0      -533393.0      -534256.0      -535017.0      -535704.0
      -536193.0      -536548.0      -536785.0      -536811.0      -536750.0
      -536558.0      -536271.0      -535945.0      -535415.0      -534670.0
      -533721.0      -532548.0      -531231.0      -529742.0      -527942.0
      -525919.0      -523820.0      -521438.0      -518843.0      -516101.0
      -512999.0      -509808.0      -506352.0      -502609.0      -498765.0
      -494645.0      -490370.0      -485781.0      -481012.0      -476162.0
      -471128.0      -465859.0      -460321.0      -454657.0      -448746.0
      -442677.0      -436444.0      -430020.0      -423499.0      -416835.0
      -410028.0      -403079.0      -396101.0      -389126.0      -382149.0
      -375115.0      -367993.0      -360889.0      -353678.0      -346363.0
      -339106.0      -331750.0      -324349.0      -316874.0      -309321.0
      -301877.0      -294438.0      -286956.0      -279380.0      -271787.0
      -264138.0      -256389.0      -248607.0      -240697.0      -232765.0
      -224775.0      -216753.0      -208724.0      -200601.0      -192438.0
      -184236.0      -175973.0      -167606.0      -159189.0      -150701.0
      -142213.0      -133550.0      -124857.0      -116178.0      -107356.0
      -98573.00      -89630.00      -80823.00      -71869.00      -62693.00
      -53540.00      -44333.00      -35241.00      -25985.00      -16657.00
      -7252.000       2114.000       11268.00       20485.00       29623.00
       38696.00       47814.00       56738.00       65534.00       74124.00
       82626.00       91185.00       99490.00       107683.0       115645.0
       123500.0       131180.0       138565.0       145928.0       152983.0
       159878.0       166607.0       173095.0       179512.0       185678.0
       191554.0       197218.0       202662.0       207865.0       212789.0
       217486.0       221939.0       226137.0       230049.0       233664.0
       237182.0       240452.0       243462.0       246352.0       248997.0
       251405.0       253680.0       255636.0       257301.0       258805.0
       260087.0       261194.0       262028.0       262755.0       263445.0
       263908.0       264101.0       264111.0       263989.0       263686.0
       263242.0       262687.0       262031.0       261454.0       260802.0
       260008.0       259172.0       258101.0       256949.0       255594.0
       254186.0       252802.0       251197.0       249581.0       247958.0
       246275.0       244473.0       242508.0       240361.0       238004.0
       235481.0       232889.0       230137.0       227299.0       224413.0
       221346.0       218179.0       214796.0       211273.0       207647.0
       203818.0       199931.0       195974.0       191834.0       187532.0
       183161.0       178704.0       174005.0       169257.0       164453.0
       159519.0       154566.0       149470.0       144373.0       139201.0
       134035.0       128875.0       123602.0       118378.0       112909.0
       107396.0       101941.0       96341.00       90698.00       84977.00
       79378.00       73774.00       68086.00       62383.00       56625.00
       50954.00       45320.00       39667.00       33967.00       28313.00
       22685.00       17032.00       11351.00       5871.000       436.0000
      -5097.000      -10413.00      -15736.00      -21088.00      -26398.00
      -31554.00      -36558.00      -41508.00      -46515.00      -51542.00
      -56410.00      -61275.00      -66055.00      -70775.00      -75387.00
      -79777.00      -84096.00      -88331.00      -92467.00      -96562.00
      -100525.0      -104330.0      -108033.0      -111649.0      -115137.0
      -118420.0      -121597.0      -124669.0      -127620.0      -130492.0
      -133172.0      -135701.0      -138098.0      -140396.0      -142541.0
      -144489.0      -146302.0      -147903.0      -149413.0      -150751.0
      -151825.0      -152763.0      -153644.0      -154442.0      -155013.0
      -155367.0      -155535.0      -155612.0      -155573.0      -155386.0
      -155067.0      -154574.0      -153852.0      -152956.0      -151956.0
      -150852.0      -149630.0      -148185.0      -146629.0      -144851.0
      -142997.0      -141095.0      -138925.0      -136687.0      -134335.0
      -131958.0      -129436.0      -126699.0      -123792.0      -120657.0
      -117476.0      -114156.0      -110741.0      -107251.0      -103632.0
      -99812.00      -95821.00      -91731.00      -87423.00      -83030.00
      -78449.00      -73809.00      -69242.00      -64571.00      -59890.00
      -55146.00      -50386.00      -45510.00      -40571.00      -35619.00
      -30605.00      -25651.00      -20591.00      -15509.00      -10413.00
      -5329.000      -138.0000       5200.000       10470.00       15819.00
       21228.00       26783.00       32392.00       37944.00       43662.00
       49482.00       55285.00       61004.00       66679.00       72441.00
       78288.00       84171.00       90082.00       95957.00       101822.0
       107700.0       113465.0       119248.0       124997.0       130737.0
       136545.0       142206.0       147972.0       153762.0       159451.0
       165150.0       170637.0       176053.0       181483.0       186857.0
       192173.0       197446.0       202697.0       207815.0       212832.0
       217854.0       222858.0       227726.0       232506.0       237201.0
       241768.0       246315.0       250751.0       255155.0       259452.0
       263461.0       267380.0       271206.0       274865.0       278299.0
