     0.02500000      -12345.00      -12345.00   2.447790e+09      -12345.00
   0.0005380000       1859.976      -606.0195      -12345.00      -12345.00
      -12345.00      -12345.00      -12345.00      -12345.00      -12345.00
      -12345.00      -12345.00      -12345.00      -12345.00      -12345.00
      -12345.00      -12345.00      -12345.00      -12345.00      -12345.00
      -12345.00      -12345.00      -12345.00      -12345.00      -12345.00
      -12345.00       21.42000      -158.0112       77.00000       33.00000
      -42.72450       173.0647      -12345.00       22.00000      -12345.00
      -12345.00      -12345.00      -12345.00      -12345.00      -12345.00
      -12345.00      -12345.00      -12345.00      -12345.00      -12345.00
       7691.589       28.82545       202.4147       69.17519      -12345.00
      -12345.00      -12345.00       0.000000       90.00000      -12345.00
      -12345.00      -12345.00      -12345.00      -12345.00      -12345.00
      -12345.00      -12345.00      -12345.00      -12345.00      -12345.00
      2016       318        11        13         5
        19         6    -12345    -12345     74400
    -12345    -12345    -12345    -12345    -12345
         1    -12345    -12345    -12345    -12345
    -12345    -12345    -12345    -12345    -12345
    -12345    -12345    -12345    -12345    -12345
    -12345    -12345    -12345    -12345    -12345
         1    -12345    -12345    -12345    -12345
KIP     South Island, Ne
10      -12345  -12345  
-12345  -12345  -12345  
-12345  -12345  -12345  
-12345  -12345  -12345  
-12345  -12345  -12345  
-12345  -12345  BH1     
IU      -12345  Streckei
[...]
       5455.000       2904.000       258.0000      -2409.000      -4959.000
      -7645.000      -10361.00      -13017.00      -15780.00      -18483.00
      -21193.00      -23946.00      -26565.00      -29297.00      -32019.00
      -34657.00      -37429.00      -40150.00      -42901.00      -45602.00
      -48266.00      -51104.00      -53771.00      -56424.00      -59233.00
      -61935.00      -64666.00      -67411.00      -70109.00      -72787.00
      -75420.00      -78193.00      -80912.00      -83528.00      -86318.00
      -89041.00      -91692.00      -94371.00      -97002.00      -99753.00
      -102454.0      -105045.0      -107762.0      -110438.0      -113036.0
      -115634.0      -118201.0      -120781.0      -123322.0      -125893.0
      -128517.0      -131087.0      -133681.0      -136264.0      -138808.0
      -141376.0      -143855.0      -146381.0      -148958.0      -151365.0
      -153832.0      -156307.0      -158712.0      -161240.0      -163622.0
      -165988.0      -168429.0      -170737.0      -173213.0      -175670.0
      -178017.0      -180449.0      -182820.0      -185257.0      -187711.0
      -190137.0      -192630.0      -195062.0      -197516.0      -199949.0
      -202304.0      -204729.0      -207131.0      -209517.0      -211974.0
      -214414.0      -216836.0      -219294.0      -221727.0      -224124.0
      -226533.0      -228948.0      -231353.0      -233730.0      -236140.0
      -238606.0      -240961.0      -243282.0      -245738.0      -248104.0
      -250378.0      -252774.0      -255117.0      -257420.0      -259832.0
      -262169.0      -264469.0      -266868.0      -269230.0      -271566.0
      -273907.0      -276219.0      -278587.0      -280940.0      -283233.0
      -285547.0      -287864.0      -290158.0      -292489.0      -294854.0
      -297143.0      -299382.0      -301650.0      -303934.0      -306206.0
      -308410.0      -310593.0      -312809.0      -314975.0      -317131.0
      -319290.0      -321422.0      -323570.0      -325676.0      -327792.0
      -329910.0      -331923.0      -333983.0      -336063.0      -338069.0
      -340116.0      -342160.0      -344121.0      -346042.0      -347938.0
      -349794.0      -351646.0      -353491.0      -355287.0      -357103.0
      -358916.0      -360687.0      -362479.0      -364216.0      -365916.0
      -367655.0      -369358.0      -371002.0      -372623.0      -374303.0
      -375930.0      -377462.0      -379048.0      -380593.0      -382114.0
      -383609.0      -385042.0      -386557.0      -387984.0      -389282.0
      -390664.0      -392028.0      -393322.0      -394678.0      -395980.0
      -397222.0      -398522.0      -399745.0      -400938.0      -402130.0
      -403214.0      -404401.0      -405654.0      -406730.0      -407821.0
      -408978.0      -410017.0      -411014.0      -412016.0      -413078.0
      -414104.0      -415041.0      -416064.0      -417058.0      -418051.0
      -419024.0      -419896.0      -420861.0      -421739.0      -422556.0
      -423543.0      -424414.0      -425248.0      -426214.0      -427085.0
      -427925.0      -428795.0      -429604.0      -430426.0      -431282.0
      -432047.0      -432842.0      -433706.0      -434464.0      -435225.0
      -436018.0      -436791.0      -437582.0      -438315.0      -439027.0
      -439797.0      -440483.0      -441095.0      -441787.0      -442447.0
      -443042.0      -443654.0      -444261.0      -444841.0      -445402.0
      -445965.0      -446512.0      -446991.0      -447494.0      -447979.0
      -448405.0      -448898.0      -449375.0      -449789.0      -450231.0
      -450672.0      -451044.0      -451445.0      -451791.0      -452130.0
      -452593.0      -452927.0      -453245.0      -453620.0      -453902.0
      -454219.0      -454544.0      -454843.0      -455187.0      -455487.0
      -455796.0      -456132.0      -456364.0      -456629.0      -456915.0
      -457091.0      -457316.0      -457594.0      -457798.0      -457956.0
      -458132.0      -458287.0      -458421.0      -458531.0      -458613.0
      -458753.0      -458831.0      -458860.0      -458975.0      -459007.0
      -459001.0      -459066.0      -459103.0      -459126.0      -459121.0
      -459152.0      -459191.0      -459140.0      -459031.0      -458908.0
      -458895.0      -458815.0      -458679.0      -458619.0      -458429.0
      -458259.0      -458119.0      -457866.0      -457633.0      -457384.0
      -457114.0      -456858.0      -456557.0      -456229.0      -455956.0
      -455630.0      -455212.0      -454864.0      -454476.0      -454033.0
      -453614.0      -453152.0      -452679.0      -452204.0      -451746.0
      -451241.0      -450662.0      -450082.0      -449514.0      -448949.0
      -448366.0      -447763.0      -447098.0      -446444.0      -445829.0
      -445107.0      -444433.0      -443782.0      -443022.0      -442302.0
      -441592.0      -440835.0      -440009.0      -439192.0      -438403.0
      -437589.0      -436758.0      -435843.0      -435042.0      -434203.0
      -433234.0      -432389.0      -431488.0      -430559.0      -429631.0
      -428678.0      -427758.0      -426854.0      -425951.0      -424945.0
      -423962.0      -423050.0      -422102.0      -421108.0      -420124.0
      -419201.0      -418212.0      -417139.0      -416166.0      -415159.0
      -414051.0      -413066.0      -412001.0      -410914.0      -409926.0
      -408845.0      -407725.0      -406556.0      -405517.0      -404497.0
      -403304.0      -402186.0      -401067.0      -399925.0      -398843.0
      -397745.0      -396562.0      -395332.0      -394233.0      -393085.0
      -391829.0      -390717.0      -389588.0      -388364.0      -387196.0
      -386043.0      -384825.0      -383568.0      -382437.0      -381269.0
      -379929.0      -378659.0      -377400.0      -376131.0      -374872.0
      -373501.0      -372169.0      -370887.0      -369530.0      -368180.0
      -366923.0      -365612.0      -364209.0      -362879.0      -361564.0
      -360185.0      -358780.0      -357379.0      -355974.0      -354563.0
      -353176.0      -351719.0      -350273.0      -348886.0      -347427.0
      -345947.0      -344486.0      -343036.0      -341555.0      -340032.0
      -338563.0      -337108.0      -335557.0      -333979.0      -332471.0
      -330965.0      -329430.0      -327885.0      -326325.0      -324756.0
      -323192.0      -321636.0      -320022.0      -318416.0      -316874.0
      -315256.0      -313639.0      -312064.0      -310450.0      -308817.0
      -307168.0      -305490.0      -303783.0      -302131.0      -300448.0
      -298705.0      -296965.0      -295203.0      -293506.0      -291773.0
      -290002.0      -288275.0      -286476.0      -284681.0      -282929.0
      -281110.0      -279267.0      -277455.0      -275687.0      -273894.0
      -272023.0      -270212.0      -268381.0      -266462.0      -264609.0
      -262726.0      -260818.0      -258934.0      -256936.0      -254949.0
      -253032.0      -251021.0      -249060.0      -247167.0      -245169.0
      -243163.0      -241262.0      -239360.0      -237359.0      -235405.0
      -233470.0      -231486.0      -229553.0      -227581.0      -225597.0
      -223636.0      -221663.0      -219727.0      -217809.0      -215836.0
      -213851.0      -211978.0      -210043.0      -208084.0      -206239.0
      -204312.0      -202400.0      -200468.0      -198511.0      -196667.0
      -194780.0      -192867.0      -190967.0      -189074.0      -187177.0
      -185259.0      -183401.0      -181529.0      -179644.0      -177820.0
      -175964.0      -174088.0      -172203.0      -170301.0      -168480.0
      -166619.0      -164725.0      -162909.0      -161069.0      -159183.0
      -157293.0      -155422.0      -153548.0      -151645.0      -149719.0
      -147782.0      -145851.0      -143930.0      -142020.0      -140099.0
      -138098.0      -136104.0      -134163.0      -132080.0      -130016.0
      -128048.0      -125953.0      -123903.0      -121931.0      -119853.0
      -117764.0      -115724.0      -113636.0      -111549.0      -109482.0
      -107354.0      -105244.0      -103103.0      -100872.0      -98700.00
      -96501.00      -94199.00      -91931.00      -89645.00      -87296.00
      -84930.00      -82540.00      -80175.00      -77790.00      -75331.00
      -72869.00      -70454.00      -68001.00      -65471.00      -62935.00
      -60415.00      -57881.00      -55289.00      -52713.00      -50105.00
      -47462.00      -44867.00      -42206.00      -39546.00      -36911.00
      -34193.00      -31502.00      -28805.00      -26070.00      -23374.00
      -20612.00      -17807.00      -15090.00      -12354.00      -9547.000
      -6778.000      -3978.000      -1127.000       1674.000       4480.000
       7325.000       10175.00       13037.00       15903.00       18773.00
       21691.00       24648.00       27563.00       30463.00       33421.00
       36349.00       39255.00       42215.00       45171.00       48073.00
       50998.00       53983.00       56913.00       59836.00       62837.00
       65866.00       68851.00       71767.00       74735.00       77782.00
       80844.00       83917.00       86971.00       90061.00       93214.00
       96344.00       99481.00       102573.0       105627.0       108800.0
       111943.0       115038.0       118203.0       121381.0       124609.0
       127830.0       131048.0       134357.0       137668.0       140945.0
       144225.0       147533.0       150859.0       154127.0       157374.0
       160640.0       163881.0       167130.0       170431.0       173676.0
       176871.0       180165.0       183468.0       186740.0       190030.0
       193318.0       196615.0       199907.0       203185.0       206451.0
       209732.0       212971.0       216181.0       219464.0       222681.0
       225853.0       229079.0       232246.0       235413.0       238617.0
       241804.0       245054.0       248262.0       251376.0       254564.0
       257756.0       260901.0       264082.0       267255.0       270453.0
       273685.0       276916.0       280111.0       283243.0       286469.0
       289744.0       292927.0       296131.0       299312.0       302454.0
       305635.0       308742.0       311885.0       315082.0       318211.0
       321385.0       324596.0       327783.0       330960.0       334158.0
       337318.0       340455.0       343626.0       346799.0       350001.0
       353120.0       356222.0       359381.0       362484.0       365587.0
       368687.0       371792.0       374886.0       377952.0       381008.0
       384012.0       386989.0       389989.0       392990.0       395942.0
       398926.0       401904.0       404787.0       407690.0       410612.0
       413459.0       416306.0       419150.0       421940.0       424759.0
       427501.0       430199.0       432971.0       435677.0       438334.0
       440994.0       443610.0       446229.0       448818.0       451361.0
       453932.0       456450.0       458926.0       461458.0       463901.0
       466294.0       468728.0       471071.0       473412.0       475743.0
       477983.0       480261.0       482517.0       484696.0       486886.0
       489047.0       491180.0       493361.0       495476.0       497557.0
       499672.0       501695.0       503762.0       505795.0       507732.0
       509785.0       511808.0       513746.0       515685.0       517602.0
       519488.0       521337.0       523180.0       524993.0       526748.0
       528518.0       530283.0       532007.0       533740.0       535409.0
       537075.0       538717.0       540294.0       541915.0       543472.0
       544994.0       546538.0       548054.0       549530.0       550957.0
       552336.0       553709.0       555068.0       556364.0       557644.0
       558908.0       560147.0       561386.0       562605.0       563793.0
       564958.0       566155.0       567344.0       568449.0       569533.0
       570676.0       571788.0       572839.0       573894.0       574908.0
       575923.0       576907.0       577791.0       578712.0       579639.0
       580440.0       581240.0       582082.0       582872.0       583666.0
       584476.0       585228.0       585946.0       586649.0       587314.0
       587954.0       588549.0       589172.0       589826.0       590402.0
       590969.0       591551.0       592083.0       592587.0       593088.0
       593549.0       593989.0       594399.0       594765.0       595117.0
       595383.0       595610.0       595878.0       596136.0       596320.0
       596450.0       596578.0       596706.0       596739.0       596746.0
       596792.0       596743.0       596656.0       596577.0       596416.0
       596209.0       595989.0       595697.0       595410.0       595095.0
       594681.0       594316.0       593945.0       593482.0       593018.0
       592516.0       591927.0       591308.0       590707.0       590040.0
       589258.0       588534.0       587795.0       586919.0       586050.0
       585157.0       584215.0       583281.0       582282.0       581230.0
       580144.0       579005.0       577854.0       576702.0       575487.0
       574229.0       572984.0       571670.0       570328.0       568966.0
       567534.0       566108.0       564640.0       563089.0       561541.0
       559979.0       558348.0       556680.0       554976.0       553275.0
       551503.0       549647.0       547838.0       545961.0       544009.0
       542123.0       540196.0       538169.0       536182.0       534161.0
       531999.0       529862.0       527746.0       525553.0       523349.0
       521128.0       518881.0       516582.0       514245.0       511918.0
       509530.0       507130.0       504725.0       502265.0       499792.0
       497230.0       494605.0       492064.0       489481.0       486796.0
       484198.0       481597.0       478895.0       476221.0       473496.0
       470727.0       467959.0       465118.0       462302.0       459477.0
       456589.0       453692.0       450783.0       447866.0       444940.0
       441981.0       438928.0       435887.0       432883.0       429776.0
       426671.0       423601.0       420414.0       417221.0       414062.0
       410808.0       407578.0       404365.0       401059.0       397785.0
       394511.0       391158.0       387790.0       384446.0       381092.0
       377682.0       374270.0       370867.0       367428.0       363957.0
       360480.0       356960.0       353429.0       349965.0       346404.0
       342810.0       339279.0       335648.0       332004.0       328384.0
       324729.0       321003.0       317274.0       313582.0       309758.0
       305971.0       302253.0       298426.0       294623.0       290848.0
       287005.0       283125.0       279275.0       275461.0       271561.0
       267619.0       263770.0       259910.0       255943.0       252004.0
       248075.0       244072.0       240128.0       236145.0       232112.0
       228113.0       224086.0       220071.0       216016.0       211935.0
       207898.0       203881.0       199846.0       195765.0       191709.0
       187689.0       183642.0       179601.0       175559.0       171471.0
       167416.0       163322.0       159183.0       155100.0       151000.0
       146894.0       142802.0       138679.0       134563.0       130524.0
       126420.0       122240.0       118136.0       113944.0       109758.0
       105594.0       101307.0       97081.00       92903.00       88668.00
       84395.00       80154.00       75882.00       71539.00       67270.00
       62972.00       58604.00       54291.00       49909.00       45501.00
       41102.00       36626.00       32204.00       27725.00       23189.00
       18722.00       14218.00       9698.000       5177.000       651.0000
      -3872.000      -8423.000      -12920.00      -17425.00      -22006.00
      -26516.00      -30995.00      -35516.00      -40023.00      -44507.00
      -48943.00      -53396.00      -57888.00      -62283.00      -66644.00
      -71041.00      -75405.00      -79743.00      -84069.00      -88354.00
      -92639.00      -96946.00      -101189.0      -105404.0      -109623.0
      -113824.0      -118008.0      -122161.0      -126328.0      -130444.0
      -134512.0      -138613.0      -142672.0      -146694.0      -150711.0
      -154710.0      -158637.0      -162534.0      -166521.0      -170407.0
      -174223.0      -178135.0      -182015.0      -185874.0      -189701.0
      -193499.0      -197310.0      -201066.0      -204859.0      -208632.0
      -212319.0      -216041.0      -219753.0      -223411.0      -227019.0
      -230619.0      -234233.0      -237781.0      -241288.0      -244798.0
      -248303.0      -251776.0      -255226.0      -258665.0      -262058.0
      -265415.0      -268813.0      -272239.0      -275565.0      -278826.0
      -282116.0      -285367.0      -288544.0      -291691.0      -294822.0
      -297907.0      -300931.0      -303901.0      -306847.0      -309790.0
      -312658.0      -315450.0      -318270.0      -321097.0      -323829.0
      -326513.0      -329174.0      -331761.0      -334348.0      -336920.0
      -339391.0      -341833.0      -344273.0      -346634.0      -348935.0
      -351190.0      -353430.0      -355624.0      -357745.0      -359863.0
      -361959.0      -364013.0      -366016.0      -368015.0      -369993.0
      -371914.0      -373812.0      -375702.0      -377550.0      -379311.0
      -381064.0      -382777.0      -384421.0      -386039.0      -387598.0
      -389133.0      -390658.0      -392123.0      -393546.0      -394938.0
      -396255.0      -397571.0      -398894.0      -400104.0      -401280.0
      -402453.0      -403540.0      -404565.0      -405570.0      -406611.0
      -407594.0      -408520.0      -409464.0      -410355.0      -411241.0
      -412122.0      -412972.0      -413810.0      -414593.0      -415352.0
      -416113.0      -416813.0      -417446.0      -418109.0      -418783.0
      -419340.0      -419872.0      -420409.0      -420843.0      -421313.0
      -421802.0      -422211.0      -422643.0      -423022.0      -423314.0
