     0.02500000      -12345.00      -12345.00   1.004960e+09      -12345.00
   0.0005390000       1859.976      -606.0195      -12345.00      -12345.00
      -12345.00      -12345.00      -12345.00      -12345.00      -12345.00
      -12345.00      -12345.00      -12345.00      -12345.00      -12345.00
      -12345.00      -12345.00      -12345.00      -12345.00      -12345.00
      -12345.00      -12345.00      -12345.00      -12345.00      -12345.00
      -12345.00       21.42000      -158.0112       109.0000       1.000000
      -42.72450       173.0647      -12345.00       22.00000      -12345.00
      -12345.00      -12345.00      -12345.00      -12345.00      -12345.00
      -12345.00      -12345.00      -12345.00      -12345.00      -12345.00
       7691.589       28.82545       202.4147       69.17519      -12345.00
      -12345.00      -12345.00       90.00000       90.00000      -12345.00
      -12345.00      -12345.00      -12345.00      -12345.00      -12345.00
      -12345.00      -12345.00      -12345.00      -12345.00      -12345.00
      2016       318        11        13         5
        19         6    -12345    -12345     74400
    -12345    -12345    -12345    -12345    -12345
         1    -12345    -12345    -12345    -12345
    -12345    -12345    -12345    -12345    -12345
    -12345    -12345    -12345    -12345    -12345
    -12345    -12345    -12345    -12345    -12345
         1    -12345    -12345    -12345    -12345
KIP     South Island, Ne
60      -12345  -12345  
-12345  -12345  -12345  
-12345  -12345  -12345  
-12345  -12345  -12345  
-12345  -12345  -12345  
-12345  -12345  BH2     
IU      -12345  Metrozet
[...]
       43113.00       43522.00       43909.00       44277.00       44640.00
       45004.00       45358.00       45680.00       45990.00       46304.00
       46605.00       46876.00       47127.00       47387.00       47646.00
       47880.00       48123.00       48378.00       48628.00       48875.00
       49107.00       49337.00       49584.00       49811.00       50000.00
       50222.00       50426.00       50601.00       50799.00       50967.00
       51129.00       51285.00       51409.00       51535.00       51649.00
       51767.00       51897.00       51999.00       52117.00       52243.00
       52341.00       52446.00       52536.00       52639.00       52762.00
       52842.00       52923.00       53018.00       53106.00       53207.00
       53253.00       53274.00       53344.00       53405.00       53433.00
       53449.00       53476.00       53533.00       53573.00       53577.00
       53616.00       53658.00       53664.00       53676.00       53700.00
       53711.00       53700.00       53677.00       53646.00       53625.00
       53601.00       53546.00       53493.00       53420.00       53348.00
       53283.00       53184.00       53111.00       53006.00       52886.00
       52805.00       52675.00       52552.00       52438.00       52316.00
       52200.00       52058.00       51895.00       51724.00       51574.00
       51403.00       51193.00       50991.00       50800.00       50593.00
       50358.00       50109.00       49851.00       49622.00       49371.00
       49109.00       48869.00       48600.00       48358.00       48121.00
       47841.00       47562.00       47286.00       46977.00       46684.00
       46393.00       46050.00       45753.00       45442.00       45098.00
       44791.00       44435.00       44083.00       43735.00       43363.00
       43025.00       42622.00       42239.00       41901.00       41508.00
       41141.00       40753.00       40361.00       40015.00       39620.00
       39224.00       38842.00       38441.00       38058.00       37656.00
       37238.00       36846.00       36441.00       36020.00       35599.00
       35149.00       34717.00       34303.00       33859.00       33431.00
       33016.00       32602.00       32193.00       31783.00       31380.00
       30968.00       30557.00       30148.00       29712.00       29285.00
       28887.00       28485.00       28079.00       27679.00       27276.00
       26882.00       26494.00       26083.00       25709.00       25324.00
       24913.00       24566.00       24196.00       23823.00       23479.00
       23103.00       22756.00       22418.00       22054.00       21712.00
       21353.00       20988.00       20671.00       20318.00       19968.00
       19666.00       19355.00       19066.00       18740.00       18430.00
       18161.00       17844.00       17570.00       17305.00       17015.00
       16771.00       16513.00       16267.00       16018.00       15732.00
       15488.00       15212.00       14946.00       14718.00       14437.00
       14208.00       14015.00       13767.00       13520.00       13292.00
       13084.00       12848.00       12597.00       12396.00       12176.00
       11968.00       11775.00       11545.00       11360.00       11180.00
       10981.00       10793.00       10592.00       10407.00       10234.00
       10044.00       9860.000       9708.000       9568.000       9405.000
       9247.000       9132.000       9010.000       8872.000       8737.000
       8607.000       8496.000       8381.000       8251.000       8145.000
       8064.000       7968.000       7861.000       7763.000       7673.000
       7563.000       7458.000       7397.000       7312.000       7226.000
       7176.000       7106.000       7056.000       7031.000       6982.000
       6935.000       6898.000       6880.000       6871.000       6846.000
       6853.000       6842.000       6828.000       6847.000       6838.000
       6862.000       6867.000       6848.000       6880.000       6889.000
       6904.000       6963.000       6987.000       7028.000       7096.000
       7173.000       7274.000       7348.000       7456.000       7587.000
       7694.000       7852.000       8025.000       8186.000       8379.000
       8567.000       8756.000       8973.000       9180.000       9384.000
       9601.000       9850.000       10094.00       10333.00       10618.00
       10887.00       11176.00       11495.00       11779.00       12108.00
       12461.00       12779.00       13126.00       13485.00       13843.00
       14223.00       14602.00       14992.00       15401.00       15801.00
       16215.00       16655.00       17085.00       17511.00       17969.00
       18448.00       18920.00       19398.00       19903.00       20398.00
       20885.00       21400.00       21906.00       22396.00       22894.00
       23422.00       23968.00       24505.00       25045.00       25623.00
       26197.00       26724.00       27291.00       27876.00       28453.00
       29047.00       29648.00       30251.00       30857.00       31470.00
       32086.00       32698.00       33300.00       33906.00       34532.00
       35165.00       35780.00       36408.00       37065.00       37719.00
       38370.00       39022.00       39692.00       40337.00       40991.00
       41690.00       42335.00       42995.00       43695.00       44345.00
       45021.00       45734.00       46402.00       47076.00       47788.00
       48477.00       49178.00       49888.00       50589.00       51309.00
       52040.00       52750.00       53463.00       54201.00       54921.00
       55651.00       56370.00       57087.00       57835.00       58564.00
       59277.00       59984.00       60700.00       61425.00       62148.00
       62862.00       63567.00       64284.00       65016.00       65745.00
       66448.00       67139.00       67858.00       68566.00       69243.00
       69945.00       70645.00       71328.00       72022.00       72724.00
       73411.00       74079.00       74775.00       75463.00       76126.00
       76801.00       77476.00       78144.00       78813.00       79450.00
       80097.00       80761.00       81384.00       82033.00       82673.00
       83291.00       83967.00       84617.00       85239.00       85873.00
       86500.00       87149.00       87784.00       88387.00       89025.00
       89662.00       90269.00       90871.00       91466.00       92067.00
       92650.00       93235.00       93806.00       94379.00       94955.00
       95483.00       96007.00       96534.00       97052.00       97564.00
       98065.00       98566.00       99071.00       99578.00       100074.0
       100566.0       101056.0       101542.0       102005.0       102441.0
       102893.0       103342.0       103761.0       104171.0       104596.0
       105028.0       105421.0       105800.0       106204.0       106583.0
       106940.0       107315.0       107681.0       108037.0       108380.0
       108711.0       109057.0       109383.0       109714.0       110048.0
       110337.0       110647.0       110955.0       111220.0       111506.0
       111768.0       112006.0       112242.0       112464.0       112718.0
       112957.0       113166.0       113400.0       113622.0       113802.0
       113997.0       114177.0       114341.0       114511.0       114657.0
       114811.0       114962.0       115100.0       115218.0       115330.0
       115450.0       115554.0       115631.0       115697.0       115776.0
       115840.0       115897.0       115944.0       115993.0       116040.0
       116051.0       116067.0       116071.0       116060.0       116046.0
       116025.0       116005.0       115965.0       115933.0       115887.0
       115821.0       115774.0       115704.0       115602.0       115523.0
       115426.0       115301.0       115187.0       115076.0       114960.0
       114824.0       114663.0       114510.0       114340.0       114139.0
       113963.0       113775.0       113559.0       113347.0       113130.0
       112907.0       112655.0       112372.0       112108.0       111842.0
       111553.0       111271.0       110983.0       110691.0       110402.0
       110097.0       109798.0       109482.0       109140.0       108811.0
       108457.0       108070.0       107692.0       107312.0       106907.0
       106485.0       106083.0       105673.0       105227.0       104782.0
       104316.0       103845.0       103376.0       102880.0       102397.0
       101896.0       101366.0       100852.0       100309.0       99765.00
       99250.00       98692.00       98119.00       97581.00       97020.00
       96454.00       95873.00       95269.00       94694.00       94108.00
       93507.00       92898.00       92275.00       91669.00       91029.00
       90367.00       89744.00       89084.00       88383.00       87698.00
       87028.00       86335.00       85603.00       84883.00       84173.00
       83441.00       82697.00       81945.00       81178.00       80412.00
       79639.00       78837.00       78034.00       77214.00       76378.00
       75536.00       74671.00       73822.00       72968.00       72068.00
       71169.00       70283.00       69374.00       68437.00       67494.00
       66538.00       65549.00       64550.00       63545.00       62527.00
       61502.00       60457.00       59391.00       58322.00       57234.00
       56131.00       55024.00       53880.00       52736.00       51610.00
       50468.00       49319.00       48120.00       46920.00       45761.00
       44550.00       43341.00       42147.00       40894.00       39688.00
       38473.00       37199.00       35986.00       34746.00       33460.00
       32198.00       30922.00       29633.00       28342.00       27037.00
       25719.00       24416.00       23110.00       21789.00       20477.00
       19164.00       17842.00       16517.00       15174.00       13799.00
       12460.00       11142.00       9765.000       8407.000       7076.000
       5703.000       4350.000       3012.000       1627.000       252.0000
      -1108.000      -2491.000      -3890.000      -5275.000      -6661.000
      -8080.000      -9461.000      -10831.00      -12216.00      -13601.00
      -15006.00      -16414.00      -17801.00      -19179.00      -20589.00
      -21997.00      -23352.00      -24719.00      -26126.00      -27512.00
      -28888.00      -30266.00      -31656.00      -33050.00      -34417.00
      -35815.00      -37204.00      -38557.00      -39972.00      -41379.00
      -42739.00      -44142.00      -45540.00      -46905.00      -48271.00
      -49682.00      -51100.00      -52450.00      -53821.00      -55225.00
      -56602.00      -57954.00      -59318.00      -60699.00      -62044.00
      -63383.00      -64735.00      -66066.00      -67388.00      -68720.00
      -70045.00      -71349.00      -72664.00      -73989.00      -75284.00
      -76548.00      -77868.00      -79184.00      -80440.00      -81743.00
      -83047.00      -84295.00      -85554.00      -86845.00      -88108.00
      -89352.00      -90610.00      -91850.00      -93111.00      -94357.00
      -95553.00      -96770.00      -98029.00      -99252.00      -100433.0
      -101650.0      -102850.0      -104042.0      -105232.0      -106367.0
      -107534.0      -108679.0      -109783.0      -110935.0      -112059.0
      -113144.0      -114233.0      -115313.0      -116386.0      -117444.0
      -118488.0      -119512.0      -120539.0      -121560.0      -122548.0
      -123488.0      -124411.0      -125402.0      -126348.0      -127222.0
      -128152.0      -129070.0      -129959.0      -130865.0      -131722.0
      -132536.0      -133402.0      -134222.0      -134982.0      -135801.0
      -136565.0      -137315.0      -138096.0      -138791.0      -139501.0
      -140238.0      -140905.0      -141540.0      -142214.0      -142886.0
      -143469.0      -144058.0      -144699.0      -145296.0      -145853.0
      -146410.0      -146968.0      -147497.0      -148011.0      -148530.0
      -149024.0      -149522.0      -150039.0      -150502.0      -150932.0
      -151385.0      -151834.0      -152240.0      -152643.0      -153076.0
      -153423.0      -153754.0      -154136.0      -154434.0      -154749.0
      -155093.0      -155375.0      -155691.0      -156014.0      -156314.0
      -156628.0      -156930.0      -157223.0      -157500.0      -157745.0
      -157987.0      -158217.0      -158419.0      -158625.0      -158817.0
      -159003.0      -159181.0      -159328.0      -159496.0      -159646.0
      -159751.0      -159896.0      -160034.0      -160129.0      -160226.0
      -160313.0      -160393.0      -160452.0      -160509.0      -160556.0
      -160579.0      -160595.0      -160597.0      -160608.0      -160612.0
      -160574.0      -160538.0      -160525.0      -160492.0      -160437.0
      -160387.0      -160328.0      -160231.0      -160117.0      -160007.0
      -159877.0      -159714.0      -159546.0      -159377.0      -159176.0
      -158977.0      -158768.0      -158505.0      -158251.0      -157970.0
      -157653.0      -157380.0      -157064.0      -156722.0      -156392.0
      -155998.0      -155620.0      -155241.0      -154820.0      -154389.0
      -153918.0      -153446.0      -152989.0      -152496.0      -151962.0
      -151427.0      -150871.0      -150306.0      -149751.0      -149141.0
      -148517.0      -147899.0      -147267.0      -146606.0      -145906.0
      -145200.0      -144497.0      -143788.0      -143059.0      -142320.0
      -141568.0      -140803.0      -140008.0      -139186.0      -138380.0
      -137526.0      -136670.0      -135832.0      -134928.0      -134022.0
      -133122.0      -132206.0      -131268.0      -130305.0      -129367.0
      -128395.0      -127406.0      -126432.0      -125420.0      -124419.0
      -123401.0      -122365.0      -121327.0      -120270.0      -119251.0
      -118208.0      -117136.0      -116119.0      -115084.0      -114020.0
      -112960.0      -111908.0      -110859.0      -109773.0      -108708.0
      -107660.0      -106565.0      -105472.0      -104388.0      -103286.0
      -102202.0      -101117.0      -100012.0      -98892.00      -97781.00
      -96690.00      -95550.00      -94408.00      -93288.00      -92165.00
      -91060.00      -89932.00      -88819.00      -87698.00      -86568.00
      -85460.00      -84290.00      -83154.00      -82037.00      -80868.00
      -79722.00      -78555.00      -77388.00      -76240.00      -75035.00
      -73852.00      -72690.00      -71466.00      -70275.00      -69080.00
      -67874.00      -66670.00      -65432.00      -64257.00      -63044.00
      -61789.00      -60592.00      -59358.00      -58112.00      -56897.00
      -55655.00      -54391.00      -53158.00      -51910.00      -50620.00
      -49350.00      -48091.00      -46823.00      -45531.00      -44232.00
      -42967.00      -41681.00      -40351.00      -39025.00      -37722.00
      -36427.00      -35117.00      -33771.00      -32435.00      -31127.00
      -29795.00      -28446.00      -27092.00      -25750.00      -24436.00
      -23099.00      -21730.00      -20348.00      -18959.00      -17595.00
      -16216.00      -14798.00      -13420.00      -12063.00      -10677.00
      -9289.000      -7881.000      -6471.000      -5094.000      -3668.000
      -2210.000      -820.0000       572.0000       1985.000       3365.000
       4743.000       6131.000       7525.000       8902.000       10252.00
       11638.00       13024.00       14378.00       15738.00       17086.00
       18414.00       19733.00       21051.00       22337.00       23610.00
       24906.00       26190.00       27486.00       28755.00       29991.00
       31235.00       32465.00       33693.00       34890.00       36054.00
       37249.00       38442.00       39576.00       40692.00       41814.00
       42931.00       44039.00       45122.00       46172.00       47215.00
       48264.00       49293.00       50295.00       51279.00       52262.00
       53239.00       54202.00       55142.00       56070.00       56985.00
       57842.00       58704.00       59573.00       60402.00       61215.00
       62003.00       62784.00       63563.00       64283.00       64989.00
       65710.00       66400.00       67059.00       67695.00       68327.00
       68944.00       69514.00       70069.00       70624.00       71152.00
       71677.00       72200.00       72675.00       73131.00       73587.00
       74033.00       74473.00       74879.00       75270.00       75645.00
       76010.00       76357.00       76686.00       77025.00       77309.00
       77547.00       77801.00       78056.00       78282.00       78463.00
       78652.00       78853.00       79006.00       79141.00       79275.00
       79368.00       79484.00       79614.00       79694.00       79775.00
       79855.00       79898.00       79907.00       79913.00       79934.00
       79913.00       79884.00       79864.00       79797.00       79751.00
       79698.00       79588.00       79506.00       79433.00       79329.00
       79227.00       79138.00       79070.00       78970.00       78836.00
       78731.00       78614.00       78479.00       78342.00       78167.00
       77993.00       77827.00       77643.00       77434.00       77204.00
       76999.00       76812.00       76597.00       76355.00       76115.00
       75893.00       75649.00       75382.00       75149.00       74915.00
       74654.00       74393.00       74115.00       73831.00       73537.00
       73228.00       72896.00       72535.00       72193.00       71829.00
       71427.00       71053.00       70663.00       70257.00       69840.00
       69396.00       68993.00       68564.00       68111.00       67663.00
       67189.00       66741.00       66249.00       65736.00       65243.00
       64701.00       64174.00       63641.00       63074.00       62513.00
       61929.00       61357.00       60765.00       60146.00       59568.00
       58953.00       58313.00       57676.00       57014.00       56371.00
       55705.00       55021.00       54360.00       53654.00       52924.00
       52224.00       51503.00       50768.00       50055.00       49304.00
