     0.02500000      -12345.00      -12345.00   1.022150e+09      -12345.00
   0.0005380000       1859.976      -606.0195      -12345.00      -12345.00
      -12345.00      -12345.00      -12345.00      -12345.00      -12345.00
      -12345.00      -12345.00      -12345.00      -12345.00      -12345.00
      -12345.00      -12345.00      -12345.00      -12345.00      -12345.00
      -12345.00      -12345.00      -12345.00      -12345.00      -12345.00
      -12345.00       21.42000      -158.0112       109.0000       1.000000
      -42.72450       173.0647      -12345.00       22.00000      -12345.00
      -12345.00      -12345.00      -12345.00      -12345.00      -12345.00
      -12345.00      -12345.00      -12345.00      -12345.00      -12345.00
       7691.589       28.82545       202.4147       69.17519      -12345.00
      -12345.00      -12345.00       0.000000       0.000000      -12345.00
      -12345.00      -12345.00      -12345.00      -12345.00      -12345.00
      -12345.00      -12345.00      -12345.00      -12345.00      -12345.00
      2016       318        11        13         5
        19         6    -12345    -12345     74400
    -12345    -12345    -12345    -12345    -12345
         1    -12345    -12345    -12345    -12345
    -12345    -12345    -12345    -12345    -12345
    -12345    -12345    -12345    -12345    -12345
    -12345    -12345    -12345    -12345    -12345
         1    -12345    -12345    -12345    -12345
KIP     South Island, Ne
60      -12345  -12345  
-12345  -12345  -12345  
-12345  -12345  -12345  
-12345  -12345  -12345  
-12345  -12345  -12345  
-12345  -12345  BHZ     
IU      -12345  Metrozet
[...]
       34684.00       33915.00       33135.00       32330.00       31537.00
       30729.00       29911.00       29119.00       28301.00       27469.00
       26660.00       25851.00       25047.00       24254.00       23457.00
       22657.00       21859.00       21031.00       20190.00       19361.00
       18534.00       17722.00       16919.00       16107.00       15293.00
       14456.00       13615.00       12815.00       12015.00       11222.00
       10433.00       9627.000       8839.000       8027.000       7183.000
       6347.000       5516.000       4691.000       3860.000       3034.000
       2221.000       1408.000       591.0000      -243.0000      -1109.000
      -1999.000      -2864.000      -3724.000      -4615.000      -5467.000
      -6306.000      -7165.000      -8000.000      -8850.000      -9734.000
      -10612.00      -11500.00      -12391.00      -13278.00      -14175.00
      -15062.00      -15965.00      -16891.00      -17802.00      -18719.00
      -19663.00      -20580.00      -21488.00      -22439.00      -23375.00
      -24305.00      -25244.00      -26140.00      -27063.00      -28050.00
      -29032.00      -29991.00      -30949.00      -31923.00      -32896.00
      -33850.00      -34785.00      -35726.00      -36695.00      -37682.00
      -38677.00      -39679.00      -40676.00      -41643.00      -42622.00
      -43604.00      -44569.00      -45562.00      -46553.00      -47542.00
      -48558.00      -49572.00      -50573.00      -51561.00      -52531.00
      -53470.00      -54403.00      -55376.00      -56327.00      -57289.00
      -58292.00      -59249.00      -60201.00      -61167.00      -62119.00
      -63049.00      -63949.00      -64868.00      -65804.00      -66724.00
      -67635.00      -68556.00      -69477.00      -70373.00      -71254.00
      -72136.00      -73020.00      -73886.00      -74762.00      -75670.00
      -76562.00      -77449.00      -78355.00      -79240.00      -80103.00
      -80965.00      -81830.00      -82701.00      -83580.00      -84469.00
      -85374.00      -86291.00      -87180.00      -88035.00      -88908.00
      -89767.00      -90616.00      -91487.00      -92359.00      -93238.00
      -94114.00      -94976.00      -95843.00      -96709.00      -97573.00
      -98429.00      -99292.00      -100169.0      -101041.0      -101932.0
      -102817.0      -103658.0      -104519.0      -105412.0      -106284.0
      -107140.0      -108013.0      -108902.0      -109793.0      -110692.0
      -111585.0      -112446.0      -113290.0      -114146.0      -114997.0
      -115820.0      -116649.0      -117506.0      -118347.0      -119178.0
      -120020.0      -120854.0      -121681.0      -122494.0      -123295.0
      -124116.0      -124930.0      -125709.0      -126511.0      -127345.0
      -128158.0      -128950.0      -129740.0      -130531.0      -131299.0
      -132055.0      -132821.0      -133579.0      -134360.0      -135151.0
      -135899.0      -136663.0      -137452.0      -138203.0      -138917.0
      -139646.0      -140410.0      -141139.0      -141837.0      -142567.0
      -143321.0      -144070.0      -144795.0      -145532.0      -146270.0
      -146965.0      -147649.0      -148340.0      -149040.0      -149755.0
      -150477.0      -151198.0      -151910.0      -152614.0      -153303.0
      -153973.0      -154624.0      -155274.0      -155910.0      -156527.0
      -157169.0      -157829.0      -158478.0      -159104.0      -159716.0
      -160337.0      -160953.0      -161550.0      -162153.0      -162759.0
      -163354.0      -163932.0      -164496.0      -165056.0      -165607.0
      -166149.0      -166694.0      -167241.0      -167779.0      -168317.0
      -168854.0      -169375.0      -169898.0      -170404.0      -170888.0
      -171372.0      -171848.0      -172315.0      -172787.0      -173250.0
      -173675.0      -174093.0      -174502.0      -174886.0      -175282.0
      -175666.0      -176016.0      -176362.0      -176714.0      -177052.0
      -177365.0      -177674.0      -177970.0      -178218.0      -178442.0
      -178664.0      -178871.0      -179085.0      -179294.0      -179479.0
      -179684.0      -179872.0      -180017.0      -180174.0      -180308.0
      -180404.0      -180510.0      -180622.0      -180704.0      -180780.0
      -180885.0      -180951.0      -180983.0      -181037.0      -181093.0
      -181129.0      -181143.0      -181175.0      -181215.0      -181230.0
      -181237.0      -181243.0      -181255.0      -181256.0      -181243.0
      -181236.0      -181215.0      -181211.0      -181219.0      -181197.0
      -181156.0      -181135.0      -181130.0      -181102.0      -181073.0
      -181055.0      -181035.0      -181021.0      -181005.0      -180980.0
      -180937.0      -180895.0      -180872.0      -180837.0      -180814.0
      -180805.0      -180771.0      -180738.0      -180721.0      -180707.0
      -180693.0      -180677.0      -180650.0      -180608.0      -180565.0
      -180514.0      -180454.0      -180416.0      -180394.0      -180355.0
      -180322.0      -180285.0      -180213.0      -180158.0      -180111.0
      -180029.0      -179961.0      -179878.0      -179765.0      -179684.0
      -179605.0      -179508.0      -179402.0      -179271.0      -179131.0
      -178991.0      -178842.0      -178680.0      -178489.0      -178298.0
      -178114.0      -177901.0      -177682.0      -177450.0      -177200.0
      -176969.0      -176719.0      -176453.0      -176190.0      -175897.0
      -175576.0      -175259.0      -174953.0      -174635.0      -174303.0
      -173975.0      -173641.0      -173267.0      -172876.0      -172494.0
      -172079.0      -171670.0      -171272.0      -170856.0      -170440.0
      -170002.0      -169560.0      -169098.0      -168617.0      -168127.0
      -167610.0      -167111.0      -166602.0      -166093.0      -165610.0
      -165086.0      -164537.0      -164015.0      -163478.0      -162913.0
      -162363.0      -161808.0      -161234.0      -160660.0      -160071.0
      -159464.0      -158840.0      -158207.0      -157583.0      -156946.0
      -156323.0      -155722.0      -155086.0      -154444.0      -153793.0
      -153128.0      -152470.0      -151805.0      -151144.0      -150483.0
      -149801.0      -149132.0      -148484.0      -147783.0      -147066.0
      -146387.0      -145688.0      -144989.0      -144303.0      -143622.0
      -142945.0      -142236.0      -141547.0      -140872.0      -140160.0
      -139454.0      -138758.0      -138050.0      -137325.0      -136623.0
      -135956.0      -135280.0      -134592.0      -133912.0      -133246.0
      -132557.0      -131850.0      -131177.0      -130499.0      -129809.0
      -129124.0      -128436.0      -127764.0      -127082.0      -126390.0
      -125732.0      -125061.0      -124362.0      -123696.0      -123036.0
      -122346.0      -121663.0      -120993.0      -120322.0      -119655.0
      -118993.0      -118334.0      -117656.0      -116976.0      -116313.0
      -115636.0      -114944.0      -114257.0      -113558.0      -112868.0
      -112202.0      -111513.0      -110826.0      -110159.0      -109462.0
      -108742.0      -108043.0      -107345.0      -106611.0      -105887.0
      -105173.0      -104442.0      -103733.0      -103017.0      -102279.0
      -101552.0      -100810.0      -100034.0      -99261.00      -98496.00
      -97722.00      -96948.00      -96174.00      -95401.00      -94636.00
      -93875.00      -93098.00      -92313.00      -91531.00      -90722.00
      -89908.00      -89107.00      -88306.00      -87489.00      -86671.00
      -85878.00      -85052.00      -84203.00      -83380.00      -82537.00
      -81681.00      -80836.00      -79976.00      -79110.00      -78250.00
      -77388.00      -76513.00      -75627.00      -74745.00      -73842.00
      -72912.00      -71991.00      -71048.00      -70101.00      -69191.00
      -68241.00      -67253.00      -66282.00      -65313.00      -64338.00
      -63361.00      -62394.00      -61401.00      -60377.00      -59376.00
      -58360.00      -57320.00      -56284.00      -55247.00      -54217.00
      -53171.00      -52110.00      -51038.00      -49971.00      -48915.00
      -47802.00      -46674.00      -45563.00      -44431.00      -43300.00
      -42145.00      -40972.00      -39810.00      -38649.00      -37476.00
      -36265.00      -35036.00      -33810.00      -32579.00      -31358.00
      -30111.00      -28833.00      -27575.00      -26304.00      -25006.00
      -23710.00      -22396.00      -21071.00      -19766.00      -18461.00
      -17128.00      -15791.00      -14459.00      -13114.00      -11773.00
      -10417.00      -9043.000      -7686.000      -6333.000      -4954.000
      -3568.000      -2204.000      -848.0000       532.0000       1927.000
       3310.000       4684.000       6070.000       7465.000       8853.000
       10261.00       11682.00       13091.00       14497.00       15912.00
       17333.00       18739.00       20166.00       21611.00       23038.00
       24450.00       25865.00       27296.00       28697.00       30098.00
       31530.00       32949.00       34372.00       35800.00       37203.00
       38591.00       39981.00       41367.00       42757.00       44153.00
       45531.00       46899.00       48263.00       49620.00       50975.00
       52299.00       53616.00       54958.00       56304.00       57639.00
       58964.00       60281.00       61593.00       62887.00       64138.00
       65395.00       66683.00       67957.00       69213.00       70456.00
       71705.00       72974.00       74219.00       75428.00       76635.00
       77855.00       79059.00       80236.00       81440.00       82664.00
       83851.00       85025.00       86204.00       87374.00       88544.00
       89706.00       90861.00       92016.00       93177.00       94340.00
       95469.00       96588.00       97715.00       98827.00       99919.00
       101006.0       102093.0       103178.0       104272.0       105365.0
       106453.0       107526.0       108574.0       109627.0       110694.0
       111749.0       112791.0       113834.0       114886.0       115973.0
       117063.0       118106.0       119150.0       120219.0       121264.0
       122286.0       123325.0       124352.0       125363.0       126380.0
       127375.0       128353.0       129347.0       130372.0       131378.0
       132367.0       133369.0       134346.0       135299.0       136262.0
       137229.0       138180.0       139141.0       140118.0       141074.0
       142010.0       142935.0       143860.0       144768.0       145654.0
       146540.0       147436.0       148346.0       149220.0       150089.0
       150969.0       151794.0       152618.0       153447.0       154256.0
       155078.0       155887.0       156695.0       157497.0       158284.0
       159072.0       159834.0       160587.0       161335.0       162088.0
       162870.0       163614.0       164335.0       165081.0       165800.0
       166509.0       167202.0       167874.0       168564.0       169249.0
       169908.0       170557.0       171201.0       171825.0       172444.0
       173065.0       173682.0       174323.0       174928.0       175496.0
       176080.0       176655.0       177219.0       177776.0       178340.0
       178910.0       179440.0       179946.0       180473.0       180991.0
       181489.0       181983.0       182460.0       182949.0       183452.0
       183924.0       184381.0       184840.0       185311.0       185785.0
       186240.0       186693.0       187156.0       187604.0       188023.0
       188442.0       188859.0       189262.0       189691.0       190122.0
       190505.0       190911.0       191352.0       191739.0       192121.0
       192528.0       192898.0       193285.0       193688.0       194068.0
       194462.0       194822.0       195169.0       195546.0       195884.0
       196210.0       196560.0       196907.0       197261.0       197597.0
       197905.0       198238.0       198564.0       198869.0       199183.0
       199472.0       199755.0       200037.0       200305.0       200599.0
       200889.0       201161.0       201424.0       201681.0       201936.0
       202176.0       202431.0       202686.0       202904.0       203131.0
       203372.0       203592.0       203794.0       204008.0       204213.0
       204398.0       204590.0       204771.0       204931.0       205086.0
       205220.0       205343.0       205472.0       205574.0       205662.0
       205769.0       205861.0       205954.0       206040.0       206102.0
       206165.0       206222.0       206277.0       206301.0       206314.0
       206346.0       206349.0       206331.0       206318.0       206306.0
       206262.0       206208.0       206181.0       206126.0       206059.0
       205992.0       205918.0       205840.0       205736.0       205656.0
       205590.0       205487.0       205362.0       205231.0       205105.0
       204948.0       204768.0       204634.0       204494.0       204309.0
       204130.0       203948.0       203726.0       203488.0       203255.0
       203018.0       202763.0       202512.0       202271.0       201995.0
       201690.0       201401.0       201105.0       200782.0       200451.0
       200114.0       199780.0       199445.0       199085.0       198718.0
       198354.0       197975.0       197592.0       197196.0       196786.0
       196395.0       195986.0       195574.0       195172.0       194725.0
       194286.0       193850.0       193385.0       192931.0       192473.0
       191991.0       191492.0       191010.0       190540.0       190043.0
       189539.0       189061.0       188571.0       188049.0       187543.0
       187035.0       186525.0       186022.0       185488.0       184961.0
       184444.0       183919.0       183405.0       182870.0       182313.0
       181766.0       181224.0       180675.0       180121.0       179573.0
       179020.0       178444.0       177871.0       177326.0       176767.0
       176174.0       175586.0       175012.0       174441.0       173859.0
       173267.0       172678.0       172096.0       171510.0       170922.0
       170345.0       169767.0       169185.0       168597.0       167998.0
       167414.0       166844.0       166234.0       165624.0       165059.0
       164470.0       163859.0       163284.0       162703.0       162104.0
       161526.0       160933.0       160326.0       159752.0       159163.0
       158551.0       157965.0       157374.0       156777.0       156175.0
       155568.0       154987.0       154396.0       153791.0       153205.0
       152595.0       151977.0       151367.0       150743.0       150134.0
       149525.0       148898.0       148282.0       147660.0       147021.0
       146367.0       145702.0       145050.0       144393.0       143701.0
       142999.0       142308.0       141600.0       140891.0       140194.0
       139466.0       138732.0       138007.0       137249.0       136483.0
       135742.0       134978.0       134191.0       133403.0       132601.0
       131807.0       130998.0       130153.0       129335.0       128532.0
       127681.0       126811.0       125953.0       125089.0       124196.0
       123302.0       122416.0       121487.0       120563.0       119686.0
       118774.0       117828.0       116904.0       115988.0       115038.0
       114063.0       113121.0       112204.0       111249.0       110285.0
       109346.0       108382.0       107398.0       106449.0       105501.0
       104521.0       103553.0       102588.0       101611.0       100647.0
       99694.00       98733.00       97747.00       96770.00       95810.00
       94833.00       93863.00       92917.00       91972.00       90994.00
       90009.00       89049.00       88076.00       87100.00       86127.00
       85159.00       84210.00       83236.00       82256.00       81291.00
       80305.00       79320.00       78357.00       77385.00       76420.00
       75453.00       74467.00       73476.00       72493.00       71536.00
       70549.00       69568.00       68611.00       67613.00       66626.00
       65639.00       64638.00       63638.00       62621.00       61615.00
       60607.00       59598.00       58600.00       57586.00       56574.00
       55561.00       54537.00       53510.00       52477.00       51466.00
       50453.00       49418.00       48378.00       47318.00       46254.00
       45213.00       44171.00       43101.00       42018.00       40954.00
       39888.00       38801.00       37722.00       36639.00       35545.00
       34456.00       33351.00       32229.00       31117.00       30018.00
       28914.00       27817.00       26726.00       25616.00       24496.00
       23364.00       22237.00       21128.00       20002.00       18883.00
       17783.00       16671.00       15545.00       14410.00       13301.00
       12202.00       11059.00       9925.000       8811.000       7684.000
       6555.000       5424.000       4300.000       3177.000       2059.000
       952.0000      -176.0000      -1298.000      -2410.000      -3524.000
      -4636.000      -5772.000      -6904.000      -8033.000      -9162.000
      -10252.00      -11349.00      -12464.00      -13570.00      -14655.00
      -15757.00      -16888.00      -17969.00      -19057.00      -20185.00
      -21268.00      -22341.00      -23472.00      -24641.00      -25776.00
      -26899.00      -28013.00      -29107.00      -30234.00      -31356.00
      -32479.00      -33614.00      -34739.00      -35876.00      -37013.00
      -38143.00      -39280.00      -40442.00      -41588.00      -42687.00
      -43824.00      -45003.00      -46161.00      -47294.00      -48406.00
      -49529.00      -50657.00      -51768.00      -52914.00      -54046.00
      -55119.00      -56232.00      -57364.00      -58456.00      -59546.00
      -60635.00      -61724.00      -62823.00      -63905.00      -64949.00
      -65994.00      -67061.00      -68107.00      -69130.00      -70153.00
      -71190.00      -72223.00      -73241.00      -74248.00      -75238.00
      -76221.00      -77192.00      -78171.00      -79160.00      -80137.00
