     0.02500000      -12345.00      -12345.00   1.015860e+09      -12345.00
   0.0005380000       1859.976      -705.0195      -12345.00      -12345.00
      -12345.00      -12345.00      -12345.00      -12345.00      -12345.00
      -12345.00      -12345.00      -12345.00      -12345.00      -12345.00
      -12345.00      -12345.00      -12345.00      -12345.00      -12345.00
      -12345.00      -12345.00      -12345.00      -12345.00      -12345.00
      -12345.00      -29.01100      -70.70050       2274.000       0.000000
      -42.72450       173.0647      -12345.00       22.00000      -12345.00
      -12345.00      -12345.00      -12345.00      -12345.00      -12345.00
      -12345.00      -12345.00      -12345.00      -12345.00      -12345.00
       9746.794       128.1560       221.4171       87.65891      -12345.00
      -12345.00      -12345.00       0.000000       0.000000      -12345.00
      -12345.00      -12345.00      -12345.00      -12345.00      -12345.00
      -12345.00      -12345.00      -12345.00      -12345.00      -12345.00
      2016       318        11        14        44
        19         6    -12345    -12345     74400
    -12345    -12345    -12345    -12345    -12345
         1    -12345    -12345    -12345    -12345
    -12345    -12345    -12345    -12345    -12345
    -12345    -12345    -12345    -12345    -12345
    -12345    -12345    -12345    -12345    -12345
         1    -12345    -12345    -12345    -12345
LCO     South Island, Ne
60      -12345  -12345  
-12345  -12345  -12345  
-12345  -12345  -12345  
-12345  -12345  -12345  
-12345  -12345  -12345  
-12345  -12345  BHZ     
IU      -12345  Metrozet
[...]
       17590.00       17484.00       17375.00       17216.00       17096.00
       17000.00       16848.00       16651.00       16490.00       16339.00
       16192.00       16071.00       15903.00       15750.00       15596.00
       15352.00       15129.00       15039.00       15021.00       14877.00
       14636.00       14430.00       14266.00       14183.00       14131.00
       14051.00       13960.00       13832.00       13695.00       13609.00
       13521.00       13426.00       13345.00       13325.00       13300.00
       13124.00       12933.00       12831.00       12808.00       12804.00
       12787.00       12718.00       12565.00       12446.00       12379.00
       12272.00       12132.00       12036.00       11909.00       11716.00
       11521.00       11381.00       11223.00       10960.00       10682.00
       10430.00       10195.00       9948.000       9702.000       9425.000
       9087.000       8757.000       8482.000       8159.000       7767.000
       7495.000       7225.000       6861.000       6546.000       6275.000
       6006.000       5776.000       5539.000       5253.000       4954.000
       4684.000       4459.000       4246.000       4048.000       3800.000
       3546.000       3337.000       3099.000       2899.000       2725.000
       2493.000       2232.000       2036.000       1875.000       1657.000
       1375.000       1097.000       901.0000       720.0000       515.0000
       298.0000       127.0000      -26.00000      -253.0000      -465.0000
      -648.0000      -846.0000      -1038.000      -1176.000      -1294.000
      -1457.000      -1610.000      -1728.000      -1826.000      -1953.000
      -2114.000      -2251.000      -2429.000      -2591.000      -2676.000
      -2769.000      -2909.000      -3166.000      -3382.000      -3530.000
      -3713.000      -3823.000      -3944.000      -4160.000      -4431.000
      -4680.000      -4874.000      -5142.000      -5449.000      -5667.000
      -5827.000      -6027.000      -6289.000      -6594.000      -6928.000
      -7226.000      -7475.000      -7698.000      -7926.000      -8244.000
      -8587.000      -8835.000      -9055.000      -9319.000      -9583.000
      -9834.000      -10170.00      -10546.00      -10762.00      -10902.00
      -11190.00      -11529.00      -11787.00      -12048.00      -12292.00
      -12552.00      -12819.00      -13078.00      -13378.00      -13604.00
      -13834.00      -14061.00      -14269.00      -14544.00      -14836.00
      -15147.00      -15386.00      -15609.00      -15895.00      -16120.00
      -16335.00      -16612.00      -16903.00      -17160.00      -17416.00
      -17672.00      -17877.00      -18146.00      -18446.00      -18649.00
      -18858.00      -19144.00      -19482.00      -19758.00      -20009.00
      -20273.00      -20465.00      -20722.00      -21118.00      -21475.00
      -21711.00      -22007.00      -22346.00      -22660.00      -22939.00
      -23224.00      -23595.00      -23872.00      -24173.00      -24570.00
      -24908.00      -25270.00      -25632.00      -25926.00      -26199.00
      -26541.00      -26861.00      -27125.00      -27476.00      -27864.00
      -28212.00      -28458.00      -28718.00      -29011.00      -29292.00
      -29653.00      -29976.00      -30279.00      -30556.00      -30861.00
      -31251.00      -31539.00      -31826.00      -32200.00      -32564.00
      -32844.00      -33121.00      -33466.00      -33815.00      -34190.00
      -34570.00      -34916.00      -35247.00      -35575.00      -35834.00
      -36144.00      -36550.00      -36861.00      -37199.00      -37536.00
      -37817.00      -38084.00      -38343.00      -38756.00      -39163.00
      -39490.00      -39770.00      -39998.00      -40284.00      -40593.00
      -40919.00      -41209.00      -41488.00      -41859.00      -42194.00
      -42506.00      -42814.00      -43053.00      -43344.00      -43703.00
      -44065.00      -44420.00      -44760.00      -45086.00      -45383.00
      -45650.00      -45980.00      -46389.00      -46786.00      -47137.00
      -47457.00      -47783.00      -48155.00      -48560.00      -48902.00
      -49184.00      -49500.00      -49857.00      -50170.00      -50411.00
      -50660.00      -50967.00      -51278.00      -51544.00      -51824.00
      -52082.00      -52278.00      -52480.00      -52740.00      -53029.00
      -53286.00      -53523.00      -53754.00      -54022.00      -54281.00
      -54490.00      -54761.00      -55045.00      -55276.00      -55489.00
      -55754.00      -56092.00      -56375.00      -56632.00      -56868.00
      -57144.00      -57509.00      -57807.00      -58119.00      -58447.00
      -58751.00      -59032.00      -59343.00      -59752.00      -60112.00
      -60437.00      -60730.00      -61071.00      -61524.00      -61882.00
      -62139.00      -62413.00      -62783.00      -63230.00      -63603.00
      -63960.00      -64382.00      -64735.00      -65007.00      -65291.00
      -65593.00      -65907.00      -66280.00      -66674.00      -66939.00
      -67187.00      -67490.00      -67704.00      -67957.00      -68316.00
      -68657.00      -68898.00      -69063.00      -69239.00      -69468.00
      -69781.00      -70009.00      -70211.00      -70430.00      -70600.00
      -70804.00      -70961.00      -71188.00      -71398.00      -71485.00
      -71641.00      -71822.00      -71984.00      -72154.00      -72357.00
      -72496.00      -72537.00      -72663.00      -72812.00      -72891.00
      -72994.00      -73099.00      -73253.00      -73468.00      -73535.00
      -73476.00      -73550.00      -73735.00      -73886.00      -73970.00
      -74035.00      -74119.00      -74109.00      -74179.00      -74369.00
      -74480.00      -74519.00      -74521.00      -74587.00      -74663.00
      -74749.00      -74889.00      -74910.00      -74912.00      -75080.00
      -75262.00      -75329.00      -75376.00      -75412.00      -75404.00
      -75405.00      -75494.00      -75664.00      -75776.00      -75810.00
      -75774.00      -75765.00      -75866.00      -75934.00      -75981.00
      -76004.00      -75939.00      -75911.00      -75939.00      -75899.00
      -75835.00      -75803.00      -75782.00      -75736.00      -75563.00
      -75405.00      -75308.00      -75223.00      -75214.00      -75108.00
      -74933.00      -74790.00      -74606.00      -74395.00      -74191.00
      -74069.00      -73933.00      -73705.00      -73468.00      -73251.00
      -73108.00      -73001.00      -72769.00      -72478.00      -72253.00
      -72040.00      -71855.00      -71664.00      -71409.00      -71119.00
      -70850.00      -70666.00      -70479.00      -70251.00      -70034.00
      -69781.00      -69509.00      -69291.00      -69150.00      -69003.00
      -68776.00      -68597.00      -68403.00      -68104.00      -67894.00
      -67736.00      -67574.00      -67487.00      -67357.00      -67143.00
      -66908.00      -66678.00      -66487.00      -66296.00      -66126.00
      -66017.00      -65906.00      -65738.00      -65481.00      -65173.00
      -64930.00      -64756.00      -64575.00      -64381.00      -64198.00
      -64061.00      -63849.00      -63480.00      -63154.00      -62994.00
      -62918.00      -62721.00      -62393.00      -62123.00      -61931.00
      -61715.00      -61438.00      -61181.00      -61036.00      -60931.00
      -60673.00      -60340.00      -60033.00      -59746.00      -59489.00
      -59192.00      -58938.00      -58674.00      -58340.00      -58011.00
      -57661.00      -57297.00      -56914.00      -56566.00      -56198.00
      -55746.00      -55397.00      -55064.00      -54564.00      -54042.00
      -53663.00      -53423.00      -53074.00      -52517.00      -51973.00
      -51556.00      -51267.00      -50913.00      -50429.00      -50078.00
      -49788.00      -49371.00      -48816.00      -48346.00      -48135.00
      -47865.00      -47381.00      -46908.00      -46530.00      -46194.00
      -45902.00      -45491.00      -44937.00      -44471.00      -44144.00
      -43779.00      -43242.00      -42772.00      -42357.00      -41821.00
      -41192.00      -40571.00      -40019.00      -39473.00      -38995.00
      -38476.00      -37939.00      -37446.00      -36797.00      -36003.00
      -35336.00      -34744.00      -34098.00      -33571.00      -33026.00
      -32370.00      -31626.00      -30864.00      -30184.00      -29504.00
      -28859.00      -28284.00      -27681.00      -26978.00      -26231.00
      -25528.00      -24970.00      -24413.00      -23741.00      -23083.00
      -22474.00      -21880.00      -21287.00      -20670.00      -19976.00
      -19367.00      -18862.00      -18312.00      -17705.00      -17058.00
      -16382.00      -15770.00      -15268.00      -14678.00      -14030.00
      -13420.00      -12814.00      -12257.00      -11658.00      -11045.00
      -10483.00      -9762.000      -9047.000      -8513.000      -7980.000
      -7404.000      -6794.000      -6195.000      -5554.000      -4905.000
      -4336.000      -3722.000      -3073.000      -2463.000      -1838.000
      -1245.000      -620.0000       91.00000       746.0000       1411.000
       2069.000       2705.000       3390.000       4062.000       4751.000
       5406.000       6087.000       6831.000       7508.000       8103.000
       8716.000       9481.000       10274.00       11006.00       11736.00
       12411.00       13089.00       13810.00       14596.00       15422.00
       16136.00       16748.00       17397.00       18156.00       18974.00
       19841.00       20646.00       21336.00       22091.00       22891.00
       23700.00       24494.00       25242.00       26006.00       26830.00
       27679.00       28425.00       29098.00       29935.00       30873.00
       31668.00       32382.00       33135.00       33925.00       34695.00
       35441.00       36236.00       36972.00       37684.00       38442.00
       39181.00       39931.00       40637.00       41358.00       42074.00
       42774.00       43572.00       44388.00       45068.00       45648.00
       46303.00       47050.00       47794.00       48430.00       49140.00
       49960.00       50750.00       51505.00       52165.00       52898.00
       53662.00       54410.00       55185.00       55976.00       56802.00
       57444.00       58109.00       58904.00       59696.00       60462.00
       61149.00       61939.00       62771.00       63498.00       64125.00
       64789.00       65519.00       66204.00       66893.00       67596.00
       68312.00       68964.00       69621.00       70250.00       70750.00
       71410.00       72226.00       72953.00       73634.00       74289.00
       74862.00       75492.00       76196.00       76850.00       77458.00
       78164.00       78995.00       79673.00       80256.00       80989.00
       81806.00       82586.00       83305.00       83985.00       84695.00
       85364.00       85992.00       86670.00       87350.00       88107.00
       88826.00       89480.00       90173.00       90869.00       91560.00
       92211.00       92938.00       93664.00       94373.00       95073.00
       95675.00       96374.00       97116.00       97801.00       98495.00
       99197.00       99929.00       100617.0       101263.0       101965.0
       102650.0       103290.0       103992.0       104692.0       105339.0
       106044.0       106832.0       107515.0       108049.0       108646.0
       109355.0       110078.0       110756.0       111328.0       111852.0
       112438.0       113011.0       113555.0       114110.0       114702.0
       115267.0       115726.0       116158.0       116650.0       117193.0
       117676.0       118074.0       118461.0       118907.0       119312.0
       119669.0       120019.0       120364.0       120799.0       121225.0
       121569.0       121897.0       122295.0       122685.0       122941.0
       123229.0       123634.0       124031.0       124333.0       124629.0
       125004.0       125366.0       125676.0       126001.0       126300.0
       126557.0       126992.0       127455.0       127776.0       128112.0
       128434.0       128762.0       129136.0       129571.0       129972.0
       130272.0       130628.0       130990.0       131339.0       131778.0
       132186.0       132507.0       132847.0       133173.0       133493.0
       133821.0       134131.0       134504.0       134838.0       135107.0
       135427.0       135750.0       136008.0       136246.0       136666.0
       137115.0       137351.0       137547.0       137754.0       137977.0
       138246.0       138593.0       138946.0       139169.0       139358.0
       139592.0       139841.0       140016.0       140163.0       140379.0
       140676.0       140903.0       140962.0       141108.0       141355.0
       141588.0       141768.0       141876.0       142008.0       142151.0
       142365.0       142613.0       142746.0       142873.0       143015.0
       143146.0       143345.0       143495.0       143613.0       143763.0
       143882.0       144018.0       144148.0       144288.0       144453.0
       144570.0       144709.0       144872.0       144986.0       145124.0
       145307.0       145489.0       145581.0       145560.0       145735.0
       146008.0       146068.0       146192.0       146433.0       146588.0
       146584.0       146550.0       146687.0       146853.0       146946.0
       147056.0       147148.0       147241.0       147414.0       147530.0
       147588.0       147607.0       147579.0       147661.0       147801.0
       147954.0       148048.0       148039.0       148051.0       148077.0
       148136.0       148157.0       148152.0       148218.0       148216.0
       148188.0       148228.0       148211.0       148171.0       148139.0
       148040.0       147976.0       147936.0       147936.0       147938.0
       147824.0       147717.0       147597.0       147447.0       147328.0
       147219.0       147138.0       147057.0       146912.0       146716.0
       146505.0       146416.0       146444.0       146315.0       146110.0
       145925.0       145719.0       145540.0       145335.0       145200.0
       145110.0       144913.0       144707.0       144517.0       144306.0
       144083.0       143809.0       143550.0       143337.0       143139.0
       142925.0       142623.0       142275.0       141993.0       141762.0
       141500.0       141260.0       141027.0       140718.0       140367.0
       140117.0       139882.0       139513.0       139200.0       138924.0
       138664.0       138462.0       138228.0       137939.0       137571.0
       137287.0       137116.0       136816.0       136495.0       136258.0
       136049.0       135935.0       135659.0       135291.0       135034.0
       134774.0       134528.0       134243.0       134083.0       133992.0
       133695.0       133293.0       132958.0       132744.0       132536.0
       132190.0       131836.0       131561.0       131288.0       131028.0
       130726.0       130482.0       130270.0       129970.0       129592.0
       129173.0       128885.0       128612.0       128252.0       127931.0
       127681.0       127374.0       126993.0       126701.0       126474.0
       126166.0       125663.0       125201.0       124931.0       124663.0
       124360.0       124007.0       123619.0       123167.0       122732.0
       122455.0       122115.0       121644.0       121149.0       120657.0
       120192.0       119781.0       119390.0       118884.0       118290.0
       117756.0       117295.0       116725.0       116110.0       115685.0
       115286.0       114738.0       114169.0       113673.0       113159.0
       112628.0       112129.0       111571.0       111014.0       110553.0
       110099.0       109632.0       109169.0       108645.0       108083.0
       107578.0       107150.0       106683.0       106095.0       105554.0
       105152.0       104712.0       104090.0       103507.0       103104.0
       102663.0       102174.0       101661.0       101076.0       100501.0
       99960.00       99463.00       98960.00       98442.00       97909.00
       97373.00       96936.00       96419.00       95788.00       95283.00
       94855.00       94307.00       93639.00       93028.00       92530.00
       92098.00       91667.00       91083.00       90347.00       89716.00
       89230.00       88637.00       88060.00       87671.00       87138.00
       86355.00       85610.00       85082.00       84595.00       83969.00
       83323.00       82613.00       81955.00       81402.00       80753.00
       80055.00       79358.00       78701.00       78042.00       77377.00
       76732.00       76068.00       75459.00       74817.00       74084.00
       73418.00       72769.00       72087.00       71489.00       70936.00
       70288.00       69624.00       69004.00       68383.00       67773.00
       67119.00       66417.00       65780.00       65243.00       64711.00
       64134.00       63480.00       62782.00       62142.00       61625.00
       61044.00       60365.00       59811.00       59255.00       58656.00
       58015.00       57325.00       56755.00       56283.00       55791.00
       55167.00       54515.00       53986.00       53439.00       52847.00
       52348.00       51873.00       51359.00       50767.00       50160.00
       49639.00       49112.00       48574.00       47971.00       47335.00
       46795.00       46246.00       45616.00       45041.00       44455.00
       43720.00       43082.00       42540.00       41851.00       41072.00
       40362.00       39678.00       38967.00       38350.00       37746.00
       37026.00       36291.00       35520.00       34735.00       34064.00
       33467.00       32789.00       31984.00       31230.00       30612.00
       29991.00       29302.00       28588.00       27937.00       27262.00
       26533.00       25931.00       25376.00       24749.00       24088.00
       23432.00       22801.00       22232.00       21760.00       21174.00
       20448.00       19866.00       19353.00       18754.00       18146.00
       17666.00       17167.00       16455.00       15832.00       15405.00
