     0.05000000      -12345.00      -12345.00   5.457620e+09      -12345.00
   0.0005380000       1859.951      -705.0195      -12345.00      -12345.00
      -12345.00      -12345.00      -12345.00      -12345.00      -12345.00
      -12345.00      -12345.00      -12345.00      -12345.00      -12345.00
      -12345.00      -12345.00      -12345.00      -12345.00      -12345.00
      -12345.00      -12345.00      -12345.00      -12345.00      -12345.00
      -12345.00      -29.01100      -70.70050       2274.000       0.000000
      -42.72450       173.0647      -12345.00       22.00000      -12345.00
      -12345.00      -12345.00      -12345.00      -12345.00      -12345.00
      -12345.00      -12345.00      -12345.00      -12345.00      -12345.00
       9746.794       128.1560       221.4171       87.65891      -12345.00
      -12345.00      -12345.00       0.000000       0.000000      -12345.00
      -12345.00      -12345.00      -12345.00      -12345.00      -12345.00
      -12345.00      -12345.00      -12345.00      -12345.00      -12345.00
      2016       318        11        14        44
        19         6    -12345    -12345     37200
    -12345    -12345    -12345    -12345    -12345
         1    -12345    -12345    -12345    -12345
    -12345    -12345    -12345    -12345    -12345
    -12345    -12345    -12345    -12345    -12345
    -12345    -12345    -12345    -12345    -12345
         1    -12345    -12345    -12345    -12345
LCO     South Island, Ne
00      -12345  -12345  
-12345  -12345  -12345  
-12345  -12345  -12345  
-12345  -12345  -12345  
-12345  -12345  -12345  
-12345  -12345  BHZ     
IU      -12345  Streckei
[...]
       405861.0       408208.0       410670.0       412904.0       415300.0
       417741.0       420036.0       422377.0       424674.0       427049.0
       429229.0       431373.0       433760.0       436033.0       438185.0
       440299.0       442543.0       444726.0       446800.0       449077.0
       451361.0       453512.0       455703.0       457899.0       460175.0
       462431.0       464602.0       466880.0       468981.0       471256.0
       473614.0       475591.0       477803.0       480124.0       482270.0
       484405.0       486624.0       488947.0       491151.0       493372.0
       495748.0       498058.0       500263.0       502642.0       504937.0
       507153.0       509575.0       511889.0       514161.0       516445.0
       518795.0       521189.0       523458.0       525893.0       528278.0
       530488.0       532941.0       535356.0       537617.0       539942.0
       542449.0       544859.0       547035.0       549494.0       551905.0
       554188.0       556692.0       559068.0       561362.0       563872.0
       566231.0       568644.0       571314.0       573667.0       575886.0
       578386.0       580977.0       583248.0       585464.0       587859.0
       590033.0       592147.0       594449.0       596545.0       598662.0
       600832.0       602647.0       604670.0       606774.0       608585.0
       610289.0       612059.0       613886.0       615491.0       617226.0
       618878.0       620254.0       621906.0       623568.0       624976.0
       626419.0       627984.0       629450.0       630874.0       632335.0
       633654.0       635072.0       636394.0       637494.0       638790.0
       639920.0       640828.0       641823.0       642753.0       643401.0
       644184.0       645027.0       645309.0       645779.0       646220.0
       646341.0       646712.0       646827.0       646718.0       646730.0
       646781.0       646616.0       646333.0       646166.0       645855.0
       645348.0       644838.0       644455.0       643876.0       643034.0
       642257.0       641361.0       640351.0       639298.0       638124.0
       636787.0       635300.0       633764.0       632109.0       630432.0
       628591.0       626605.0       624596.0       622376.0       619998.0
       617707.0       615304.0       612561.0       609833.0       607048.0
       604095.0       600988.0       597835.0       594627.0       591271.0
       587975.0       584508.0       580794.0       577075.0       573301.0
       569348.0       565278.0       561119.0       556997.0       552599.0
       548093.0       543528.0       538738.0       534170.0       529147.0
       524068.0       519134.0       513878.0       508598.0       503048.0
       497571.0       492090.0       486378.0       480706.0       475051.0
       469066.0       462907.0       457017.0       451000.0       444919.0
       438716.0       432395.0       426203.0       419901.0       413435.0
       406864.0       400513.0       394091.0       387383.0       380804.0
       374326.0       367490.0       360578.0       354036.0       347171.0
       340223.0       333501.0       326488.0       319460.0       312522.0
       305422.0       298282.0       291215.0       283947.0       276764.0
       269715.0       262292.0       255044.0       247750.0       240338.0
       233071.0       225597.0       218244.0       210824.0       203309.0
       195812.0       188369.0       180889.0       173302.0       165848.0
       158109.0       150379.0       142809.0       135036.0       127188.0
       119398.0       111570.0       103627.0       95847.00       88080.00
       80045.00       72071.00       64375.00       56510.00       48635.00
       40904.00       32919.00       25105.00       17487.00       9655.000
       1845.000      -5761.000      -13347.00      -20987.00      -28503.00
      -35839.00      -43095.00      -50385.00      -57598.00      -64607.00
      -71660.00      -78960.00      -86367.00      -93697.00      -101054.0
      -108690.0      -116344.0      -123913.0      -131533.0      -139078.0
      -146534.0      -153911.0      -161357.0      -168628.0      -175922.0
      -183204.0      -190292.0      -197644.0      -205003.0      -212370.0
      -219890.0      -227423.0      -234951.0      -242671.0      -250365.0
      -257944.0      -265501.0      -273004.0      -280500.0      -287773.0
      -295154.0      -302530.0      -309647.0      -316697.0      -323827.0
      -330827.0      -337584.0      -344361.0      -350840.0      -357273.0
      -363573.0      -369309.0      -375305.0      -381173.0      -386668.0
      -392229.0      -397677.0      -403182.0      -408343.0      -413358.0
      -418493.0      -423468.0      -428293.0      -433162.0      -437823.0
      -442384.0      -447317.0      -451945.0      -456677.0      -461752.0
      -466934.0      -472235.0      -477706.0      -483632.0      -489560.0
      -495560.0      -501491.0      -507603.0      -513644.0      -519009.0
      -524549.0      -529873.0      -534602.0      -539140.0      -543473.0
      -547330.0      -550915.0      -554537.0      -557641.0      -560730.0
      -564108.0      -567350.0      -570547.0      -573942.0      -577251.0
      -580323.0      -583636.0      -586407.0      -588868.0      -591299.0
      -593031.0      -594647.0      -596136.0      -597234.0      -598370.0
      -599783.0      -601057.0      -602343.0      -603910.0      -605547.0
      -607357.0      -609285.0      -611137.0      -612742.0      -614214.0
      -615405.0      -616448.0      -617378.0      -617707.0      -618087.0
      -618408.0      -618642.0      -619318.0      -619713.0      -620339.0
      -621265.0      -622000.0      -622810.0      -623221.0      -623446.0
      -623427.0      -622501.0      -620978.0      -618963.0      -616306.0
      -613160.0      -609370.0      -605356.0      -601272.0      -597013.0
      -593272.0      -589913.0      -586768.0      -584004.0      -581761.0
      -580071.0      -578532.0      -577182.0      -575881.0      -574729.0
      -573764.0      -572557.0      -571424.0      -570150.0      -568915.0
      -567830.0      -566302.0      -565044.0      -564138.0      -563380.0
      -562760.0      -562411.0      -562193.0      -561640.0      -561237.0
      -560419.0      -559204.0      -557770.0      -555513.0      -552738.0
      -549257.0      -545061.0      -540257.0      -534746.0      -528648.0
      -521740.0      -514743.0      -507508.0      -499188.0      -491356.0
      -483802.0      -475634.0      -468043.0      -460652.0      -453144.0
      -445878.0      -438991.0      -432222.0      -425495.0      -419130.0
      -412898.0      -407172.0      -401459.0      -395888.0      -391249.0
      -386877.0      -382703.0      -378871.0      -375094.0      -371738.0
      -368610.0      -365145.0      -362017.0      -358854.0      -355206.0
      -351553.0      -347887.0      -344232.0      -340338.0      -336361.0
      -332398.0      -328284.0      -324278.0      -320402.0      -316412.0
      -312288.0      -308301.0      -304215.0      -299875.0      -295600.0
      -291181.0      -286424.0      -281503.0      -276357.0      -271054.0
      -265784.0      -260337.0      -254762.0      -249209.0      -243773.0
      -238657.0      -233581.0      -228588.0      -223933.0      -219350.0
      -214578.0      -209846.0      -205041.0      -200069.0      -195260.0
      -190170.0      -184957.0      -179935.0      -174864.0      -169904.0
      -165039.0      -160341.0      -155675.0      -150859.0      -146304.0
      -142038.0      -137509.0      -133032.0      -129066.0      -124889.0
      -120529.0      -116530.0      -112412.0      -108346.0      -104648.0
      -100614.0      -96556.00      -92781.00      -88872.00      -84946.00
      -81101.00      -77501.00      -73909.00      -70194.00      -66439.00
      -62790.00      -59064.00      -55069.00      -51083.00      -46900.00
      -42669.00      -38280.00      -33923.00      -29534.00      -24857.00
      -20335.00      -15902.00      -11391.00      -6818.000      -2696.000
       1337.000       5723.000       9728.000       13373.00       17186.00
       20875.00       24175.00       27443.00       30596.00       33444.00
       36263.00       38949.00       41258.00       43372.00       45254.00
       47264.00       49403.00       51125.00       52868.00       54684.00
       56353.00       58056.00       59765.00       61355.00       62817.00
       64408.00       65866.00       67218.00       68771.00       70308.00
       72159.00       74110.00       75921.00       78119.00       80442.00
       82687.00       85036.00       87349.00       89924.00       92674.00
       95003.00       97205.00       99504.00       101559.0       103454.0
       105360.0       106986.0       108355.0       109543.0       110434.0
       111190.0       111688.0       111779.0       111694.0       111336.0
       110762.0       109956.0       108902.0       107752.0       106383.0
       104957.0       103333.0       101562.0       99889.00       98251.00
       96635.00       95074.00       93570.00       92003.00       90585.00
       89183.00       87587.00       85953.00       84275.00       82583.00
       80728.00       79106.00       77683.00       75857.00       74429.00
       73404.00       72251.00       71244.00       70226.00       69431.00
       68550.00       67411.00       66807.00       66085.00       64972.00
       63954.00       62650.00       60948.00       59133.00       56933.00
       54245.00       51500.00       48490.00       45273.00       41931.00
       38499.00       35271.00       32103.00       29120.00       26373.00
       23647.00       21036.00       18575.00       16084.00       13839.00
       11627.00       9201.000       6816.000       4383.000       2034.000
      -234.0000      -2354.000      -4428.000      -6463.000      -8128.000
      -9677.000      -11242.00      -12596.00      -14019.00      -15688.00
      -17175.00      -18917.00      -20909.00      -22609.00      -24712.00
      -27148.00      -29676.00      -32317.00      -34796.00      -37576.00
      -40564.00      -43459.00      -46398.00      -49347.00      -52087.00
      -54995.00      -58099.00      -60860.00      -63807.00      -66801.00
      -69499.00      -72247.00      -74940.00      -77565.00      -80313.00
      -83086.00      -85842.00      -88562.00      -91191.00      -94021.00
      -96802.00      -99486.00      -102173.0      -104876.0      -107926.0
      -110884.0      -113795.0      -116979.0      -120253.0      -123640.0
      -127069.0      -130462.0      -134009.0      -137621.0      -141146.0
      -144594.0      -147948.0      -151448.0      -154695.0      -157889.0
      -161314.0      -164639.0      -168059.0      -171419.0      -174928.0
      -178492.0      -182053.0      -185815.0      -189493.0      -193130.0
      -196575.0      -200082.0      -203710.0      -206985.0      -210445.0
      -214032.0      -217270.0      -220541.0      -223790.0      -227110.0
      -230514.0      -233819.0      -237236.0      -240811.0      -244413.0
      -247934.0      -251680.0      -255550.0      -259335.0      -263117.0
      -266705.0      -270184.0      -273493.0      -276489.0      -279450.0
      -282243.0      -284853.0      -287542.0      -290206.0      -292910.0
      -295604.0      -298266.0      -301054.0      -304075.0      -307072.0
      -310021.0      -313407.0      -316784.0      -320107.0      -323814.0
      -327431.0      -331157.0      -335119.0      -338834.0      -342639.0
      -346659.0      -350403.0      -353866.0      -357404.0      -360861.0
      -364102.0      -367144.0      -370170.0      -373079.0      -375599.0
      -378129.0      -380539.0      -382682.0      -384804.0      -386798.0
      -388603.0      -390385.0      -392062.0      -393450.0      -394824.0
      -396083.0      -397336.0      -398608.0      -399536.0      -400622.0
      -401655.0      -402413.0      -403421.0      -404352.0      -405090.0
      -405988.0      -406827.0      -407632.0      -408631.0      -409361.0
      -409932.0      -410814.0      -411517.0      -411919.0      -412341.0
      -412612.0      -412633.0      -412346.0      -411911.0      -411285.0
      -410198.0      -409092.0      -407947.0      -406476.0      -404729.0
      -402890.0      -400971.0      -398878.0      -396872.0      -394598.0
      -392275.0      -390081.0      -387480.0      -384987.0      -382685.0
      -380239.0      -377959.0      -375827.0      -373732.0      -371590.0
      -369540.0      -367797.0      -365947.0      -363949.0      -361903.0
      -360044.0      -358136.0      -355863.0      -353636.0      -351369.0
      -349192.0      -346765.0      -344350.0      -342126.0      -339619.0
      -337222.0      -334755.0      -332394.0      -329854.0      -326941.0
      -324040.0      -320898.0      -317476.0      -313734.0      -309757.0
      -305732.0      -301392.0      -296778.0      -292463.0      -288059.0
      -283569.0      -279299.0      -275247.0      -271041.0      -266744.0
      -262923.0      -258717.0      -254473.0      -250185.0      -245511.0
      -240900.0      -235923.0      -230574.0      -224822.0      -218910.0
      -213006.0      -206854.0      -200243.0      -193430.0      -186769.0
      -179881.0      -172621.0      -165302.0      -158321.0      -151289.0
      -144195.0      -137462.0      -130712.0      -124062.0      -117491.0
      -111019.0      -104730.0      -98239.00      -91725.00      -85234.00
      -78652.00      -72180.00      -65748.00      -58996.00      -52383.00
      -46078.00      -39494.00      -32894.00      -26306.00      -19593.00
      -12869.00      -5919.000       1179.000       8248.000       15431.00
       22802.00       30265.00       37576.00       45044.00       52899.00
       60545.00       68194.00       76157.00       83915.00       91805.00
       100154.0       108443.0       116892.0       125389.0       133898.0
       142459.0       150877.0       159591.0       168043.0       176313.0
       184675.0       192816.0       200805.0       208710.0       216534.0
       224233.0       232064.0       239636.0       247216.0       254969.0
       262739.0       270836.0       278777.0       286911.0       295265.0
       303347.0       311525.0       319635.0       327701.0       335614.0
       343159.0       350671.0       358019.0       365452.0       372539.0
       379405.0       386753.0       393874.0       400999.0       408343.0
       415873.0       423464.0       431008.0       438798.0       446420.0
       453914.0       461480.0       469070.0       476582.0       484068.0
       491531.0       499019.0       506485.0       513839.0       521384.0
       528945.0       536478.0       543954.0       551419.0       558791.0
       566191.0       573559.0       580544.0       587657.0       594449.0
       600760.0       607000.0       612997.0       618609.0       623891.0
       628970.0       633672.0       638127.0       642378.0       646429.0
       650417.0       654349.0       658169.0       661948.0       665651.0
       669302.0       672989.0       676534.0       680348.0       684335.0
       688058.0       692016.0       696102.0       700005.0       704011.0
       708041.0       711865.0       715509.0       719176.0       722710.0
       726139.0       729448.0       732704.0       736018.0       738852.0
       741779.0       744777.0       747392.0       749886.0       752210.0
       754539.0       756518.0       758472.0       760552.0       762288.0
       764175.0       765992.0       767593.0       769344.0       770959.0
       772542.0       774073.0       775587.0       777131.0       778621.0
       780189.0       781548.0       782981.0       784395.0       785822.0
       787066.0       788092.0       789378.0       790409.0       791548.0
       792500.0       793159.0       794133.0       794926.0       795444.0
       795887.0       796201.0       796300.0       796341.0       796240.0
       795808.0       795344.0       794754.0       793889.0       792813.0
       791604.0       790418.0       788948.0       787548.0       786304.0
       784640.0       782873.0       781142.0       779229.0       777137.0
       774815.0       772350.0       769872.0       767140.0       764200.0
       761353.0       758423.0       755353.0       752338.0       749164.0
       746236.0       743433.0       740406.0       737639.0       734837.0
       732203.0       729634.0       726878.0       724165.0       721599.0
       718824.0       715755.0       712916.0       709830.0       706677.0
       703633.0       700484.0       697199.0       693808.0       690466.0
       687012.0       683603.0       680221.0       676533.0       672719.0
       669132.0       665166.0       660927.0       656793.0       652059.0
       647118.0       642160.0       636776.0       631272.0       625682.0
       620150.0       614626.0       609010.0       603540.0       597976.0
       592621.0       587436.0       582013.0       576714.0       571275.0
       565877.0       560414.0       554818.0       549495.0       543804.0
       538204.0       532623.0       526944.0       521415.0       515630.0
       510021.0       504123.0       498215.0       492524.0       486449.0
       480210.0       474109.0       467939.0       461232.0       454758.0
       448057.0       441064.0       434211.0       427005.0       419883.0
       412690.0       405600.0       398529.0       391334.0       384511.0
       377692.0       370910.0       364239.0       357354.0       350779.0
       344355.0       337579.0       330980.0       324513.0       318009.0
       311487.0       305127.0       299003.0       292823.0       286699.0
       280811.0       275021.0       269050.0       263161.0       257061.0
       250696.0       244351.0       237638.0       230771.0       223662.0
       216244.0       208806.0       201435.0       193861.0       186117.0
       178601.0       170938.0       163392.0       156141.0       148835.0
       141656.0       134772.0       127958.0       121248.0       114946.0
       108563.0       102159.0       96034.00       89886.00       83767.00
