     0.05000000      -12345.00      -12345.00   4.362070e+09      -12345.00
   0.0005380000       1859.951      -705.0195      -12345.00      -12345.00
      -12345.00      -12345.00      -12345.00      -12345.00      -12345.00
      -12345.00      -12345.00      -12345.00      -12345.00      -12345.00
      -12345.00      -12345.00      -12345.00      -12345.00      -12345.00
      -12345.00      -12345.00      -12345.00      -12345.00      -12345.00
      -12345.00      -29.01100      -70.70050       2274.000       0.000000
      -42.72450       173.0647      -12345.00       22.00000      -12345.00
      -12345.00      -12345.00      -12345.00      -12345.00      -12345.00
      -12345.00      -12345.00      -12345.00      -12345.00      -12345.00
       9746.794       128.1560       221.4171       87.65891      -12345.00
      -12345.00      -12345.00       90.00000       90.00000      -12345.00
      -12345.00      -12345.00      -12345.00      -12345.00      -12345.00
      -12345.00      -12345.00      -12345.00      -12345.00      -12345.00
      2016       318        11        14        44
        19         6    -12345    -12345     37200
    -12345    -12345    -12345    -12345    -12345
         1    -12345    -12345    -12345    -12345
    -12345    -12345    -12345    -12345    -12345
    -12345    -12345    -12345    -12345    -12345
    -12345    -12345    -12345    -12345    -12345
         1    -12345    -12345    -12345    -12345
LCO     South Island, Ne
00      -12345  -12345  
-12345  -12345  -12345  
-12345  -12345  -12345  
-12345  -12345  -12345  
-12345  -12345  -12345  
-12345  -12345  BH2     
IU      -12345  Streckei
[...]
       70489.00       73291.00       76091.00       78764.00       81336.00
       83846.00       86137.00       88330.00       90420.00       92354.00
       94202.00       95882.00       97483.00       98964.00       100270.0
       101490.0       102527.0       103395.0       104093.0       104689.0
       105113.0       105282.0       105348.0       105240.0       104924.0
       104440.0       103870.0       102992.0       101972.0       101018.0
       99744.00       98382.00       96951.00       95399.00       93698.00
       91739.00       89880.00       87863.00       85544.00       83227.00
       80841.00       78248.00       75522.00       72695.00       69650.00
       66492.00       63324.00       59967.00       56311.00       52676.00
       48941.00       44949.00       40922.00       36715.00       32437.00
       28042.00       23497.00       19031.00       14353.00       9594.000
       4813.000      -115.0000      -4980.000      -10045.00      -15166.00
      -20295.00      -25437.00      -30538.00      -35837.00      -41096.00
      -46301.00      -51556.00      -56929.00      -62347.00      -67598.00
      -72954.00      -78363.00      -83640.00      -89053.00      -94406.00
      -99703.00      -105029.0      -110258.0      -115472.0      -120486.0
      -125497.0      -130473.0      -135249.0      -139953.0      -144440.0
      -148868.0      -153139.0      -157143.0      -161109.0      -164810.0
      -168344.0      -171726.0      -174849.0      -177872.0      -180635.0
      -183156.0      -185536.0      -187686.0      -189567.0      -191227.0
      -192586.0      -193774.0      -194761.0      -195520.0      -196196.0
      -196494.0      -196658.0      -196849.0      -196655.0      -196287.0
      -195776.0      -194958.0      -194046.0      -192993.0      -191821.0
      -190349.0      -188733.0      -186976.0      -185001.0      -183108.0
      -181018.0      -178832.0      -176422.0      -173919.0      -171363.0
      -168591.0      -165821.0      -162875.0      -159934.0      -156806.0
      -153562.0      -150252.0      -146774.0      -143298.0      -139505.0
      -135698.0      -131863.0      -127779.0      -123651.0      -119361.0
      -114939.0      -110512.0      -105977.0      -101261.0      -96478.00
      -91618.00      -86554.00      -81390.00      -76161.00      -70743.00
      -65265.00      -59563.00      -53781.00      -48011.00      -42084.00
      -36192.00      -30094.00      -23937.00      -17815.00      -11662.00
      -5439.000       818.0000       7022.000       13298.00       19450.00
       25518.00       31456.00       37398.00       43293.00       48948.00
       54526.00       59872.00       64960.00       69928.00       74776.00
       79369.00       83760.00       88028.00       92126.00       96031.00
       99750.00       103301.0       106531.0       109749.0       112879.0
       115635.0       118342.0       120775.0       122980.0       125198.0
       127210.0       129001.0       130676.0       132301.0       133784.0
       135132.0       136320.0       137395.0       138549.0       139531.0
       140374.0       141216.0       142024.0       142743.0       143253.0
       143806.0       144255.0       144665.0       145016.0       145174.0
       145414.0       145564.0       145699.0       145723.0       145697.0
       145685.0       145602.0       145575.0       145419.0       145219.0
       144955.0       144585.0       144204.0       143718.0       143097.0
       142398.0       141496.0       140445.0       139351.0       138075.0
       136715.0       135121.0       133281.0       131303.0       129120.0
       126776.0       124283.0       121571.0       118545.0       115493.0
       112196.0       108496.0       104819.0       100977.0       96808.00
       92513.00       88144.00       83592.00       78827.00       73858.00
       68813.00       63662.00       58312.00       52941.00       47437.00
       41864.00       36332.00       30757.00       25166.00       19665.00
       14252.00       8781.000       3467.000      -1616.000      -6624.000
      -11464.00      -16111.00      -20593.00      -24869.00      -29001.00
      -32926.00      -36538.00      -40023.00      -43260.00      -46135.00
      -48892.00      -51316.00      -53426.00      -55422.00      -57141.00
      -58646.00      -59972.00      -60987.00      -61672.00      -62276.00
      -62693.00      -62736.00      -62730.00      -62512.00      -62072.00
      -61580.00      -60797.00      -59842.00      -58745.00      -57496.00
      -56159.00      -54637.00      -53088.00      -51359.00      -49437.00
      -47555.00      -45511.00      -43346.00      -41102.00      -38771.00
      -36352.00      -33802.00      -31197.00      -28632.00      -25958.00
      -23088.00      -20223.00      -17246.00      -14214.00      -11089.00
      -7763.000      -4407.000      -924.0000       2737.000       6350.000
       10017.00       13973.00       17940.00       21941.00       26103.00
       30260.00       34546.00       38877.00       43242.00       47777.00
       52220.00       56666.00       61162.00       65650.00       70214.00
       74666.00       79104.00       83498.00       87809.00       92090.00
       96218.00       100347.0       104431.0       108337.0       112123.0
       115791.0       119362.0       122803.0       126051.0       129205.0
       132244.0       135198.0       138054.0       140708.0       143245.0
       145687.0       147999.0       150133.0       152205.0       154168.0
       155893.0       157526.0       159153.0       160667.0       162117.0
       163546.0       164869.0       166220.0       167419.0       168541.0
       169817.0       170929.0       172042.0       173270.0       174324.0
       175381.0       176498.0       177564.0       178585.0       179555.0
       180731.0       181842.0       182772.0       183950.0       185021.0
       186149.0       187431.0       188544.0       189766.0       190987.0
       192237.0       193590.0       194980.0       196288.0       197628.0
       199051.0       200358.0       201776.0       203163.0       204449.0
       205734.0       207097.0       208393.0       209577.0       210886.0
       212127.0       213202.0       214255.0       215310.0       216371.0
       217402.0       218318.0       219350.0       220313.0       221207.0
       222130.0       223018.0       223935.0       224736.0       225620.0
       226471.0       227274.0       228055.0       228766.0       229520.0
       230249.0       230953.0       231682.0       232366.0       233095.0
       233918.0       234689.0       235626.0       236541.0       237531.0
       238645.0       239764.0       241116.0       242520.0       244063.0
       245666.0       247353.0       249124.0       251049.0       253234.0
       255464.0       257815.0       260199.0       262876.0       265640.0
       268346.0       271272.0       274147.0       277164.0       280165.0
       283075.0       286110.0       288947.0       291748.0       294496.0
       296950.0       299404.0       301695.0       303709.0       305644.0
       307443.0       308987.0       310300.0       311587.0       312636.0
       313326.0       313916.0       314359.0       314540.0       314369.0
       314004.0       313516.0       312641.0       311655.0       310422.0
       308886.0       307270.0       305281.0       303166.0       300865.0
       298322.0       295695.0       292883.0       290082.0       287008.0
       283797.0       280668.0       277339.0       273997.0       270611.0
       267231.0       263744.0       260144.0       256760.0       253312.0
       249941.0       246634.0       243214.0       240039.0       237003.0
       234052.0       231221.0       228523.0       225984.0       223557.0
       221407.0       219379.0       217478.0       215831.0       214345.0
       213128.0       212061.0       211191.0       210559.0       210058.0
       209761.0       209599.0       209756.0       210080.0       210468.0
       211056.0       211718.0       212616.0       213659.0       214798.0
       216222.0       217742.0       219426.0       221436.0       223440.0
       225686.0       228260.0       230850.0       233812.0       236998.0
       240331.0       244019.0       247872.0       251998.0       256310.0
       260838.0       265765.0       270840.0       276160.0       281738.0
       287501.0       293523.0       299762.0       306198.0       312835.0
       319730.0       326801.0       334078.0       341563.0       349219.0
       357083.0       365043.0       373166.0       381477.0       389812.0
       398269.0       406846.0       415438.0       424064.0       432757.0
       441448.0       450005.0       458548.0       467071.0       475424.0
       483716.0       491941.0       499939.0       507825.0       515567.0
       523139.0       530624.0       537833.0       544877.0       551880.0
       558594.0       565158.0       571654.0       577870.0       583979.0
       589975.0       595802.0       601462.0       606970.0       612433.0
       617751.0       622937.0       628029.0       632962.0       637756.0
       642489.0       647120.0       651624.0       656030.0       660353.0
       664549.0       668643.0       672678.0       676578.0       680468.0
       684169.0       687724.0       691287.0       694545.0       697659.0
       700677.0       703379.0       705840.0       708203.0       710251.0
       712104.0       713801.0       715109.0       716325.0       717195.0
       717762.0       718138.0       718183.0       718050.0       717571.0
       716836.0       715869.0       714618.0       713018.0       711026.0
       708831.0       706301.0       703330.0       700114.0       696553.0
       692625.0       688337.0       683679.0       678814.0       673500.0
       667856.0       661941.0       655731.0       649250.0       642416.0
       635420.0       628000.0       620307.0       612455.0       604253.0
       595859.0       587181.0       578209.0       569099.0       559820.0
       550231.0       540421.0       530509.0       520409.0       510065.0
       499725.0       489238.0       478511.0       467779.0       456854.0
       445985.0       435065.0       424037.0       413068.0       401991.0
       391045.0       380104.0       369162.0       358393.0       347718.0
       337113.0       326659.0       316321.0       305985.0       295848.0
       285880.0       275894.0       266085.0       256443.0       246839.0
       237337.0       227968.0       218705.0       209410.0       200252.0
       191164.0       181991.0       172905.0       163841.0       154817.0
       145835.0       136836.0       127745.0       118648.0       109573.0
       100357.0       91129.00       81709.00       72197.00       62740.00
       53058.00       43272.00       33342.00       23297.00       13238.00
       3024.000      -7241.000      -17529.00      -27911.00      -38301.00
      -48675.00      -59095.00      -69547.00      -79957.00      -90420.00
      -100966.0      -111387.0      -121830.0      -132367.0      -142813.0
      -153286.0      -163765.0      -174227.0      -184725.0      -195191.0
      -205669.0      -216134.0      -226656.0      -237231.0      -247825.0
      -258511.0      -269092.0      -279760.0      -290576.0      -301343.0
      -312209.0      -323026.0      -333948.0      -344929.0      -355820.0
      -366926.0      -377964.0      -388936.0      -400137.0      -411253.0
      -422279.0      -433439.0      -444578.0      -455750.0      -466972.0
      -478149.0      -489405.0      -500729.0      -512042.0      -523342.0
      -534711.0      -546008.0      -557381.0      -568853.0      -580146.0
      -591553.0      -603064.0      -614452.0      -625840.0      -637245.0
      -648510.0      -659839.0      -671158.0      -682379.0      -693574.0
      -704597.0      -715610.0      -726563.0      -737364.0      -748039.0
      -758605.0      -769013.0      -779419.0      -789659.0      -799604.0
      -809506.0      -819166.0      -828652.0      -838031.0      -847192.0
      -856101.0      -864774.0      -873260.0      -881705.0      -890009.0
      -897993.0      -905853.0      -913512.0      -921008.0      -928376.0
      -935489.0      -942464.0      -949224.0      -955804.0      -962304.0
      -968496.0      -974383.0      -980149.0      -985711.0      -990972.0
      -996112.0      -1001013.      -1005677.      -1010204.      -1014241.
      -1018055.      -1021745.      -1025051.      -1028242.      -1031151.
      -1033687.      -1036189.      -1038413.      -1040311.      -1042043.
      -1043476.      -1044729.      -1045740.      -1046524.      -1047146.
      -1047437.      -1047610.      -1047485.      -1046985.      -1046450.
      -1045516.      -1044315.      -1043019.      -1041410.      -1039651.
      -1037605.      -1035249.      -1032719.      -1029931.      -1026910.
      -1023753.      -1020300.      -1016641.      -1012969.      -1009017.
      -1004917.      -1000856.      -996554.0      -992109.0      -987691.0
      -983132.0      -978533.0      -973839.0      -969049.0      -964421.0
      -959743.0      -955032.0      -950369.0      -945600.0      -940909.0
      -936308.0      -931615.0      -927052.0      -922491.0      -917755.0
      -913180.0      -908663.0      -904086.0      -899586.0      -895021.0
      -890439.0      -886008.0      -881591.0      -877148.0      -872777.0
      -868475.0      -864131.0      -859735.0      -855418.0      -851116.0
      -846674.0      -842276.0      -837911.0      -833438.0      -828883.0
      -824193.0      -819545.0      -814757.0      -809857.0      -804894.0
      -799771.0      -794572.0      -789106.0      -783617.0      -777963.0
      -772190.0      -766362.0      -760154.0      -753999.0      -747731.0
      -741333.0      -734688.0      -727751.0      -720895.0      -713614.0
      -706328.0      -698961.0      -691263.0      -683548.0      -675513.0
      -667314.0      -658979.0      -650538.0      -641922.0      -633137.0
      -624290.0      -615258.0      -606126.0      -596856.0      -587581.0
      -578252.0      -568781.0      -559489.0      -550187.0      -540729.0
      -531399.0      -522171.0      -512880.0      -503697.0      -494644.0
      -485633.0      -476814.0      -468014.0      -459381.0      -450946.0
      -442533.0      -434215.0      -425949.0      -417813.0      -409754.0
      -401733.0      -393696.0      -385625.0      -377594.0      -369672.0
      -361661.0      -353450.0      -345331.0      -337102.0      -328813.0
      -320563.0      -312135.0      -303788.0      -295431.0      -286949.0
      -278415.0      -269888.0      -261390.0      -252848.0      -244317.0
      -235687.0      -227023.0      -218343.0      -209615.0      -200875.0
      -192075.0      -183165.0      -174146.0      -165109.0      -155989.0
      -146817.0      -137555.0      -128152.0      -118639.0      -109010.0
      -99336.00      -89585.00      -79821.00      -70006.00      -60034.00
      -50005.00      -39919.00      -29727.00      -19578.00      -9332.000
       959.0000       11107.00       21465.00       31830.00       42119.00
       52598.00       62931.00       73194.00       83583.00       93847.00
       104115.0       114364.0       124611.0       134853.0       144882.0
       154925.0       164890.0       174753.0       184477.0       194047.0
       203497.0       212697.0       221847.0       230862.0       239581.0
       248073.0       256486.0       264725.0       272607.0       280301.0
       287808.0       295087.0       302072.0       308809.0       315423.0
       321747.0       327862.0       333758.0       339421.0       344793.0
       349864.0       354861.0       359574.0       364012.0       368354.0
       372401.0       376144.0       379760.0       383227.0       386462.0
       389473.0       392350.0       395060.0       397600.0       400004.0
       402171.0       404216.0       406174.0       407900.0       409616.0
       411282.0       412742.0       414203.0       415579.0       416733.0
       417896.0       419117.0       420135.0       421187.0       422278.0
       423193.0       424193.0       425140.0       426010.0       426984.0
       427877.0       428729.0       429650.0       430477.0       431228.0
       431982.0       432759.0       433557.0       434135.0       434691.0
       435355.0       435925.0       436378.0       436739.0       437067.0
       437278.0       437504.0       437658.0       437717.0       437784.0
       437785.0       437838.0       437714.0       437610.0       437508.0
       437265.0       437184.0       436953.0       436638.0       436465.0
       436295.0       435967.0       435640.0       435347.0       435030.0
       434793.0       434409.0       434155.0       433878.0       433567.0
       433365.0       433022.0       432857.0       432639.0       432453.0
       432417.0       432368.0       432374.0       432412.0       432551.0
       432672.0       432990.0       433397.0       433722.0       434192.0
       434821.0       435606.0       436346.0       437091.0       438111.0
       439187.0       440315.0       441639.0       442975.0       444457.0
       446064.0       447674.0       449445.0       451268.0       453134.0
       455136.0       457147.0       459194.0       461355.0       463571.0
       465808.0       468121.0       470451.0       472759.0       475026.0
       477310.0       479647.0       481832.0       484109.0       486297.0
       488337.0       490491.0       492452.0       494414.0       496216.0
       498007.0       499937.0       501538.0       503081.0       504649.0
       506128.0       507503.0       508685.0       509711.0       510630.0
       511404.0       511966.0       512295.0       512475.0       512415.0
       512041.0       511471.0       510574.0       509503.0       508270.0
       506690.0       504837.0       502661.0       500233.0       497639.0
       494730.0       491459.0       488061.0       484327.0       480218.0
       475953.0       471356.0       466440.0       461265.0       455840.0
       450081.0       444074.0       437860.0       431390.0       424633.0
