     0.02500000      -12345.00      -12345.00   1.001180e+09      -12345.00
   0.0005380000       1859.976      -705.0195      -12345.00      -12345.00
      -12345.00      -12345.00      -12345.00      -12345.00      -12345.00
      -12345.00      -12345.00      -12345.00      -12345.00      -12345.00
      -12345.00      -12345.00      -12345.00      -12345.00      -12345.00
      -12345.00      -12345.00      -12345.00      -12345.00      -12345.00
      -12345.00      -29.01100      -70.70050       2274.000       0.000000
      -42.72450       173.0647      -12345.00       22.00000      -12345.00
      -12345.00      -12345.00      -12345.00      -12345.00      -12345.00
      -12345.00      -12345.00      -12345.00      -12345.00      -12345.00
       9746.794       128.1560       221.4171       87.65891      -12345.00
      -12345.00      -12345.00       90.00000       90.00000      -12345.00
      -12345.00      -12345.00      -12345.00      -12345.00      -12345.00
      -12345.00      -12345.00      -12345.00      -12345.00      -12345.00
      2016       318        11        14        44
        19         6    -12345    -12345     74400
    -12345    -12345    -12345    -12345    -12345
         1    -12345    -12345    -12345    -12345
    -12345    -12345    -12345    -12345    -12345
    -12345    -12345    -12345    -12345    -12345
    -12345    -12345    -12345    -12345    -12345
         1    -12345    -12345    -12345    -12345
LCO     South Island, Ne
60      -12345  -12345  
-12345  -12345  -12345  
-12345  -12345  -12345  
-12345  -12345  -12345  
-12345  -12345  -12345  
-12345  -12345  BH2     
IU      -12345  Metrozet
[...]
       58572.00       58636.00       58799.00       58915.00       59063.00
       59088.00       59181.00       59305.00       59388.00       59539.00
       59621.00       59774.00       59865.00       59944.00       59991.00
       60060.00       60212.00       60259.00       60372.00       60475.00
       60550.00       60667.00       60718.00       60841.00       60917.00
       60963.00       61083.00       61136.00       61239.00       61323.00
       61464.00       61521.00       61588.00       61726.00       61833.00
       62036.00       62060.00       62199.00       62323.00       62468.00
       62592.00       62634.00       62889.00       62999.00       63180.00
       63335.00       63474.00       63718.00       63872.00       64067.00
       64303.00       64502.00       64663.00       64831.00       65046.00
       65317.00       65542.00       65769.00       66046.00       66296.00
       66560.00       66867.00       67103.00       67399.00       67701.00
       67965.00       68329.00       68702.00       68998.00       69285.00
       69598.00       69885.00       70302.00       70593.00       70903.00
       71294.00       71679.00       72046.00       72305.00       72737.00
       73037.00       73400.00       73758.00       74056.00       74421.00
       74664.00       75031.00       75396.00       75774.00       75983.00
       76194.00       76579.00       76846.00       77098.00       77330.00
       77589.00       77817.00       78008.00       78241.00       78504.00
       78735.00       78826.00       79010.00       79204.00       79287.00
       79474.00       79635.00       79798.00       79895.00       79941.00
       80032.00       80040.00       80160.00       80232.00       80268.00
       80338.00       80317.00       80270.00       80202.00       80211.00
       80172.00       80112.00       80022.00       79946.00       79832.00
       79684.00       79624.00       79470.00       79295.00       79084.00
       78935.00       78710.00       78525.00       78372.00       78035.00
       77824.00       77589.00       77353.00       77024.00       76705.00
       76457.00       76115.00       75776.00       75436.00       75177.00
       74825.00       74499.00       74181.00       73793.00       73373.00
       72995.00       72688.00       72293.00       71894.00       71488.00
       71129.00       70729.00       70333.00       69902.00       69523.00
       69221.00       68729.00       68306.00       67912.00       67495.00
       67104.00       66650.00       66308.00       65914.00       65469.00
       65090.00       64728.00       64377.00       63917.00       63493.00
       63103.00       62793.00       62442.00       62032.00       61719.00
       61383.00       61068.00       60658.00       60382.00       60108.00
       59764.00       59498.00       59140.00       58903.00       58628.00
       58393.00       58172.00       57914.00       57704.00       57425.00
       57303.00       57093.00       56860.00       56730.00       56550.00
       56473.00       56298.00       56158.00       56070.00       55952.00
       55883.00       55800.00       55757.00       55672.00       55660.00
       55606.00       55569.00       55574.00       55514.00       55589.00
       55624.00       55635.00       55691.00       55723.00       55788.00
       55910.00       55941.00       55932.00       56076.00       56219.00
       56318.00       56416.00       56553.00       56707.00       56829.00
       56985.00       57163.00       57352.00       57532.00       57707.00
       57941.00       58188.00       58407.00       58604.00       58846.00
       59143.00       59457.00       59714.00       59963.00       60310.00
       60630.00       60970.00       61350.00       61733.00       62076.00
       62429.00       62895.00       63325.00       63773.00       64187.00
       64611.00       65173.00       65637.00       66100.00       66620.00
       67182.00       67750.00       68235.00       68836.00       69464.00
       70046.00       70660.00       71309.00       71952.00       72558.00
       73248.00       73975.00       74668.00       75343.00       76058.00
       76817.00       77566.00       78322.00       79068.00       79893.00
       80684.00       81464.00       82285.00       83110.00       84018.00
       84790.00       85650.00       86582.00       87439.00       88372.00
       89222.00       90141.00       91087.00       91992.00       92932.00
       93872.00       94883.00       95813.00       96724.00       97712.00
       98693.00       99688.00       100668.0       101669.0       102665.0
       103621.0       104568.0       105599.0       106633.0       107606.0
       108628.0       109573.0       110572.0       111533.0       112470.0
       113527.0       114478.0       115444.0       116380.0       117316.0
       118307.0       119220.0       120155.0       121082.0       121993.0
       122887.0       123770.0       124694.0       125574.0       126408.0
       127246.0       128172.0       129045.0       129812.0       130633.0
       131448.0       132269.0       133046.0       133839.0       134645.0
       135366.0       136138.0       136873.0       137615.0       138387.0
       139063.0       139763.0       140462.0       141177.0       141868.0
       142502.0       143217.0       143892.0       144506.0       145111.0
       145754.0       146400.0       147031.0       147653.0       148264.0
       148909.0       149438.0       150010.0       150638.0       151235.0
       151788.0       152306.0       152897.0       153422.0       153962.0
       154491.0       155023.0       155586.0       156039.0       156537.0
       157095.0       157581.0       158067.0       158581.0       159039.0
       159537.0       160020.0       160443.0       160908.0       161359.0
       161821.0       162269.0       162717.0       163187.0       163602.0
       163991.0       164398.0       164814.0       165237.0       165661.0
       166045.0       166397.0       166726.0       167072.0       167436.0
       167774.0       168113.0       168373.0       168658.0       168976.0
       169197.0       169475.0       169745.0       169945.0       170135.0
       170330.0       170566.0       170768.0       170885.0       171020.0
       171183.0       171301.0       171437.0       171469.0       171533.0
       171645.0       171649.0       171687.0       171659.0       171687.0
       171693.0       171608.0       171591.0       171542.0       171454.0
       171326.0       171227.0       171093.0       170935.0       170762.0
       170613.0       170433.0       170151.0       169926.0       169674.0
       169419.0       169143.0       168819.0       168455.0       168112.0
       167757.0       167335.0       166981.0       166554.0       166078.0
       165600.0       165106.0       164613.0       164058.0       163510.0
       162967.0       162403.0       161783.0       161135.0       160494.0
       159845.0       159152.0       158424.0       157731.0       157038.0
       156280.0       155488.0       154711.0       153931.0       153133.0
       152285.0       151455.0       150581.0       149635.0       148790.0
       147915.0       146989.0       146064.0       145053.0       144091.0
       143126.0       142139.0       141151.0       140092.0       139059.0
       137977.0       136926.0       135890.0       134822.0       133697.0
       132556.0       131455.0       130295.0       129178.0       128014.0
       126908.0       125711.0       124450.0       123266.0       122111.0
       120993.0       119703.0       118502.0       117271.0       116035.0
       114806.0       113539.0       112328.0       111024.0       109778.0
       108501.0       107302.0       106045.0       104764.0       103506.0
       102231.0       100997.0       99637.00       98402.00       97154.00
       95918.00       94647.00       93360.00       92099.00       90829.00
       89644.00       88328.00       87161.00       85955.00       84711.00
       83485.00       82263.00       81157.00       79905.00       78729.00
       77519.00       76351.00       75165.00       73966.00       72885.00
       71770.00       70630.00       69404.00       68312.00       67193.00
       66100.00       64971.00       63856.00       62840.00       61659.00
       60555.00       59488.00       58455.00       57381.00       56315.00
       55271.00       54170.00       53123.00       52069.00       51085.00
       50016.00       48953.00       47877.00       46808.00       45849.00
       44766.00       43725.00       42674.00       41661.00       40625.00
       39551.00       38600.00       37529.00       36492.00       35403.00
       34370.00       33385.00       32291.00       31291.00       30179.00
       29174.00       28115.00       27000.00       26009.00       24884.00
       23764.00       22609.00       21593.00       20510.00       19372.00
       18286.00       17129.00       16080.00       14897.00       13720.00
       12579.00       11403.00       10292.00       9093.000       7929.000
       6804.000       5579.000       4404.000       3245.000       2051.000
       862.0000      -374.0000      -1553.000      -2720.000      -3940.000
      -5160.000      -6302.000      -7483.000      -8758.000      -9915.000
      -11087.00      -12289.00      -13480.00      -14733.00      -15936.00
      -17155.00      -18334.00      -19513.00      -20719.00      -21888.00
      -23153.00      -24332.00      -25524.00      -26740.00      -27893.00
      -29148.00      -30320.00      -31530.00      -32756.00      -33946.00
      -35138.00      -36310.00      -37579.00      -38756.00      -39953.00
      -41158.00      -42340.00      -43572.00      -44730.00      -45961.00
      -47167.00      -48362.00      -49575.00      -50794.00      -52063.00
      -53276.00      -54505.00      -55654.00      -56911.00      -58151.00
      -59341.00      -60646.00      -61810.00      -63102.00      -64306.00
      -65517.00      -66816.00      -68003.00      -69301.00      -70500.00
      -71806.00      -73065.00      -74263.00      -75534.00      -76762.00
      -78135.00      -79349.00      -80593.00      -81853.00      -83084.00
      -84377.00      -85636.00      -86989.00      -88228.00      -89474.00
      -90712.00      -91997.00      -93292.00      -94541.00      -95821.00
      -97078.00      -98413.00      -99670.00      -100948.0      -102212.0
      -103507.0      -104795.0      -106040.0      -107415.0      -108722.0
      -109992.0      -111225.0      -112549.0      -113873.0      -115180.0
      -116481.0      -117705.0      -119065.0      -120318.0      -121619.0
      -122950.0      -124282.0      -125586.0      -126801.0      -128165.0
      -129466.0      -130809.0      -132077.0      -133374.0      -134725.0
      -135970.0      -137302.0      -138604.0      -139918.0      -141217.0
      -142471.0      -143764.0      -145098.0      -146377.0      -147647.0
      -148939.0      -150233.0      -151557.0      -152788.0      -154041.0
      -155305.0      -156548.0      -157832.0      -159099.0      -160369.0
      -161602.0      -162807.0      -164017.0      -165256.0      -166475.0
      -167676.0      -168852.0      -170021.0      -171249.0      -172435.0
      -173617.0      -174797.0      -175936.0      -177037.0      -178147.0
      -179323.0      -180424.0      -181483.0      -182588.0      -183682.0
      -184755.0      -185796.0      -186875.0      -187930.0      -188953.0
      -189949.0      -190944.0      -191949.0      -192884.0      -193849.0
      -194811.0      -195803.0      -196734.0      -197660.0      -198596.0
      -199502.0      -200428.0      -201262.0      -202175.0      -203057.0
      -203874.0      -204728.0      -205577.0      -206414.0      -207217.0
      -208032.0      -208830.0      -209617.0      -210388.0      -211141.0
      -211868.0      -212637.0      -213403.0      -214115.0      -214846.0
      -215536.0      -216239.0      -216874.0      -217534.0      -218227.0
      -218813.0      -219426.0      -220040.0      -220631.0      -221191.0
      -221794.0      -222379.0      -222901.0      -223449.0      -223956.0
      -224490.0      -225008.0      -225457.0      -225854.0      -226304.0
      -226749.0      -227145.0      -227592.0      -227924.0      -228317.0
      -228664.0      -228972.0      -229382.0      -229670.0      -229967.0
      -230200.0      -230478.0      -230814.0      -231037.0      -231288.0
      -231468.0      -231671.0      -231869.0      -232021.0      -232218.0
      -232391.0      -232548.0      -232583.0      -232732.0      -232866.0
      -232897.0      -232990.0      -233024.0      -233124.0      -233144.0
      -233160.0      -233156.0      -233127.0      -233163.0      -233078.0
      -233073.0      -233004.0      -232903.0      -232808.0      -232703.0
      -232620.0      -232415.0      -232304.0      -232131.0      -231979.0
      -231801.0      -231537.0      -231365.0      -231154.0      -230930.0
      -230608.0      -230375.0      -230094.0      -229752.0      -229492.0
      -229123.0      -228830.0      -228469.0      -228063.0      -227707.0
      -227345.0      -226968.0      -226504.0      -226071.0      -225669.0
      -225239.0      -224783.0      -224362.0      -223901.0      -223359.0
      -222866.0      -222440.0      -221985.0      -221441.0      -220942.0
      -220437.0      -219893.0      -219409.0      -218843.0      -218323.0
      -217822.0      -217237.0      -216726.0      -216188.0      -215679.0
      -215078.0      -214442.0      -213956.0      -213433.0      -212890.0
      -212334.0      -211803.0      -211255.0      -210699.0      -210162.0
      -209605.0      -209087.0      -208512.0      -207952.0      -207436.0
      -206895.0      -206382.0      -205784.0      -205235.0      -204799.0
      -204256.0      -203685.0      -203123.0      -202640.0      -202079.0
      -201499.0      -201051.0      -200498.0      -199980.0      -199397.0
      -198900.0      -198432.0      -197881.0      -197384.0      -196792.0
      -196324.0      -195775.0      -195252.0      -194763.0      -194239.0
      -193784.0      -193195.0      -192727.0      -192223.0      -191721.0
      -191243.0      -190724.0      -190265.0      -189729.0      -189209.0
      -188700.0      -188257.0      -187750.0      -187241.0      -186750.0
      -186211.0      -185717.0      -185165.0      -184709.0      -184231.0
      -183691.0      -183165.0      -182636.0      -182157.0      -181577.0
      -180998.0      -180508.0      -180017.0      -179453.0      -178850.0
      -178295.0      -177755.0      -177196.0      -176598.0      -175995.0
      -175430.0      -174852.0      -174216.0      -173577.0      -172997.0
      -172362.0      -171676.0      -171054.0      -170403.0      -169765.0
      -169074.0      -168426.0      -167801.0      -167035.0      -166283.0
      -165548.0      -164899.0      -164168.0      -163443.0      -162746.0
      -162011.0      -161277.0      -160380.0      -159628.0      -158858.0
      -158073.0      -157299.0      -156432.0      -155585.0      -154688.0
      -153921.0      -153072.0      -152239.0      -151361.0      -150425.0
      -149602.0      -148651.0      -147756.0      -146801.0      -145908.0
      -144965.0      -143951.0      -143027.0      -142000.0      -141095.0
      -140064.0      -139076.0      -138098.0      -137059.0      -136102.0
      -134978.0      -134008.0      -132949.0      -131893.0      -130877.0
      -129753.0      -128752.0      -127650.0      -126577.0      -125499.0
      -124456.0      -123358.0      -122224.0      -121196.0      -120117.0
      -119125.0      -118007.0      -116926.0      -115862.0      -114739.0
      -113704.0      -112608.0      -111628.0      -110553.0      -109455.0
      -108416.0      -107339.0      -106363.0      -105272.0      -104241.0
      -103219.0      -102211.0      -101265.0      -100215.0      -99248.00
      -98201.00      -97208.00      -96274.00      -95316.00      -94408.00
      -93438.00      -92468.00      -91532.00      -90578.00      -89603.00
      -88700.00      -87776.00      -86871.00      -85940.00      -85061.00
      -84187.00      -83192.00      -82337.00      -81373.00      -80462.00
      -79578.00      -78622.00      -77814.00      -76877.00      -75993.00
      -75044.00      -74076.00      -73196.00      -72267.00      -71357.00
      -70400.00      -69512.00      -68531.00      -67589.00      -66682.00
      -65729.00      -64802.00      -63794.00      -62866.00      -61932.00
      -61020.00      -60020.00      -59037.00      -58168.00      -57152.00
      -56168.00      -55177.00      -54263.00      -53313.00      -52317.00
      -51382.00      -50397.00      -49456.00      -48448.00      -47488.00
      -46523.00      -45540.00      -44558.00      -43539.00      -42594.00
      -41626.00      -40618.00      -39628.00      -38659.00      -37643.00
      -36641.00      -35632.00      -34655.00      -33635.00      -32569.00
      -31565.00      -30519.00      -29539.00      -28491.00      -27419.00
      -26415.00      -25371.00      -24293.00      -23204.00      -22194.00
      -21083.00      -19987.00      -18948.00      -17827.00      -16732.00
      -15600.00      -14510.00      -13410.00      -12279.00      -11200.00
      -10059.00      -8969.000      -7844.000      -6671.000      -5583.000
      -4404.000      -3270.000      -2119.000      -944.0000       184.0000
       1379.000       2505.000       3667.000       4844.000       6017.000
       7178.000       8334.000       9493.000       10638.00       11873.00
       13027.00       14188.00       15327.00       16520.00       17742.00
       18899.00       20109.00       21273.00       22485.00       23589.00
       24786.00       26017.00       27150.00       28338.00       29462.00
       30692.00       31830.00       32956.00       34151.00       35318.00
       36520.00       37663.00       38808.00       39927.00       41071.00
       42251.00       43363.00       44500.00       45642.00       46735.00
       47863.00       48968.00       50039.00       51135.00       52243.00
       53316.00       54337.00       55366.00       56426.00       57467.00
