     0.02500000      -12345.00      -12345.00   1.983070e+09      -12345.00
   0.0005380000       1859.976      -705.0195      -12345.00      -12345.00
      -12345.00      -12345.00      -12345.00      -12345.00      -12345.00
      -12345.00      -12345.00      -12345.00      -12345.00      -12345.00
      -12345.00      -12345.00      -12345.00      -12345.00      -12345.00
      -12345.00      -12345.00      -12345.00      -12345.00      -12345.00
      -12345.00      -29.01100      -70.70050       2274.000       0.000000
      -42.72450       173.0647      -12345.00       22.00000      -12345.00
      -12345.00      -12345.00      -12345.00      -12345.00      -12345.00
      -12345.00      -12345.00      -12345.00      -12345.00      -12345.00
       9746.794       128.1560       221.4171       87.65891      -12345.00
      -12345.00      -12345.00       90.00000       90.00000      -12345.00
      -12345.00      -12345.00      -12345.00      -12345.00      -12345.00
      -12345.00      -12345.00      -12345.00      -12345.00      -12345.00
      2016       318        11        14        44
        19         6    -12345    -12345     74400
    -12345    -12345    -12345    -12345    -12345
         1    -12345    -12345    -12345    -12345
    -12345    -12345    -12345    -12345    -12345
    -12345    -12345    -12345    -12345    -12345
    -12345    -12345    -12345    -12345    -12345
         1    -12345    -12345    -12345    -12345
LCO     South Island, Ne
10      -12345  -12345  
-12345  -12345  -12345  
-12345  -12345  -12345  
-12345  -12345  -12345  
-12345  -12345  -12345  
-12345  -12345  BH2     
IU      -12345  Trillium
[...]
       88090.00       88339.00       88554.00       88736.00       89023.00
       89249.00       89396.00       89640.00       89861.00       90143.00
       90247.00       90506.00       90684.00       90934.00       91141.00
       91225.00       91552.00       91699.00       91939.00       92036.00
       92242.00       92497.00       92577.00       92804.00       92940.00
       93172.00       93296.00       93430.00       93682.00       93762.00
       93999.00       94102.00       94207.00       94502.00       94539.00
       94745.00       94898.00       95085.00       95251.00       95372.00
       95627.00       95727.00       96014.00       96077.00       96382.00
       96574.00       96731.00       97038.00       97160.00       97613.00
       97662.00       98001.00       98299.00       98526.00       98973.00
       99079.00       99514.00       99917.00       100147.0       100514.0
       100928.0       101309.0       101709.0       102092.0       102522.0
       102949.0       103362.0       103889.0       104396.0       104848.0
       105425.0       105877.0       106398.0       107090.0       107508.0
       108074.0       108803.0       109367.0       109885.0       110630.0
       111192.0       111932.0       112608.0       113043.0       113855.0
       114500.0       115230.0       115708.0       116467.0       117212.0
       117692.0       118490.0       119044.0       119813.0       120366.0
       120955.0       121593.0       122180.0       122802.0       123164.0
       123848.0       124392.0       124830.0       125351.0       125839.0
       126310.0       126703.0       127108.0       127457.0       127940.0
       128218.0       128456.0       128953.0       129121.0       129382.0
       129675.0       129853.0       130141.0       130190.0       130408.0
       130493.0       130564.0       130734.0       130652.0       130751.0
       130764.0       130730.0       130623.0       130540.0       130431.0
       130250.0       130069.0       129849.0       129744.0       129359.0
       129089.0       128833.0       128551.0       128116.0       127692.0
       127435.0       126892.0       126512.0       125895.0       125442.0
       124972.0       124343.0       123814.0       123092.0       122595.0
       121938.0       121237.0       120536.0       119965.0       119238.0
       118406.0       117798.0       117042.0       116266.0       115423.0
       114723.0       113937.0       113120.0       112287.0       111474.0
       110679.0       109872.0       109047.0       108093.0       107454.0
       106522.0       105567.0       104865.0       103910.0       103108.0
       102232.0       101396.0       100654.0       99706.00       98910.00
       98101.00       97305.00       96425.00       95612.00       94833.00
       94001.00       93324.00       92458.00       91745.00       91015.00
       90354.00       89577.00       88824.00       88336.00       87515.00
       86941.00       86274.00       85702.00       85169.00       84482.00
       84067.00       83470.00       83030.00       82457.00       81995.00
       81688.00       81095.00       80814.00       80398.00       80065.00
       79787.00       79385.00       79220.00       78918.00       78717.00
       78479.00       78302.00       78144.00       77996.00       77871.00
       77682.00       77758.00       77600.00       77577.00       77666.00
       77581.00       77669.00       77710.00       77691.00       77822.00
       77988.00       77949.00       78115.00       78368.00       78442.00
       78586.00       78839.00       79094.00       79278.00       79535.00
       79845.00       80149.00       80472.00       80758.00       81154.00
       81599.00       81975.00       82368.00       82791.00       83286.00
       83799.00       84300.00       84789.00       85423.00       85990.00
       86538.00       87238.00       87919.00       88640.00       89271.00
       90074.00       90892.00       91637.00       92523.00       93289.00
       94263.00       95182.00       96020.00       97033.00       97993.00
       99095.00       100068.0       101147.0       102396.0       103421.0
       104533.0       105777.0       107062.0       108249.0       109466.0
       110815.0       112137.0       113473.0       114811.0       116226.0
       117656.0       119083.0       120483.0       122002.0       123573.0
       125057.0       126652.0       128135.0       129860.0       131494.0
       132979.0       134801.0       136417.0       138167.0       139898.0
       141564.0       143442.0       145170.0       146962.0       148742.0
       150614.0       152504.0       154221.0       156103.0       158020.0
       159898.0       161740.0       163630.0       165565.0       167465.0
       169335.0       171238.0       173241.0       175063.0       176992.0
       178881.0       180751.0       182735.0       184447.0       186417.0
       188342.0       190110.0       191982.0       193748.0       195641.0
       197442.0       199192.0       200975.0       202736.0       204519.0
       206152.0       207873.0       209634.0       211291.0       212861.0
       214504.0       216244.0       217723.0       219276.0       220870.0
       222406.0       223936.0       225377.0       226926.0       228350.0
       229782.0       231190.0       232536.0       234055.0       235363.0
       236641.0       238016.0       239324.0       240657.0       241841.0
       243134.0       244438.0       245607.0       246793.0       248002.0
       249218.0       250340.0       251506.0       252586.0       253789.0
       254915.0       255924.0       257068.0       258125.0       259203.0
       260147.0       261230.0       262290.0       263234.0       264233.0
       265139.0       266221.0       267153.0       268000.0       269039.0
       269947.0       270780.0       271732.0       272586.0       273450.0
       274384.0       275132.0       275986.0       276876.0       277664.0
       278446.0       279214.0       280071.0       280852.0       281536.0
       282297.0       283085.0       283777.0       284438.0       285137.0
       285842.0       286464.0       287040.0       287684.0       288279.0
       288854.0       289338.0       289768.0       290361.0       290778.0
       291170.0       291654.0       292001.0       292344.0       292650.0
       292977.0       293317.0       293517.0       293670.0       293928.0
       294082.0       294263.0       294357.0       294323.0       294507.0
       294442.0       294420.0       294395.0       294268.0       294262.0
       294012.0       293865.0       293715.0       293460.0       293133.0
       292870.0       292620.0       292222.0       291829.0       291384.0
       290991.0       290411.0       289876.0       289349.0       288702.0
       288080.0       287399.0       286644.0       285875.0       285146.0
       284197.0       283355.0       282515.0       281504.0       280531.0
       279478.0       278440.0       277303.0       276111.0       274958.0
       273784.0       272525.0       271179.0       269821.0       268467.0
       267091.0       265598.0       264119.0       262667.0       261121.0
       259495.0       257896.0       256300.0       254658.0       252899.0
       251143.0       249485.0       247607.0       245749.0       243952.0
       242025.0       240165.0       238154.0       236176.0       234281.0
       232186.0       230114.0       227996.0       225964.0       223818.0
       221589.0       219466.0       217274.0       215071.0       212733.0
       210518.0       208180.0       205916.0       203557.0       201107.0
       198870.0       196424.0       194033.0       191529.0       189232.0
       186740.0       184199.0       181826.0       179285.0       176863.0
       174232.0       171781.0       169228.0       166715.0       164158.0
       161578.0       159136.0       156485.0       153958.0       151350.0
       148946.0       146298.0       143696.0       141226.0       138620.0
       136149.0       133534.0       131056.0       128464.0       126067.0
       123500.0       120954.0       118621.0       116085.0       113683.0
       111121.0       108865.0       106414.0       103936.0       101618.0
       99224.00       96954.00       94483.00       92216.00       89902.00
       87656.00       85283.00       83035.00       80838.00       78516.00
       76360.00       73984.00       71933.00       69698.00       67444.00
       65350.00       63178.00       61086.00       58848.00       56752.00
       54627.00       52533.00       50372.00       48298.00       46238.00
       44094.00       42070.00       39857.00       37885.00       35805.00
       33653.00       31612.00       29526.00       27573.00       25361.00
       23361.00       21327.00       19239.00       17205.00       15006.00
       13086.00       10898.00       8853.000       6771.000       4624.000
       2670.000       339.0000      -1661.000      -3798.000      -5979.000
      -8132.000      -10298.00      -12352.00      -14669.00      -16777.00
      -19075.00      -21239.00      -23437.00      -25833.00      -27965.00
      -30258.00      -32527.00      -34821.00      -37190.00      -39392.00
      -41718.00      -44113.00      -46407.00      -48742.00      -51021.00
      -53420.00      -55802.00      -58046.00      -60401.00      -62827.00
      -65155.00      -67385.00      -69863.00      -72233.00      -74491.00
      -76911.00      -79209.00      -81614.00      -83949.00      -86269.00
      -88692.00      -90996.00      -93411.00      -95656.00      -98035.00
      -100476.0      -102733.0      -105166.0      -107385.0      -109803.0
      -112213.0      -114415.0      -116835.0      -119181.0      -121557.0
      -123803.0      -126214.0      -128579.0      -130809.0      -133247.0
      -135486.0      -137878.0      -140218.0      -142523.0      -144912.0
      -147216.0      -149660.0      -151941.0      -154303.0      -156669.0
      -159062.0      -161361.0      -163660.0      -166204.0      -168415.0
      -170916.0      -173252.0      -175606.0      -178150.0      -180361.0
      -182894.0      -185204.0      -187675.0      -190075.0      -192389.0
      -194956.0      -197246.0      -199727.0      -202042.0      -204602.0
      -207060.0      -209296.0      -211858.0      -214259.0      -216760.0
      -219097.0      -221596.0      -224050.0      -226434.0      -228883.0
      -231259.0      -233822.0      -236171.0      -238645.0      -241062.0
      -243541.0      -246000.0      -248393.0      -250901.0      -253343.0
      -255880.0      -258199.0      -260723.0      -263254.0      -265661.0
      -268120.0      -270625.0      -273150.0      -275501.0      -278088.0
      -280471.0      -283024.0      -285567.0      -287914.0      -290477.0
      -292942.0      -295523.0      -297825.0      -300343.0      -302907.0
      -305385.0      -307895.0      -310266.0      -312938.0      -315351.0
      -317780.0      -320298.0      -322763.0      -325281.0      -327661.0
      -330091.0      -332634.0      -335082.0      -337476.0      -339968.0
      -342368.0      -344840.0      -347252.0      -349602.0      -352084.0
      -354462.0      -356821.0      -359165.0      -361538.0      -363919.0
      -366225.0      -368539.0      -370887.0      -373157.0      -375399.0
      -377701.0      -379912.0      -382183.0      -384408.0      -386566.0
      -388811.0      -390985.0      -393086.0      -395174.0      -397389.0
      -399505.0      -401429.0      -403524.0      -405622.0      -407603.0
      -409524.0      -411534.0      -413527.0      -415373.0      -417277.0
      -419110.0      -421006.0      -422809.0      -424573.0      -426353.0
      -428143.0      -429962.0      -431640.0      -433347.0      -434988.0
      -436726.0      -438289.0      -439872.0      -441599.0      -443094.0
      -444648.0      -446221.0      -447745.0      -449208.0      -450672.0
      -452157.0      -453609.0      -454976.0      -456361.0      -457733.0
      -459071.0      -460466.0      -461698.0      -463022.0      -464296.0
      -465510.0      -466688.0      -467763.0      -469050.0      -470156.0
      -471182.0      -472301.0      -473394.0      -474350.0      -475306.0
      -476378.0      -477288.0      -478219.0      -479109.0      -479984.0
      -480853.0      -481702.0      -482427.0      -483066.0      -483906.0
      -484531.0      -485200.0      -485780.0      -486371.0      -487088.0
      -487440.0      -488056.0      -488574.0      -488948.0      -489434.0
      -489779.0      -490233.0      -490531.0      -490874.0      -491181.0
      -491405.0      -491752.0      -491873.0      -492050.0      -492220.0
      -492418.0      -492428.0      -492477.0      -492721.0      -492588.0
      -492631.0      -492580.0      -492548.0      -492553.0      -492336.0
      -492271.0      -492075.0      -491984.0      -491694.0      -491411.0
      -491227.0      -490873.0      -490622.0      -490163.0      -489862.0
      -489409.0      -488917.0      -488476.0      -487991.0      -487620.0
      -486882.0      -486359.0      -485859.0      -485231.0      -484514.0
      -483861.0      -483296.0      -482377.0      -481727.0      -480915.0
      -480063.0      -479343.0      -478357.0      -477494.0      -476634.0
      -475734.0      -474698.0      -473672.0      -472763.0      -471780.0
      -470676.0      -469624.0      -468662.0      -467548.0      -466394.0
      -465314.0      -464273.0      -463111.0      -461942.0      -460831.0
      -459587.0      -458512.0      -457317.0      -456008.0      -454979.0
      -453717.0      -452473.0      -451261.0      -450041.0      -448890.0
      -447499.0      -446331.0      -445184.0      -443901.0      -442656.0
      -441448.0      -440252.0      -439025.0      -437821.0      -436523.0
      -435345.0      -434136.0      -432857.0      -431698.0      -430455.0
      -429308.0      -428106.0      -426779.0      -425714.0      -424548.0
      -423298.0      -422065.0      -420892.0      -419790.0      -418434.0
      -417357.0      -416204.0      -415005.0      -413843.0      -412595.0
      -411574.0      -410288.0      -409174.0      -407946.0      -406790.0
      -405724.0      -404452.0      -403413.0      -402200.0      -401165.0
      -399948.0      -398786.0      -397786.0      -396610.0      -395560.0
      -394348.0      -393320.0      -392197.0      -391023.0      -389926.0
      -388854.0      -387788.0      -386597.0      -385540.0      -384376.0
      -383321.0      -382162.0      -380998.0      -379989.0      -378824.0
      -377675.0      -376459.0      -375413.0      -374300.0      -372988.0
      -371838.0      -370732.0      -369539.0      -368289.0      -367089.0
      -365893.0      -364657.0      -363404.0      -362130.0      -360882.0
      -359635.0      -358318.0      -356946.0      -355621.0      -354335.0
      -352919.0      -351539.0      -350156.0      -348771.0      -347342.0
      -345839.0      -344511.0      -342961.0      -341456.0      -339968.0
      -338491.0      -337012.0      -335389.0      -333884.0      -332240.0
      -330810.0      -329089.0      -327393.0      -325899.0      -324126.0
      -322530.0      -320737.0      -319054.0      -317273.0      -315535.0
      -313808.0      -311956.0      -310263.0      -308259.0      -306537.0
      -304659.0      -302773.0      -300886.0      -298833.0      -297033.0
      -294956.0      -293087.0      -290996.0      -289030.0      -287097.0
      -284886.0      -282943.0      -280742.0      -278827.0      -276608.0
      -274441.0      -272475.0      -270183.0      -268157.0      -265842.0
      -263737.0      -261599.0      -259319.0      -257159.0      -254977.0
      -252840.0      -250475.0      -248393.0      -246174.0      -244031.0
      -241855.0      -239520.0      -237479.0      -235211.0      -233092.0
      -230841.0      -228706.0      -226651.0      -224310.0      -222281.0
      -220088.0      -218013.0      -215905.0      -213708.0      -211732.0
      -209608.0      -207630.0      -205464.0      -203483.0      -201545.0
      -199438.0      -197545.0      -195554.0      -193626.0      -191636.0
      -189673.0      -187824.0      -185964.0      -183971.0      -182087.0
      -180290.0      -178422.0      -176516.0      -174616.0      -172950.0
      -170946.0      -169149.0      -167391.0      -165406.0      -163739.0
      -161765.0      -160002.0      -158191.0      -156346.0      -154601.0
      -152592.0      -150876.0      -149008.0      -147128.0      -145227.0
      -143422.0      -141571.0      -139580.0      -137817.0      -135889.0
      -134099.0      -132131.0      -130178.0      -128370.0      -126497.0
      -124609.0      -122551.0      -120825.0      -118891.0      -116896.0
      -115016.0      -113091.0      -111259.0      -109236.0      -107374.0
      -105427.0      -103561.0      -101647.0      -99633.00      -97770.00
      -95816.00      -93911.00      -91907.00      -89993.00      -88094.00
      -86079.00      -84091.00      -82213.00      -80296.00      -78272.00
      -76241.00      -74297.00      -72368.00      -70201.00      -68251.00
      -66281.00      -64237.00      -62223.00      -60081.00      -58130.00
      -56096.00      -53979.00      -51826.00      -49827.00      -47766.00
      -45508.00      -43463.00      -41291.00      -39169.00      -37020.00
      -34785.00      -32704.00      -30484.00      -28328.00      -26130.00
      -23943.00      -21833.00      -19479.00      -17310.00      -15079.00
      -12824.00      -10650.00      -8249.000      -6086.000      -3813.000
      -1505.000       745.0000       3037.000       5274.000       7611.000
       9861.000       12153.00       14361.00       16746.00       19085.00
       21316.00       23624.00       25900.00       28324.00       30541.00
       32896.00       35160.00       37498.00       39795.00       41952.00
       44419.00       46630.00       48968.00       51164.00       53452.00
       55858.00       58022.00       60359.00       62600.00       64914.00
       67167.00       69390.00       71677.00       73880.00       76158.00
       78322.00       80496.00       82801.00       84940.00       87062.00
