     0.05000000      -12345.00      -12345.00   4.377170e+09      -12345.00
   0.0005380000       1859.951      -705.0195      -12345.00      -12345.00
      -12345.00      -12345.00      -12345.00      -12345.00      -12345.00
      -12345.00      -12345.00      -12345.00      -12345.00      -12345.00
      -12345.00      -12345.00      -12345.00      -12345.00      -12345.00
      -12345.00      -12345.00      -12345.00      -12345.00      -12345.00
      -12345.00      -29.01100      -70.70050       2274.000       0.000000
      -42.72450       173.0647      -12345.00       22.00000      -12345.00
      -12345.00      -12345.00      -12345.00      -12345.00      -12345.00
      -12345.00      -12345.00      -12345.00      -12345.00      -12345.00
       9746.794       128.1560       221.4171       87.65891      -12345.00
      -12345.00      -12345.00       0.000000       90.00000      -12345.00
      -12345.00      -12345.00      -12345.00      -12345.00      -12345.00
      -12345.00      -12345.00      -12345.00      -12345.00      -12345.00
      2016       318        11        14        44
        19         6    -12345    -12345     37200
    -12345    -12345    -12345    -12345    -12345
         1    -12345    -12345    -12345    -12345
    -12345    -12345    -12345    -12345    -12345
    -12345    -12345    -12345    -12345    -12345
    -12345    -12345    -12345    -12345    -12345
         1    -12345    -12345    -12345    -12345
LCO     South Island, Ne
00      -12345  -12345  
-12345  -12345  -12345  
-12345  -12345  -12345  
-12345  -12345  -12345  
-12345  -12345  -12345  
-12345  -12345  BH1     
IU      -12345  Streckei
[...]
      -25000.00      -25357.00      -25802.00      -26359.00      -27060.00
      -27878.00      -28752.00      -29723.00      -30799.00      -32066.00
      -33406.00      -34708.00      -36273.00      -37825.00      -39427.00
      -41153.00      -42902.00      -44647.00      -46290.00      -48018.00
      -49805.00      -51506.00      -53081.00      -54714.00      -56256.00
      -57663.00      -59116.00      -60519.00      -61814.00      -62911.00
      -64086.00      -65120.00      -65984.00      -66895.00      -67717.00
      -68511.00      -69135.00      -69787.00      -70400.00      -70898.00
      -71316.00      -71753.00      -72108.00      -72300.00      -72555.00
      -72727.00      -72805.00      -72744.00      -72781.00      -72639.00
      -72470.00      -72358.00      -72138.00      -71985.00      -71614.00
      -71446.00      -71245.00      -71026.00      -70890.00      -70698.00
      -70577.00      -70435.00      -70339.00      -70155.00      -70036.00
      -69868.00      -69721.00      -69617.00      -69491.00      -69427.00
      -69385.00      -69263.00      -69095.00      -68952.00      -68686.00
      -68470.00      -68065.00      -67688.00      -67239.00      -66615.00
      -66017.00      -65238.00      -64434.00      -63420.00      -62425.00
      -61213.00      -59924.00      -58514.00      -56793.00      -55164.00
      -53237.00      -51276.00      -49141.00      -46863.00      -44514.00
      -41976.00      -39352.00      -36582.00      -33713.00      -30653.00
      -27643.00      -24487.00      -21264.00      -18044.00      -14764.00
      -11488.00      -8280.000      -5096.000      -1842.000       1263.000
       4387.000       7348.000       10220.00       12939.00       15523.00
       18156.00       20549.00       22807.00       24912.00       26958.00
       28743.00       30354.00       31904.00       33312.00       34527.00
       35508.00       36513.00       37273.00       37930.00       38403.00
       38803.00       39142.00       39305.00       39504.00       39532.00
       39585.00       39530.00       39455.00       39352.00       39174.00
       38953.00       38716.00       38486.00       38095.00       37702.00
       37187.00       36608.00       35902.00       35211.00       34335.00
       33306.00       32297.00       30998.00       29700.00       28257.00
       26623.00       24866.00       22961.00       20873.00       18642.00
       16262.00       13734.00       11116.00       8272.000       5299.000
       2135.000      -1015.000      -4321.000      -7843.000      -11442.00
      -15141.00      -18971.00      -23097.00      -27186.00      -31541.00
      -36039.00      -40485.00      -45139.00      -49898.00      -54857.00
      -59763.00      -64807.00      -70046.00      -75309.00      -80719.00
      -86243.00      -91896.00      -97488.00      -103216.0      -109070.0
      -114874.0      -120765.0      -126660.0      -132561.0      -138419.0
      -144176.0      -149993.0      -155696.0      -161263.0      -166901.0
      -172372.0      -177748.0      -183019.0      -188115.0      -193029.0
      -197740.0      -202312.0      -206530.0      -210532.0      -214308.0
      -217766.0      -220976.0      -223843.0      -226457.0      -228724.0
      -230731.0      -232472.0      -233851.0      -235057.0      -235852.0
      -236402.0      -236764.0      -236702.0      -236527.0      -236093.0
      -235334.0      -234421.0      -233195.0      -231799.0      -230282.0
      -228526.0      -226524.0      -224366.0      -222024.0      -219451.0
      -216736.0      -213797.0      -210769.0      -207591.0      -204208.0
      -200784.0      -197183.0      -193392.0      -189530.0      -185550.0
      -181411.0      -177183.0      -172897.0      -168466.0      -163865.0
      -159303.0      -154555.0      -149727.0      -144952.0      -139987.0
      -135034.0      -130055.0      -125102.0      -120049.0      -114946.0
      -109974.0      -104932.0      -99816.00      -94640.00      -89621.00
      -84576.00      -79466.00      -74467.00      -69503.00      -64538.00
      -59546.00      -54613.00      -49724.00      -44956.00      -40172.00
      -35509.00      -30897.00      -26238.00      -21759.00      -17301.00
      -12845.00      -8431.000      -4088.000       282.0000       4560.000
       8774.000       12960.00       17094.00       21193.00       25152.00
       29164.00       33160.00       37036.00       40780.00       44593.00
       48339.00       51946.00       55645.00       59348.00       62986.00
       66561.00       70332.00       73937.00       77537.00       81260.00
       84850.00       88598.00       92308.00       96053.00       99882.00
       103777.0       107707.0       111661.0       115773.0       119994.0
       124254.0       128603.0       133082.0       137617.0       142239.0
       146792.0       151521.0       156318.0       161083.0       165960.0
       170855.0       175794.0       180681.0       185748.0       190796.0
       195840.0       200950.0       206002.0       211048.0       215972.0
       220947.0       225880.0       230717.0       235494.0       240264.0
       244998.0       249730.0       254426.0       259074.0       263676.0
       268159.0       272735.0       277100.0       281393.0       285749.0
       289965.0       294078.0       298052.0       301999.0       305848.0
       309584.0       313226.0       316783.0       320234.0       323632.0
       326902.0       330087.0       333290.0       336342.0       339385.0
       342323.0       345101.0       347868.0       350738.0       353417.0
       356008.0       358683.0       361135.0       363576.0       365887.0
       368245.0       370508.0       372699.0       374984.0       377056.0
       379156.0       381205.0       383250.0       385270.0       387296.0
       389339.0       391388.0       393351.0       395314.0       397414.0
       399445.0       401480.0       403375.0       405369.0       407250.0
       409142.0       411044.0       412714.0       414456.0       416011.0
       417578.0       418918.0       420008.0       421112.0       421973.0
       422631.0       423241.0       423436.0       423457.0       423461.0
       423037.0       422487.0       421584.0       420538.0       419265.0
       417684.0       415866.0       413847.0       411689.0       409077.0
       406481.0       403592.0       400428.0       397041.0       393557.0
       389844.0       385797.0       381682.0       377215.0       372711.0
       367859.0       362863.0       357592.0       352082.0       346431.0
       340476.0       334513.0       328213.0       321818.0       315188.0
       308488.0       301603.0       294591.0       287535.0       280253.0
       273097.0       265792.0       258559.0       251316.0       244113.0
       236982.0       229952.0       223021.0       216122.0       209365.0
       202632.0       196085.0       189564.0       183227.0       176871.0
       170622.0       164454.0       158303.0       152387.0       146373.0
       140401.0       134504.0       128695.0       122787.0       116991.0
       111177.0       105321.0       99571.00       93763.00       88137.00
       82382.00       76719.00       71190.00       65642.00       60083.00
       54651.00       49293.00       43923.00       38776.00       33536.00
       28387.00       23311.00       18374.00       13437.00       8530.000
       3785.000      -946.0000      -5497.000      -10110.00      -14480.00
      -18794.00      -23086.00      -27277.00      -31460.00      -35445.00
      -39368.00      -43232.00      -47078.00      -50741.00      -54413.00
      -57930.00      -61431.00      -64955.00      -68308.00      -71731.00
      -75072.00      -78386.00      -81549.00      -84852.00      -88109.00
      -91276.00      -94481.00      -97629.00      -100920.0      -104049.0
      -107266.0      -110448.0      -113570.0      -116750.0      -119936.0
      -123047.0      -126117.0      -129229.0      -132170.0      -135118.0
      -137961.0      -140887.0      -143709.0      -146466.0      -149213.0
      -151799.0      -154471.0      -156985.0      -159438.0      -161763.0
      -163992.0      -166159.0      -168291.0      -170245.0      -172098.0
      -173972.0      -175750.0      -177589.0      -179335.0      -181086.0
      -182738.0      -184548.0      -186324.0      -188020.0      -189822.0
      -191590.0      -193466.0      -195176.0      -197055.0      -198932.0
      -200796.0      -202726.0      -204629.0      -206584.0      -208562.0
      -210637.0      -212584.0      -214661.0      -216661.0      -218755.0
      -220919.0      -222995.0      -225152.0      -227300.0      -229514.0
      -231669.0      -233892.0      -236079.0      -238322.0      -240485.0
      -242735.0      -244917.0      -247026.0      -249300.0      -251337.0
      -253501.0      -255537.0      -257582.0      -259568.0      -261477.0
      -263435.0      -265210.0      -267008.0      -268741.0      -270427.0
      -271873.0      -273391.0      -274850.0      -276278.0      -277705.0
      -278920.0      -280285.0      -281538.0      -282791.0      -284068.0
      -285294.0      -286444.0      -287576.0      -288707.0      -289775.0
      -290899.0      -291947.0      -292970.0      -293884.0      -294836.0
      -295814.0      -296687.0      -297561.0      -298477.0      -299386.0
      -300180.0      -300985.0      -301767.0      -302538.0      -303255.0
      -303914.0      -304531.0      -305065.0      -305542.0      -305950.0
      -306278.0      -306467.0      -306622.0      -306651.0      -306612.0
      -306523.0      -306363.0      -306091.0      -305710.0      -305376.0
      -304804.0      -304230.0      -303642.0      -302903.0      -302087.0
      -301142.0      -300252.0      -299177.0      -298059.0      -296920.0
      -295636.0      -294340.0      -292977.0      -291598.0      -290130.0
      -288556.0      -286995.0      -285411.0      -283688.0      -281973.0
      -280183.0      -278360.0      -276421.0      -274370.0      -272335.0
      -270023.0      -267696.0      -265240.0      -262675.0      -259964.0
      -257027.0      -254005.0      -250768.0      -247462.0      -243938.0
      -240201.0      -236301.0      -232284.0      -227982.0      -223532.0
      -218972.0      -214185.0      -209300.0      -204121.0      -198960.0
      -193654.0      -188161.0      -182646.0      -177014.0      -171269.0
      -165459.0      -159714.0      -153921.0      -148052.0      -142234.0
      -136499.0      -130675.0      -124919.0      -119116.0      -113394.0
      -107758.0      -102072.0      -96574.00      -91018.00      -85541.00
      -80121.00      -74759.00      -69485.00      -64185.00      -58984.00
      -53830.00      -48690.00      -43615.00      -38682.00      -33754.00
      -28854.00      -24054.00      -19302.00      -14528.00      -9838.000
      -5263.000      -683.0000       3874.000       8411.000       12798.00
       17298.00       21776.00       26104.00       30604.00       35018.00
       39403.00       43835.00       48251.00       52735.00       57198.00
       61667.00       66165.00       70692.00       75300.00       79885.00
       84501.00       89223.00       93907.00       98665.00       103423.0
       108210.0       113074.0       117973.0       122996.0       127926.0
       132979.0       138041.0       143152.0       148431.0       153712.0
       159182.0       164611.0       170174.0       175946.0       181652.0
       187460.0       193461.0       199435.0       205490.0       211609.0
       217711.0       223980.0       230252.0       236537.0       242816.0
       249143.0       255499.0       261816.0       268186.0       274536.0
       280869.0       287185.0       293485.0       299832.0       306099.0
       312304.0       318541.0       324691.0       330902.0       337014.0
       343066.0       349167.0       355179.0       361245.0       367179.0
       373110.0       379071.0       384918.0       390761.0       396567.0
       402301.0       407914.0       413453.0       418892.0       424272.0
       429518.0       434595.0       439659.0       444572.0       449329.0
       453972.0       458421.0       462737.0       466861.0       470820.0
       474643.0       478272.0       481708.0       484953.0       488037.0
       490895.0       493635.0       496213.0       498588.0       500796.0
       502777.0       504595.0       506246.0       507818.0       509225.0
       510492.0       511682.0       512746.0       513762.0       514657.0
       515507.0       516272.0       516993.0       517678.0       518252.0
       518782.0       519237.0       519609.0       519965.0       520348.0
       520614.0       520849.0       520982.0       521106.0       521190.0
       521165.0       521168.0       521023.0       520864.0       520680.0
       520438.0       520100.0       519806.0       519464.0       518940.0
       518406.0       517824.0       517252.0       516546.0       515829.0
       515049.0       514043.0       513013.0       512000.0       510718.0
       509253.0       507794.0       506098.0       504246.0       502184.0
       500022.0       497651.0       495004.0       492304.0       489266.0
       485946.0       482360.0       478502.0       474371.0       469909.0
       465189.0       460131.0       454626.0       448747.0       442607.0
       436115.0       429263.0       422056.0       414569.0       406786.0
       398624.0       390181.0       381523.0       372584.0       363391.0
       353978.0       344333.0       334581.0       324574.0       314440.0
       304169.0       293681.0       283185.0       272482.0       261648.0
       250782.0       239804.0       228683.0       217507.0       206290.0
       194933.0       183570.0       172181.0       160681.0       149184.0
       137740.0       126291.0       114871.0       103425.0       92139.00
       80923.00       69697.00       58632.00       47644.00       36819.00
       26089.00       15567.00       5142.000      -5142.000      -15226.00
      -25206.00      -34827.00      -44341.00      -53692.00      -62785.00
      -71799.00      -80544.00      -89046.00      -97470.00      -105709.0
      -113752.0      -121536.0      -129190.0      -136763.0      -143986.0
      -151034.0      -157931.0      -164705.0      -171280.0      -177576.0
      -183856.0      -189889.0      -195709.0      -201441.0      -206960.0
      -212304.0      -217340.0      -222328.0      -227152.0      -231607.0
      -236064.0      -240350.0      -244407.0      -248312.0      -252054.0
      -255730.0      -259205.0      -262441.0      -265663.0      -268751.0
      -271601.0      -274422.0      -277060.0      -279527.0      -281948.0
      -284235.0      -286339.0      -288306.0      -290222.0      -292030.0
      -293685.0      -295175.0      -296616.0      -297999.0      -299185.0
      -300286.0      -301376.0      -302323.0      -303150.0      -304030.0
      -304896.0      -305704.0      -306468.0      -307271.0      -308119.0
      -308930.0      -309849.0      -310836.0      -311838.0      -312890.0
      -314075.0      -315377.0      -316650.0      -318013.0      -319511.0
      -321086.0      -322672.0      -324339.0      -326131.0      -327926.0
      -329728.0      -331607.0      -333573.0      -335474.0      -337463.0
      -339550.0      -341609.0      -343726.0      -345872.0      -348070.0
      -350242.0      -352463.0      -354656.0      -356839.0      -359151.0
      -361334.0      -363543.0      -365761.0      -367906.0      -370097.0
      -372179.0      -374290.0      -376318.0      -378301.0      -380254.0
      -382066.0      -383954.0      -385711.0      -387421.0      -389047.0
      -390566.0      -392151.0      -393585.0      -394896.0      -396266.0
      -397554.0      -398727.0      -399929.0      -400979.0      -401978.0
      -403012.0      -403967.0      -404809.0      -405603.0      -406269.0
      -406843.0      -407376.0      -407695.0      -407999.0      -408045.0
      -407935.0      -407809.0      -407466.0      -406926.0      -406212.0
      -405334.0      -404227.0      -402951.0      -401411.0      -399840.0
      -397928.0      -395672.0      -393479.0      -391019.0      -388308.0
      -385467.0      -382456.0      -379230.0      -375918.0      -372420.0
      -368790.0      -365101.0      -361190.0      -357290.0      -353315.0
      -349081.0      -344902.0      -340759.0      -336439.0      -332080.0
      -327761.0      -323432.0      -319011.0      -314581.0      -310150.0
      -305673.0      -301147.0      -296651.0      -292061.0      -287428.0
      -282900.0      -278323.0      -273773.0      -269155.0      -264698.0
      -260281.0      -255804.0      -251439.0      -247067.0      -242750.0
      -238424.0      -234227.0      -230014.0      -225816.0      -221720.0
      -217733.0      -213770.0      -209829.0      -206047.0      -202274.0
      -198672.0      -195054.0      -191585.0      -188212.0      -184843.0
      -181671.0      -178529.0      -175465.0      -172491.0      -169709.0
      -166923.0      -164213.0      -161542.0      -159033.0      -156651.0
      -154191.0      -151964.0      -149715.0      -147579.0      -145504.0
      -143517.0      -141503.0      -139465.0      -137715.0      -135945.0
      -134201.0      -132403.0      -130736.0      -129036.0      -127247.0
      -125610.0      -123911.0      -122148.0      -120352.0      -118564.0
      -116809.0      -115025.0      -113149.0      -111353.0      -109441.0
      -107560.0      -105764.0      -103889.0      -102030.0      -100140.0
      -98317.00      -96386.00      -94536.00      -92663.00      -90759.00
      -88869.00      -86875.00      -84997.00      -83001.00      -80959.00
      -78923.00      -76891.00      -74766.00      -72574.00      -70378.00
      -68147.00      -65845.00      -63375.00      -60939.00      -58346.00
      -55679.00      -52918.00      -50090.00      -47215.00      -44160.00
      -41129.00      -38003.00      -34781.00      -31527.00      -28335.00
      -24970.00      -21550.00      -18234.00      -14804.00      -11380.00
      -7954.000      -4626.000      -1268.000       2109.000       5436.000
