     0.02500000      -12345.00      -12345.00   1.983070e+09      -12345.00
   0.0005380000       1859.976      -705.0195      -12345.00      -12345.00
      -12345.00      -12345.00      -12345.00      -12345.00      -12345.00
      -12345.00      -12345.00      -12345.00      -12345.00      -12345.00
      -12345.00      -12345.00      -12345.00      -12345.00      -12345.00
      -12345.00      -12345.00      -12345.00      -12345.00      -12345.00
      -12345.00      -29.01100      -70.70050       2274.000       0.000000
      -42.72450       173.0647      -12345.00       22.00000      -12345.00
      -12345.00      -12345.00      -12345.00      -12345.00      -12345.00
      -12345.00      -12345.00      -12345.00      -12345.00      -12345.00
       9746.794       128.1560       221.4171       87.65891      -12345.00
      -12345.00      -12345.00       0.000000       90.00000      -12345.00
      -12345.00      -12345.00      -12345.00      -12345.00      -12345.00
      -12345.00      -12345.00      -12345.00      -12345.00      -12345.00
      2016       318        11        14        44
        19         6    -12345    -12345     74400
    -12345    -12345    -12345    -12345    -12345
         1    -12345    -12345    -12345    -12345
    -12345    -12345    -12345    -12345    -12345
    -12345    -12345    -12345    -12345    -12345
    -12345    -12345    -12345    -12345    -12345
         1    -12345    -12345    -12345    -12345
LCO     South Island, Ne
10      -12345  -12345  
-12345  -12345  -12345  
-12345  -12345  -12345  
-12345  -12345  -12345  
-12345  -12345  -12345  
-12345  -12345  BH1     
IU      -12345  Trillium
[...]
       178255.0       177385.0       176627.0       175993.0       175059.0
       174307.0       173355.0       172508.0       171755.0       170723.0
       169830.0       168767.0       167875.0       166904.0       165717.0
       164761.0       163606.0       162534.0       161476.0       160229.0
       159066.0       157814.0       156722.0       155385.0       153973.0
       152868.0       151416.0       150122.0       148741.0       147250.0
       145937.0       144473.0       143040.0       141544.0       140042.0
       138548.0       137029.0       135417.0       133859.0       132310.0
       130735.0       129121.0       127405.0       125828.0       124214.0
       122500.0       120808.0       119157.0       117513.0       115776.0
       114115.0       112434.0       110670.0       109062.0       107383.0
       105691.0       103981.0       102318.0       100720.0       99026.00
       97373.00       95738.00       94178.00       92576.00       90941.00
       89346.00       87769.00       86277.00       84687.00       83052.00
       81594.00       80119.00       78594.00       77061.00       75576.00
       74185.00       72723.00       71227.00       69735.00       68345.00
       66942.00       65515.00       64093.00       62688.00       61345.00
       59950.00       58592.00       57197.00       55847.00       54508.00
       53092.00       51774.00       50459.00       49076.00       47805.00
       46466.00       45066.00       43773.00       42467.00       41149.00
       39789.00       38429.00       37169.00       35921.00       34526.00
       33196.00       31943.00       30631.00       29414.00       28068.00
       26729.00       25522.00       24250.00       22979.00       21692.00
       20530.00       19262.00       17956.00       16778.00       15508.00
       14333.00       13124.00       11907.00       10760.00       9524.000
       8396.000       7260.000       6048.000       4907.000       3769.000
       2648.000       1481.000       360.0000      -709.0000      -1805.000
      -2890.000      -4016.000      -5111.000      -6149.000      -7187.000
      -8260.000      -9316.000      -10323.00      -11316.00      -12297.00
      -13360.00      -14366.00      -15253.00      -16242.00      -17188.00
      -18161.00      -19067.00      -19937.00      -20962.00      -21820.00
      -22741.00      -23645.00      -24458.00      -25376.00      -26200.00
      -27030.00      -27928.00      -28712.00      -29563.00      -30413.00
      -31116.00      -31935.00      -32751.00      -33537.00      -34302.00
      -34999.00      -35778.00      -36567.00      -37286.00      -38040.00
      -38737.00      -39514.00      -40267.00      -40919.00      -41675.00
      -42377.00      -43082.00      -43817.00      -44476.00      -45112.00
      -45865.00      -46597.00      -47270.00      -47928.00      -48601.00
      -49366.00      -50030.00      -50647.00      -51377.00      -52066.00
      -52758.00      -53466.00      -54107.00      -54820.00      -55486.00
      -56189.00      -56875.00      -57512.00      -58235.00      -58896.00
      -59579.00      -60246.00      -60930.00      -61632.00      -62268.00
      -62960.00      -63587.00      -64247.00      -64962.00      -65549.00
      -66168.00      -66812.00      -67495.00      -68126.00      -68653.00
      -69311.00      -69921.00      -70544.00      -71185.00      -71696.00
      -72358.00      -72943.00      -73471.00      -74059.00      -74582.00
      -75212.00      -75750.00      -76264.00      -76819.00      -77299.00
      -77874.00      -78351.00      -78821.00      -79343.00      -79740.00
      -80275.00      -80702.00      -81079.00      -81603.00      -81976.00
      -82417.00      -82787.00      -83150.00      -83598.00      -83925.00
      -84359.00      -84677.00      -84996.00      -85523.00      -85851.00
      -86144.00      -86526.00      -86897.00      -87294.00      -87576.00
      -87917.00      -88360.00      -88729.00      -89054.00      -89423.00
      -89776.00      -90178.00      -90564.00      -90880.00      -91267.00
      -91636.00      -92071.00      -92432.00      -92737.00      -93187.00
      -93557.00      -93954.00      -94389.00      -94694.00      -95141.00
      -95592.00      -95953.00      -96372.00      -96716.00      -97202.00
      -97633.00      -97983.00      -98484.00      -98843.00      -99362.00
      -99773.00      -100110.0      -100623.0      -100992.0      -101562.0
      -101944.0      -102266.0      -102877.0      -103283.0      -103718.0
      -104200.0      -104651.0      -105162.0      -105549.0      -106037.0
      -106523.0      -106987.0      -107495.0      -107959.0      -108456.0
      -108868.0      -109427.0      -109901.0      -110338.0      -110878.0
      -111329.0      -111845.0      -112319.0      -112806.0      -113249.0
      -113796.0      -114319.0      -114687.0      -115170.0      -115698.0
      -116242.0      -116667.0      -117049.0      -117603.0      -118092.0
      -118544.0      -118984.0      -119375.0      -119898.0      -120361.0
      -120782.0      -121196.0      -121632.0      -122104.0      -122493.0
      -122868.0      -123340.0      -123721.0      -124097.0      -124527.0
      -124832.0      -125308.0      -125637.0      -125958.0      -126363.0
      -126566.0      -127001.0      -127324.0      -127631.0      -127995.0
      -128228.0      -128661.0      -128884.0      -129169.0      -129541.0
      -129725.0      -130134.0      -130396.0      -130594.0      -130952.0
      -131218.0      -131552.0      -131790.0      -132020.0      -132392.0
      -132596.0      -132894.0      -133127.0      -133362.0      -133722.0
      -133839.0      -134172.0      -134381.0      -134595.0      -134958.0
      -135072.0      -135405.0      -135600.0      -135733.0      -136124.0
      -136196.0      -136405.0      -136723.0      -136824.0      -137129.0
      -137254.0      -137497.0      -137723.0      -137823.0      -138151.0
      -138237.0      -138443.0      -138698.0      -138842.0      -139068.0
      -139175.0      -139437.0      -139596.0      -139641.0      -139946.0
      -140076.0      -140230.0      -140398.0      -140508.0      -140711.0
      -140735.0      -140958.0      -141059.0      -141117.0      -141347.0
      -141324.0      -141422.0      -141546.0      -141604.0      -141689.0
      -141737.0      -141746.0      -141767.0      -141823.0      -141806.0
      -141807.0      -141821.0      -141764.0      -141739.0      -141716.0
      -141658.0      -141651.0      -141564.0      -141489.0      -141438.0
      -141269.0      -141249.0      -141148.0      -141018.0      -140906.0
      -140678.0      -140674.0      -140476.0      -140335.0      -140212.0
      -139893.0      -139858.0      -139617.0      -139378.0      -139203.0
      -138955.0      -138800.0      -138477.0      -138295.0      -138054.0
      -137699.0      -137515.0      -137238.0      -136956.0      -136645.0
      -136319.0      -136096.0      -135756.0      -135445.0      -135125.0
      -134768.0      -134517.0      -134096.0      -133747.0      -133447.0
      -133030.0      -132724.0      -132316.0      -131944.0      -131652.0
      -131183.0      -130785.0      -130450.0      -130007.0      -129594.0
      -129161.0      -128771.0      -128388.0      -127874.0      -127442.0
      -126954.0      -126515.0      -126061.0      -125515.0      -125037.0
      -124458.0      -123989.0      -123412.0      -122797.0      -122342.0
      -121672.0      -121079.0      -120513.0      -119801.0      -119174.0
      -118450.0      -117817.0      -117105.0      -116321.0      -115618.0
      -114821.0      -114148.0      -113255.0      -112400.0      -111655.0
      -110691.0      -109864.0      -108906.0      -108013.0      -107149.0
      -106047.0      -105118.0      -104064.0      -103107.0      -102121.0
      -100926.0      -99917.00      -98833.00      -97721.00      -96579.00
      -95365.00      -94276.00      -93082.00      -91871.00      -90748.00
      -89415.00      -88247.00      -87014.00      -85749.00      -84573.00
      -83195.00      -81982.00      -80640.00      -79356.00      -78107.00
      -76689.00      -75569.00      -74184.00      -72837.00      -71615.00
      -70224.00      -69017.00      -67595.00      -66367.00      -65127.00
      -63749.00      -62529.00      -61127.00      -59916.00      -58647.00
      -57298.00      -56067.00      -54702.00      -53539.00      -52247.00
      -50883.00      -49801.00      -48459.00      -47251.00      -46059.00
      -44719.00      -43587.00      -42334.00      -41146.00      -39968.00
      -38702.00      -37554.00      -36371.00      -35210.00      -34053.00
      -32862.00      -31708.00      -30565.00      -29415.00      -28237.00
      -27145.00      -26007.00      -24894.00      -23769.00      -22642.00
      -21622.00      -20448.00      -19403.00      -18342.00      -17223.00
      -16251.00      -15127.00      -14072.00      -13024.00      -11990.00
      -10993.00      -9857.000      -8912.000      -7879.000      -6837.000
      -5854.000      -4796.000      -3937.000      -2842.000      -1793.000
      -942.0000       162.0000       1077.000       2017.000       3050.000
       3984.000       5038.000       5931.000       6906.000       7866.000
       8845.000       9890.000       10727.00       11785.00       12751.00
       13668.00       14740.00       15575.00       16602.00       17635.00
       18513.00       19573.00       20497.00       21500.00       22520.00
       23422.00       24480.00       25459.00       26425.00       27455.00
       28428.00       29499.00       30464.00       31437.00       32522.00
       33529.00       34554.00       35560.00       36662.00       37677.00
       38641.00       39758.00       40800.00       41834.00       42899.00
       43920.00       45069.00       46130.00       47178.00       48309.00
       49353.00       50532.00       51582.00       52624.00       53797.00
       54954.00       56007.00       57094.00       58332.00       59395.00
       60616.00       61791.00       62848.00       64165.00       65313.00
       66524.00       67766.00       68911.00       70243.00       71398.00
       72730.00       74021.00       75217.00       76608.00       77751.00
       79173.00       80481.00       81761.00       83213.00       84397.00
       85829.00       87132.00       88514.00       89930.00       91141.00
       92666.00       94011.00       95353.00       96798.00       98128.00
       99589.00       100985.0       102352.0       103736.0       105140.0
       106606.0       107957.0       109344.0       110802.0       112200.0
       113613.0       115017.0       116397.0       117867.0       119260.0
       120632.0       122075.0       123449.0       124884.0       126213.0
       127668.0       129103.0       130425.0       131870.0       133182.0
       134607.0       135968.0       137313.0       138739.0       140055.0
       141488.0       142820.0       144160.0       145526.0       146823.0
       148244.0       149563.0       150911.0       152225.0       153540.0
       154955.0       156226.0       157578.0       158861.0       160143.0
       161557.0       162816.0       164121.0       165410.0       166718.0
       168045.0       169221.0       170590.0       171888.0       173064.0
       174378.0       175557.0       176836.0       178068.0       179197.0
       180486.0       181587.0       182782.0       184020.0       185066.0
       186284.0       187361.0       188413.0       189607.0       190630.0
       191764.0       192779.0       193788.0       194913.0       195809.0
       196828.0       197817.0       198720.0       199666.0       200583.0
       201505.0       202314.0       203200.0       204035.0       204830.0
       205676.0       206397.0       207171.0       207875.0       208606.0
       209291.0       209913.0       210677.0       211214.0       211804.0
       212405.0       212950.0       213581.0       214011.0       214589.0
       215080.0       215487.0       216006.0       216337.0       216776.0
       217212.0       217517.0       217864.0       218186.0       218506.0
       218795.0       219057.0       219380.0       219610.0       219834.0
       220044.0       220245.0       220517.0       220655.0       220853.0
       221059.0       221189.0       221368.0       221450.0       221615.0
       221804.0       221886.0       222006.0       222116.0       222248.0
       222340.0       222401.0       222500.0       222632.0       222628.0
       222683.0       222837.0       222734.0       222864.0       222942.0
       222850.0       223012.0       222958.0       223015.0       223074.0
       222988.0       223125.0       223061.0       223031.0       223036.0
       222942.0       223032.0       222954.0       222919.0       222913.0
       222776.0       222841.0       222691.0       222608.0       222614.0
       222457.0       222486.0       222287.0       222183.0       222173.0
       221986.0       221973.0       221790.0       221700.0       221621.0
       221456.0       221349.0       221120.0       221075.0       220892.0
       220676.0       220542.0       220332.0       220216.0       220015.0
       219815.0       219627.0       219437.0       219234.0       218980.0
       218771.0       218498.0       218227.0       217978.0       217700.0
       217441.0       217128.0       216815.0       216460.0       216081.0
       215737.0       215355.0       214998.0       214507.0       214077.0
       213696.0       213177.0       212699.0       212147.0       211604.0
       211087.0       210530.0       209870.0       209262.0       208671.0
       207936.0       207291.0       206554.0       205804.0       205024.0
       204122.0       203378.0       202466.0       201518.0       200616.0
       199569.0       198627.0       197535.0       196471.0       195408.0
       194199.0       193054.0       191739.0       190518.0       189191.0
       187757.0       186424.0       184924.0       183541.0       181971.0
       180371.0       178916.0       177179.0       175532.0       173838.0
       172064.0       170374.0       168511.0       166691.0       164841.0
       162863.0       160954.0       158960.0       156946.0       154987.0
       152887.0       150818.0       148708.0       146552.0       144446.0
       142185.0       140008.0       137833.0       135533.0       133297.0
       131032.0       128682.0       126390.0       124063.0       121708.0
       119355.0       116912.0       114568.0       112166.0       109744.0
       107323.0       104815.0       102401.0       99916.00       97458.00
       94969.00       92445.00       89994.00       87385.00       84914.00
       82381.00       79812.00       77333.00       74668.00       72158.00
       69581.00       67015.00       64445.00       61813.00       59323.00
       56659.00       54038.00       51492.00       48913.00       46296.00
       43721.00       41162.00       38559.00       35994.00       33408.00
       30844.00       28309.00       25746.00       23198.00       20714.00
       18159.00       15647.00       13146.00       10696.00       8219.000
       5681.000       3336.000       834.0000      -1536.000      -3864.000
      -6381.000      -8667.000      -10983.00      -13329.00      -15676.00
      -17981.00      -20127.00      -22456.00      -24738.00      -26869.00
      -29109.00      -31210.00      -33334.00      -35473.00      -37545.00
      -39634.00      -41641.00      -43687.00      -45652.00      -47649.00
      -49645.00      -51538.00      -53464.00      -55334.00      -57212.00
      -59071.00      -60911.00      -62730.00      -64506.00      -66273.00
      -68023.00      -69731.00      -71370.00      -73113.00      -74778.00
      -76380.00      -78081.00      -79599.00      -81118.00      -82734.00
      -84228.00      -85743.00      -87195.00      -88666.00      -90194.00
      -91552.00      -92949.00      -94315.00      -95692.00      -97105.00
      -98367.00      -99688.00      -100940.0      -102263.0      -103466.0
      -104654.0      -106027.0      -107048.0      -108254.0      -109442.0
      -110496.0      -111647.0      -112620.0      -113766.0      -114795.0
      -115801.0      -116824.0      -117665.0      -118750.0      -119659.0
      -120543.0      -121518.0      -122306.0      -123263.0      -124053.0
      -124835.0      -125736.0      -126466.0      -127246.0      -127977.0
      -128775.0      -129534.0      -130111.0      -130914.0      -131548.0
      -132143.0      -132906.0      -133488.0      -134143.0      -134666.0
      -135259.0      -135911.0      -136385.0      -136969.0      -137459.0
      -137942.0      -138504.0      -138931.0      -139441.0      -139936.0
      -140301.0      -140752.0      -141112.0      -141559.0      -141958.0
      -142244.0      -142719.0      -143031.0      -143339.0      -143662.0
      -143970.0      -144280.0      -144507.0      -144862.0      -145069.0
      -145301.0      -145585.0      -145823.0      -146002.0      -146126.0
      -146436.0      -146588.0      -146726.0      -146973.0      -147059.0
      -147191.0      -147346.0      -147478.0      -147705.0      -147772.0
      -147919.0      -148086.0      -148132.0      -148359.0      -148463.0
      -148563.0      -148756.0      -148839.0      -148966.0      -149128.0
      -149293.0      -149506.0      -149599.0      -149795.0      -149987.0
      -150092.0      -150382.0      -150535.0      -150721.0      -150992.0
      -151182.0      -151467.0      -151694.0      -151956.0      -152190.0
      -152404.0      -152772.0      -153008.0      -153335.0      -153627.0
      -153939.0      -154315.0      -154537.0      -154949.0      -155273.0
      -155610.0      -156007.0      -156322.0      -156741.0      -157042.0
      -157463.0      -157850.0      -158151.0      -158663.0      -158987.0
      -159395.0      -159791.0      -160150.0      -160666.0      -160965.0
      -161467.0      -161924.0      -162216.0      -162783.0      -163151.0
      -163567.0      -164080.0      -164475.0      -164984.0      -165351.0
      -165840.0      -166308.0      -166741.0      -167256.0      -167602.0
