     0.02500000      -12345.00      -12345.00   1.004120e+09      -12345.00
   0.0005380000       1859.976      -705.0195      -12345.00      -12345.00
      -12345.00      -12345.00      -12345.00      -12345.00      -12345.00
      -12345.00      -12345.00      -12345.00      -12345.00      -12345.00
      -12345.00      -12345.00      -12345.00      -12345.00      -12345.00
      -12345.00      -12345.00      -12345.00      -12345.00      -12345.00
      -12345.00      -29.01100      -70.70050       2274.000       0.000000
      -42.72450       173.0647      -12345.00       22.00000      -12345.00
      -12345.00      -12345.00      -12345.00      -12345.00      -12345.00
      -12345.00      -12345.00      -12345.00      -12345.00      -12345.00
       9746.794       128.1560       221.4171       87.65891      -12345.00
      -12345.00      -12345.00       0.000000       90.00000      -12345.00
      -12345.00      -12345.00      -12345.00      -12345.00      -12345.00
      -12345.00      -12345.00      -12345.00      -12345.00      -12345.00
      2016       318        11        14        44
        19         6    -12345    -12345     74400
    -12345    -12345    -12345    -12345    -12345
         1    -12345    -12345    -12345    -12345
    -12345    -12345    -12345    -12345    -12345
    -12345    -12345    -12345    -12345    -12345
    -12345    -12345    -12345    -12345    -12345
         1    -12345    -12345    -12345    -12345
LCO     South Island, Ne
60      -12345  -12345  
-12345  -12345  -12345  
-12345  -12345  -12345  
-12345  -12345  -12345  
-12345  -12345  -12345  
-12345  -12345  BH1     
IU      -12345  Metrozet
[...]
       87079.00       86580.00       85992.00       85521.00       84937.00
       84341.00       83749.00       83159.00       82613.00       81871.00
       81274.00       80661.00       79945.00       79330.00       78572.00
       77889.00       77218.00       76501.00       75777.00       75012.00
       74268.00       73537.00       72762.00       71945.00       71187.00
       70412.00       69639.00       68784.00       67953.00       67191.00
       66355.00       65508.00       64660.00       63843.00       63006.00
       62152.00       61336.00       60452.00       59614.00       58809.00
       57963.00       57120.00       56254.00       55459.00       54639.00
       53802.00       52975.00       52176.00       51409.00       50585.00
       49779.00       48986.00       48229.00       47476.00       46647.00
       45879.00       45167.00       44413.00       43651.00       42884.00
       42175.00       41481.00       40738.00       39982.00       39260.00
       38587.00       37880.00       37164.00       36445.00       35769.00
       35101.00       34411.00       33722.00       33030.00       32379.00
       31687.00       30991.00       30350.00       29675.00       29006.00
       28376.00       27682.00       27005.00       26363.00       25712.00
       25046.00       24361.00       23702.00       23089.00       22438.00
       21727.00       21098.00       20461.00       19832.00       19209.00
       18500.00       17885.00       17274.00       16640.00       15997.00
       15366.00       14794.00       14135.00       13521.00       12906.00
       12284.00       11723.00       11096.00       10505.00       9912.000
       9319.000       8780.000       8178.000       7587.000       7020.000
       6461.000       5903.000       5315.000       4773.000       4243.000
       3706.000       3153.000       2593.000       2067.000       1560.000
       1032.000       498.0000      -14.00000      -508.0000      -984.0000
      -1495.000      -2036.000      -2484.000      -2936.000      -3429.000
      -3896.000      -4380.000      -4792.000      -5268.000      -5753.000
      -6172.000      -6641.000      -7051.000      -7476.000      -7924.000
      -8320.000      -8750.000      -9163.000      -9549.000      -9998.000
      -10371.00      -10733.00      -11154.00      -11547.00      -11936.00
      -12282.00      -12637.00      -13044.00      -13417.00      -13777.00
      -14132.00      -14485.00      -14884.00      -15220.00      -15568.00
      -15936.00      -16274.00      -16642.00      -16992.00      -17299.00
      -17641.00      -18022.00      -18369.00      -18704.00      -19022.00
      -19389.00      -19760.00      -20056.00      -20387.00      -20755.00
      -21097.00      -21458.00      -21786.00      -22125.00      -22479.00
      -22808.00      -23175.00      -23491.00      -23833.00      -24194.00
      -24525.00      -24868.00      -25199.00      -25564.00      -25903.00
      -26236.00      -26573.00      -26880.00      -27250.00      -27586.00
      -27875.00      -28199.00      -28531.00      -28879.00      -29160.00
      -29445.00      -29790.00      -30092.00      -30429.00      -30713.00
      -30992.00      -31342.00      -31611.00      -31899.00      -32177.00
      -32465.00      -32789.00      -33043.00      -33323.00      -33583.00
      -33851.00      -34148.00      -34369.00      -34625.00      -34871.00
      -35103.00      -35369.00      -35551.00      -35796.00      -36041.00
      -36238.00      -36463.00      -36630.00      -36851.00      -37052.00
      -37243.00      -37460.00      -37598.00      -37828.00      -38068.00
      -38204.00      -38386.00      -38581.00      -38794.00      -38978.00
      -39118.00      -39327.00      -39554.00      -39735.00      -39909.00
      -40103.00      -40297.00      -40514.00      -40695.00      -40880.00
      -41084.00      -41294.00      -41524.00      -41685.00      -41881.00
      -42112.00      -42305.00      -42539.00      -42734.00      -42919.00
      -43187.00      -43398.00      -43601.00      -43812.00      -44016.00
      -44294.00      -44484.00      -44713.00      -44956.00      -45170.00
      -45466.00      -45636.00      -45877.00      -46118.00      -46358.00
      -46662.00      -46798.00      -47062.00      -47372.00      -47576.00
      -47837.00      -48073.00      -48350.00      -48611.00      -48831.00
      -49110.00      -49359.00      -49637.00      -49900.00      -50170.00
      -50417.00      -50670.00      -50988.00      -51218.00      -51494.00
      -51763.00      -52034.00      -52321.00      -52579.00      -52838.00
      -53101.00      -53434.00      -53675.00      -53891.00      -54184.00
      -54490.00      -54773.00      -54988.00      -55243.00      -55556.00
      -55817.00      -56074.00      -56304.00      -56565.00      -56858.00
      -57104.00      -57340.00      -57570.00      -57840.00      -58107.00
      -58327.00      -58554.00      -58808.00      -59024.00      -59279.00
      -59484.00      -59702.00      -59983.00      -60143.00      -60382.00
      -60556.00      -60728.00      -61001.00      -61159.00      -61382.00
      -61541.00      -61742.00      -61992.00      -62113.00      -62334.00
      -62491.00      -62673.00      -62913.00      -63027.00      -63207.00
      -63409.00      -63592.00      -63785.00      -63916.00      -64119.00
      -64318.00      -64457.00      -64646.00      -64770.00      -64983.00
      -65137.00      -65258.00      -65480.00      -65576.00      -65791.00
      -65948.00      -66066.00      -66280.00      -66360.00      -66553.00
      -66727.00      -66778.00      -66993.00      -67121.00      -67255.00
      -67426.00      -67510.00      -67706.00      -67795.00      -67937.00
      -68100.00      -68177.00      -68368.00      -68492.00      -68623.00
      -68740.00      -68844.00      -69032.00      -69086.00      -69205.00
      -69371.00      -69457.00      -69603.00      -69674.00      -69805.00
      -69911.00      -69985.00      -70139.00      -70177.00      -70301.00
      -70392.00      -70427.00      -70539.00      -70604.00      -70673.00
      -70745.00      -70794.00      -70829.00      -70887.00      -70932.00
      -70957.00      -70998.00      -71021.00      -71029.00      -71066.00
      -71074.00      -71075.00      -71106.00      -71081.00      -71100.00
      -71073.00      -71036.00      -71072.00      -71014.00      -71012.00
      -70943.00      -70906.00      -70922.00      -70824.00      -70836.00
      -70725.00      -70671.00      -70675.00      -70539.00      -70492.00
      -70402.00      -70349.00      -70261.00      -70140.00      -70103.00
      -69967.00      -69873.00      -69798.00      -69678.00      -69580.00
      -69429.00      -69334.00      -69237.00      -69083.00      -68978.00
      -68828.00      -68721.00      -68601.00      -68409.00      -68312.00
      -68159.00      -67997.00      -67865.00      -67683.00      -67569.00
      -67415.00      -67203.00      -67070.00      -66915.00      -66725.00
      -66561.00      -66367.00      -66218.00      -66028.00      -65814.00
      -65632.00      -65405.00      -65239.00      -65013.00      -64785.00
      -64555.00      -64307.00      -64113.00      -63812.00      -63579.00
      -63346.00      -63030.00      -62806.00      -62501.00      -62192.00
      -61892.00      -61561.00      -61286.00      -60907.00      -60577.00
      -60229.00      -59885.00      -59548.00      -59090.00      -58757.00
      -58356.00      -57923.00      -57522.00      -57050.00      -56677.00
      -56195.00      -55707.00      -55252.00      -54746.00      -54322.00
      -53775.00      -53246.00      -52763.00      -52226.00      -51697.00
      -51122.00      -50563.00      -50030.00      -49432.00      -48889.00
      -48299.00      -47670.00      -47128.00      -46491.00      -45916.00
      -45289.00      -44653.00      -44069.00      -43393.00      -42819.00
      -42140.00      -41523.00      -40956.00      -40237.00      -39660.00
      -38994.00      -38376.00      -37762.00      -37065.00      -36514.00
      -35853.00      -35234.00      -34593.00      -33938.00      -33380.00
      -32716.00      -32094.00      -31457.00      -30832.00      -30287.00
      -29589.00      -29005.00      -28443.00      -27781.00      -27244.00
      -26596.00      -25999.00      -25441.00      -24819.00      -24275.00
      -23657.00      -23072.00      -22519.00      -21940.00      -21387.00
      -20803.00      -20245.00      -19684.00      -19124.00      -18555.00
      -18001.00      -17468.00      -16906.00      -16381.00      -15810.00
      -15294.00      -14772.00      -14210.00      -13724.00      -13167.00
      -12665.00      -12166.00      -11613.00      -11120.00      -10596.00
      -10128.00      -9595.000      -9060.000      -8611.000      -8083.000
      -7613.000      -7095.000      -6615.000      -6184.000      -5611.000
      -5171.000      -4698.000      -4168.000      -3764.000      -3247.000
      -2773.000      -2288.000      -1790.000      -1364.000      -860.0000
      -403.0000       118.0000       578.0000       1014.000       1553.000
       1987.000       2487.000       2965.000       3394.000       3946.000
       4396.000       4874.000       5385.000       5836.000       6363.000
       6827.000       7304.000       7832.000       8294.000       8802.000
       9305.000       9805.000       10333.00       10801.00       11321.00
       11842.00       12353.00       12866.00       13383.00       13933.00
       14417.00       14942.00       15497.00       16003.00       16543.00
       17061.00       17594.00       18177.00       18682.00       19243.00
       19787.00       20345.00       20941.00       21435.00       22003.00
       22601.00       23163.00       23685.00       24283.00       24882.00
       25441.00       26075.00       26618.00       27234.00       27878.00
       28450.00       29107.00       29685.00       30325.00       30978.00
       31584.00       32299.00       32887.00       33576.00       34226.00
       34843.00       35602.00       36216.00       36950.00       37617.00
       38268.00       39009.00       39660.00       40425.00       41066.00
       41759.00       42534.00       43190.00       43936.00       44639.00
       45354.00       46114.00       46813.00       47526.00       48239.00
       48982.00       49725.00       50423.00       51158.00       51903.00
       52628.00       53363.00       54076.00       54816.00       55572.00
       56265.00       57012.00       57736.00       58465.00       59195.00
       59894.00       60684.00       61379.00       62111.00       62836.00
       63533.00       64285.00       64967.00       65712.00       66423.00
       67136.00       67877.00       68558.00       69291.00       69977.00
       70692.00       71417.00       72108.00       72829.00       73498.00
       74235.00       74941.00       75613.00       76332.00       76989.00
       77718.00       78425.00       79086.00       79789.00       80454.00
       81172.00       81832.00       82488.00       83226.00       83856.00
       84534.00       85204.00       85829.00       86537.00       87132.00
       87782.00       88444.00       89023.00       89706.00       90300.00
       90899.00       91545.00       92081.00       92706.00       93302.00
       93865.00       94470.00       94981.00       95585.00       96132.00
       96624.00       97196.00       97703.00       98211.00       98706.00
       99217.00       99691.00       100140.0       100628.0       101061.0
       101529.0       101953.0       102359.0       102789.0       103173.0
       103587.0       103935.0       104325.0       104702.0       104997.0
       105360.0       105665.0       106010.0       106323.0       106595.0
       106932.0       107166.0       107448.0       107714.0       107920.0
       108197.0       108412.0       108610.0       108824.0       109014.0
       109216.0       109384.0       109570.0       109755.0       109892.0
       110054.0       110177.0       110348.0       110495.0       110591.0
       110755.0       110867.0       110987.0       111092.0       111177.0
       111330.0       111426.0       111509.0       111604.0       111704.0
       111814.0       111878.0       111950.0       112060.0       112144.0
       112164.0       112282.0       112337.0       112346.0       112487.0
       112489.0       112548.0       112639.0       112649.0       112757.0
       112762.0       112809.0       112891.0       112879.0       112937.0
       112944.0       112985.0       113051.0       113029.0       113082.0
       113070.0       113093.0       113151.0       113092.0       113147.0
       113131.0       113135.0       113165.0       113085.0       113144.0
       113118.0       113104.0       113114.0       113053.0       113088.0
       113051.0       113043.0       112986.0       112951.0       112965.0
       112875.0       112849.0       112797.0       112763.0       112737.0
       112666.0       112617.0       112563.0       112516.0       112437.0
       112372.0       112294.0       112194.0       112120.0       112020.0
       111930.0       111838.0       111726.0       111606.0       111452.0
       111322.0       111183.0       111041.0       110884.0       110673.0
       110529.0       110339.0       110123.0       109924.0       109680.0
       109457.0       109240.0       108974.0       108674.0       108433.0
       108145.0       107832.0       107529.0       107185.0       106864.0
       106470.0       106088.0       105726.0       105274.0       104867.0
       104406.0       103944.0       103492.0       102956.0       102478.0
       101921.0       101375.0       100805.0       100175.0       99608.00
       98917.00       98268.00       97589.00       96883.00       96207.00
       95391.00       94686.00       93925.00       93078.00       92293.00
       91430.00       90604.00       89739.00       88822.00       87948.00
       87007.00       86053.00       85117.00       84119.00       83148.00
       82166.00       81128.00       80119.00       79052.00       78017.00
       76952.00       75836.00       74785.00       73674.00       72560.00
       71461.00       70314.00       69171.00       68040.00       66872.00
       65725.00       64538.00       63342.00       62191.00       60982.00
       59799.00       58574.00       57348.00       56151.00       54910.00
       53704.00       52446.00       51225.00       49981.00       48692.00
       47478.00       46184.00       44950.00       43673.00       42369.00
       41128.00       39827.00       38574.00       37258.00       35993.00
       34730.00       33392.00       32113.00       30834.00       29543.00
       28249.00       26978.00       25684.00       24404.00       23121.00
       21835.00       20563.00       19293.00       18014.00       16767.00
       15524.00       14239.00       12998.00       11762.00       10542.00
       9275.000       8063.000       6870.000       5621.000       4488.000
       3263.000       2052.000       933.0000      -247.0000      -1407.000
      -2581.000      -3692.000      -4785.000      -5965.000      -7053.000
      -8145.000      -9242.000      -10272.00      -11351.00      -12396.00
      -13442.00      -14458.00      -15477.00      -16493.00      -17465.00
      -18482.00      -19440.00      -20397.00      -21346.00      -22277.00
      -23216.00      -24130.00      -25058.00      -25954.00      -26841.00
      -27716.00      -28590.00      -29426.00      -30261.00      -31136.00
      -31935.00      -32770.00      -33593.00      -34334.00      -35138.00
      -35909.00      -36660.00      -37419.00      -38130.00      -38904.00
      -39627.00      -40309.00      -41027.00      -41687.00      -42403.00
      -43075.00      -43722.00      -44382.00      -45014.00      -45688.00
      -46247.00      -46915.00      -47534.00      -48055.00      -48710.00
      -49240.00      -49830.00      -50367.00      -50871.00      -51461.00
      -51947.00      -52495.00      -52945.00      -53426.00      -53972.00
      -54381.00      -54893.00      -55322.00      -55754.00      -56235.00
      -56597.00      -57054.00      -57468.00      -57846.00      -58252.00
      -58624.00      -59053.00      -59378.00      -59725.00      -60129.00
      -60404.00      -60781.00      -61125.00      -61438.00      -61762.00
      -62025.00      -62383.00      -62666.00      -62934.00      -63233.00
      -63473.00      -63759.00      -64023.00      -64259.00      -64544.00
      -64758.00      -64981.00      -65216.00      -65404.00      -65660.00
      -65830.00      -66035.00      -66260.00      -66407.00      -66608.00
      -66763.00      -66951.00      -67091.00      -67248.00      -67425.00
      -67525.00      -67686.00      -67818.00      -67958.00      -68036.00
      -68155.00      -68321.00      -68377.00      -68501.00      -68610.00
      -68669.00      -68770.00      -68847.00      -68968.00      -69060.00
      -69103.00      -69227.00      -69288.00      -69377.00      -69493.00
      -69538.00      -69637.00      -69730.00      -69795.00      -69896.00
      -69989.00      -70099.00      -70202.00      -70282.00      -70421.00
      -70495.00      -70619.00      -70768.00      -70839.00      -71000.00
      -71132.00      -71266.00      -71429.00      -71547.00      -71717.00
      -71841.00      -72012.00      -72192.00      -72336.00      -72536.00
      -72681.00      -72899.00      -73065.00      -73233.00      -73468.00
      -73629.00      -73856.00      -74045.00      -74247.00      -74468.00
      -74652.00      -74902.00      -75074.00      -75313.00      -75557.00
      -75731.00      -75989.00      -76175.00      -76437.00      -76676.00
      -76866.00      -77172.00      -77356.00      -77596.00      -77881.00
      -78066.00      -78351.00      -78595.00      -78849.00      -79099.00
      -79317.00      -79610.00      -79833.00      -80118.00      -80351.00
      -80587.00      -80875.00      -81090.00      -81401.00      -81614.00
      -81871.00      -82158.00      -82360.00      -82661.00      -82880.00
      -83149.00      -83399.00      -83599.00      -83915.00      -84116.00
