     0.02500000      -12345.00      -12345.00   1.983070e+09      -12345.00
   0.0005380000       1859.976      -705.0195      -12345.00      -12345.00
      -12345.00      -12345.00      -12345.00      -12345.00      -12345.00
      -12345.00      -12345.00      -12345.00      -12345.00      -12345.00
      -12345.00      -12345.00      -12345.00      -12345.00      -12345.00
      -12345.00      -12345.00      -12345.00      -12345.00      -12345.00
      -12345.00      -29.01100      -70.70050       2274.000       0.000000
      -42.72450       173.0647      -12345.00       22.00000      -12345.00
      -12345.00      -12345.00      -12345.00      -12345.00      -12345.00
      -12345.00      -12345.00      -12345.00      -12345.00      -12345.00
       9746.794       128.1560       221.4171       87.65891      -12345.00
      -12345.00      -12345.00       0.000000       0.000000      -12345.00
      -12345.00      -12345.00      -12345.00      -12345.00      -12345.00
      -12345.00      -12345.00      -12345.00      -12345.00      -12345.00
      2016       318        11        14        44
        19         6    -12345    -12345     74400
    -12345    -12345    -12345    -12345    -12345
         1    -12345    -12345    -12345    -12345
    -12345    -12345    -12345    -12345    -12345
    -12345    -12345    -12345    -12345    -12345
    -12345    -12345    -12345    -12345    -12345
         1    -12345    -12345    -12345    -12345
LCO     South Island, Ne
10      -12345  -12345  
-12345  -12345  -12345  
-12345  -12345  -12345  
-12345  -12345  -12345  
-12345  -12345  -12345  
-12345  -12345  BHZ     
IU      -12345  Trillium
[...]
       25956.00       25710.00       25406.00       25140.00       24888.00
       24645.00       24308.00       23978.00       23707.00       23429.00
       23126.00       22756.00       22444.00       22151.00       21835.00
       21478.00       21141.00       20955.00       20676.00       20328.00
       20001.00       19663.00       19482.00       19267.00       19034.00
       18863.00       18629.00       18434.00       18260.00       18061.00
       17874.00       17689.00       17585.00       17442.00       17212.00
       17028.00       16853.00       16725.00       16568.00       16432.00
       16361.00       16160.00       15902.00       15733.00       15546.00
       15335.00       15114.00       14772.00       14461.00       14148.00
       13827.00       13490.00       12990.00       12543.00       12090.00
       11578.00       11062.00       10512.00       9998.000       9441.000
       8779.000       8226.000       7633.000       6919.000       6392.000
       5765.000       5134.000       4600.000       4031.000       3489.000
       2880.000       2401.000       1971.000       1449.000       930.0000
       441.0000      -24.00000      -414.0000      -889.0000      -1404.000
      -1803.000      -2213.000      -2617.000      -3032.000      -3425.000
      -3860.000      -4292.000      -4708.000      -5170.000      -5600.000
      -6029.000      -6456.000      -6906.000      -7323.000      -7711.000
      -8093.000      -8445.000      -8879.000      -9274.000      -9590.000
      -9950.000      -10302.00      -10626.00      -10874.00      -11122.00
      -11430.00      -11727.00      -11996.00      -12175.00      -12427.00
      -12708.00      -12986.00      -13308.00      -13529.00      -13853.00
      -14154.00      -14448.00      -14826.00      -15083.00      -15476.00
      -15828.00      -16058.00      -16470.00      -16943.00      -17401.00
      -17804.00      -18215.00      -18737.00      -19203.00      -19648.00
      -20125.00      -20561.00      -21096.00      -21626.00      -22157.00
      -22692.00      -23159.00      -23733.00      -24253.00      -24788.00
      -25288.00      -25756.00      -26315.00      -26767.00      -27289.00
      -27829.00      -28430.00      -29006.00      -29369.00      -29894.00
      -30489.00      -30987.00      -31539.00      -32023.00      -32506.00
      -33025.00      -33494.00      -33999.00      -34417.00      -34918.00
      -35438.00      -35858.00      -36366.00      -36848.00      -37397.00
      -37864.00      -38307.00      -38836.00      -39303.00      -39781.00
      -40243.00      -40729.00      -41212.00      -41742.00      -42283.00
      -42681.00      -43135.00      -43694.00      -44164.00      -44603.00
      -45066.00      -45604.00      -46163.00      -46686.00      -47203.00
      -47707.00      -48199.00      -48807.00      -49409.00      -49845.00
      -50496.00      -51124.00      -51726.00      -52326.00      -52844.00
      -53572.00      -54152.00      -54732.00      -55383.00      -55988.00
      -56693.00      -57306.00      -57920.00      -58487.00      -59140.00
      -59789.00      -60313.00      -60959.00      -61541.00      -62202.00
      -62757.00      -63259.00      -63865.00      -64387.00      -65087.00
      -65659.00      -66211.00      -66815.00      -67387.00      -68098.00
      -68617.00      -69158.00      -69864.00      -70533.00      -71116.00
      -71693.00      -72358.00      -73044.00      -73692.00      -74316.00
      -74961.00      -75614.00      -76321.00      -76889.00      -77428.00
      -78112.00      -78685.00      -79356.00      -79987.00      -80531.00
      -81151.00      -81716.00      -82366.00      -82955.00      -83561.00
      -84196.00      -84722.00      -85293.00      -85843.00      -86422.00
      -87026.00      -87541.00      -88161.00      -88740.00      -89329.00
      -89998.00      -90470.00      -91054.00      -91705.00      -92308.00
      -92936.00      -93525.00      -94170.00      -94807.00      -95440.00
      -96042.00      -96668.00      -97412.00      -98060.00      -98735.00
      -99370.00      -100004.0      -100752.0      -101355.0      -101967.0
      -102532.0      -103172.0      -103805.0      -104321.0      -104848.0
      -105358.0      -105917.0      -106372.0      -106882.0      -107346.0
      -107788.0      -108278.0      -108691.0      -109143.0      -109593.0
      -110114.0      -110536.0      -110982.0      -111477.0      -111889.0
      -112401.0      -112827.0      -113271.0      -113759.0      -114258.0
      -114839.0      -115289.0      -115823.0      -116332.0      -116819.0
      -117442.0      -117952.0      -118533.0      -119140.0      -119747.0
      -120296.0      -120830.0      -121585.0      -122189.0      -122805.0
      -123442.0      -124002.0      -124813.0      -125451.0      -126072.0
      -126724.0      -127315.0      -128143.0      -128717.0      -129330.0
      -130116.0      -130711.0      -131346.0      -131877.0      -132463.0
      -133145.0      -133699.0      -134316.0      -134837.0      -135367.0
      -136016.0      -136455.0      -136939.0      -137448.0      -137992.0
      -138497.0      -138860.0      -139334.0      -139697.0      -140201.0
      -140578.0      -140912.0      -141345.0      -141636.0      -142080.0
      -142335.0      -142652.0      -143043.0      -143304.0      -143629.0
      -143864.0      -144158.0      -144449.0      -144709.0      -144986.0
      -145094.0      -145309.0      -145614.0      -145756.0      -145939.0
      -146108.0      -146270.0      -146576.0      -146733.0      -146766.0
      -146951.0      -147133.0      -147301.0      -147411.0      -147503.0
      -147715.0      -147789.0      -147872.0      -148023.0      -148156.0
      -148341.0      -148384.0      -148468.0      -148618.0      -148681.0
      -148889.0      -148974.0      -148965.0      -149170.0      -149316.0
      -149434.0      -149516.0      -149579.0      -149669.0      -149756.0
      -149849.0      -149918.0      -150059.0      -150166.0      -150201.0
      -150213.0      -150236.0      -150278.0      -150324.0      -150310.0
      -150269.0      -150216.0      -150186.0      -150084.0      -149914.0
      -149800.0      -149664.0      -149568.0      -149297.0      -149034.0
      -148841.0      -148557.0      -148379.0      -148092.0      -147765.0
      -147488.0      -147159.0      -146793.0      -146368.0      -146009.0
      -145665.0      -145264.0      -144834.0      -144398.0      -144022.0
      -143626.0      -143175.0      -142694.0      -142240.0      -141809.0
      -141368.0      -140886.0      -140388.0      -139897.0      -139385.0
      -138927.0      -138405.0      -137940.0      -137542.0      -137035.0
      -136542.0      -136079.0      -135704.0      -135327.0      -134790.0
      -134384.0      -134035.0      -133560.0      -133173.0      -132750.0
      -132320.0      -132048.0      -131704.0      -131264.0      -130863.0
      -130458.0      -130070.0      -129691.0      -129278.0      -128853.0
      -128548.0      -128197.0      -127717.0      -127220.0      -126812.0
      -126418.0      -125939.0      -125482.0      -125025.0      -124634.0
      -124189.0      -123695.0      -123163.0      -122715.0      -122335.0
      -121858.0      -121352.0      -120834.0      -120407.0      -119967.0
      -119447.0      -118940.0      -118478.0      -118066.0      -117549.0
      -116983.0      -116473.0      -115922.0      -115389.0      -114797.0
      -114192.0      -113607.0      -112956.0      -112346.0      -111592.0
      -110848.0      -110167.0      -109412.0      -108684.0      -107810.0
      -107057.0      -106300.0      -105381.0      -104526.0      -103632.0
      -102904.0      -102127.0      -101212.0      -100365.0      -99498.00
      -98779.00      -97983.00      -97067.00      -96339.00      -95637.00
      -94845.00      -93968.00      -93151.00      -92453.00      -91734.00
      -90975.00      -90114.00      -89344.00      -88558.00      -87815.00
      -87022.00      -86005.00      -85237.00      -84385.00      -83519.00
      -82607.00      -81554.00      -80731.00      -79721.00      -78597.00
      -77520.00      -76454.00      -75427.00      -74307.00      -73188.00
      -72033.00      -70919.00      -69803.00      -68432.00      -67184.00
      -66029.00      -64758.00      -63529.00      -62240.00      -60991.00
      -59673.00      -58317.00      -56986.00      -55577.00      -54339.00
      -53082.00      -51732.00      -50458.00      -49127.00      -47865.00
      -46609.00      -45363.00      -44129.00      -42831.00      -41698.00
      -40460.00      -39160.00      -38038.00      -36826.00      -35652.00
      -34486.00      -33260.00      -32176.00      -30984.00      -29764.00
      -28557.00      -27340.00      -26238.00      -24984.00      -23758.00
      -22575.00      -21394.00      -20280.00      -19005.00      -17816.00
      -16629.00      -15323.00      -14216.00      -13026.00      -11838.00
      -10692.00      -9452.000      -8315.000      -7015.000      -5846.000
      -4719.000      -3417.000      -2257.000      -976.0000       217.0000
       1414.000       2767.000       3991.000       5360.000       6594.000
       7837.000       9232.000       10467.00       11869.00       13136.00
       14469.00       15916.00       17170.00       18531.00       19777.00
       21225.00       22687.00       23977.00       25450.00       26803.00
       28205.00       29600.00       30937.00       32443.00       33884.00
       35257.00       36670.00       38118.00       39590.00       41108.00
       42635.00       44073.00       45617.00       47155.00       48669.00
       50241.00       51707.00       53264.00       54862.00       56362.00
       57917.00       59393.00       60957.00       62629.00       64057.00
       65561.00       67074.00       68576.00       70113.00       71521.00
       73033.00       74506.00       75943.00       77377.00       78747.00
       80203.00       81625.00       82992.00       84393.00       85742.00
       87134.00       88597.00       89940.00       91264.00       92560.00
       93973.00       95410.00       96698.00       98133.00       99515.00
       100942.0       102423.0       103754.0       105233.0       106680.0
       108138.0       109601.0       111024.0       112633.0       114001.0
       115419.0       116877.0       118329.0       119879.0       121173.0
       122633.0       124108.0       125502.0       126847.0       128124.0
       129538.0       130821.0       132138.0       133450.0       134739.0
       136049.0       137327.0       138645.0       139768.0       140988.0
       142318.0       143596.0       144864.0       146104.0       147344.0
       148607.0       149931.0       151191.0       152492.0       153804.0
       155191.0       156585.0       157796.0       159199.0       160567.0
       161930.0       163306.0       164513.0       165970.0       167292.0
       168570.0       169928.0       171194.0       172630.0       173916.0
       175187.0       176514.0       177837.0       179212.0       180424.0
       181752.0       183091.0       184375.0       185763.0       186931.0
       188271.0       189627.0       190889.0       192284.0       193502.0
       194891.0       196202.0       197472.0       198835.0       200066.0
       201403.0       202706.0       203973.0       205264.0       206472.0
       207872.0       209181.0       210315.0       211559.0       212754.0
       214067.0       215246.0       216305.0       217483.0       218588.0
       219697.0       220750.0       221724.0       222818.0       223817.0
       224756.0       225644.0       226516.0       227477.0       228285.0
       229085.0       229873.0       230643.0       231397.0       232128.0
       232822.0       233457.0       234179.0       234870.0       235497.0
       236130.0       236771.0       237487.0       238076.0       238628.0
       239303.0       239933.0       240560.0       241101.0       241703.0
       242381.0       242938.0       243512.0       244119.0       244665.0
       245370.0       246065.0       246616.0       247283.0       247906.0
       248590.0       249171.0       249849.0       250585.0       251149.0
       251879.0       252488.0       253105.0       253812.0       254476.0
       255116.0       255709.0       256337.0       256947.0       257553.0
       258126.0       258678.0       259302.0       259824.0       260373.0
       260921.0       261445.0       261980.0       262493.0       263066.0
       263488.0       264029.0       264500.0       264915.0       265377.0
       265806.0       266398.0       266749.0       267109.0       267529.0
       267904.0       268310.0       268575.0       268941.0       269312.0
       269665.0       269929.0       270171.0       270476.0       270772.0
       271109.0       271325.0       271576.0       271825.0       272109.0
       272406.0       272587.0       272825.0       273087.0       273277.0
       273552.0       273763.0       273933.0       274225.0       274390.0
       274609.0       274807.0       275030.0       275271.0       275399.0
       275625.0       275831.0       276050.0       276248.0       276428.0
       276632.0       276843.0       276987.0       277126.0       277408.0
       277550.0       277687.0       277938.0       278066.0       278191.0
       278315.0       278435.0       278633.0       278734.0       278845.0
       279032.0       279107.0       279223.0       279352.0       279414.0
       279535.0       279554.0       279603.0       279712.0       279810.0
       279933.0       279895.0       279888.0       279921.0       279959.0
       279953.0       279856.0       279850.0       279830.0       279710.0
       279640.0       279579.0       279438.0       279369.0       279191.0
       279011.0       278875.0       278674.0       278552.0       278280.0
       278028.0       277824.0       277514.0       277241.0       276911.0
       276600.0       276347.0       276024.0       275692.0       275313.0
       274952.0       274746.0       274410.0       274003.0       273651.0
       273249.0       272924.0       272470.0       272064.0       271713.0
       271296.0       270856.0       270332.0       269902.0       269390.0
       268911.0       268364.0       267796.0       267345.0       266720.0
       266207.0       265569.0       264924.0       264463.0       263734.0
       263222.0       262639.0       261926.0       261410.0       260651.0
       260117.0       259483.0       258761.0       258270.0       257545.0
       257003.0       256432.0       255803.0       255237.0       254526.0
       254067.0       253497.0       252847.0       252350.0       251728.0
       251294.0       250755.0       250108.0       249604.0       248988.0
       248536.0       247909.0       247335.0       246917.0       246249.0
       245671.0       245000.0       244401.0       243884.0       243201.0
       242613.0       241964.0       241288.0       240764.0       240058.0
       239451.0       238851.0       238135.0       237533.0       236758.0
       236140.0       235483.0       234765.0       234137.0       233422.0
       232781.0       232037.0       231356.0       230726.0       229994.0
       229225.0       228473.0       227776.0       227047.0       226297.0
       225554.0       224802.0       223957.0       223125.0       222278.0
       221487.0       220635.0       219618.0       218773.0       217752.0
       216790.0       215911.0       214788.0       213806.0       212701.0
       211686.0       210684.0       209466.0       208469.0       207442.0
       206360.0       205275.0       204194.0       203179.0       202090.0
       201045.0       199988.0       198895.0       197932.0       196882.0
       195837.0       194874.0       193824.0       192823.0       191734.0
       190741.0       189746.0       188682.0       187650.0       186563.0
       185633.0       184529.0       183432.0       182456.0       181358.0
       180366.0       179310.0       178215.0       177156.0       176048.0
       175026.0       173939.0       172902.0       171840.0       170661.0
       169736.0       168653.0       167482.0       166425.0       165332.0
       164347.0       163157.0       161992.0       160958.0       159812.0
       158767.0       157638.0       156428.0       155300.0       154169.0
       153019.0       151779.0       150652.0       149579.0       148266.0
       146980.0       145771.0       144609.0       143369.0       142079.0
       140795.0       139430.0       138247.0       136925.0       135551.0
       134262.0       132893.0       131603.0       130198.0       128882.0
       127580.0       126218.0       124982.0       123555.0       122265.0
       120973.0       119604.0       118375.0       117069.0       115841.0
       114566.0       113280.0       112055.0       110766.0       109551.0
       108262.0       106981.0       105811.0       104544.0       103434.0
       102186.0       100867.0       99640.00       98391.00       97286.00
       95994.00       94781.00       93636.00       92361.00       91224.00
       89955.00       88774.00       87692.00       86508.00       85392.00
       84200.00       83109.00       81998.00       80830.00       79785.00
       78686.00       77621.00       76567.00       75415.00       74323.00
       73245.00       72123.00       71031.00       69825.00       68628.00
       67540.00       66313.00       65079.00       63901.00       62565.00
       61296.00       60065.00       58704.00       57372.00       56017.00
       54658.00       53276.00       51897.00       50586.00       49186.00
       47780.00       46406.00       44939.00       43550.00       42215.00
       40811.00       39413.00       37969.00       36651.00       35329.00
       33935.00       32603.00       31289.00       30000.00       28665.00
       27360.00       26115.00       24901.00       23643.00       22387.00
       21188.00       19982.00       18884.00       17729.00       16477.00
       15363.00       14247.00       13096.00       11936.00       10818.00
       9780.000       8611.000       7443.000       6398.000       5342.000
