     0.02500000      -12345.00      -12345.00   3.262830e+10      -12345.00
   0.0005380000       1859.976      -695.0195      -12345.00      -12345.00
      -12345.00      -12345.00      -12345.00      -12345.00      -12345.00
      -12345.00      -12345.00      -12345.00      -12345.00      -12345.00
      -12345.00      -12345.00      -12345.00      -12345.00      -12345.00
      -12345.00      -12345.00      -12345.00      -12345.00      -12345.00
      -12345.00       36.54567       138.2041       405.0000       0.000000
      -42.72450       173.0647      -12345.00       22.00000      -12345.00
      -12345.00      -12345.00      -12345.00      -12345.00      -12345.00
      -12345.00      -12345.00      -12345.00      -12345.00      -12345.00
       9457.736       332.4834       154.9907       85.05923      -12345.00
      -12345.00      -12345.00       90.00000       90.00000      -12345.00
      -12345.00      -12345.00      -12345.00      -12345.00      -12345.00
      -12345.00      -12345.00      -12345.00      -12345.00      -12345.00
      2016       318        11        14        34
        19         6    -12345    -12345     74400
    -12345    -12345    -12345    -12345    -12345
         1    -12345    -12345    -12345    -12345
    -12345    -12345    -12345    -12345    -12345
    -12345    -12345    -12345    -12345    -12345
    -12345    -12345    -12345    -12345    -12345
         1    -12345    -12345    -12345    -12345
MAJO    South Island, Ne
10      -12345  -12345  
-12345  -12345  -12345  
-12345  -12345  -12345  
-12345  -12345  -12345  
-12345  -12345  -12345  
-12345  -12345  BH2     
IU      -12345  Streckei
[...]
      -4308727.      -4300789.      -4293146.      -4285388.      -4277429.
      -4269596.      -4261760.      -4253847.      -4246016.      -4238137.
      -4229949.      -4221692.      -4213654.      -4205426.      -4197039.
      -4188791.      -4180430.      -4171996.      -4163612.      -4155060.
      -4146455.      -4137978.      -4129217.      -4120389.      -4111920.
      -4103286.      -4094677.      -4086234.      -4077428.      -4068689.
      -4060111.      -4051260.      -4042309.      -4033245.      -4024202.
      -4015372.      -4006482.      -3997494.      -3988552.      -3979618.
      -3970655.      -3961789.      -3952888.      -3943867.      -3934961.
      -3926040.      -3917019.      -3908011.      -3898992.      -3889904.
      -3880591.      -3871304.      -3862162.      -3852810.      -3843536.
      -3834357.      -3824990.      -3815763.      -3806636.      -3797450.
      -3788260.      -3778948.      -3769599.      -3760317.      -3751016.
      -3741525.      -3731964.      -3722647.      -3713095.      -3703382.
      -3694050.      -3684496.      -3674764.      -3665259.      -3655699.
      -3645903.      -3635991.      -3626329.      -3616577.      -3606639.
      -3596962.      -3587100.      -3577025.      -3567126.      -3557027.
      -3546766.      -3536597.      -3526247.      -3515895.      -3505678.
      -3495234.      -3484762.      -3474524.      -3464150.      -3453579.
      -3443139.      -3432585.      -3421728.      -3410873.      -3400015.
      -3389036.      -3378022.      -3366994.      -3355959.      -3345036.
      -3334033.      -3322735.      -3311475.      -3300185.      -3288754.
      -3277365.      -3265778.      -3254104.      -3242577.      -3230999.
      -3219354.      -3207767.      -3195900.      -3183927.      -3172348.
      -3160446.      -3148255.      -3136283.      -3124012.      -3111792.
      -3099779.      -3087427.      -3075025.      -3062788.      -3050473.
      -3038067.      -3025733.      -3013285.      -3000654.      -2988053.
      -2975462.      -2962720.      -2949904.      -2937094.      -2924050.
      -2911123.      -2898297.      -2885164.      -2872157.      -2859158.
      -2845850.      -2832528.      -2819203.      -2805673.      -2791966.
      -2778394.      -2764869.      -2751074.      -2737399.      -2723876.
      -2710218.      -2696742.      -2683129.      -2669242.      -2655499.
      -2641461.      -2627216.      -2613227.      -2598994.      -2584311.
      -2569750.      -2555473.      -2541080.      -2526503.      -2511895.
      -2497122.      -2482184.      -2467367.      -2452536.      -2437448.
      -2422270.      -2407071.      -2391890.      -2376803.      -2361579.
      -2346132.      -2330648.      -2315255.      -2300094.      -2284893.
      -2269326.      -2253721.      -2238294.      -2222802.      -2207236.
      -2191684.      -2176137.      -2160810.      -2145419.      -2129663.
      -2113965.      -2098391.      -2082821.      -2067247.      -2051506.
      -2035915.      -2020443.      -2004755.      -1989192.      -1973530.
      -1957791.      -1942377.      -1926599.      -1910698.      -1895348.
      -1879988.      -1864426.      -1848759.      -1832980.      -1817346.
      -1801794.      -1786164.      -1770450.      -1754589.      -1738939.
      -1723577.      -1707834.      -1691845.      -1676044.      -1660325.
      -1644684.      -1628888.      -1612893.      -1597054.      -1581388.
      -1565712.      -1549891.      -1533966.      -1518150.      -1502400.
      -1486442.      -1470402.      -1454345.      -1438122.      -1422001.
      -1406065.      -1390009.      -1373847.      -1357818.      -1341826.
      -1325777.      -1309740.      -1293745.      -1277713.      -1261552.
      -1245388.      -1229213.      -1213043.      -1196837.      -1180590.
      -1164536.      -1148366.      -1132070.      -1115986.      -1099823.
      -1083614.      -1067438.      -1051168.      -1035025.      -1018950.
      -1002734.      -986354.0      -970026.0      -953760.0      -937247.0
      -920720.0      -904310.0      -887864.0      -871471.0      -855058.0
      -838588.0      -822194.0      -805735.0      -789217.0      -772818.0
      -756199.0      -739423.0      -722820.0      -706131.0      -689424.0
      -672883.0      -656502.0      -640090.0      -623534.0      -607184.0
      -590706.0      -573927.0      -557446.0      -540909.0      -524027.0
      -507300.0      -490483.0      -473512.0      -456767.0      -439828.0
      -422860.0      -406269.0      -389527.0      -372730.0      -356162.0
      -339558.0      -322913.0      -306322.0      -289692.0      -272937.0
      -256150.0      -239330.0      -222418.0      -205469.0      -188576.0
      -171771.0      -154978.0      -138200.0      -121531.0      -104958.0
      -88245.00      -71558.00      -54946.00      -38150.00      -21388.00
      -4573.000       12209.00       28852.00       45614.00       62260.00
       78877.00       95604.00       112231.0       128785.0       145275.0
       161682.0       178191.0       194769.0       211091.0       227482.0
       244091.0       260408.0       276816.0       293427.0       309675.0
       325956.0       342280.0       358389.0       374755.0       390945.0
       406870.0       423162.0       439258.0       455116.0       471262.0
       487344.0       503255.0       519196.0       535033.0       550768.0
       566567.0       582311.0       597990.0       613715.0       629518.0
       645322.0       660987.0       676727.0       692596.0       708277.0
       723867.0       739391.0       754780.0       770432.0       786081.0
       801542.0       817352.0       833211.0       849011.0       865093.0
       881059.0       896860.0       912917.0       929133.0       945110.0
       960890.0       976868.0       992965.0       1008997.       1025088.
       1041178.       1057252.       1073358.       1089423.       1105648.
       1122002.       1138230.       1154575.       1170908.       1186989.
       1203314.       1219791.       1235867.       1251761.       1267751.
       1283731.       1299771.       1315762.       1331654.       1347864.
       1364165.       1380259.       1396520.       1412778.       1428888.
       1445019.       1461118.       1477192.       1493092.       1509069.
       1525183.       1541009.       1556763.       1572640.       1588618.
       1604809.       1620969.       1637078.       1653448.       1669839.
       1686177.       1702564.       1718827.       1734990.       1751103.
       1767231.       1783247.       1799297.       1815491.       1831570.
       1847800.       1864228.       1880687.       1897193.       1913854.
       1930509.       1946872.       1963245.       1979632.       1995941.
       2012252.       2028288.       2044382.       2060860.       2077167.
       2093382.       2109857.       2126312.       2142817.       2159513.
       2176100.       2192468.       2208908.       2225400.       2241608.
       2257837.       2274361.       2290952.       2307604.       2324166.
       2340679.       2357405.       2374045.       2390539.       2407143.
       2423700.       2440056.       2456591.       2473475.       2490166.
       2506616.       2523343.       2540304.       2557222.       2574104.
       2590918.       2607590.       2624368.       2641208.       2657713.
       2674266.       2691075.       2707716.       2724478.       2741548.
       2758624.       2775816.       2792953.       2810001.       2827293.
       2844430.       2861364.       2878503.       2895452.       2911956.
       2928575.       2945403.       2962226.       2979180.       2996085.
       3013247.       3030882.       3048244.       3065523.       3083037.
       3100282.       3117337.       3134288.       3151047.       3167908.
       3184801.       3201705.       3218782.       3235955.       3253300.
       3270623.       3287994.       3305632.       3323181.       3340748.
       3358321.       3375712.       3393160.       3410574.       3427883.
       3445100.       3462346.       3479729.       3497043.       3514535.
       3532029.       3549299.       3567027.       3584849.       3602369.
       3619984.       3637650.       3655484.       3673321.       3691009.
       3708758.       3726449.       3744191.       3761884.       3779495.
       3797268.       3814895.       3832467.       3850085.       3867583.
       3885288.       3903040.       3920671.       3938480.       3956297.
       3974106.       3991997.       4009855.       4027654.       4045367.
       4063099.       4080673.       4098244.       4116018.       4133464.
       4150841.       4168530.       4186047.       4203556.       4221345.
       4239070.       4256798.       4274681.       4292546.       4310310.
       4328022.       4345774.       4363287.       4380584.       4398003.
       4415335.       4432639.       4449935.       4467091.       4484394.
       4501748.       4519054.       4536493.       4554039.       4571518.
       4588861.       4606267.       4623534.       4640582.       4657622.
       4674405.       4690973.       4707540.       4724069.       4740683.
       4757363.       4773966.       4790662.       4807353.       4823934.
       4840718.       4857501.       4874122.       4890636.       4906938.
       4923224.       4939457.       4955567.       4971683.       4987683.
       5003646.       5019678.       5035534.       5051508.       5067770.
       5083842.       5099868.       5115866.       5131673.       5147695.
       5163745.       5179393.       5194973.       5210585.       5226006.
       5241503.       5257009.       5272371.       5287783.       5303141.
       5318525.       5334038.       5349496.       5364811.       5380063.
       5395341.       5410612.       5425838.       5441069.       5456243.
       5471169.       5486202.       5501288.       5516010.       5530761.
       5545509.       5560150.       5574841.       5589389.       5603931.
       5618623.       5633271.       5647671.       5662138.       5676785.
       5691095.       5705407.       5719710.       5733548.       5747655.
       5761869.       5775619.       5789378.       5803249.       5817050.
       5830815.       5844611.       5858344.       5872087.       5885922.
       5899503.       5912858.       5926282.       5939640.       5952708.
       5965773.       5978964.       5991958.       6005125.       6018373.
       6031308.       6044433.       6057438.       6070141.       6082958.
       6095627.       6108191.       6120766.       6133174.       6145551.
       6157945.       6170243.       6182492.       6194603.       6206651.
       6218724.       6230717.       6242737.       6254515.       6266190.
       6278027.       6289452.       6300716.       6312162.       6323556.
       6334941.       6346115.       6357272.       6368567.       6379534.
       6390390.       6401344.       6412046.       6422579.       6433084.
       6443589.       6454148.       6464481.       6474698.       6484973.
       6495124.       6505354.       6515550.       6525601.       6535815.
       6545967.       6555984.       6566031.       6575811.       6585467.
       6595257.       6604794.       6614084.       6623469.       6632890.
       6642175.       6651388.       6660658.       6669826.       6678838.
       6687949.       6696894.       6705537.       6714324.       6722873.
       6731131.       6739566.       6747831.       6756116.       6764527.
       6772598.       6780611.       6788651.       6796466.       6804295.
       6812009.       6819367.       6826744.       6834207.       6841479.
       6848674.       6855917.       6862929.       6869673.       6876600.
       6883587.       6890138.       6896599.       6903123.       6909333.
       6915479.       6921702.       6927704.       6933608.       6939642.
       6945543.       6951223.       6956959.       6962541.       6967926.
       6973283.       6978414.       6983468.       6988441.       6993226.
       6997978.       7002597.       7007117.       7011592.       7015962.
       7020322.       7024706.       7029043.       7033172.       7036976.
       7040724.       7044524.       7048037.       7051336.       7054515.
       7057422.       7060290.       7063159.       7065802.       7068351.
       7070797.       7073093.       7075600.       7078068.       7080171.
       7082251.       7084156.       7085864.       7087546.       7088835.
       7089834.       7090871.       7091735.       7092274.       7092860.
       7093502.       7093830.       7094017.       7094092.       7094032.
       7094029.       7093878.       7093388.       7092786.       7092234.
       7091482.       7090485.       7089478.       7088347.       7086995.
       7085567.       7083949.       7082106.       7080237.       7078284.
       7075974.       7073564.       7071309.       7068823.       7066230.
       7063631.       7060860.       7058041.       7054980.       7051708.
       7048488.       7045116.       7041329.       7037570.       7034021.
       7030049.       7025830.       7021727.       7017570.       7013211.
       7008596.       7004054.       6999510.       6994720.       6989837.
       6984864.       6979761.       6974524.       6969158.       6963637.
       6957827.       6951849.       6945760.       6939252.       6932605.
       6926140.       6919432.       6912496.       6905548.       6898459.
       6891292.       6884083.       6876724.       6869082.       6861264.
       6853360.       6845250.       6837078.       6828701.       6820005.
       6811429.       6802806.       6793845.       6784849.       6775790.
       6766510.       6756988.       6747358.       6737723.       6727942.
       6718021.       6707958.       6697785.       6687527.       6677023.
       6666358.       6655693.       6644765.       6633673.       6622644.
       6611267.       6599753.       6588450.       6576920.       6565192.
       6553431.       6541441.       6529353.       6517246.       6504800.
       6492023.       6479236.       6466206.       6452890.       6439581.
       6426073.       6412435.       6398751.       6384834.       6370900.
       6356987.       6342876.       6328569.       6314128.       6299611.
       6284954.       6270108.       6255199.       6240120.       6224830.
       6209470.       6193879.       6178137.       6162506.       6146639.
       6130467.       6114356.       6098113.       6081795.       6065476.
       6048778.       6031965.       6015258.       5998272.       5981011.
       5963760.       5946186.       5928347.       5910713.       5892850.
       5874773.       5856839.       5838744.       5820583.       5802455.
       5784216.       5765928.       5747466.       5728799.       5709980.
       5691085.       5672119.       5652773.       5633321.       5613998.
       5594479.       5574826.       5555045.       5535273.       5515671.
       5495803.       5475757.       5455846.       5435793.       5415489.
       5395171.       5374707.       5353831.       5332932.       5312017.
       5290786.       5269534.       5248252.       5226997.       5205804.
       5184395.       5163030.       5141858.       5120665.       5099234.
       5077583.       5056031.       5034361.       5012455.       4990626.
       4968574.       4946241.       4924062.       4901886.       4879512.
       4857227.       4834959.       4812431.       4790078.       4767939.
       4745455.       4723028.       4700839.       4678299.       4655741.
       4633427.       4610888.       4588199.       4565452.       4542490.
       4519539.       4496596.       4473530.       4450435.       4427206.
       4404095.       4381186.       4358017.       4334691.       4311560.
       4288443.       4265121.       4241856.       4218617.       4195199.
       4171779.       4148425.       4124960.       4101373.       4077947.
       4054439.       4030651.       4006990.       3983421.       3959756.
       3936186.       3912716.       3889235.       3865878.       3842490.
       3818876.       3795335.       3771798.       3747961.       3724158.
       3700412.       3676412.       3652475.       3628734.       3604900.
       3581221.       3557652.       3533809.       3510086.       3486474.
       3462682.       3438819.       3414913.       3391019.       3367126.
       3343116.       3319071.       3295245.       3271383.       3247282.
       3223380.       3199792.       3176050.       3152111.       3128360.
       3104612.       3080859.       3057327.       3033670.       3009728.
       2985958.       2962453.       2938837.       2915187.       2891488.
       2867843.       2844351.       2820661.       2797044.       2773518.
       2749783.       2726230.       2702839.       2679334.       2655954.
       2632751.       2609679.       2586587.       2563265.       2540102.
       2517040.       2493663.       2470359.       2447095.       2423611.
       2400292.       2377172.       2354150.       2331262.       2308393.
       2285530.       2262725.       2239817.       2216779.       2193903.
       2170979.       2147934.       2125074.       2102200.       2079358.
       2056789.       2034210.       2011535.       1989101.       1966716.
       1944097.       1921613.       1899220.       1876790.       1854519.
       1832074.       1809616.       1787497.       1765254.       1743003.
       1721050.       1699012.       1676864.       1654836.       1632767.
       1610686.       1588912.       1567057.       1544974.       1523201.
       1501543.       1479749.       1457997.       1436408.       1414779.
       1393004.       1371387.       1349828.       1328250.       1306778.
       1285291.       1263834.       1242605.       1221391.       1200024.
       1178800.       1157755.       1136585.       1115205.       1093994.
       1072920.       1051697.       1030561.       1009470.       988350.0
       967301.0       946231.0       925230.0       904234.0       883199.0
       862368.0       841627.0       820783.0       799880.0       779035.0
