     0.02500000      -12345.00      -12345.00   3.355440e+10      -12345.00
   0.0005380000       1859.976      -618.0195      -12345.00      -12345.00
      -12345.00      -12345.00      -12345.00      -12345.00      -12345.00
      -12345.00      -12345.00      -12345.00      -12345.00      -12345.00
      -12345.00      -12345.00      -12345.00      -12345.00      -12345.00
      -12345.00      -12345.00      -12345.00      -12345.00      -12345.00
      -12345.00       28.21560      -177.3698       19.00000       1.000000
      -42.72450       173.0647      -12345.00       22.00000      -12345.00
      -12345.00      -12345.00      -12345.00      -12345.00      -12345.00
      -12345.00      -12345.00      -12345.00      -12345.00      -12345.00
       7909.684       8.915133       187.4351       71.13665      -12345.00
      -12345.00      -12345.00       0.000000       0.000000      -12345.00
      -12345.00      -12345.00      -12345.00      -12345.00      -12345.00
      -12345.00      -12345.00      -12345.00      -12345.00      -12345.00
      2016       318        11        13        17
        19         6    -12345    -12345     74400
    -12345    -12345    -12345    -12345    -12345
         1    -12345    -12345    -12345    -12345
    -12345    -12345    -12345    -12345    -12345
    -12345    -12345    -12345    -12345    -12345
    -12345    -12345    -12345    -12345    -12345
         1    -12345    -12345    -12345    -12345
MIDW    South Island, Ne
00      -12345  -12345  
-12345  -12345  -12345  
-12345  -12345  -12345  
-12345  -12345  -12345  
-12345  -12345  -12345  
-12345  -12345  BHZ     
IU      -12345  Streckei
[...]
      -6358970.      -6333817.      -6325028.      -6291308.      -6245351.
      -6253867.      -6238564.      -6190793.      -6187488.      -6172743.
      -6147784.      -6135070.      -6092047.      -6044774.      -6014754.
      -5994678.      -5966374.      -5921989.      -5912874.      -5894585.
      -5865645.      -5865898.      -5835980.      -5806865.      -5799623.
      -5755922.      -5703615.      -5702726.      -5684774.      -5647299.
      -5610255.      -5555376.      -5543452.      -5508486.      -5453442.
      -5446265.      -5403167.      -5354085.      -5360561.      -5324511.
      -5273395.      -5258499.      -5204626.      -5188461.      -5185260.
      -5118896.      -5113851.      -5095582.      -5063206.      -5063044.
      -4990723.      -4960867.      -4950592.      -4916217.      -4897129.
      -4841317.      -4814587.      -4792670.      -4752994.      -4720827.
      -4671937.      -4638302.      -4619775.      -4605277.      -4561821.
      -4515524.      -4514390.      -4498634.      -4462099.      -4406463.
      -4366927.      -4346757.      -4286778.      -4258883.      -4251917.
      -4194166.      -4161291.      -4162071.      -4103928.      -4050780.
      -4058996.      -4023636.      -3963027.      -3930330.      -3889412.
      -3854046.      -3815067.      -3777383.      -3734366.      -3693621.
      -3685475.      -3616981.      -3560597.      -3558916.      -3503020.
      -3469620.      -3420002.      -3358988.      -3355408.      -3298841.
      -3252864.      -3231007.      -3181943.      -3170633.      -3134512.
      -3059300.      -3037625.      -3012952.      -2940532.      -2917646.
      -2890674.      -2829332.      -2797575.      -2745601.      -2712179.
      -2691531.      -2616634.      -2557459.      -2531014.      -2488728.
      -2446092.      -2412134.      -2359210.      -2311937.      -2269420.
      -2220276.      -2186616.      -2129956.      -2089698.      -2062613.
      -1987680.      -1945202.      -1922002.      -1855285.      -1808730.
      -1782403.      -1702398.      -1630307.      -1602079.      -1568026.
      -1534509.      -1456529.      -1406956.      -1402334.      -1319761.
      -1262531.      -1232933.      -1168694.      -1137511.      -1093993.
      -1035804.      -986544.0      -916485.0      -870434.0      -828300.0
      -753856.0      -705738.0      -647568.0      -579231.0      -552581.0
      -496201.0      -425069.0      -400367.0      -342169.0      -246389.0
      -222946.0      -202103.0      -126025.0      -78028.00      -31081.00
       15074.00       49830.00       103412.0       139778.0       208520.0
       277054.0       297986.0       360379.0       408663.0       455857.0
       539218.0       566455.0       614442.0       694594.0       724071.0
       771161.0       829747.0       868201.0       924510.0       965040.0
       1003056.       1068684.       1101756.       1142539.       1209705.
       1237665.       1313108.       1395174.       1400133.       1460267.
       1527694.       1551777.       1617826.       1670334.       1712148.
       1784848.       1838643.       1874160.       1939534.       1989643.
       2025908.       2097987.       2146075.       2203894.       2270478.
       2309607.       2365112.       2425379.       2493840.       2552696.
       2594559.       2654798.       2706037.       2738424.       2807696.
       2861597.       2876719.       2946133.       3020025.       3043427.
       3086481.       3166310.       3220874.       3274351.       3353988.
       3406682.       3455024.       3502169.       3546901.       3611369.
       3671230.       3719747.       3759225.       3822120.       3882892.
       3917101.       3977428.       4029228.       4078033.       4139705.
       4174850.       4234448.       4291453.       4335331.       4408046.
       4461765.       4522432.       4578004.       4616752.       4681252.
       4737444.       4783398.       4820004.       4866321.       4925725.
       4968094.       5013465.       5056054.       5116764.       5184697.
       5213940.       5254379.       5319622.       5377917.       5428617.
       5477843.       5530302.       5565347.       5592210.       5659714.
       5726236.       5746362.       5797428.       5860943.       5888798.
       5933779.       5968673.       6015357.       6074830.       6087989.
       6124525.       6181474.       6222005.       6258882.       6280697.
       6319767.       6385598.       6422636.       6460941.       6513812.
       6528570.       6562521.       6612271.       6645563.       6685763.
       6735400.       6771110.       6775184.       6801552.       6850185.
       6895615.       6921443.       6933379.       6957297.       7002101.
       7053585.       7042064.       7047310.       7130717.       7163162.
       7161325.       7205320.       7230563.       7253685.       7307595.
       7322485.       7339879.       7362148.       7360050.       7405164.
       7431814.       7441647.       7484217.       7484369.       7509537.
       7545784.       7540921.       7575344.       7585185.       7585506.
       7645293.       7640507.       7630124.       7697867.       7713559.
       7713395.       7736857.       7732065.       7753570.       7784183.
       7779344.       7806849.       7823445.       7801782.       7835290.
       7831260.       7820332.       7885508.       7878999.       7874606.
       7905815.       7871455.       7895745.       7944944.       7917815.
       7910461.       7918094.       7916751.       7933344.       7933525.
       7934676.       7940511.       7928600.       7942201.       7969934.
       7971714.       7980155.       7989014.       7986561.       7993622.
       7969918.       7960910.       7984136.       7962963.       7950597.
       7959443.       7962529.       7953490.       7928042.       7935038.
       7947660.       7941960.       7931687.       7928111.       7921277.
       7916286.       7921629.       7904877.       7881170.       7857847.
       7859913.       7867958.       7863314.       7858142.       7842635.
       7825437.       7797817.       7815464.       7832753.       7811285.
       7796850.       7776407.       7783397.       7760173.       7728657.
       7737946.       7703094.       7675831.       7669101.       7645532.
       7621852.       7612556.       7630475.       7613577.       7580022.
       7590117.       7572319.       7524713.       7525490.       7497887.
       7451194.       7468261.       7450188.       7412618.       7402533.
       7367695.       7350696.       7339049.       7303829.       7290463.
       7268510.       7229288.       7209293.       7181079.       7158332.
       7156524.       7131156.       7102917.       7089716.       7063741.
       7037673.       7012915.       6979935.       6953125.       6922876.
       6899887.       6883506.       6834468.       6804556.       6795876.
       6746099.       6722539.       6705100.       6658824.       6639797.
       6591991.       6537361.       6525856.       6502290.       6467331.
       6436562.       6392431.       6364621.       6340422.       6289853.
       6277423.       6246105.       6202176.       6207283.       6149398.
       6092453.       6069699.       6023990.       6018688.       5983962.
       5903101.       5874699.       5863775.       5827159.       5787066.
       5725598.       5673157.       5653759.       5612458.       5577008.
       5543565.       5489174.       5456634.       5400674.       5330703.
       5311683.       5278362.       5218417.       5188918.       5152911.
       5123818.       5097045.       5020930.       5008303.       4997304.
       4896186.       4862544.       4840843.       4765466.       4731979.
       4686739.       4607514.       4568870.       4532193.       4491255.
       4461658.       4390960.       4349519.       4321052.       4240850.
       4211792.       4167734.       4092076.       4078551.       4009558.
       3932919.       3910544.       3853553.       3801509.       3742312.
       3667881.       3624837.       3559784.       3478657.       3423813.
       3356157.       3318867.       3281941.       3182809.       3142214.
       3113361.       3034760.       2986109.       2927051.       2849794.
       2801350.       2739291.       2689549.       2666835.       2564724.
       2487057.       2462553.       2396120.       2363259.       2301111.
       2208593.       2176986.       2115181.       2039490.       2015597.
       1958686.       1898457.       1847282.       1769979.       1750992.
       1702903.       1624404.       1600371.       1513490.       1431327.
       1414949.       1345091.       1263117.       1206672.       1137732.
       1105650.       1064026.       952100.0       906528.0       865987.0
       775009.0       760064.0       685075.0       581790.0       555364.0
       511316.0       462696.0       385714.0       314067.0       277817.0
       218977.0       160525.0       94402.00       13347.00      -43125.00
      -66092.00      -136572.0      -230405.0      -262042.0      -303276.0
      -359633.0      -422703.0      -488246.0      -546761.0      -611422.0
      -647648.0      -735797.0      -820869.0      -849458.0      -955006.0
      -1025980.      -1029798.      -1134504.      -1234006.      -1243269.
      -1317429.      -1410201.      -1442495.      -1510627.      -1574087.
      -1622899.      -1707990.      -1754573.      -1778720.      -1863003.
      -1952358.      -1989971.      -2032815.      -2122155.      -2188677.
      -2222955.      -2312334.      -2390989.      -2405199.      -2464852.
      -2560514.      -2614471.      -2671349.      -2737660.      -2793435.
      -2867651.      -2913442.      -2956324.      -3027977.      -3068148.
      -3158472.      -3240512.      -3255197.      -3350550.      -3424255.
      -3460298.      -3564545.      -3615944.      -3664243.      -3746560.
      -3770771.      -3832850.      -3913864.      -3962303.      -4028690.
      -4075626.      -4115231.      -4191243.      -4236200.      -4269320.
      -4372982.      -4434065.      -4474019.      -4520135.      -4533130.
      -4638883.      -4727975.      -4738366.      -4796394.      -4848579.
      -4907799.      -4995532.      -5025001.      -5067899.      -5146905.
      -5199699.      -5259271.      -5303994.      -5341252.      -5410461.
      -5465283.      -5499864.      -5556086.      -5608130.      -5650416.
      -5717112.      -5765345.      -5819491.      -5891430.      -5901439.
      -5941944.      -6024107.      -6061458.      -6112650.      -6158116.
      -6191619.      -6245145.      -6276408.      -6323474.      -6391525.
      -6412284.      -6456116.      -6521115.      -6545598.      -6599356.
      -6652201.      -6680283.      -6738540.      -6775699.      -6791620.
      -6872272.      -6905597.      -6899512.      -6992933.      -7040775.
      -7063851.      -7118618.      -7137285.      -7197584.      -7231523.
      -7257727.      -7328895.      -7335424.      -7372030.      -7446528.
      -7451166.      -7480725.      -7528603.      -7530576.      -7587154.
      -7639398.      -7640224.      -7691040.      -7726629.      -7745731.
      -7796972.      -7824686.      -7850477.      -7878906.      -7894143.
      -7955321.      -7983262.      -7960247.      -8013398.      -8057535.
      -8061263.      -8102421.      -8123117.      -8136627.      -8165296.
      -8182399.      -8236225.      -8254446.      -8259637.      -8321822.
      -8313070.      -8321494.      -8370209.      -8384372.      -8431526.
      -8420154.      -8435899.      -8504730.      -8484757.      -8511272.
      -8550745.      -8544590.      -8582747.      -8574011.      -8575693.
      -8652525.      -8638721.      -8619788.      -8675655.      -8678559.
      -8694412.      -8734515.      -8730809.      -8772742.      -8808774.
      -8783578.      -8808468.      -8841426.      -8847211.      -8873756.
      -8894693.      -8904965.      -8917268.      -8920931.      -8941124.
      -8959950.      -8939829.      -8971597.      -8997913.      -8966154.
      -9004233.      -9024162.      -8992319.      -9021272.      -9039001.
      -9033758.      -9065756.      -9054760.      -9062473.      -9094803.
      -9042684.      -9089175.      -9122511.      -9062453.      -9121529.
      -9117694.      -9094745.      -9154590.      -9123990.      -9133067.
      -9168281.      -9115315.      -9138886.      -9162748.      -9149171.
      -9174362.      -9145062.      -9130776.      -9136124.      -9141684.
      -9156898.      -9130950.      -9139390.      -9164966.      -9143493.
      -9153407.      -9198473.      -9135869.      -9105127.      -9205258.
      -9184109.      -9121984.      -9158440.      -9175245.      -9181514.
      -9161009.      -9123866.      -9155015.      -9157204.      -9114293.
      -9111345.      -9104501.      -9111572.      -9131551.      -9076460.
      -9062935.      -9096022.      -9069190.      -9078925.      -9031668.
      -8980442.      -9056274.      -9030655.      -8978916.      -9000882.
      -8948889.      -8938811.      -8961834.      -8904951.      -8900942.
      -8897027.      -8842093.      -8856256.      -8819173.      -8779987.
      -8823026.      -8773467.      -8726366.      -8722281.      -8704440.
      -8703454.      -8663727.      -8625154.      -8628600.      -8588219.
      -8517530.      -8541816.      -8526644.      -8461635.      -8474541.
      -8424708.      -8358206.      -8361414.      -8341824.      -8301425.
      -8254938.      -8225367.      -8218974.      -8169034.      -8138933.
      -8102515.      -8069950.      -8070039.      -7976600.      -7957757.
      -7974658.      -7902364.      -7866816.      -7853066.      -7824163.
      -7762761.      -7752020.      -7723912.      -7646901.      -7606908.
      -7586135.      -7595783.      -7498987.      -7412942.      -7449197.
      -7421822.      -7339959.      -7280717.      -7260356.      -7249533.
      -7205590.      -7133066.      -7103241.      -7086750.      -7026294.
      -6979123.      -6924861.      -6882784.      -6842434.      -6770993.
      -6740329.      -6697823.      -6618731.      -6601611.      -6570769.
      -6472170.      -6447100.      -6428128.      -6351509.      -6310885.
      -6260862.      -6211828.      -6167346.      -6111464.      -6073369.
      -6017294.      -5979119.      -5936922.      -5842289.      -5797282.
      -5804727.      -5732696.      -5658322.      -5644102.      -5567296.
      -5509427.      -5468645.      -5379101.      -5345608.      -5299588.
      -5217639.      -5176983.      -5132490.      -5087454.      -5043453.
      -4966315.      -4907850.      -4870235.      -4819735.      -4769749.
      -4680727.      -4612429.      -4627404.      -4558810.      -4450279.
      -4416649.      -4349310.      -4314308.      -4275033.      -4159634.
      -4129594.      -4102683.      -4007189.      -3968231.      -3911829.
      -3841423.      -3822951.      -3722771.      -3642796.      -3640996.
      -3560275.      -3506866.      -3459078.      -3359375.      -3333439.
      -3279259.      -3194817.      -3157615.      -3076173.      -3030368.
      -3001278.      -2896097.      -2859773.      -2812484.      -2712474.
      -2702961.      -2632704.      -2541510.      -2549831.      -2464029.
      -2385070.      -2373788.      -2252677.      -2213677.      -2202935.
      -2062131.      -2037882.      -2004334.      -1894622.      -1907083.
      -1841904.      -1733418.      -1728572.      -1647389.      -1608958.
      -1600549.      -1461938.      -1426596.      -1418932.      -1315571.
      -1279213.      -1209216.      -1124757.      -1124813.      -1051546.
      -948694.0      -922510.0      -854448.0      -789614.0      -756977.0
      -662584.0      -626907.0      -583293.0      -503860.0      -479463.0
      -387655.0      -324195.0      -303788.0      -224772.0      -184628.0
      -133636.0      -37405.00      -26225.00       35871.00       141793.0
       126177.0       205091.0       312500.0       319856.0       386316.0
       437255.0       488821.0       598177.0       614922.0       634434.0
       742903.0       775127.0       823862.0       923802.0       941460.0
       1007968.       1080987.       1102899.       1216155.       1268523.
       1266381.       1373975.       1425295.       1461674.       1547475.
       1562803.       1618219.       1692974.       1734067.       1811259.
       1834590.       1873539.       2000836.       2049006.       2073340.
       2141878.       2182003.       2259409.       2325451.       2351237.
       2441267.       2512834.       2544386.       2626847.       2678367.
       2732389.       2826366.       2837575.       2884042.       2977490.
       3015081.       3087112.       3140824.       3182575.       3271338.
       3319220.       3361083.       3431437.       3485030.       3551157.
       3605989.       3634488.       3702102.       3771878.       3816785.
       3866114.       3900149.       3967476.       4051844.       4062942.
       4110355.       4185398.       4209152.       4288243.       4344718.
       4374728.       4453390.       4481169.       4551642.       4629993.
       4624020.       4683560.       4739966.       4763332.       4834583.
       4865097.       4892894.       4973266.       5003838.       5033794.
       5113665.       5141530.       5204440.       5281815.       5275779.
       5331634.       5398032.       5425228.       5488847.       5513937.
       5558071.       5638726.       5632066.       5682332.       5769176.
       5758310.       5833941.       5898619.       5886402.       5950877.
       5966350.       5983875.       6061231.       6058849.       6103698.
       6181477.       6176863.       6239750.       6283313.       6273765.
       6352942.       6377383.       6403971.       6475303.       6456576.
       6506060.       6575132.       6562296.       6610499.       6644956.
       6661980.       6737455.       6731666.       6749015.       6838576.
       6828536.       6845911.       6903849.       6917964.       6971698.
