     0.02500000      -12345.00      -12345.00   3.355440e+10      -12345.00
   0.0005380000       1859.976      -618.0195      -12345.00      -12345.00
      -12345.00      -12345.00      -12345.00      -12345.00      -12345.00
      -12345.00      -12345.00      -12345.00      -12345.00      -12345.00
      -12345.00      -12345.00      -12345.00      -12345.00      -12345.00
      -12345.00      -12345.00      -12345.00      -12345.00      -12345.00
      -12345.00       28.21560      -177.3698       19.00000       1.000000
      -42.72450       173.0647      -12345.00       22.00000      -12345.00
      -12345.00      -12345.00      -12345.00      -12345.00      -12345.00
      -12345.00      -12345.00      -12345.00      -12345.00      -12345.00
       7909.684       8.915133       187.4351       71.13665      -12345.00
      -12345.00      -12345.00       90.00000       90.00000      -12345.00
      -12345.00      -12345.00      -12345.00      -12345.00      -12345.00
      -12345.00      -12345.00      -12345.00      -12345.00      -12345.00
      2016       318        11        13        17
        19         6    -12345    -12345     74400
    -12345    -12345    -12345    -12345    -12345
         1    -12345    -12345    -12345    -12345
    -12345    -12345    -12345    -12345    -12345
    -12345    -12345    -12345    -12345    -12345
    -12345    -12345    -12345    -12345    -12345
         1    -12345    -12345    -12345    -12345
MIDW    South Island, Ne
00      -12345  -12345  
-12345  -12345  -12345  
-12345  -12345  -12345  
-12345  -12345  -12345  
-12345  -12345  -12345  
-12345  -12345  BH2     
IU      -12345  Streckei
[...]
       5365513.       5372700.       5379433.       5358451.       5372609.
       5406633.       5419296.       5426816.       5417958.       5389899.
       5391690.       5416211.       5429560.       5431056.       5413836.
       5417409.       5437542.       5441551.       5446196.       5440410.
       5437450.       5445604.       5442629.       5456619.       5486060.
       5493417.       5502428.       5515553.       5513328.       5517517.
       5509572.       5488646.       5498038.       5505275.       5500990.
       5531925.       5543967.       5525181.       5520080.       5509012.
       5518944.       5534196.       5538155.       5564308.       5582699.
       5587438.       5582599.       5562375.       5557252.       5576153.
       5589634.       5604953.       5611931.       5601573.       5634135.
       5662327.       5651747.       5650683.       5627541.       5610762.
       5638809.       5653568.       5651329.       5645539.       5625886.
       5628773.       5653121.       5659943.       5662725.       5676437.
       5674630.       5655504.       5632956.       5607043.       5586552.
       5582159.       5608312.       5628671.       5630311.       5632579.
       5617414.       5623439.       5637469.       5616984.       5608778.
       5613380.       5592392.       5583704.       5605594.       5598609.
       5589481.       5590031.       5577946.       5578659.       5556512.
       5542326.       5559949.       5571570.       5569086.       5533401.
       5510839.       5514441.       5497863.       5494559.       5510287.
       5502992.       5493075.       5484559.       5466787.       5451379.
       5439033.       5438609.       5435871.       5419547.       5416306.
       5430712.       5416261.       5386212.       5383090.       5360683.
       5332682.       5329456.       5309603.       5306803.       5322111.
       5321222.       5324289.       5304022.       5294677.       5312005.
       5304344.       5305463.       5293964.       5273382.       5300535.
       5314200.       5296830.       5302186.       5302422.       5286608.
       5294625.       5287765.       5267889.       5282060.       5273972.
       5236314.       5219979.       5212293.       5204289.       5210299.
       5221453.       5208713.       5169176.       5141712.       5138161.
       5136548.       5145877.       5134576.       5104294.       5102049.
       5070296.       5050926.       5088888.       5100452.       5104922.
       5101229.       5057119.       5023491.       5004844.       4994890.
       5014935.       5024197.       5019853.       5031476.       5013851.
       4993944.       4990469.       4941604.       4896418.       4891496.
       4877736.       4871892.       4865908.       4844962.       4852668.
       4848341.       4821442.       4787296.       4734529.       4714744.
       4717849.       4694694.       4664229.       4652155.       4639938.
       4626099.       4596788.       4564762.       4562953.       4539538.
       4521614.       4525814.       4500564.       4480924.       4467983.
       4445792.       4456994.       4463758.       4434813.       4418410.
       4377672.       4341629.       4338026.       4307540.       4304472.
       4300607.       4281781.       4298941.       4261643.       4203568.
       4197568.       4180394.       4164837.       4153547.       4135316.
       4153759.       4158325.       4117843.       4092450.       4069392.
       4032395.       4024770.       4015371.       3982318.       3949258.
       3915543.       3905109.       3897261.       3887888.       3900746.
       3884701.       3853028.       3835337.       3799832.       3776204.
       3775135.       3755543.       3746465.       3748634.       3723831.
       3708743.       3695797.       3675166.       3661401.       3623759.
       3595637.       3582105.       3560600.       3558113.       3565053.
       3571896.       3569239.       3544852.       3532278.       3528620.
       3491376.       3457556.       3437808.       3395464.       3391636.
       3402336.       3377573.       3387706.       3383753.       3342661.
       3334198.       3302815.       3253435.       3249180.       3233392.
       3217759.       3246086.       3256314.       3243709.       3235336.
       3221264.       3195165.       3174184.       3194976.       3207045.
       3180249.       3178063.       3177140.       3145522.       3138149.
       3143892.       3129785.       3121847.       3107387.       3100060.
       3101078.       3070180.       3055949.       3063871.       3057465.
       3050161.       3038933.       3023461.       3011012.       3000865.
       2990386.       2978061.       2941105.       2906760.       2919510.
       2916631.       2897106.       2896417.       2891258.       2889511.
       2874912.       2850632.       2841788.       2820426.       2806392.
       2811600.       2790997.       2766049.       2749520.       2734019.
       2738951.       2734249.       2711095.       2708504.       2695573.
       2658422.       2660076.       2668439.       2647469.       2631318.
       2607329.       2582713.       2568509.       2552050.       2547848.
       2532874.       2504208.       2509108.       2523826.       2522465.
       2513709.       2484707.       2450400.       2433402.       2419877.
       2400114.       2385200.       2376420.       2372277.       2368507.
       2362389.       2358235.       2356013.       2365840.       2356025.
       2313991.       2296844.       2297048.       2282983.       2273493.
       2275373.       2267867.       2249636.       2239033.       2243095.
       2233196.       2218769.       2249029.       2242121.       2199301.
       2215835.       2214823.       2178600.       2150360.       2118950.
       2106237.       2107479.       2110309.       2115732.       2131918.
       2141705.       2120002.       2105309.       2095325.       2065546.
       2041606.       2044069.       2050120.       2037724.       2037361.
       2022817.       1973934.       1938069.       1890011.       1868364.
       1915863.       1931521.       1916153.       1913930.       1891128.
       1856766.       1845168.       1826760.       1796202.       1785600.
       1749031.       1741085.       1769433.       1770846.       1793146.
       1777359.       1753052.       1786957.       1793362.       1742435.
       1663689.       1622907.       1609852.       1582318.       1597027.
       1607326.       1570675.       1571975.       1547945.       1489724.
       1511170.       1534370.       1508939.       1471595.       1407824.
       1380547.       1392022.       1361657.       1335094.       1325990.
       1318987.       1328129.       1310749.       1285942.       1267706.
       1236722.       1222365.       1221394.       1188577.       1143021.
       1117358.       1089993.       1107031.       1148188.       1123762.
       1093949.       1085685.       1063433.       1034527.       990525.0
       960020.0       943876.0       918934.0       918277.0       911729.0
       869798.0       834395.0       794906.0       758243.0       739295.0
       710052.0       699990.0       697736.0       663306.0       631014.0
       605667.0       570324.0       559229.0       568934.0       546866.0
       506303.0       475516.0       459455.0       446169.0       406339.0
       361562.0       343644.0       320655.0       273151.0       254946.0
       252098.0       232185.0       220420.0       222178.0       225895.0
       196477.0       153739.0       138721.0       116000.0       92007.00
       93962.00       67180.00       25480.00      -10470.00      -60674.00
      -80194.00      -92741.00      -112283.0      -128045.0      -150864.0
      -160547.0      -185559.0      -213172.0      -248633.0      -317000.0
      -360491.0      -385893.0      -422018.0      -445942.0      -459687.0
      -502556.0      -551448.0      -566597.0      -597752.0      -632881.0
      -645992.0      -680729.0      -716177.0      -738670.0      -758140.0
      -779090.0      -825755.0      -862333.0      -891420.0      -929299.0
      -947291.0      -983838.0      -1035945.      -1076662.      -1129763.
      -1168866.      -1185493.      -1214080.      -1233705.      -1256537.
      -1303471.      -1328623.      -1360365.      -1417415.      -1453280.
      -1488159.      -1517296.      -1523130.      -1558917.      -1595671.
      -1604933.      -1647400.      -1686719.      -1721718.      -1780501.
      -1802889.      -1823948.      -1862677.      -1897236.      -1949326.
      -1979859.      -1997885.      -2025500.      -2037158.      -2070717.
      -2120808.      -2156329.      -2201918.      -2234631.      -2256177.
      -2296639.      -2323733.      -2352611.      -2392353.      -2413266.
      -2435816.      -2467562.      -2505333.      -2557808.      -2607155.
      -2628958.      -2653538.      -2694123.      -2712635.      -2734160.
      -2776903.      -2815861.      -2862601.      -2911203.      -2952799.
      -2991663.      -3009797.      -3027666.      -3054995.      -3074316.
      -3092267.      -3106585.      -3131621.      -3175076.      -3217803.
      -3252697.      -3282694.      -3292451.      -3285805.      -3294018.
      -3295198.      -3311896.      -3362779.      -3391371.      -3431605.
      -3476492.      -3482345.      -3499016.      -3508027.      -3502658.
      -3515433.      -3538938.      -3576262.      -3592925.      -3608129.
      -3642890.      -3654636.      -3669196.      -3687380.      -3690402.
      -3699831.      -3707891.      -3712739.      -3739805.      -3767575.
      -3776450.      -3811336.      -3847501.      -3854335.      -3868342.
      -3886469.      -3899542.      -3921276.      -3953156.      -3983554.
      -4006864.      -4025558.      -4053411.      -4088200.      -4110635.
      -4122554.      -4147965.      -4169102.      -4177291.      -4198535.
      -4224805.      -4269714.      -4291177.      -4284375.      -4306572.
      -4331216.      -4365225.      -4396900.      -4407862.      -4432879.
      -4457805.      -4490193.      -4538051.      -4547270.      -4553626.
      -4597622.      -4619554.      -4640733.      -4658569.      -4669868.
      -4719250.      -4741986.      -4764501.      -4791030.      -4787913.
      -4813585.      -4825978.      -4823500.      -4851827.      -4881648.
      -4890245.      -4905255.      -4933700.      -4964213.      -5002387.
      -5007839.      -5016315.      -5047526.      -5044295.      -5052627.
      -5079697.      -5098025.      -5120515.      -5142570.      -5175157.
      -5196630.      -5217091.      -5258035.      -5266674.      -5262888.
      -5290275.      -5299606.      -5294565.      -5337255.      -5383000.
      -5404970.      -5455940.      -5483025.      -5484371.      -5504986.
      -5491791.      -5486857.      -5522243.      -5546547.      -5567227.
      -5590484.      -5611865.      -5653059.      -5695632.      -5704525.
      -5705819.      -5717298.      -5732429.      -5747304.      -5758803.
      -5784218.      -5798443.      -5799251.      -5835351.      -5850072.
      -5841508.      -5883934.      -5912754.      -5927426.      -5974828.
      -5997382.      -6003177.      -6016032.      -6043109.      -6076359.
      -6087573.      -6113202.      -6128976.      -6130520.      -6155950.
      -6177441.      -6204134.      -6234782.      -6253222.      -6273129.
      -6286895.      -6283745.      -6286239.      -6315675.      -6333000.
      -6330721.      -6364673.      -6393138.      -6394188.      -6419894.
      -6422158.      -6427338.      -6470598.      -6488156.      -6500651.
      -6510304.      -6521556.      -6519324.      -6483091.      -6487144.
      -6503057.      -6505786.      -6519837.      -6530618.      -6561451.
      -6576890.      -6571049.      -6605291.      -6632848.      -6623257.
      -6623361.      -6624982.      -6618393.      -6633133.      -6657838.
      -6663611.      -6657542.      -6655475.      -6663333.      -6672600.
      -6676631.      -6690913.      -6700394.      -6676120.      -6658470.
      -6650165.      -6625950.      -6644466.      -6676681.      -6667957.
      -6662274.      -6649356.      -6647980.      -6669387.      -6677932.
      -6720101.      -6764969.      -6758976.      -6733200.      -6715645.
      -6715495.      -6727790.      -6735891.      -6733859.      -6756821.
      -6777709.      -6780659.      -6790495.      -6780121.      -6773799.
      -6781013.      -6776082.      -6761499.      -6733084.      -6714224.
      -6701977.      -6693640.      -6703092.      -6691645.      -6699467.
      -6745938.      -6758999.      -6773216.      -6797371.      -6772909.
      -6746216.      -6727278.      -6675505.      -6646296.      -6665679.
      -6694562.      -6719644.      -6727991.      -6725789.      -6736249.
      -6729658.      -6708511.      -6694846.      -6657961.      -6631427.
      -6619801.      -6581011.      -6566243.      -6575402.      -6581501.
      -6611391.      -6639708.      -6663525.      -6670383.      -6640505.
      -6628358.      -6615611.      -6594881.      -6624124.      -6649271.
      -6627960.      -6607944.      -6579651.      -6541203.      -6527955.
      -6545196.      -6575831.      -6595136.      -6597610.      -6582821.
      -6557101.      -6530406.      -6515301.      -6498549.      -6480939.
      -6493424.      -6480980.      -6439442.      -6429130.      -6416622.
      -6419878.      -6453599.      -6459674.      -6443286.      -6404281.
      -6378799.      -6395553.      -6380579.      -6352793.      -6344908.
      -6324053.      -6329797.      -6341719.      -6323813.      -6327884.
      -6331194.      -6303862.      -6273981.      -6246653.      -6222215.
      -6188148.      -6156218.      -6167558.      -6180600.      -6164385.
      -6155232.      -6154235.      -6155980.      -6155796.      -6140078.
      -6118275.      -6099005.      -6074779.      -6059906.      -6043383.
      -6016505.      -6015206.      -6020038.      -6016103.      -6009201.
      -5982299.      -5954030.      -5940265.      -5930054.      -5927486.
      -5926602.      -5909224.      -5872734.      -5829303.      -5799035.
      -5767321.      -5724169.      -5704784.      -5708709.      -5708710.
      -5704333.      -5690220.      -5656426.      -5619524.      -5587960.
      -5555917.      -5547770.      -5550612.      -5526419.      -5505423.
      -5495326.      -5488902.      -5486662.      -5458423.      -5451376.
      -5455551.      -5425417.      -5402881.      -5349509.      -5282684.
      -5245783.      -5217672.      -5213224.      -5205183.      -5185981.
      -5158114.      -5122232.      -5095337.      -5070433.      -5044220.
      -5019106.      -5022864.      -5025473.      -5004891.      -4995779.
      -4975202.      -4937725.      -4899236.      -4860457.      -4820448.
      -4774524.      -4744804.      -4730533.      -4702423.      -4677048.
      -4660434.      -4634746.      -4621389.      -4617352.      -4607719.
      -4584486.      -4533085.      -4478642.      -4445571.      -4403472.
      -4347108.      -4323668.      -4312820.      -4298100.      -4298824.
      -4293753.      -4280136.      -4255397.      -4207303.      -4153665.
      -4108261.      -4079424.      -4071005.      -4046210.      -4021370.
      -4020285.      -3991282.      -3962327.      -3936371.      -3883364.
      -3854970.      -3834720.      -3793761.      -3749050.      -3709439.
      -3686278.      -3680561.      -3670906.      -3647389.      -3618788.
      -3584292.      -3564908.      -3548694.      -3517142.      -3482104.
      -3430444.      -3382037.      -3349610.      -3325479.      -3303327.
      -3281182.      -3264651.      -3218056.      -3168919.      -3127461.
      -3050327.      -2990513.      -2950592.      -2915816.      -2894291.
      -2861288.      -2847945.      -2823663.      -2794382.      -2783181.
      -2742285.      -2693594.      -2618522.      -2544740.      -2521832.
      -2497106.      -2468060.      -2456554.      -2435590.      -2392310.
      -2359096.      -2342105.      -2323427.      -2300783.      -2282301.
      -2263815.      -2221135.      -2184225.      -2169482.      -2142837.
      -2107005.      -2073434.      -2040858.      -2014342.      -1997867.
      -1973493.      -1940024.      -1900260.      -1845695.      -1809067.
      -1789400.      -1761308.      -1728916.      -1691734.      -1654480.
      -1621792.      -1598418.      -1575763.      -1547154.      -1529330.
      -1513075.      -1480180.      -1434454.      -1377815.      -1327543.
      -1291770.      -1268843.      -1273723.      -1269953.      -1236569.
      -1204005.      -1171302.      -1131821.      -1093601.      -1073962.
      -1059061.      -1037592.      -1020560.      -986908.0      -952319.0
      -929402.0      -911039.0      -900981.0      -869576.0      -832922.0
      -807070.0      -760932.0      -712618.0      -691224.0      -676235.0
      -653890.0      -641517.0      -623095.0      -587837.0      -546628.0
      -496755.0      -452343.0      -419781.0      -392437.0      -346869.0
      -298271.0      -279411.0      -255314.0      -223008.0      -197053.0
      -156531.0      -106859.0      -63380.00      -15144.00       28369.00
       48415.00       46823.00       33115.00       55427.00       98345.00
       106373.0       129873.0       179518.0       201099.0       222229.0
       260778.0       291212.0       327179.0       350358.0       351067.0
       359249.0       380438.0       419414.0       442518.0       459281.0
       501404.0       536751.0       571171.0       620653.0       654985.0
       661213.0       687321.0       714007.0       716951.0       739760.0
       752355.0       763515.0       794450.0       812538.0       826677.0
       829058.0       826884.0       844351.0       871438.0       905924.0
       939234.0       976174.0       1012613.       1021798.       1025851.
       1032372.       1026827.       1021883.       1032911.       1048947.
       1067167.       1109557.       1132025.       1136205.       1157705.
