     0.02500000      -12345.00      -12345.00   2.447790e+09      -12345.00
   0.0005360000       1859.976      -465.0195      -12345.00      -12345.00
      -12345.00      -12345.00      -12345.00      -12345.00      -12345.00
      -12345.00      -12345.00      -12345.00      -12345.00      -12345.00
      -12345.00      -12345.00      -12345.00      -12345.00      -12345.00
      -12345.00      -12345.00      -12345.00      -12345.00      -12345.00
      -12345.00      -21.15900       119.7313       190.0000       0.000000
      -42.72450       173.0647      -12345.00       22.00000      -12345.00
      -12345.00      -12345.00      -12345.00      -12345.00      -12345.00
      -12345.00      -12345.00      -12345.00      -12345.00      -12345.00
       5471.397       278.5350       128.6724       49.20764      -12345.00
      -12345.00      -12345.00       0.000000       0.000000      -12345.00
      -12345.00      -12345.00      -12345.00      -12345.00      -12345.00
      -12345.00      -12345.00      -12345.00      -12345.00      -12345.00
      2016       318        11        10        44
        19         6    -12345    -12345     74400
    -12345    -12345    -12345    -12345    -12345
         1    -12345    -12345    -12345    -12345
    -12345    -12345    -12345    -12345    -12345
    -12345    -12345    -12345    -12345    -12345
    -12345    -12345    -12345    -12345    -12345
         1    -12345    -12345    -12345    -12345
MBWA    South Island, Ne
10      -12345  -12345  
-12345  -12345  -12345  
-12345  -12345  -12345  
-12345  -12345  -12345  
-12345  -12345  -12345  
-12345  -12345  BHZ     
IU      -12345  Streckei
[...]
      -595851.0      -621267.0      -646696.0      -672087.0      -697420.0
      -722745.0      -748016.0      -773256.0      -798501.0      -823666.0
      -848772.0      -873858.0      -898892.0      -923896.0      -948843.0
      -973720.0      -998567.0      -1023353.      -1048058.      -1072719.
      -1097294.      -1121793.      -1146256.      -1170636.      -1194946.
      -1219172.      -1243317.      -1267382.      -1291332.      -1315177.
      -1338915.      -1362552.      -1386121.      -1409608.      -1432954.
      -1456215.      -1479400.      -1502487.      -1525480.      -1548349.
      -1571117.      -1593750.      -1616296.      -1638748.      -1661077.
      -1683328.      -1705443.      -1727433.      -1749289.      -1771038.
      -1792677.      -1814155.      -1835528.      -1856775.      -1877872.
      -1898836.      -1919651.      -1940314.      -1960866.      -1981269.
      -2001493.      -2021588.      -2041507.      -2061297.      -2080956.
      -2100415.      -2119758.      -2138934.      -2157944.      -2176874.
      -2195638.      -2214231.      -2232684.      -2250971.      -2269113.
      -2287095.      -2304912.      -2322551.      -2339987.      -2357272.
      -2374385.      -2391338.      -2408126.      -2424731.      -2441168.
      -2457412.      -2473503.      -2489404.      -2505141.      -2520708.
      -2536075.      -2551285.      -2566259.      -2581027.      -2595624.
      -2610034.      -2624242.      -2638222.      -2652004.      -2665590.
      -2678999.      -2692227.      -2705266.      -2718143.      -2730805.
      -2743254.      -2755511.      -2767552.      -2779396.      -2791048.
      -2802499.      -2813751.      -2824805.      -2835639.      -2846273.
      -2856677.      -2866887.      -2876919.      -2886716.      -2896320.
      -2905644.      -2914752.      -2923681.      -2932341.      -2940805.
      -2949043.      -2957031.      -2964818.      -2972366.      -2979678.
      -2986795.      -2993694.      -3000385.      -3006865.      -3013099.
      -3019108.      -3024892.      -3030424.      -3035745.      -3040882.
      -3045780.      -3050441.      -3054876.      -3059094.      -3063099.
      -3066887.      -3070463.      -3073820.      -3076960.      -3079868.
      -3082540.      -3084972.      -3087155.      -3089086.      -3090773.
      -3092237.      -3093462.      -3094450.      -3095212.      -3095690.
      -3095980.      -3096047.      -3095790.      -3095351.      -3094671.
      -3093720.      -3092541.      -3091095.      -3089420.      -3087503.
      -3085350.      -3082961.      -3080308.      -3077408.      -3074265.
      -3070863.      -3067248.      -3063405.      -3059279.      -3054913.
      -3050308.      -3045456.      -3040379.      -3035070.      -3029517.
      -3023717.      -3017661.      -3011344.      -3004788.      -2998011.
      -2990984.      -2983725.      -2976228.      -2968473.      -2960502.
      -2952261.      -2943788.      -2935115.      -2926161.      -2916985.
      -2907562.      -2897852.      -2887934.      -2877786.      -2867371.
      -2856741.      -2845852.      -2834722.      -2823364.      -2811724.
      -2799858.      -2787736.      -2775362.      -2762789.      -2749934.
      -2736853.      -2723565.      -2710005.      -2696230.      -2682223.
      -2667997.      -2653555.      -2638882.      -2624002.      -2608914.
      -2593583.      -2578018.      -2562272.      -2546281.      -2530073.
      -2513664.      -2497028.      -2480189.      -2463154.      -2445913.
      -2428457.      -2410794.      -2392902.      -2374824.      -2356540.
      -2338028.      -2319354.      -2300475.      -2281353.      -2262056.
      -2242574.      -2222881.      -2203001.      -2182923.      -2162666.
      -2142234.      -2121581.      -2100739.      -2079732.      -2058496.
      -2037108.      -2015564.      -1993811.      -1971899.      -1949768.
      -1927425.      -1904915.      -1882256.      -1859434.      -1836412.
      -1813199.      -1789846.      -1766339.      -1742642.      -1718808.
      -1694826.      -1670679.      -1646397.      -1621944.      -1597320.
      -1572553.      -1547643.      -1522619.      -1497429.      -1472119.
      -1446719.      -1421107.      -1395391.      -1369545.      -1343539.
      -1317461.      -1291212.      -1264829.      -1238364.      -1211756.
      -1185028.      -1158177.      -1131198.      -1104162.      -1077028.
      -1049760.      -1022390.      -994910.0      -967330.0      -939660.0
      -911881.0      -884004.0      -856060.0      -828011.0      -799872.0
      -771678.0      -743374.0      -714971.0      -686505.0      -657994.0
      -629451.0      -600838.0      -572174.0      -543439.0      -514621.0
      -485763.0      -456840.0      -427881.0      -398886.0      -369843.0
      -340740.0      -311592.0      -282444.0      -253258.0      -224010.0
      -194731.0      -165445.0      -136115.0      -106720.0      -77276.00
      -47825.00      -18356.00       11109.00       40569.00       70059.00
       99520.00       128994.0       158479.0       187940.0       217405.0
       246832.0       276226.0       305646.0       335031.0       364378.0
       393734.0       423017.0       452276.0       481531.0       510725.0
       539920.0       569092.0       598179.0       627235.0       656272.0
       685259.0       714195.0       743061.0       771923.0       800742.0
       829478.0       858157.0       886780.0       915358.0       943841.0
       972280.0       1000658.       1028954.       1057204.       1085361.
       1113470.       1141489.       1169430.       1197311.       1225050.
       1252728.       1280326.       1307789.       1335158.       1362443.
       1389630.       1416703.       1443669.       1470517.       1497276.
       1523904.       1550398.       1576769.       1602968.       1629054.
       1655008.       1680825.       1706558.       1732138.       1757564.
       1782882.       1808039.       1833069.       1857984.       1882740.
       1907367.       1931879.       1956223.       1980413.       2004489.
       2028408.       2052200.       2075843.       2099300.       2122612.
       2145762.       2168728.       2191537.       2214195.       2236664.
       2258973.       2281112.       2303075.       2324877.       2346508.
       2367942.       2389166.       2410240.       2431151.       2451849.
       2472377.       2492715.       2512842.       2532773.       2552495.
       2572041.       2591407.       2610577.       2629537.       2648314.
       2666896.       2685262.       2703441.       2721378.       2739113.
       2756647.       2773938.       2791033.       2807936.       2824615.
       2841063.       2857260.       2873230.       2889012.       2904522.
       2919776.       2934811.       2949592.       2964179.       2978547.
       2992644.       3006515.       3020135.       3033512.       3046669.
       3059571.       3072233.       3084650.       3096809.       3108740.
       3120428.       3131857.       3143060.       3154006.       3164682.
       3175121.       3185310.       3195242.       3204936.       3214395.
       3223577.       3232498.       3241159.       3249535.       3257648.
       3265471.       3273029.       3280308.       3287298.       3294063.
       3300530.       3306711.       3312647.       3318286.       3323668.
       3328780.       3333587.       3338143.       3342431.       3346372.
       3350073.       3353549.       3356686.       3359532.       3362093.
       3364411.       3366463.       3368197.       3369653.       3370808.
       3371695.       3372303.       3372605.       3372660.       3372442.
       3371932.       3371144.       3370052.       3368668.       3367001.
       3365049.       3362799.       3360287.       3357505.       3354406.
       3351040.       3347376.       3343397.       3339127.       3334559.
       3329730.       3324650.       3319264.       3313573.       3307620.
       3301374.       3294852.       3288059.       3280967.       3273601.
       3265969.       3258066.       3249852.       3241351.       3232577.
       3223501.       3214150.       3204498.       3194580.       3184382.
       3173881.       3163132.       3152088.       3140772.       3129143.
       3117226.       3105065.       3092595.       3079884.       3066884.
       3053582.       3040017.       3026150.       3012004.       2997602.
       2982943.       2968037.       2952870.       2937411.       2921714.
       2905751.       2889519.       2873073.       2856359.       2839392.
       2822186.       2804685.       2786957.       2769021.       2750789.
       2732309.       2713600.       2694641.       2675425.       2655956.
       2636253.       2616333.       2596197.       2575812.       2555194.
       2534324.       2513208.       2491896.       2470363.       2448606.
       2426607.       2404363.       2381918.       2359252.       2336362.
       2313259.       2289918.       2266360.       2242597.       2218599.
       2194406.       2170013.       2145419.       2120657.       2095644.
       2070428.       2045048.       2019452.       1993696.       1967741.
       1941628.       1915353.       1888871.       1862247.       1835441.
       1808441.       1781274.       1753958.       1726458.       1698766.
       1670926.       1642882.       1614666.       1586327.       1557825.
       1529195.       1500389.       1471428.       1442347.       1413084.
       1383696.       1354202.       1324542.       1294744.       1264853.
       1234793.       1204615.       1174349.       1143949.       1113455.
       1082837.       1052130.       1021334.       990394.0       959377.0
       928279.0       897046.0       865755.0       834400.0       802938.0
       771423.0       739819.0       708109.0       676341.0       644505.0
       612616.0       580646.0       548586.0       516503.0       484353.0
       452111.0       419844.0       387515.0       355143.0       322752.0
       290303.0       257832.0       225311.0       192738.0       160167.0
       127588.0       94976.00       62348.00       29716.00      -2951.000
      -35588.00      -68235.00      -100926.0      -133554.0      -166214.0
      -198869.0      -231480.0      -264144.0      -296767.0      -329361.0
      -361977.0      -394572.0      -427135.0      -459659.0      -492176.0
      -524662.0      -557083.0      -589436.0      -621731.0      -654004.0
      -686228.0      -718387.0      -750484.0      -782519.0      -814482.0
      -846384.0      -878217.0      -909988.0      -941690.0      -973285.0
      -1004821.      -1036262.      -1067619.      -1098903.      -1130064.
      -1161145.      -1192103.      -1222960.      -1253735.      -1284356.
      -1314905.      -1345365.      -1375660.      -1405879.      -1435974.
      -1465916.      -1495785.      -1525494.      -1555036.      -1584498.
      -1613813.      -1642962.      -1671974.      -1700823.      -1729543.
      -1758127.      -1786518.      -1814767.      -1842895.      -1870828.
      -1898637.      -1926288.      -1953728.      -1981049.      -2008162.
      -2035101.      -2061907.      -2088493.      -2114928.      -2141182.
      -2167237.      -2193151.      -2218851.      -2244349.      -2269689.
      -2294798.      -2319701.      -2344407.      -2368911.      -2393242.
      -2417327.      -2441189.      -2464819.      -2488213.      -2511454.
      -2534448.      -2557197.      -2579728.      -2602016.      -2624080.
      -2645876.      -2667453.      -2688793.      -2709882.      -2730755.
      -2751362.      -2771729.      -2791836.      -2811677.      -2831286.
      -2850645.      -2869746.      -2888614.      -2907227.      -2925560.
      -2943659.      -2961527.      -2979133.      -2996468.      -3013530.
      -3030302.      -3046817.      -3063083.      -3079080.      -3094830.
      -3110272.      -3125445.      -3140372.      -3155004.      -3169377.
      -3183452.      -3197256.      -3210795.      -3224037.      -3237025.
      -3249708.      -3262113.      -3274267.      -3286108.      -3297673.
      -3308964.      -3319925.      -3330597.      -3340983.      -3351043.
      -3360827.      -3370306.      -3379506.      -3388424.      -3396993.
      -3405290.      -3413299.      -3421027.      -3428492.      -3435641.
      -3442491.      -3449066.      -3455343.      -3461347.      -3467062.
      -3472447.      -3477552.      -3482361.      -3486854.      -3491063.
      -3494970.      -3498530.      -3501799.      -3504814.      -3507489.
      -3509872.      -3511978.      -3513753.      -3515262.      -3516459.
      -3517342.      -3517957.      -3518207.      -3518187.      -3517910.
      -3517268.      -3516354.      -3515141.      -3513592.      -3511780.
      -3509667.      -3507267.      -3504574.      -3501548.      -3498259.
      -3494659.      -3490740.      -3486552.      -3482051.      -3477254.
      -3472169.      -3466793.      -3461136.      -3455179.      -3448920.
      -3442351.      -3435496.      -3428374.      -3420936.      -3413206.
      -3405188.      -3396871.      -3388281.      -3379370.      -3370184.
      -3360733.      -3350951.      -3340915.      -3330603.      -3319999.
      -3309131.      -3297927.      -3286474.      -3274762.      -3262712.
      -3250452.      -3237907.      -3225062.      -3211971.      -3198573.
      -3184931.      -3171005.      -3156789.      -3142340.      -3127625.
      -3112663.      -3097433.      -3081900.      -3066119.      -3050082.
      -3033774.      -3017251.      -3000472.      -2983424.      -2966124.
      -2948566.      -2930795.      -2912771.      -2894473.      -2875992.
      -2857265.      -2838266.      -2819048.      -2799580.      -2779875.
      -2759935.      -2739775.      -2719394.      -2698781.      -2677950.
      -2656879.      -2635573.      -2614037.      -2592281.      -2570304.
      -2548102.      -2525675.      -2503032.      -2480202.      -2457171.
      -2433921.      -2410478.      -2386830.      -2362953.      -2338855.
      -2314592.      -2290141.      -2265454.      -2240614.      -2215552.
      -2190295.      -2164895.      -2139287.      -2113522.      -2087566.
      -2061447.      -2035198.      -2008764.      -1982141.      -1955369.
      -1928445.      -1901338.      -1874092.      -1846698.      -1819167.
      -1791487.      -1763615.      -1735627.      -1707504.      -1679235.
      -1650856.      -1622297.      -1593636.      -1564820.      -1535834.
      -1506763.      -1477531.      -1448183.      -1418723.      -1389120.
      -1359366.      -1329503.      -1299527.      -1269426.      -1239228.
      -1208900.      -1178502.      -1148004.      -1117394.      -1086728.
      -1055977.      -1025106.      -994159.0      -963160.0      -932048.0
      -900873.0      -869655.0      -838359.0      -807017.0      -775559.0
      -744026.0      -712501.0      -680854.0      -649143.0      -617384.0
      -585553.0      -553732.0      -521835.0      -489873.0      -457884.0
      -425821.0      -393729.0      -361590.0      -329380.0      -297139.0
      -264861.0      -232545.0      -200218.0      -167875.0      -135516.0
      -103187.0      -70807.00      -38427.00      -6083.000       26340.00
       58686.00       91053.00       123466.0       155801.0       188178.0
       220527.0       252829.0       285142.0       317425.0       349683.0
       381943.0       414160.0       446340.0       478513.0       510632.0
       542755.0       574884.0       606937.0       638947.0       670888.0
       702749.0       734573.0       766337.0       798037.0       829681.0
       861264.0       892757.0       924206.0       955591.0       986837.0
       1018036.       1049158.       1080156.       1111107.       1141939.
       1172661.       1203319.       1233828.       1264238.       1294566.
       1324754.       1354807.       1384729.       1414528.       1444196.
       1473735.       1503154.       1532457.       1561606.       1590616.
       1619507.       1648247.       1676842.       1705321.       1733661.
       1761836.       1789880.       1817780.       1845515.       1873105.
       1900558.       1927865.       1955027.       1982028.       2008847.
       2035482.       2061945.       2088215.       2114307.       2140216.
       2165885.       2191434.       2216763.       2241839.       2266825.
       2291545.       2316031.       2340358.       2364429.       2388314.
       2411969.       2435367.       2458559.       2481513.       2504238.
       2526752.       2549019.       2571040.       2592864.       2614439.
       2635773.       2656892.       2677748.       2698386.       2718781.
       2738918.       2758851.       2778531.       2797956.       2817144.
       2836074.       2854783.       2873225.       2891396.       2909349.
       2927027.       2944402.       2961499.       2978345.       2994915.
       3011198.       3027234.       3042981.       3058461.       3073673.
       3088561.       3103194.       3117557.       3131658.       3145523.
       3159075.       3172344.       3185345.       3198046.       3210478.
       3222622.       3234475.       3246049.       3257328.       3268337.
       3279031.       3289420.       3299559.       3309386.       3318912.
       3328173.       3337135.       3345799.       3354162.       3362194.
       3369959.       3377454.       3384604.       3391502.       3398082.
       3404337.       3410369.       3416037.       3421417.       3426557.
       3431331.       3435813.       3440030.       3443938.       3447533.
       3450822.       3453809.       3456529.       3458922.       3460982.
       3462808.       3464313.       3465519.       3466458.       3467056.
       3467382.       3467422.       3467115.       3466533.       3465673.
       3464509.       3463061.       3461296.       3459255.       3456958.
       3454361.       3451482.       3448311.       3444837.       3441081.
       3437019.       3432651.       3428051.       3423138.       3417899.
       3412393.       3406557.       3400432.       3394023.       3387338.
