     0.02500000      -12345.00      -12345.00   3.355440e+10      -12345.00
   0.0005380000       1859.976      -618.0195      -12345.00      -12345.00
      -12345.00      -12345.00      -12345.00      -12345.00      -12345.00
      -12345.00      -12345.00      -12345.00      -12345.00      -12345.00
      -12345.00      -12345.00      -12345.00      -12345.00      -12345.00
      -12345.00      -12345.00      -12345.00      -12345.00      -12345.00
      -12345.00       28.21560      -177.3698       19.00000       1.000000
      -42.72450       173.0647      -12345.00       22.00000      -12345.00
      -12345.00      -12345.00      -12345.00      -12345.00      -12345.00
      -12345.00      -12345.00      -12345.00      -12345.00      -12345.00
       7909.684       8.915133       187.4351       71.13665      -12345.00
      -12345.00      -12345.00       0.000000       90.00000      -12345.00
      -12345.00      -12345.00      -12345.00      -12345.00      -12345.00
      -12345.00      -12345.00      -12345.00      -12345.00      -12345.00
      2016       318        11        13        17
        19         6    -12345    -12345     74400
    -12345    -12345    -12345    -12345    -12345
         1    -12345    -12345    -12345    -12345
    -12345    -12345    -12345    -12345    -12345
    -12345    -12345    -12345    -12345    -12345
    -12345    -12345    -12345    -12345    -12345
         1    -12345    -12345    -12345    -12345
MIDW    South Island, Ne
00      -12345  -12345  
-12345  -12345  -12345  
-12345  -12345  -12345  
-12345  -12345  -12345  
-12345  -12345  -12345  
-12345  -12345  BH1     
IU      -12345  Streckei
[...]
       9534795.       9502022.       9469979.       9426148.       9399310.
       9393953.       9387188.       9346683.       9272116.       9212946.
       9182138.       9132345.       9066465.       9040747.       9032936.
       8988970.       8928416.       8861112.       8799084.       8768311.
       8736096.       8669632.       8605688.       8588411.       8574699.
       8527414.       8486490.       8439876.       8347576.       8283681.
       8239965.       8158083.       8093557.       8039699.       8001155.
       7968857.       7922468.       7877896.       7804488.       7743856.
       7684330.       7602944.       7553470.       7501292.       7434923.
       7388190.       7333390.       7262152.       7215869.       7176628.
       7120547.       7071504.       7009314.       6924699.       6870508.
       6829886.       6760497.       6704164.       6643605.       6553284.
       6467805.       6404089.       6366190.       6299824.       6206230.
       6132607.       6058207.       5977907.       5912924.       5872372.
       5814261.       5731505.       5654060.       5561880.       5482985.
       5435303.       5371010.       5294859.       5231437.       5160859.
       5074923.       4988117.       4917055.       4867345.       4805913.
       4736947.       4672699.       4599057.       4535223.       4466423.
       4387990.       4315533.       4236435.       4157606.       4083977.
       4007708.       3932550.       3854265.       3765917.       3698022.
       3637739.       3558650.       3499924.       3425412.       3311864.
       3235608.       3173917.       3078450.       2985826.       2898687.
       2810747.       2724112.       2644203.       2594578.       2525576.
       2428305.       2347766.       2266771.       2193419.       2118300.
       2022465.       1927548.       1835645.       1747580.       1664099.
       1583606.       1507255.       1444402.       1369374.       1271933.
       1191407.       1109415.       1023591.       946789.0       866022.0
       791590.0       722163.0       622686.0       514743.0       457117.0
       400025.0       326828.0       252375.0       144348.0       49420.00
      -5045.000      -68524.00      -150638.0      -229663.0      -331442.0
      -433246.0      -511739.0      -589402.0      -646560.0      -711411.0
      -784309.0      -853180.0      -951078.0      -1059888.      -1149655.
      -1229971.      -1304753.      -1378551.      -1467741.      -1544939.
      -1609548.      -1664067.      -1734292.      -1822110.      -1901479.
      -2026704.      -2141019.      -2217826.      -2307183.      -2395546.
      -2478428.      -2540269.      -2618163.      -2703548.      -2784395.
      -2901934.      -3001939.      -3076669.      -3140635.      -3190265.
      -3267401.      -3360687.      -3459279.      -3547049.      -3618333.
      -3714093.      -3797424.      -3856312.      -3938765.      -4034853.
      -4134452.      -4234939.      -4312982.      -4379743.      -4444437.
      -4506158.      -4584458.      -4672997.      -4760814.      -4843651.
      -4939294.      -5037838.      -5107619.      -5172067.      -5235328.
      -5314464.      -5401224.      -5460732.      -5537994.      -5624126.
      -5703823.      -5804683.      -5881192.      -5942618.      -6011299.
      -6079536.      -6173428.      -6260050.      -6325805.      -6383635.
      -6430072.      -6476050.      -6538923.      -6616514.      -6684852.
      -6763388.      -6838445.      -6902423.      -6977160.      -7020361.
      -7059470.      -7131683.      -7206389.      -7278715.      -7339307.
      -7402392.      -7470943.      -7520481.      -7583995.      -7667943.
      -7718687.      -7757377.      -7817230.      -7865702.      -7918753.
      -7976586.      -8025207.      -8099328.      -8171056.      -8229185.
      -8302090.      -8368782.      -8434181.      -8499648.      -8539040.
      -8588683.      -8657256.      -8684498.      -8712921.      -8766667.
      -8811931.      -8883411.      -8940304.      -8984811.      -9063556.
      -9107720.      -9128199.      -9167580.      -9189300.      -9225251.
      -9288145.      -9336521.      -9384427.      -9430316.      -9464190.
      -9508817.      -9559907.      -9588130.      -9612474.      -9649504.
      -9697120.      -9757129.      -9804080.      -9848430.      -9891071.
      -9906517.      -9911135.      -9954819.  -1.003216e+07  -1.007797e+07
  -1.009104e+07  -1.010743e+07  -1.013009e+07  -1.015842e+07  -1.020734e+07
  -1.024463e+07  -1.027520e+07  -1.031541e+07  -1.033444e+07  -1.037435e+07
  -1.039985e+07  -1.040198e+07  -1.043841e+07  -1.046239e+07  -1.047310e+07
  -1.047407e+07  -1.048555e+07  -1.050543e+07  -1.051238e+07  -1.056345e+07
  -1.061734e+07  -1.065957e+07  -1.069953e+07  -1.071456e+07  -1.075301e+07
  -1.079090e+07  -1.078372e+07  -1.077291e+07  -1.078339e+07  -1.078612e+07
  -1.081648e+07  -1.088486e+07  -1.087032e+07  -1.082235e+07  -1.090910e+07
  -1.099574e+07  -1.094311e+07  -1.092090e+07  -1.100928e+07  -1.104002e+07
  -1.096984e+07  -1.098008e+07  -1.106131e+07  -1.107678e+07  -1.107670e+07
  -1.108563e+07  -1.105317e+07  -1.106483e+07  -1.112142e+07  -1.111273e+07
  -1.110701e+07  -1.113848e+07  -1.114383e+07  -1.114420e+07  -1.116386e+07
  -1.118090e+07  -1.119887e+07  -1.121903e+07  -1.122255e+07  -1.122866e+07
  -1.122738e+07  -1.121590e+07  -1.122870e+07  -1.123862e+07  -1.122083e+07
  -1.122768e+07  -1.126016e+07  -1.124360e+07  -1.120790e+07  -1.124339e+07
  -1.130590e+07  -1.129530e+07  -1.125504e+07  -1.125035e+07  -1.123159e+07
  -1.121364e+07  -1.121697e+07  -1.120231e+07  -1.123366e+07  -1.127183e+07
  -1.126707e+07  -1.128151e+07  -1.124674e+07  -1.119866e+07  -1.119816e+07
  -1.118612e+07  -1.119725e+07  -1.122369e+07  -1.123011e+07  -1.122372e+07
  -1.119205e+07  -1.117185e+07  -1.117306e+07  -1.115556e+07  -1.115989e+07
  -1.119427e+07  -1.117573e+07  -1.113703e+07  -1.111937e+07  -1.110152e+07
  -1.111957e+07  -1.113183e+07  -1.112595e+07  -1.113621e+07  -1.111210e+07
  -1.109047e+07  -1.108910e+07  -1.107144e+07  -1.108424e+07  -1.108242e+07
  -1.100990e+07  -1.095640e+07  -1.094387e+07  -1.090664e+07  -1.089175e+07
  -1.090200e+07  -1.086662e+07  -1.084773e+07  -1.083598e+07  -1.078862e+07
  -1.076714e+07  -1.075313e+07  -1.072209e+07  -1.069349e+07  -1.065361e+07
  -1.062125e+07  -1.059713e+07  -1.056408e+07  -1.055820e+07  -1.054898e+07
  -1.052899e+07  -1.051886e+07  -1.047199e+07  -1.043304e+07  -1.041238e+07
  -1.035940e+07  -1.032292e+07  -1.030352e+07  -1.027293e+07  -1.027389e+07
  -1.026355e+07  -1.021070e+07  -1.019203e+07  -1.019165e+07  -1.017900e+07
  -1.015693e+07  -1.012314e+07  -1.008826e+07  -1.002331e+07      -9951881.
      -9911203.      -9889102.      -9864541.      -9853245.      -9840380.
      -9774243.      -9725225.      -9678058.      -9619001.      -9616393.
      -9581976.      -9529956.      -9490065.      -9435353.      -9395146.
      -9344593.      -9317568.      -9278934.      -9200106.      -9163377.
      -9141745.      -9085103.      -9014494.      -8959419.      -8899451.
      -8837231.      -8806754.      -8775175.      -8735764.      -8661757.
      -8567891.      -8523885.      -8472753.      -8434566.      -8409259.
      -8324002.      -8263428.      -8231730.      -8186401.      -8150693.
      -8052041.      -7958708.      -7942738.      -7902945.      -7875299.
      -7822232.      -7710739.      -7666558.      -7644163.      -7577345.
      -7501183.      -7447134.      -7416866.      -7364403.      -7284647.
      -7197160.      -7116873.      -7057157.      -6991500.      -6938379.
      -6874386.      -6770400.      -6722225.      -6670979.      -6555011.
      -6482553.      -6444530.      -6374520.      -6287611.      -6227814.
      -6183203.      -6115107.      -6056298.      -6014289.      -5933109.
      -5845857.      -5794145.      -5730044.      -5658956.      -5609078.
      -5556971.      -5499141.      -5450628.      -5406532.      -5344790.
      -5268844.      -5192570.      -5107255.      -5038749.      -4990927.
      -4924189.      -4862253.      -4802966.      -4703718.      -4637798.
      -4618897.      -4554460.      -4468324.      -4403157.      -4326598.
      -4220048.      -4139273.      -4108672.      -4037483.      -3961466.
      -3947359.      -3860344.      -3748042.      -3699572.      -3628137.
      -3565537.      -3497266.      -3412546.      -3339979.      -3240901.
      -3155659.      -3109452.      -3071214.      -3018339.      -2929329.
      -2819570.      -2732599.      -2663410.      -2579688.      -2507799.
      -2447972.      -2352169.      -2266130.      -2189091.      -2104281.
      -2034215.      -1916579.      -1835989.      -1820279.      -1743982.
      -1665396.      -1598178.      -1487359.      -1413080.      -1368143.
      -1280651.      -1188568.      -1108731.      -1046784.      -990743.0
      -883535.0      -788471.0      -742329.0      -677243.0      -614886.0
      -545749.0      -443861.0      -359193.0      -264316.0      -158688.0
      -78082.00       4253.000       80948.00       135266.0       194062.0
       267830.0       347694.0       445095.0       533240.0       599976.0
       672698.0       725901.0       780265.0       872493.0       973650.0
       1053292.       1116758.       1196236.       1274791.       1355840.
       1436811.       1488171.       1527372.       1605856.       1700960.
       1751487.       1842018.       1914696.       1967786.       2082664.
       2136114.       2219933.       2341564.       2373152.       2434018.
       2574510.       2694945.       2763082.       2819710.       2897590.
       3006060.       3089953.       3158148.       3241862.       3274468.
       3338354.       3484626.       3575766.       3647685.       3700286.
       3719545.       3817549.       3886617.       3967459.       4101855.
       4144940.       4200120.       4295103.       4336361.       4387538.
       4508260.       4591300.       4638070.       4739266.       4802740.
       4856709.       4933292.       4988168.       5097536.       5207558.
       5257350.       5290911.       5339179.       5418439.       5518933.
       5621464.       5678927.       5734214.       5807006.       5856454.
       5918276.       5996071.       6069668.       6128690.       6191021.
       6279748.       6365544.       6426491.       6494868.       6581945.
       6645139.       6699745.       6766893.       6816900.       6866153.
       6935741.       6990529.       7055600.       7154549.       7204324.
       7236881.       7307792.       7366339.       7417112.       7468702.
       7523465.       7601559.       7675223.       7716556.       7762284.
       7831508.       7905476.       7965776.       8005360.       8069095.
       8144848.       8196974.       8258694.       8305253.       8339051.
       8423181.       8504525.       8564106.       8637834.       8685386.
       8736149.       8790305.       8823425.       8877469.       8925542.
       8981188.       9043576.       9053124.       9092321.       9185228.
       9226935.       9269553.       9339403.       9350658.       9373622.
       9462103.       9532332.       9565110.       9591718.       9612991.
       9645667.       9703722.       9782034.       9852572.       9880069.
       9910543.       9957317.       9974443.   1.000399e+07   1.005542e+07
   1.009792e+07   1.017615e+07   1.023926e+07   1.025657e+07   1.028868e+07
   1.030429e+07   1.033447e+07   1.039212e+07   1.043222e+07   1.047726e+07
   1.051834e+07   1.054832e+07   1.059358e+07   1.063433e+07   1.065037e+07
   1.069789e+07   1.075273e+07   1.077150e+07   1.081730e+07   1.087165e+07
   1.090905e+07   1.095098e+07   1.096894e+07   1.098856e+07   1.102115e+07
   1.104803e+07   1.109887e+07   1.113502e+07   1.115965e+07   1.120813e+07
   1.123001e+07   1.124720e+07   1.126638e+07   1.126705e+07   1.131461e+07
   1.136631e+07   1.137051e+07   1.139758e+07   1.142639e+07   1.143626e+07
   1.146634e+07   1.148776e+07   1.152026e+07   1.157089e+07   1.158230e+07
   1.158168e+07   1.158238e+07   1.156833e+07   1.157197e+07   1.159806e+07
   1.160578e+07   1.160250e+07   1.163538e+07   1.166791e+07   1.168458e+07
   1.170248e+07   1.170059e+07   1.169468e+07   1.167907e+07   1.169612e+07
   1.174779e+07   1.174966e+07   1.176334e+07   1.179688e+07   1.178521e+07
   1.177315e+07   1.174379e+07   1.171683e+07   1.175624e+07   1.176902e+07
   1.176341e+07   1.177768e+07   1.176057e+07   1.176076e+07   1.176288e+07
   1.175546e+07   1.176231e+07   1.174465e+07   1.174084e+07   1.175705e+07
   1.174031e+07   1.173504e+07   1.176197e+07   1.176498e+07   1.178012e+07
   1.179854e+07   1.176618e+07   1.175518e+07   1.174529e+07   1.170168e+07
   1.169238e+07   1.170534e+07   1.172046e+07   1.171898e+07   1.169254e+07
   1.168526e+07   1.166694e+07   1.163651e+07   1.161885e+07   1.158792e+07
   1.157600e+07   1.158828e+07   1.159388e+07   1.157941e+07   1.154342e+07
   1.151956e+07   1.151398e+07   1.150731e+07   1.148353e+07   1.145902e+07
   1.145154e+07   1.143181e+07   1.139568e+07   1.135531e+07   1.133160e+07
   1.133226e+07   1.132861e+07   1.131082e+07   1.130265e+07   1.129105e+07
   1.123086e+07   1.117780e+07   1.115034e+07   1.113040e+07   1.114822e+07
   1.114535e+07   1.112282e+07   1.109232e+07   1.102748e+07   1.098531e+07
   1.096081e+07   1.094728e+07   1.093454e+07   1.089999e+07   1.086783e+07
   1.080767e+07   1.074297e+07   1.069008e+07   1.062096e+07   1.059017e+07
   1.057295e+07   1.054357e+07   1.052562e+07   1.047866e+07   1.044186e+07
   1.041110e+07   1.035005e+07   1.031357e+07   1.028256e+07   1.023937e+07
   1.021846e+07   1.019626e+07   1.015762e+07   1.012081e+07   1.006889e+07
   1.002772e+07   1.000226e+07       9948088.       9897825.       9844008.
       9787399.       9762337.       9714283.       9652737.       9634455.
       9627369.       9597192.       9539161.       9458744.       9397451.
       9344038.       9271309.       9236693.       9222365.       9168042.
       9128525.       9068858.       8963721.       8908118.       8844363.
       8801801.       8808567.       8762613.       8708129.       8632525.
       8550549.       8500601.       8418476.       8359334.       8359778.
       8332235.       8272900.       8206648.       8120065.       8069409.
       8019600.       7951010.       7907545.       7835281.       7771303.
       7752432.       7702862.       7604665.       7550857.       7497298.
       7402870.       7350268.       7273879.       7197576.       7154921.
       7082912.       7023438.       6970438.       6897230.       6848340.
       6783815.       6685493.       6625413.       6551868.       6453221.
       6386001.       6304704.       6225576.       6182450.       6128921.
       6063546.       5990262.       5907629.       5838817.       5785953.
       5739355.       5668236.       5571396.       5471219.       5378336.
       5294667.       5224951.       5171527.       5102235.       5021038.
       4928235.       4842529.       4788289.       4710969.       4633694.
       4579335.       4504273.       4436502.       4361982.       4283545.
       4231740.       4128831.       4015340.       3933645.       3845080.
       3786630.       3720584.       3641617.       3571925.       3481553.
       3404921.       3333741.       3244141.       3160694.       3090394.
       3029911.       2958221.       2867764.       2789248.       2713850.
       2618305.       2536032.       2471560.       2400225.       2325939.
       2259633.       2200087.       2128311.       2042054.       1967471.
       1893978.       1796196.       1716938.       1646023.       1561192.
       1507134.       1436710.       1339089.       1264814.       1181609.
       1105068.       1059427.       992140.0       898397.0       806620.0
       723536.0       639796.0       541955.0       459308.0       394494.0
       312424.0       233944.0       157498.0       60251.00      -28110.00
      -108847.0      -191798.0      -277955.0      -373212.0      -457452.0
      -531119.0      -616388.0      -691572.0      -748436.0      -846590.0
      -936448.0      -988873.0      -1096964.      -1209903.      -1279670.
      -1352157.      -1406402.      -1481217.      -1582975.      -1643149.
      -1704365.      -1763324.      -1800243.      -1871215.      -1972073.
      -2058268.      -2127048.      -2194892.      -2267101.      -2344232.
      -2405870.      -2473460.      -2544714.      -2601296.      -2702676.
      -2804897.      -2867222.      -2962819.      -3049978.      -3101807.
      -3183985.      -3266284.      -3328254.      -3390397.      -3445562.
      -3530806.      -3619910.      -3691820.      -3792002.      -3873385.
      -3959284.      -4060619.      -4107827.      -4156884.      -4226516.
      -4287527.      -4377582.      -4467062.      -4526320.      -4612367.
      -4684664.      -4737403.      -4818090.      -4881373.      -4956317.
      -5037801.      -5086372.      -5157809.      -5243523.      -5284459.
      -5345490.      -5429893.      -5477138.      -5551892.      -5619752.
      -5677393.      -5754267.      -5791939.      -5849076.      -5925450.
      -5986280.      -6064348.      -6126387.      -6172662.      -6243132.
      -6332221.      -6416350.      -6483297.      -6547154.      -6618535.
      -6689846.      -6746789.      -6795240.      -6853416.      -6913891.
      -6992942.      -7062711.      -7101289.      -7187156.      -7254883.
      -7280350.      -7356979.      -7417215.      -7457520.      -7510050.
      -7546755.      -7604196.      -7675451.      -7735415.      -7791994.
      -7836705.      -7884092.      -7944048.      -7984255.      -8030966.
      -8099504.      -8144959.      -8199248.      -8269209.      -8331958.
      -8405216.      -8439016.      -8449591.      -8512304.      -8557995.
      -8584721.      -8642296.      -8674424.      -8722795.      -8791279.
      -8825946.      -8874965.      -8940630.      -8979106.      -9000415.
      -9035854.      -9062497.      -9090554.      -9134020.      -9169831.
      -9222707.      -9288089.      -9357783.      -9409732.      -9430806.
