     0.02500000      -12345.00      -12345.00   3.262830e+10      -12345.00
   0.0005380000       1859.976      -695.0195      -12345.00      -12345.00
      -12345.00      -12345.00      -12345.00      -12345.00      -12345.00
      -12345.00      -12345.00      -12345.00      -12345.00      -12345.00
      -12345.00      -12345.00      -12345.00      -12345.00      -12345.00
      -12345.00      -12345.00      -12345.00      -12345.00      -12345.00
      -12345.00       36.54567       138.2041       405.0000       0.000000
      -42.72450       173.0647      -12345.00       22.00000      -12345.00
      -12345.00      -12345.00      -12345.00      -12345.00      -12345.00
      -12345.00      -12345.00      -12345.00      -12345.00      -12345.00
       9457.736       332.4834       154.9907       85.05923      -12345.00
      -12345.00      -12345.00       0.000000       0.000000      -12345.00
      -12345.00      -12345.00      -12345.00      -12345.00      -12345.00
      -12345.00      -12345.00      -12345.00      -12345.00      -12345.00
      2016       318        11        14        34
        19         6    -12345    -12345     74400
    -12345    -12345    -12345    -12345    -12345
         1    -12345    -12345    -12345    -12345
    -12345    -12345    -12345    -12345    -12345
    -12345    -12345    -12345    -12345    -12345
    -12345    -12345    -12345    -12345    -12345
         1    -12345    -12345    -12345    -12345
MAJO    South Island, Ne
10      -12345  -12345  
-12345  -12345  -12345  
-12345  -12345  -12345  
-12345  -12345  -12345  
-12345  -12345  -12345  
-12345  -12345  BHZ     
IU      -12345  Streckei
[...]
      -901421.0      -896069.0      -890933.0      -885700.0      -880140.0
      -874522.0      -868895.0      -862928.0      -856458.0      -849775.0
      -843270.0      -836391.0      -829011.0      -821853.0      -814676.0
      -807219.0      -799905.0      -792554.0      -784476.0      -776048.0
      -767941.0      -759447.0      -750289.0      -741107.0      -732055.0
      -722703.0      -712994.0      -703601.0      -694455.0      -685189.0
      -676024.0      -667042.0      -657754.0      -648107.0      -638696.0
      -629111.0      -618924.0      -608532.0      -598137.0      -587738.0
      -577179.0      -566464.0      -555954.0      -545577.0      -534930.0
      -524184.0      -513388.0      -502142.0      -490712.0      -479353.0
      -467660.0      -455549.0      -443293.0      -431116.0      -418901.0
      -406445.0      -394247.0      -382593.0      -371120.0      -359635.0
      -348245.0      -336910.0      -325505.0      -314223.0      -302809.0
      -291104.0      -279570.0      -268153.0      -256658.0      -245380.0
      -234588.0      -224068.0      -213769.0      -203690.0      -193351.0
      -182587.0      -171588.0      -160472.0      -148938.0      -136962.0
      -125092.0      -113265.0      -101160.0      -89087.00      -77568.00
      -66260.00      -54842.00      -43631.00      -32393.00      -20754.00
      -8951.000       2894.000       14931.00       27004.00       39030.00
       51055.00       63134.00       75302.00       87419.00       99435.00
       111377.0       123122.0       134788.0       146736.0       158785.0
       170819.0       183208.0       196003.0       208877.0       221731.0
       234847.0       248271.0       261428.0       274114.0       286874.0
       299516.0       311801.0       324168.0       336548.0       349196.0
       362228.0       375352.0       388828.0       402411.0       416042.0
       429864.0       443513.0       457047.0       470546.0       484152.0
       497945.0       511684.0       525730.0       540141.0       554612.0
       569361.0       584316.0       599401.0       614681.0       629892.0
       644938.0       659810.0       674537.0       689227.0       703761.0
       718212.0       732628.0       746805.0       760899.0       774912.0
       788763.0       802585.0       816079.0       829301.0       842620.0
       855637.0       868170.0       880709.0       893150.0       905322.0
       917504.0       929534.0       941595.0       953835.0       965830.0
       977690.0       989630.0       1001585.       1013295.       1024602.
       1035862.       1047034.       1057815.       1068434.       1078954.
       1089257.       1099534.       1109798.       1119907.       1129910.
       1139981.       1150248.       1160334.       1170216.       1180432.
       1190735.       1201038.       1211626.       1222339.       1233120.
       1244170.       1255485.       1266675.       1277675.       1288833.
       1300194.       1311455.       1322640.       1334089.       1345695.
       1357357.       1369321.       1381424.       1393423.       1405629.
       1418116.       1430523.       1442827.       1455429.       1468331.
       1481041.       1493627.       1506419.       1519425.       1532538.
       1545666.       1558922.       1572401.       1586012.       1599751.
       1613512.       1627133.       1640944.       1654809.       1668431.
       1682066.       1695606.       1709053.       1722412.       1735608.
       1748698.       1761638.       1774640.       1787475.       1799838.
       1812138.       1824397.       1836491.       1848448.       1860287.
       1872233.       1883965.       1895474.       1907122.       1918553.
       1929867.       1941461.       1953030.       1964310.       1975510.
       1986737.       1997569.       2008003.       2018488.       2028813.
       2038748.       2048607.       2058544.       2068228.       2077644.
       2087125.       2096556.       2105716.       2114654.       2123596.
       2132424.       2141174.       2149958.       2158561.       2167192.
       2175810.       2184120.       2192174.       2200183.       2208057.
       2215529.       2222706.       2229755.       2236801.       2243660.
       2250261.       2256696.       2262904.       2269110.       2275058.
       2280628.       2286347.       2292116.       2297690.       2303200.
       2308608.       2313937.       2319379.       2324692.       2329941.
       2335545.       2341191.       2346509.       2351903.       2357655.
       2363281.       2368841.       2374624.       2380502.       2386425.
       2392256.       2398053.       2403897.       2409694.       2415264.
       2420801.       2426412.       2431870.       2437210.       2442527.
       2447868.       2452957.       2458001.       2463180.       2468032.
       2472809.       2477601.       2482067.       2486364.       2490642.
       2494689.       2498529.       2502506.       2506409.       2510140.
       2513909.       2517775.       2521686.       2525436.       2529296.
       2533172.       2536764.       2540380.       2543896.       2547204.
       2550470.       2553657.       2556800.       2559709.       2562307.
       2564779.       2567054.       2569103.       2570936.       2572425.
       2573514.       2574366.       2574913.       2575045.       2575043.
       2574907.       2574737.       2574749.       2574521.       2574102.
       2573999.       2573856.       2573430.       2572963.       2572600.
       2572380.       2571880.       2571424.       2571517.       2571548.
       2571384.       2571449.       2571607.       2571549.       2571619.
       2571694.       2571369.       2571120.       2570717.       2569823.
       2568733.       2567464.       2565874.       2563676.       2561266.
       2559008.       2556350.       2553243.       2550187.       2547170.
       2543720.       2540158.       2536845.       2533199.       2529342.
       2525796.       2522238.       2518448.       2514898.       2511739.
       2508590.       2505534.       2502672.       2499845.       2496977.
       2493847.       2490517.       2486930.       2482954.       2478895.
       2474720.       2470355.       2465943.       2461521.       2457088.
       2452453.       2447545.       2442555.       2437588.       2432461.
       2427201.       2422017.       2416715.       2411197.       2405598.
       2399842.       2393848.       2387964.       2382288.       2376314.
       2370156.       2364317.       2358438.       2352144.       2345985.
       2340204.       2334115.       2327765.       2321714.       2315497.
       2308967.       2302172.       2294934.       2287622.       2280117.
       2272326.       2264573.       2256914.       2249156.       2241233.
       2233360.       2225528.       2217681.       2209808.       2201895.
       2193994.       2186062.       2178001.       2169783.       2161451.
       2152955.       2144291.       2135443.       2126441.       2117426.
       2108192.       2098672.       2089294.       2080149.       2070912.
       2061571.       2052404.       2043378.       2034245.       2025140.
       2016126.       2007019.       1997800.       1988725.       1979778.
       1970548.       1961381.       1952211.       1942738.       1933444.
       1924081.       1914668.       1905415.       1895835.       1886075.
       1876348.       1866244.       1855633.       1844848.       1833974.
       1822726.       1811211.       1799774.       1788288.       1776660.
       1764902.       1752960.       1740982.       1728967.       1716839.
       1704686.       1692506.       1680205.       1667938.       1655747.
       1643502.       1631231.       1618802.       1606373.       1593825.
       1580736.       1567557.       1554285.       1540646.       1526945.
       1513095.       1499092.       1485105.       1470826.       1456275.
       1441776.       1426996.       1412004.       1397046.       1381940.
       1366864.       1351700.       1336476.       1321421.       1306356.
       1291170.       1275889.       1260759.       1245639.       1230293.
       1214941.       1199463.       1183814.       1168091.       1152284.
       1136571.       1120654.       1104714.       1089168.       1073273.
       1057190.       1041250.       1024892.       1008238.       991402.0
       974439.0       957386.0       940184.0       923068.0       905797.0
       888370.0       871008.0       853528.0       836028.0       818322.0
       800472.0       782770.0       764869.0       746880.0       729086.0
       711407.0       693655.0       675804.0       658138.0       640476.0
       622706.0       605074.0       587524.0       569920.0       552131.0
       534254.0       516425.0       498328.0       479991.0       461720.0
       443455.0       425119.0       406717.0       388419.0       370172.0
       351946.0       333912.0       315877.0       297823.0       279807.0
       261762.0       243575.0       225230.0       207042.0       188820.0
       170482.0       152305.0       133996.0       115539.0       97103.00
       78601.00       60072.00       41568.00       23151.00       4897.000
      -13320.00      -31582.00      -49790.00      -68047.00      -86472.00
      -104959.0      -123537.0      -142456.0      -161487.0      -180413.0
      -199484.0      -218543.0      -237494.0      -256317.0      -275170.0
      -294386.0      -313536.0      -332726.0      -352200.0      -371428.0
      -390543.0      -409824.0      -428924.0      -447844.0      -466960.0
      -485981.0      -504579.0      -523080.0      -541725.0      -560234.0
      -578400.0      -596761.0      -615376.0      -633643.0      -651734.0
      -670208.0      -688843.0      -707137.0      -725541.0      -744359.0
      -763124.0      -781897.0      -800771.0      -819587.0      -838417.0
      -857403.0      -876342.0      -895052.0      -913987.0      -933049.0
      -951962.0      -970965.0      -989975.0      -1009054.      -1028171.
      -1047113.      -1066171.      -1085327.      -1104369.      -1123481.
      -1142669.      -1162053.      -1181687.      -1201375.      -1221110.
      -1240912.      -1260714.      -1280303.      -1299838.      -1319476.
      -1338772.      -1357771.      -1376897.      -1395925.      -1414745.
      -1433681.      -1452726.      -1471561.      -1490068.      -1508553.
      -1526878.      -1544819.      -1562881.      -1581046.      -1598913.
      -1616732.      -1634641.      -1652429.      -1670136.      -1687838.
      -1705472.      -1722867.      -1740111.      -1757337.      -1774332.
      -1791148.      -1807900.      -1824487.      -1840901.      -1857254.
      -1873546.      -1889557.      -1905389.      -1921187.      -1936833.
      -1952444.      -1968037.      -1983486.      -1998869.      -2014165.
      -2029313.      -2044348.      -2059247.      -2074131.      -2089020.
      -2103756.      -2118461.      -2133188.      -2147955.      -2162846.
      -2177688.      -2192375.      -2207055.      -2221805.      -2236438.
      -2250818.      -2265083.      -2279303.      -2293364.      -2307242.
      -2321106.      -2334892.      -2348443.      -2361749.      -2374865.
      -2388003.      -2400946.      -2413592.      -2426380.      -2439283.
      -2452061.      -2464710.      -2477478.      -2490252.      -2502651.
      -2514849.      -2527018.      -2539043.      -2550792.      -2562346.
      -2573951.      -2585456.      -2596411.      -2607072.      -2617719.
      -2628032.      -2637990.      -2647778.      -2657516.      -2666953.
      -2676077.      -2685312.      -2694300.      -2703024.      -2711833.
      -2720378.      -2728766.      -2737070.      -2745135.      -2753070.
      -2760817.      -2768442.      -2775784.      -2782830.      -2789621.
      -2796185.      -2802734.      -2808914.      -2815018.      -2821356.
      -2827372.      -2833004.      -2838487.      -2843946.      -2849121.
      -2853887.      -2858513.      -2862846.      -2866821.      -2870658.
      -2874417.      -2877931.      -2881299.      -2884849.      -2888356.
      -2891703.      -2894931.      -2897979.      -2900982.      -2903778.
      -2906311.      -2908797.      -2911107.      -2913304.      -2915685.
      -2917927.      -2919787.      -2921712.      -2923767.      -2925560.
      -2927151.      -2928784.      -2930227.      -2931398.      -2932487.
      -2933349.      -2934260.      -2935164.      -2935665.      -2936232.
      -2936900.      -2937349.      -2937548.      -2937748.      -2938103.
      -2938317.      -2938509.      -2938782.      -2939124.      -2939444.
      -2939549.      -2939721.      -2939903.      -2939828.      -2939676.
      -2939566.      -2939431.      -2939227.      -2938956.      -2938708.
      -2938495.      -2938227.      -2937838.      -2937163.      -2936338.
      -2935391.      -2934115.      -2932705.      -2931168.      -2929531.
      -2927857.      -2926026.      -2924010.      -2921825.      -2919525.
      -2916966.      -2914136.      -2911038.      -2907603.      -2904079.
      -2900638.      -2896980.      -2893140.      -2889445.      -2885553.
      -2881426.      -2877213.      -2872757.      -2868208.      -2863527.
      -2858666.      -2853590.      -2848296.      -2843072.      -2837836.
      -2832579.      -2827320.      -2821941.      -2816724.      -2811561.
      -2806068.      -2800403.      -2794842.      -2789236.      -2783311.
      -2777290.      -2771304.      -2765051.      -2758450.      -2751858.
      -2745442.      -2738681.      -2731625.      -2724751.      -2717708.
      -2710217.      -2702614.      -2695090.      -2687440.      -2679625.
      -2671604.      -2663379.      -2655117.      -2646551.      -2637629.
      -2628581.      -2619435.      -2610101.      -2600552.      -2591076.
      -2581820.      -2572563.      -2563238.      -2554013.      -2544675.
      -2535224.      -2525882.      -2516442.      -2506949.      -2497412.
      -2487955.      -2478564.      -2469091.      -2459797.      -2450419.
      -2440963.      -2431574.      -2421982.      -2412117.      -2402193.
      -2392336.      -2382249.      -2371980.      -2361448.      -2350708.
      -2340144.      -2329538.      -2318911.      -2308359.      -2297808.
      -2287283.      -2276634.      -2265660.      -2254536.      -2243525.
      -2232329.      -2221132.      -2210173.      -2199201.      -2188404.
      -2177784.      -2167023.      -2156114.      -2145322.      -2134552.
      -2123628.      -2112757.      -2101971.      -2091285.      -2080538.
      -2069446.      -2058196.      -2046995.      -2035640.      -2024011.
      -2012305.      -2000515.      -1988755.      -1977102.      -1965284.
      -1953490.      -1941764.      -1929950.      -1918161.      -1906296.
      -1894327.      -1882255.      -1870381.      -1858746.      -1846861.
      -1835209.      -1824044.      -1812724.      -1801274.      -1790160.
      -1779051.      -1767474.      -1755971.      -1744598.      -1732631.
      -1720224.      -1708000.      -1695890.      -1683515.      -1670964.
      -1658644.      -1646509.      -1633938.      -1621083.      -1608380.
      -1595498.      -1582162.      -1568753.      -1555698.      -1542404.
      -1528743.      -1515355.      -1502224.      -1488965.      -1475459.
      -1462225.      -1449159.      -1435836.      -1422166.      -1408400.
      -1395120.      -1381638.      -1367815.      -1354251.      -1340882.
      -1327655.      -1314120.      -1300487.      -1286967.      -1273421.
      -1260026.      -1246555.      -1233228.      -1219882.      -1206426.
      -1193326.      -1180284.      -1166909.      -1153281.      -1139981.
      -1126866.      -1113426.      -1099981.      -1086857.      -1073980.
      -1061036.      -1048018.      -1035376.      -1023133.      -1010645.
      -998028.0      -985552.0      -972903.0      -960155.0      -947324.0
      -934483.0      -921709.0      -908913.0      -896163.0      -883354.0
      -870350.0      -857098.0      -843668.0      -830180.0      -816609.0
      -802922.0      -789077.0      -775286.0      -761670.0      -747851.0
      -733841.0      -720046.0      -706432.0      -692722.0      -678787.0
      -664813.0      -650955.0      -636956.0      -622849.0      -608689.0
      -594385.0      -580157.0      -566025.0      -551769.0      -537204.0
      -522557.0      -508076.0      -493239.0      -477929.0      -462632.0
      -447379.0      -431841.0      -416085.0      -400853.0      -385840.0
      -370516.0      -355762.0      -341354.0      -326546.0      -311988.0
      -297616.0      -283219.0      -268969.0      -254608.0      -240503.0
      -226567.0      -212727.0      -199049.0      -185486.0      -172514.0
      -159584.0      -146623.0      -134020.0      -121466.0      -109098.0
      -96725.00      -84549.00      -72815.00      -60799.00      -48869.00
      -37479.00      -26058.00      -14506.00      -3169.000       7640.000
       18464.00       29834.00       40926.00       51558.00       62567.00
       73869.00       84754.00       95363.00       106102.0       116609.0
       126735.0       136667.0       146536.0       156144.0       165364.0
       174721.0       184179.0       193547.0       202878.0       212280.0
       221906.0       231321.0       240670.0       250185.0       259465.0
       268660.0       277880.0       286975.0       295958.0       304976.0
       314078.0       323249.0       332455.0       341510.0       350821.0
       360275.0       369299.0       378241.0       387223.0       396157.0
       405049.0       413772.0       422456.0       431243.0       440028.0
       448762.0       457615.0       466634.0       475674.0       484801.0
       494214.0       503825.0       513299.0       522752.0       532719.0
       542781.0       552492.0       562530.0       572943.0       583222.0
       593356.0       603720.0       614349.0       624721.0       634963.0
       645306.0       655263.0       664860.0       674377.0       683575.0
       692570.0       701407.0       709983.0       718533.0       727028.0
