     0.05000000      -12345.00      -12345.00   4.600960e+09      -12345.00
   0.0005380000       1859.951      -695.0195      -12345.00      -12345.00
      -12345.00      -12345.00      -12345.00      -12345.00      -12345.00
      -12345.00      -12345.00      -12345.00      -12345.00      -12345.00
      -12345.00      -12345.00      -12345.00      -12345.00      -12345.00
      -12345.00      -12345.00      -12345.00      -12345.00      -12345.00
      -12345.00       36.54567       138.2041       405.0000       0.000000
      -42.72450       173.0647      -12345.00       22.00000      -12345.00
      -12345.00      -12345.00      -12345.00      -12345.00      -12345.00
      -12345.00      -12345.00      -12345.00      -12345.00      -12345.00
       9457.736       332.4834       154.9907       85.05923      -12345.00
      -12345.00      -12345.00       87.00000       90.00000      -12345.00
      -12345.00      -12345.00      -12345.00      -12345.00      -12345.00
      -12345.00      -12345.00      -12345.00      -12345.00      -12345.00
      2016       318        11        14        34
        19         6    -12345    -12345     37200
    -12345    -12345    -12345    -12345    -12345
         1    -12345    -12345    -12345    -12345
    -12345    -12345    -12345    -12345    -12345
    -12345    -12345    -12345    -12345    -12345
    -12345    -12345    -12345    -12345    -12345
         1    -12345    -12345    -12345    -12345
MAJO    South Island, Ne
00      -12345  -12345  
-12345  -12345  -12345  
-12345  -12345  -12345  
-12345  -12345  -12345  
-12345  -12345  -12345  
-12345  -12345  BH2     
IU      -12345  Streckei
[...]
       231272.0       232311.0       233294.0       234221.0       235196.0
       236113.0       237092.0       238014.0       238870.0       239763.0
       240605.0       241466.0       242307.0       243117.0       243909.0
       244676.0       245435.0       246227.0       246996.0       247721.0
       248376.0       248951.0       249507.0       250045.0       250655.0
       251242.0       251805.0       252353.0       252793.0       253240.0
       253703.0       254193.0       254711.0       255193.0       255628.0
       256053.0       256463.0       256918.0       257427.0       257891.0
       258381.0       258846.0       259272.0       259736.0       260163.0
       260648.0       261136.0       261586.0       262110.0       262568.0
       263006.0       263446.0       263842.0       264297.0       264760.0
       265210.0       265622.0       266018.0       266448.0       266871.0
       267308.0       267730.0       268117.0       268514.0       268896.0
       269267.0       269653.0       270031.0       270366.0       270700.0
       271019.0       271283.0       271571.0       271854.0       272091.0
       272324.0       272537.0       272751.0       272996.0       273184.0
       273338.0       273481.0       273580.0       273640.0       273668.0
       273717.0       273767.0       273814.0       273812.0       273801.0
       273773.0       273681.0       273578.0       273410.0       273221.0
       273067.0       272901.0       272712.0       272513.0       272274.0
       272016.0       271732.0       271442.0       271142.0       270822.0
       270524.0       270207.0       269910.0       269606.0       269291.0
       268945.0       268536.0       268162.0       267794.0       267437.0
       267060.0       266646.0       266198.0       265747.0       265366.0
       264951.0       264506.0       264003.0       263480.0       262994.0
       262487.0       261987.0       261441.0       260874.0       260311.0
       259751.0       259199.0       258653.0       258102.0       257527.0
       256997.0       256487.0       255979.0       255453.0       254880.0
       254335.0       253843.0       253364.0       252906.0       252428.0
       251964.0       251532.0       251088.0       250702.0       250313.0
       249899.0       249462.0       249042.0       248671.0       248280.0
       247896.0       247509.0       247122.0       246775.0       246482.0
       246208.0       245888.0       245549.0       245233.0       244952.0
       244745.0       244550.0       244344.0       244122.0       243897.0
       243689.0       243465.0       243324.0       243206.0       243072.0
       242988.0       242924.0       242900.0       242861.0       242815.0
       242842.0       242908.0       242983.0       243072.0       243170.0
       243300.0       243425.0       243525.0       243665.0       243852.0
       244018.0       244202.0       244421.0       244595.0       244754.0
       244894.0       245098.0       245379.0       245677.0       245970.0
       246205.0       246440.0       246685.0       246947.0       247231.0
       247544.0       247794.0       248030.0       248358.0       248663.0
       248981.0       249233.0       249493.0       249852.0       250154.0
       250496.0       250836.0       251124.0       251468.0       251789.0
       252156.0       252565.0       252882.0       253257.0       253633.0
       253986.0       254388.0       254735.0       255093.0       255483.0
       255857.0       256244.0       256660.0       257087.0       257441.0
       257740.0       258127.0       258508.0       258875.0       259298.0
       259702.0       260134.0       260513.0       260865.0       261239.0
       261585.0       261916.0       262265.0       262648.0       262975.0
       263263.0       263501.0       263759.0       264014.0       264201.0
       264438.0       264645.0       264809.0       264965.0       265064.0
       265199.0       265339.0       265450.0       265602.0       265664.0
       265660.0       265640.0       265619.0       265640.0       265575.0
       265514.0       265407.0       265234.0       265074.0       264863.0
       264693.0       264511.0       264313.0       264105.0       263852.0
       263611.0       263378.0       263137.0       262833.0       262553.0
       262261.0       261906.0       261572.0       261195.0       260817.0
       260402.0       259919.0       259428.0       258960.0       258523.0
       258068.0       257626.0       257098.0       256503.0       255908.0
       255301.0       254724.0       254139.0       253528.0       252845.0
       252099.0       251293.0       250459.0       249601.0       248712.0
       247853.0       246982.0       246105.0       245183.0       244168.0
       243160.0       242119.0       241080.0       240072.0       239015.0
       237977.0       236852.0       235669.0       234499.0       233315.0
       232188.0       231038.0       229851.0       228669.0       227457.0
       226254.0       225046.0       223751.0       222522.0       221329.0
       220051.0       218823.0       217537.0       216183.0       214852.0
       213492.0       212188.0       210881.0       209473.0       208034.0
       206540.0       205044.0       203550.0       202009.0       200504.0
       198951.0       197408.0       195897.0       194345.0       192784.0
       191183.0       189552.0       187930.0       186316.0       184656.0
       183008.0       181376.0       179740.0       178090.0       176436.0
       174807.0       173120.0       171430.0       169761.0       168105.0
       166454.0       164770.0       163079.0       161400.0       159750.0
       158096.0       156469.0       154808.0       153097.0       151403.0
       149684.0       148042.0       146467.0       144873.0       143261.0
       141642.0       140051.0       138484.0       136937.0       135389.0
       133857.0       132332.0       130829.0       129366.0       127874.0
       126339.0       124832.0       123361.0       121896.0       120449.0
       118940.0       117451.0       115987.0       114450.0       112975.0
       111487.0       109997.0       108557.0       107069.0       105589.0
       104074.0       102540.0       101046.0       99553.00       98085.00
       96627.00       95137.00       93656.00       92157.00       90647.00
       89148.00       87655.00       86181.00       84707.00       83258.00
       81781.00       80267.00       78745.00       77212.00       75676.00
       74164.00       72675.00       71147.00       69578.00       67944.00
       66326.00       64685.00       63067.00       61500.00       59890.00
       58290.00       56606.00       54910.00       53166.00       51441.00
       49768.00       48008.00       46305.00       44479.00       42586.00
       40779.00       38901.00       37041.00       35184.00       33266.00
       31372.00       29475.00       27528.00       25573.00       23599.00
       21582.00       19636.00       17710.00       15738.00       13746.00
       11699.00       9738.000       7762.000       5775.000       3804.000
       1772.000      -214.0000      -2279.000      -4345.000      -6365.000
      -8392.000      -10367.00      -12384.00      -14431.00      -16499.00
      -18577.00      -20615.00      -22643.00      -24731.00      -26868.00
      -28967.00      -31072.00      -33206.00      -35393.00      -37610.00
      -39774.00      -41947.00      -44145.00      -46353.00      -48577.00
      -50776.00      -52963.00      -55230.00      -57513.00      -59793.00
      -62132.00      -64413.00      -66670.00      -68967.00      -71239.00
      -73517.00      -75815.00      -78102.00      -80367.00      -82630.00
      -84923.00      -87125.00      -89325.00      -91604.00      -93844.00
      -96096.00      -98346.00      -100571.0      -102760.0      -104977.0
      -107206.0      -109442.0      -111760.0      -114024.0      -116245.0
      -118499.0      -120729.0      -123009.0      -125377.0      -127678.0
      -130020.0      -132330.0      -134549.0      -136852.0      -139163.0
      -141508.0      -143862.0      -146191.0      -148515.0      -150856.0
      -153171.0      -155457.0      -157826.0      -160160.0      -162513.0
      -164932.0      -167278.0      -169619.0      -171917.0      -174164.0
      -176488.0      -178777.0      -181052.0      -183382.0      -185668.0
      -187902.0      -190091.0      -192278.0      -194520.0      -196777.0
      -198981.0      -201174.0      -203317.0      -205439.0      -207604.0
      -209775.0      -212018.0      -214245.0      -216442.0      -218598.0
      -220755.0      -222932.0      -225069.0      -227268.0      -229467.0
      -231691.0      -233979.0      -236235.0      -238438.0      -240620.0
      -242845.0      -245080.0      -247331.0      -249631.0      -251913.0
      -254181.0      -256446.0      -258715.0      -261000.0      -263327.0
      -265687.0      -268051.0      -270447.0      -272848.0      -275273.0
      -277704.0      -280132.0      -282610.0      -285115.0      -287663.0
      -290250.0      -292832.0      -295425.0      -298022.0      -300646.0
      -303320.0      -305973.0      -308671.0      -311392.0      -314109.0
      -316838.0      -319492.0      -322182.0      -324865.0      -327557.0
      -330328.0      -333055.0      -335801.0      -338468.0      -341075.0
      -343787.0      -346491.0      -349267.0      -352055.0      -354792.0
      -357552.0      -360238.0      -362950.0      -365722.0      -368522.0
      -371369.0      -374250.0      -377155.0      -380031.0      -382935.0
      -385842.0      -388738.0      -391739.0      -394765.0      -397824.0
      -400915.0      -403979.0      -407055.0      -410106.0      -413218.0
      -416381.0      -419555.0      -422779.0      -426001.0      -429216.0
      -432427.0      -435629.0      -438876.0      -442107.0      -445363.0
      -448677.0      -451937.0      -455227.0      -458497.0      -461773.0
      -465097.0      -468342.0      -471654.0      -475015.0      -478352.0
      -481740.0      -485128.0      -488492.0      -491837.0      -495209.0
      -498620.0      -502070.0      -505570.0      -509085.0      -512594.0
      -516098.0      -519615.0      -523128.0      -526745.0      -530469.0
      -534149.0      -537870.0      -541581.0      -545228.0      -548933.0
      -552658.0      -556456.0      -560298.0      -564141.0      -568047.0
      -571910.0      -575755.0      -579635.0      -583531.0      -587511.0
      -591551.0      -595603.0      -599647.0      -603682.0      -607673.0
      -611645.0      -615698.0      -619753.0      -623880.0      -628032.0
      -632080.0      -636120.0      -640056.0      -644020.0      -648082.0
      -652107.0      -656177.0      -660195.0      -664146.0      -668079.0
      -672000.0      -675941.0      -679859.0      -683775.0      -687647.0
      -691495.0      -695328.0      -699133.0      -702913.0      -706664.0
      -710402.0      -714121.0      -717804.0      -721409.0      -725052.0
      -728681.0      -732279.0      -735876.0      -739377.0      -742831.0
      -746219.0      -749589.0      -752973.0      -756320.0      -759648.0
      -762924.0      -766111.0      -769293.0      -772462.0      -775606.0
      -778791.0      -781898.0      -784902.0      -787857.0      -790773.0
      -793689.0      -796666.0      -799618.0      -802475.0      -805359.0
      -808121.0      -810814.0      -813534.0      -816208.0      -818936.0
      -821606.0      -824226.0      -826778.0      -829216.0      -831631.0
      -834027.0      -836444.0      -838832.0      -841194.0      -843512.0
      -845740.0      -847936.0      -850058.0      -852178.0      -854302.0
      -856357.0      -858414.0      -860375.0      -862258.0      -864133.0
      -865955.0      -867809.0      -869644.0      -871396.0      -873108.0
      -874720.0      -876285.0      -877914.0      -879493.0      -881000.0
      -882481.0      -883885.0      -885246.0      -886609.0      -887935.0
      -889249.0      -890545.0      -891769.0      -892982.0      -894152.0
      -895266.0      -896432.0      -897612.0      -898755.0      -899849.0
      -900897.0      -901939.0      -902949.0      -903965.0      -904987.0
      -905958.0      -906886.0      -907772.0      -908613.0      -909429.0
      -910199.0      -910968.0      -911767.0      -912519.0      -913270.0
      -913999.0      -914666.0      -915300.0      -915919.0      -916558.0
      -917169.0      -917780.0      -918348.0      -918826.0      -919260.0
      -919659.0      -920076.0      -920486.0      -920883.0      -921233.0
      -921495.0      -921717.0      -921910.0      -922088.0      -922262.0
      -922424.0      -922530.0      -922548.0      -922522.0      -922420.0
      -922275.0      -922189.0      -922059.0      -921913.0      -921728.0
      -921425.0      -921144.0      -920864.0      -920558.0      -920249.0
      -919914.0      -919500.0      -919075.0      -918641.0      -918145.0
      -917643.0      -917076.0      -916528.0      -915969.0      -915396.0
      -914830.0      -914176.0      -913509.0      -912835.0      -912163.0
      -911473.0      -910794.0      -910101.0      -909396.0      -908690.0
      -907902.0      -907102.0      -906304.0      -905495.0      -904677.0
      -903882.0      -903043.0      -902179.0      -901297.0      -900383.0
      -899471.0      -898511.0      -897579.0      -896552.0      -895534.0
      -894523.0      -893438.0      -892371.0      -891179.0      -890007.0
      -888809.0      -887540.0      -886341.0      -885045.0      -883685.0
      -882313.0      -880855.0      -879421.0      -877970.0      -876426.0
      -874869.0      -873256.0      -871606.0      -869956.0      -868260.0
      -866547.0      -864755.0      -862894.0      -861066.0      -859188.0
      -857281.0      -855354.0      -853380.0      -851378.0      -849288.0
      -847193.0      -845078.0      -842921.0      -840730.0      -838429.0
      -836110.0      -833766.0      -831374.0      -829047.0      -826684.0
      -824199.0      -821688.0      -819080.0      -816424.0      -813806.0
      -811077.0      -808307.0      -805506.0      -802616.0      -799749.0
      -796789.0      -793800.0      -790865.0      -787850.0      -784815.0
      -781737.0      -778705.0      -775636.0      -772500.0      -769405.0
      -766261.0      -763123.0      -759963.0      -756805.0      -753605.0
      -750443.0      -747282.0      -744033.0      -740826.0      -737563.0
      -734333.0      -731044.0      -727731.0      -724434.0      -721056.0
      -717755.0      -714382.0      -711002.0      -707611.0      -704116.0
      -700647.0      -697153.0      -693670.0      -690184.0      -686666.0
      -683115.0      -679548.0      -675966.0      -672364.0      -668769.0
      -665130.0      -661512.0      -657875.0      -654195.0      -650495.0
      -646735.0      -642986.0      -639230.0      -635446.0      -631638.0
      -627805.0      -623939.0      -620035.0      -616170.0      -612322.0
      -608436.0      -604534.0      -600579.0      -596580.0      -592566.0
      -588503.0      -584484.0      -580457.0      -576441.0      -572445.0
      -568351.0      -564251.0      -560114.0      -555971.0      -551870.0
      -547752.0      -543649.0      -539490.0      -535287.0      -531126.0
      -526972.0      -522777.0      -518610.0      -514467.0      -510288.0
      -506130.0      -501951.0      -497747.0      -493584.0      -489428.0
      -485270.0      -481125.0      -476977.0      -472815.0      -468690.0
      -464585.0      -460463.0      -456355.0      -452208.0      -448052.0
      -443917.0      -439801.0      -435688.0      -431502.0      -427284.0
      -423008.0      -418702.0      -414384.0      -410076.0      -405760.0
      -401350.0      -396994.0      -392588.0      -388096.0      -383657.0
      -379159.0      -374663.0      -370239.0      -365798.0      -361343.0
      -356830.0      -352299.0      -347761.0      -343195.0      -338689.0
      -334158.0      -329644.0      -325129.0      -320527.0      -315897.0
      -311191.0      -306491.0      -301846.0      -297192.0      -292531.0
      -287825.0      -283055.0      -278229.0      -273402.0      -268578.0
      -263784.0      -259024.0      -254185.0      -249340.0      -244464.0
      -239506.0      -234594.0      -229695.0      -224785.0      -219804.0
      -214790.0      -209790.0      -204731.0      -199742.0      -194678.0
      -189576.0      -184487.0      -179275.0      -174140.0      -168973.0
      -163804.0      -158681.0      -153440.0      -148117.0      -142780.0
      -137452.0      -132079.0      -126809.0      -121556.0      -116230.0
      -110839.0      -105342.0      -99843.00      -94348.00      -88947.00
      -83557.00      -78102.00      -72595.00      -66996.00      -61361.00
      -55700.00      -50040.00      -44411.00      -38784.00      -33124.00
      -27448.00      -21705.00      -15922.00      -10122.00      -4276.000
       1580.000       7439.000       13301.00       19177.00       25035.00
       30930.00       36849.00       42800.00       48798.00       54801.00
       60792.00       66756.00       72749.00       78715.00       84701.00
       90763.00       96851.00       102971.0       109072.0       115126.0
       121157.0       127173.0       133200.0       139261.0       145374.0
       151504.0       157609.0       163668.0       169638.0       175561.0
       181529.0       187536.0       193527.0       199570.0       205594.0
       211545.0       217484.0       223390.0       229278.0       235189.0
       241173.0       247112.0       253053.0       259005.0       264851.0
       270730.0       276596.0       282433.0       288327.0       294204.0
       300076.0       305958.0       311807.0       317665.0       323468.0
       329253.0       335038.0       340795.0       346593.0       352356.0
       358133.0       363861.0       369545.0       375234.0       380858.0
       386503.0       392152.0       397828.0       403457.0       409013.0
       414567.0       420080.0       425616.0       431177.0       436684.0
       442174.0       447604.0       453024.0       458447.0       463794.0
