     0.02500000      -12345.00      -12345.00   1.015860e+09      -12345.00
   0.0005380000       1859.976      -695.0195      -12345.00      -12345.00
      -12345.00      -12345.00      -12345.00      -12345.00      -12345.00
      -12345.00      -12345.00      -12345.00      -12345.00      -12345.00
      -12345.00      -12345.00      -12345.00      -12345.00      -12345.00
      -12345.00      -12345.00      -12345.00      -12345.00      -12345.00
      -12345.00       36.54567       138.2041       405.0000       0.000000
      -42.72450       173.0647      -12345.00       22.00000      -12345.00
      -12345.00      -12345.00      -12345.00      -12345.00      -12345.00
      -12345.00      -12345.00      -12345.00      -12345.00      -12345.00
       9457.736       332.4834       154.9907       85.05923      -12345.00
      -12345.00      -12345.00       0.000000       0.000000      -12345.00
      -12345.00      -12345.00      -12345.00      -12345.00      -12345.00
      -12345.00      -12345.00      -12345.00      -12345.00      -12345.00
      2016       318        11        14        34
        19         6    -12345    -12345     74400
    -12345    -12345    -12345    -12345    -12345
         1    -12345    -12345    -12345    -12345
    -12345    -12345    -12345    -12345    -12345
    -12345    -12345    -12345    -12345    -12345
    -12345    -12345    -12345    -12345    -12345
         1    -12345    -12345    -12345    -12345
MAJO    South Island, Ne
60      -12345  -12345  
-12345  -12345  -12345  
-12345  -12345  -12345  
-12345  -12345  -12345  
-12345  -12345  -12345  
-12345  -12345  BHZ     
IU      -12345  Metrozet
[...]
      -31308.00      -31065.00      -30824.00      -30563.00      -30304.00
      -30055.00      -29784.00      -29499.00      -29213.00      -28925.00
      -28641.00      -28345.00      -28048.00      -27758.00      -27466.00
      -27172.00      -26867.00      -26560.00      -26248.00      -25921.00
      -25600.00      -25270.00      -24915.00      -24568.00      -24222.00
      -23870.00      -23514.00      -23169.00      -22842.00      -22514.00
      -22185.00      -21861.00      -21538.00      -21209.00      -20883.00
      -20557.00      -20221.00      -19890.00      -19560.00      -19231.00
      -18909.00      -18600.00      -18305.00      -18004.00      -17716.00
      -17421.00      -17096.00      -16778.00      -16455.00      -16111.00
      -15760.00      -15411.00      -15067.00      -14707.00      -14355.00
      -14024.00      -13683.00      -13348.00      -13021.00      -12685.00
      -12339.00      -11984.00      -11633.00      -11272.00      -10913.00
      -10555.00      -10193.00      -9835.000      -9466.000      -9098.000
      -8743.000      -8388.000      -8031.000      -7680.000      -7321.000
      -6950.000      -6585.000      -6206.000      -5810.000      -5423.000
      -5034.000      -4627.000      -4215.000      -3823.000      -3432.000
      -3037.000      -2657.000      -2281.000      -1897.000      -1514.000
      -1123.000      -716.0000      -308.0000       109.0000       531.0000
       960.0000       1385.000       1803.000       2230.000       2650.000
       3075.000       3512.000       3940.000       4381.000       4836.000
       5292.000       5761.000       6229.000       6704.000       7189.000
       7664.000       8139.000       8609.000       9072.000       9540.000
       10002.00       10457.00       10910.00       11365.00       11816.00
       12260.00       12701.00       13140.00       13574.00       14001.00
       14423.00       14836.00       15244.00       15650.00       16050.00
       16443.00       16838.00       17233.00       17625.00       18021.00
       18416.00       18804.00       19194.00       19590.00       19969.00
       20342.00       20716.00       21078.00       21436.00       21793.00
       22141.00       22485.00       22829.00       23174.00       23519.00
       23856.00       24196.00       24544.00       24882.00       25224.00
       25571.00       25920.00       26278.00       26636.00       27003.00
       27372.00       27751.00       28137.00       28513.00       28894.00
       29280.00       29665.00       30054.00       30437.00       30830.00
       31231.00       31635.00       32051.00       32459.00       32871.00
       33298.00       33725.00       34149.00       34573.00       35012.00
       35457.00       35890.00       36326.00       36772.00       37218.00
       37672.00       38131.00       38585.00       39053.00       39522.00
       39995.00       40475.00       40946.00       41425.00       41901.00
       42371.00       42849.00       43320.00       43785.00       44253.00
       44713.00       45168.00       45628.00       46085.00       46531.00
       46969.00       47402.00       47839.00       48274.00       48696.00
       49122.00       49551.00       49968.00       50384.00       50803.00
       51217.00       51631.00       52052.00       52469.00       52878.00
       53293.00       53703.00       54093.00       54481.00       54870.00
       55250.00       55625.00       55997.00       56368.00       56736.00
       57093.00       57451.00       57811.00       58160.00       58508.00
       58858.00       59200.00       59542.00       59882.00       60219.00
       60561.00       60896.00       61225.00       61550.00       61866.00
       62179.00       62490.00       62784.00       63072.00       63367.00
       63661.00       63935.00       64205.00       64479.00       64744.00
       65002.00       65256.00       65511.00       65772.00       66020.00
       66268.00       66516.00       66765.00       67016.00       67256.00
       67505.00       67762.00       68016.00       68266.00       68517.00
       68780.00       69036.00       69295.00       69561.00       69827.00
       70098.00       70365.00       70631.00       70891.00       71156.00
       71426.00       71678.00       71934.00       72194.00       72451.00
       72706.00       72951.00       73199.00       73449.00       73693.00
       73934.00       74173.00       74405.00       74634.00       74859.00
       75078.00       75295.00       75507.00       75716.00       75928.00
       76137.00       76350.00       76561.00       76770.00       76986.00
       77199.00       77406.00       77613.00       77819.00       78019.00
       78217.00       78413.00       78607.00       78794.00       78979.00
       79157.00       79321.00       79489.00       79647.00       79791.00
       79935.00       80062.00       80180.00       80294.00       80390.00
       80484.00       80579.00       80674.00       80766.00       80851.00
       80946.00       81042.00       81126.00       81213.00       81299.00
       81383.00       81472.00       81562.00       81649.00       81749.00
       81850.00       81945.00       82047.00       82150.00       82251.00
       82352.00       82450.00       82541.00       82631.00       82716.00
       82786.00       82852.00       82911.00       82955.00       82983.00
       83009.00       83039.00       83052.00       83056.00       83062.00
       83060.00       83057.00       83051.00       83041.00       83026.00
       83011.00       83002.00       82987.00       82972.00       82968.00
       82971.00       82975.00       82982.00       82993.00       83010.00
       83017.00       83015.00       83016.00       82999.00       82975.00
       82949.00       82915.00       82883.00       82844.00       82808.00
       82772.00       82724.00       82671.00       82613.00       82556.00
       82503.00       82440.00       82370.00       82303.00       82234.00
       82160.00       82074.00       81990.00       81911.00       81826.00
       81739.00       81651.00       81567.00       81482.00       81380.00
       81292.00       81213.00       81118.00       81018.00       80926.00
       80832.00       80723.00       80602.00       80477.00       80347.00
       80207.00       80060.00       79917.00       79776.00       79628.00
       79477.00       79327.00       79182.00       79034.00       78880.00
       78734.00       78586.00       78428.00       78271.00       78113.00
       77941.00       77771.00       77599.00       77410.00       77224.00
       77039.00       76835.00       76636.00       76442.00       76244.00
       76048.00       75852.00       75662.00       75475.00       75275.00
       75080.00       74899.00       74702.00       74503.00       74315.00
       74121.00       73923.00       73729.00       73533.00       73327.00
       73121.00       72916.00       72715.00       72515.00       72298.00
       72082.00       71865.00       71629.00       71384.00       71132.00
       70874.00       70611.00       70338.00       70058.00       69783.00
       69509.00       69221.00       68932.00       68644.00       68349.00
       68049.00       67752.00       67459.00       67152.00       66849.00
       66553.00       66252.00       65948.00       65636.00       65326.00
       65009.00       64683.00       64349.00       64005.00       63654.00
       63307.00       62955.00       62586.00       62221.00       61852.00
       61476.00       61091.00       60702.00       60315.00       59913.00
       59517.00       59117.00       58709.00       58317.00       57915.00
       57510.00       57111.00       56702.00       56297.00       55894.00
       55485.00       55072.00       54655.00       54231.00       53806.00
       53381.00       52953.00       52520.00       52091.00       51667.00
       51233.00       50793.00       50357.00       49906.00       49439.00
       48977.00       48510.00       48031.00       47552.00       47078.00
       46597.00       46108.00       45619.00       45131.00       44644.00
       44141.00       43636.00       43139.00       42632.00       42125.00
       41625.00       41123.00       40615.00       40111.00       39609.00
       39106.00       38603.00       38098.00       37594.00       37093.00
       36585.00       36069.00       35558.00       35034.00       34499.00
       33977.00       33453.00       32918.00       32383.00       31850.00
       31322.00       30797.00       30268.00       29741.00       29217.00
       28691.00       28161.00       27626.00       27091.00       26554.00
       26014.00       25480.00       24944.00       24397.00       23853.00
       23307.00       22753.00       22206.00       21661.00       21108.00
       20564.00       20022.00       19478.00       18929.00       18380.00
       17836.00       17275.00       16709.00       16140.00       15564.00
       14993.00       14419.00       13837.00       13261.00       12695.00
       12114.00       11531.00       10951.00       10354.00       9763.000
       9179.000       8587.000       7996.000       7414.000       6830.000
       6241.000       5658.000       5088.000       4519.000       3935.000
       3361.000       2802.000       2232.000       1654.000       1084.000
       519.0000      -59.00000      -640.0000      -1212.000      -1794.000
      -2388.000      -2972.000      -3562.000      -4158.000      -4755.000
      -5351.000      -5947.000      -6549.000      -7142.000      -7739.000
      -8351.000      -8952.000      -9550.000      -10160.00      -10778.00
      -11383.00      -11984.00      -12601.00      -13217.00      -13826.00
      -14441.00      -15060.00      -15689.00      -16322.00      -16957.00
      -17598.00      -18239.00      -18876.00      -19508.00      -20149.00
      -20786.00      -21408.00      -22031.00      -22653.00      -23272.00
      -23893.00      -24518.00      -25145.00      -25753.00      -26359.00
      -26975.00      -27577.00      -28173.00      -28775.00      -29371.00
      -29966.00      -30565.00      -31159.00      -31749.00      -32343.00
      -32939.00      -33526.00      -34109.00      -34695.00      -35267.00
      -35840.00      -36416.00      -36981.00      -37544.00      -38104.00
      -38660.00      -39217.00      -39764.00      -40310.00      -40852.00
      -41386.00      -41932.00      -42471.00      -43005.00      -43540.00
      -44071.00      -44601.00      -45125.00      -45646.00      -46169.00
      -46693.00      -47212.00      -47733.00      -48256.00      -48777.00
      -49303.00      -49828.00      -50353.00      -50877.00      -51399.00
      -51921.00      -52436.00      -52948.00      -53457.00      -53961.00
      -54466.00      -54971.00      -55469.00      -55958.00      -56445.00
      -56927.00      -57407.00      -57888.00      -58354.00      -58827.00
      -59307.00      -59781.00      -60257.00      -60732.00      -61202.00
      -61664.00      -62127.00      -62590.00      -63043.00      -63484.00
      -63924.00      -64376.00      -64808.00      -65231.00      -65652.00
      -66061.00      -66467.00      -66863.00      -67249.00      -67641.00
      -68025.00      -68393.00      -68768.00      -69137.00      -69496.00
      -69863.00      -70216.00      -70567.00      -70920.00      -71259.00
      -71602.00      -71933.00      -72260.00      -72586.00      -72892.00
      -73202.00      -73504.00      -73793.00      -74086.00      -74378.00
      -74668.00      -74950.00      -75223.00      -75495.00      -75761.00
      -76019.00      -76266.00      -76503.00      -76743.00      -76968.00
      -77178.00      -77403.00      -77619.00      -77821.00      -78035.00
      -78246.00      -78453.00      -78656.00      -78857.00      -79053.00
      -79240.00      -79429.00      -79612.00      -79784.00      -79961.00
      -80143.00      -80315.00      -80480.00      -80647.00      -80820.00
      -80984.00      -81139.00      -81296.00      -81450.00      -81595.00
      -81735.00      -81872.00      -82009.00      -82142.00      -82271.00
      -82399.00      -82526.00      -82652.00      -82769.00      -82883.00
      -83008.00      -83129.00      -83239.00      -83362.00      -83488.00
      -83603.00      -83722.00      -83840.00      -83956.00      -84063.00
      -84169.00      -84284.00      -84390.00      -84493.00      -84601.00
      -84708.00      -84814.00      -84915.00      -85013.00      -85108.00
      -85194.00      -85272.00      -85350.00      -85414.00      -85477.00
      -85548.00      -85604.00      -85656.00      -85711.00      -85755.00
      -85794.00      -85827.00      -85848.00      -85867.00      -85872.00
      -85873.00      -85883.00      -85878.00      -85878.00      -85878.00
      -85858.00      -85849.00      -85833.00      -85801.00      -85777.00
      -85743.00      -85705.00      -85662.00      -85605.00      -85559.00
      -85514.00      -85461.00      -85408.00      -85358.00      -85316.00
      -85261.00      -85201.00      -85144.00      -85082.00      -85018.00
      -84945.00      -84871.00      -84798.00      -84713.00      -84621.00
      -84529.00      -84441.00      -84340.00      -84234.00      -84137.00
      -84024.00      -83898.00      -83774.00      -83651.00      -83530.00
      -83392.00      -83248.00      -83110.00      -82958.00      -82799.00
      -82633.00      -82459.00      -82283.00      -82100.00      -81913.00
      -81732.00      -81554.00      -81376.00      -81195.00      -81013.00
      -80835.00      -80649.00      -80462.00      -80281.00      -80093.00
      -79905.00      -79715.00      -79527.00      -79350.00      -79163.00
      -78976.00      -78790.00      -78600.00      -78410.00      -78206.00
      -78000.00      -77800.00      -77588.00      -77369.00      -77143.00
      -76913.00      -76689.00      -76464.00      -76235.00      -76008.00
      -75781.00      -75558.00      -75324.00      -75078.00      -74840.00
      -74597.00      -74342.00      -74100.00      -73860.00      -73617.00
      -73382.00      -73149.00      -72911.00      -72669.00      -72433.00
      -72197.00      -71951.00      -71711.00      -71472.00      -71233.00
      -70995.00      -70744.00      -70487.00      -70230.00      -69969.00
      -69704.00      -69431.00      -69154.00      -68884.00      -68613.00
      -68336.00      -68059.00      -67785.00      -67510.00      -67232.00
      -66955.00      -66668.00      -66381.00      -66109.00      -65828.00
      -65548.00      -65278.00      -65015.00      -64753.00      -64484.00
      -64224.00      -63960.00      -63686.00      -63417.00      -63136.00
      -62844.00      -62550.00      -62250.00      -61948.00      -61649.00
      -61347.00      -61040.00      -60740.00      -60429.00      -60105.00
      -59792.00      -59468.00      -59128.00      -58794.00      -58463.00
      -58123.00      -57778.00      -57439.00      -57106.00      -56764.00
      -56424.00      -56091.00      -55751.00      -55409.00      -55060.00
      -54707.00      -54363.00      -54013.00      -53659.00      -53307.00
      -52966.00      -52622.00      -52267.00      -51917.00      -51563.00
      -51208.00      -50861.00      -50513.00      -50163.00      -49811.00
      -49465.00      -49125.00      -48781.00      -48427.00      -48066.00
      -47724.00      -47374.00      -47012.00      -46671.00      -46320.00
      -45976.00      -45640.00      -45292.00      -44968.00      -44645.00
      -44310.00      -43981.00      -43648.00      -43313.00      -42970.00
      -42627.00      -42288.00      -41942.00      -41598.00      -41261.00
      -40915.00      -40554.00      -40198.00      -39834.00      -39460.00
      -39095.00      -38713.00      -38331.00      -37964.00      -37579.00
      -37195.00      -36817.00      -36431.00      -36055.00      -35676.00
      -35286.00      -34900.00      -34514.00      -34119.00      -33725.00
      -33331.00      -32927.00      -32525.00      -32130.00      -31725.00
      -31307.00      -30896.00      -30488.00      -30058.00      -29618.00
      -29186.00      -28747.00      -28296.00      -27849.00      -27414.00
      -26979.00      -26541.00      -26121.00      -25708.00      -25282.00
      -24860.00      -24449.00      -24035.00      -23618.00      -23213.00
      -22802.00      -22393.00      -22004.00      -21607.00      -21220.00
      -20845.00      -20465.00      -20095.00      -19727.00      -19369.00
      -19015.00      -18650.00      -18298.00      -17958.00      -17611.00
      -17264.00      -16931.00      -16602.00      -16259.00      -15934.00
      -15626.00      -15294.00      -14964.00      -14647.00      -14330.00
      -14002.00      -13666.00      -13351.00      -13040.00      -12718.00
      -12412.00      -12115.00      -11820.00      -11529.00      -11247.00
      -10973.00      -10691.00      -10411.00      -10133.00      -9851.000
      -9571.000      -9282.000      -8996.000      -8714.000      -8433.000
      -8155.000      -7871.000      -7589.000      -7315.000      -7049.000
      -6776.000      -6489.000      -6208.000      -5936.000      -5652.000
      -5360.000      -5079.000      -4804.000      -4523.000      -4248.000
      -3978.000      -3699.000      -3426.000      -3163.000      -2889.000
      -2610.000      -2340.000      -2063.000      -1778.000      -1496.000
      -1208.000      -912.0000      -610.0000      -314.0000      -11.00000
       310.0000       620.0000       925.0000       1254.000       1581.000
       1900.000       2227.000       2558.000       2896.000       3226.000
       3549.000       3880.000       4194.000       4499.000       4805.000
       5094.000       5383.000       5672.000       5944.000       6217.000
       6496.000       6768.000       7032.000       7301.000       7568.000
       7821.000       8068.000       8309.000       8547.000       8782.000
       9012.000       9248.000       9485.000       9714.000       9946.000
       10174.00       10396.00       10625.00       10844.00       11058.00
       11274.00       11478.00       11672.00       11855.00       12023.00
       12182.00       12338.00       12490.00       12628.00       12755.00
