     0.02500000      -12345.00      -12345.00   2.447790e+09      -12345.00
   0.0005360000       1859.976      -465.0195      -12345.00      -12345.00
      -12345.00      -12345.00      -12345.00      -12345.00      -12345.00
      -12345.00      -12345.00      -12345.00      -12345.00      -12345.00
      -12345.00      -12345.00      -12345.00      -12345.00      -12345.00
      -12345.00      -12345.00      -12345.00      -12345.00      -12345.00
      -12345.00      -21.15900       119.7313       190.0000       0.000000
      -42.72450       173.0647      -12345.00       22.00000      -12345.00
      -12345.00      -12345.00      -12345.00      -12345.00      -12345.00
      -12345.00      -12345.00      -12345.00      -12345.00      -12345.00
       5471.397       278.5350       128.6724       49.20764      -12345.00
      -12345.00      -12345.00       1.000000       90.00000      -12345.00
      -12345.00      -12345.00      -12345.00      -12345.00      -12345.00
      -12345.00      -12345.00      -12345.00      -12345.00      -12345.00
      2016       318        11        10        44
        19         6    -12345    -12345     74400
    -12345    -12345    -12345    -12345    -12345
         1    -12345    -12345    -12345    -12345
    -12345    -12345    -12345    -12345    -12345
    -12345    -12345    -12345    -12345    -12345
    -12345    -12345    -12345    -12345    -12345
         1    -12345    -12345    -12345    -12345
MBWA    South Island, Ne
10      -12345  -12345  
-12345  -12345  -12345  
-12345  -12345  -12345  
-12345  -12345  -12345  
-12345  -12345  -12345  
-12345  -12345  BH1     
IU      -12345  Streckei
[...]
       659956.0       673921.0       687844.0       701696.0       715480.0
       729204.0       742802.0       756355.0       769816.0       783157.0
       796497.0       809753.0       822888.0       835956.0       848929.0
       861802.0       874624.0       887360.0       899965.0       912508.0
       924982.0       937372.0       949642.0       961764.0       973839.0
       985827.0       997685.0       1009469.       1021139.       1032706.
       1044164.       1055495.       1066752.       1077895.       1088938.
       1099865.       1110651.       1121361.       1131932.       1142392.
       1152769.       1162987.       1173106.       1183110.       1192967.
       1202686.       1212272.       1221748.       1231097.       1240320.
       1249394.       1258358.       1267188.       1275882.       1284457.
       1292849.       1301153.       1309308.       1317266.       1325134.
       1332858.       1340425.       1347878.       1355193.       1362352.
       1369372.       1376229.       1382944.       1389517.       1395953.
       1402276.       1408392.       1414374.       1420254.       1425946.
       1431499.       1436891.       1442142.       1447263.       1452203.
       1456995.       1461677.       1466210.       1470513.       1474669.
       1478707.       1482566.       1486288.       1489806.       1493178.
       1496458.       1499535.       1502454.       1505208.       1507817.
       1510312.       1512639.       1514796.       1516785.       1518621.
       1520273.       1521785.       1523158.       1524361.       1525456.
       1526356.       1527088.       1527692.       1528114.       1528410.
       1528542.       1528522.       1528348.       1528009.       1527538.
       1526909.       1526136.       1525210.       1524150.       1522939.
       1521558.       1520030.       1518350.       1516535.       1514590.
       1512518.       1510257.       1507843.       1505332.       1502663.
       1499835.       1496861.       1493765.       1490545.       1487174.
       1483640.       1479972.       1476174.       1472224.       1468154.
       1463960.       1459615.       1455127.       1450520.       1445787.
       1440916.       1435887.       1430730.       1425457.       1420040.
       1414511.       1408839.       1402994.       1397069.       1391021.
       1384793.       1378448.       1371963.       1365347.       1358621.
       1351745.       1344735.       1337662.       1330452.       1323075.
       1315642.       1308062.       1300360.       1292580.       1284665.
       1276670.       1268566.       1260321.       1251988.       1243560.
       1235011.       1226406.       1217690.       1208877.       1199992.
       1190970.       1181921.       1172754.       1163422.       1154047.
       1144555.       1134985.       1125343.       1115560.       1105714.
       1095753.       1085693.       1075604.       1065377.       1055038.
       1044667.       1034189.       1023631.       1012990.       1002230.
       991439.0       980561.0       969612.0       958645.0       947554.0
       936391.0       925211.0       913922.0       902567.0       891174.0
       879682.0       868158.0       856556.0       844843.0       833125.0
       821365.0       809480.0       797546.0       785622.0       773607.0
       761553.0       749478.0       737312.0       725129.0       712887.0
       700584.0       688289.0       675947.0       663583.0       651175.0
       638695.0       626198.0       613658.0       601120.0       588565.0
       575923.0       563294.0       550658.0       537963.0       525257.0
       512495.0       499695.0       486898.0       474100.0       461312.0
       448493.0       435643.0       422777.0       409924.0       397071.0
       384194.0       371332.0       358447.0       345542.0       332657.0
       319777.0       306868.0       293913.0       280973.0       268052.0
       255081.0       242128.0       229192.0       216236.0       203343.0
       190433.0       177506.0       164628.0       151704.0       138801.0
       125972.0       113109.0       100272.0       87478.00       74643.00
       61811.00       49009.00       36217.00       23463.00       10740.00
      -1988.000      -14682.00      -27380.00      -40053.00      -52634.00
      -65218.00      -77800.00      -90340.00      -102842.0      -115344.0
      -127823.0      -140241.0      -152653.0      -165052.0      -177439.0
      -189794.0      -202087.0      -214363.0      -226625.0      -238830.0
      -250981.0      -263101.0      -275217.0      -287295.0      -299288.0
      -311245.0      -323204.0      -335100.0      -346947.0      -358782.0
      -370563.0      -382295.0      -393965.0      -405609.0      -417210.0
      -428730.0      -440209.0      -451628.0      -462986.0      -474306.0
      -485573.0      -496778.0      -507902.0      -518959.0      -530005.0
      -541014.0      -551949.0      -562821.0      -573620.0      -584351.0
      -595083.0      -605759.0      -616345.0      -626915.0      -637381.0
      -647794.0      -658192.0      -668485.0      -678745.0      -688973.0
      -699093.0      -709143.0      -719132.0      -729040.0      -738904.0
      -748697.0      -758454.0      -768150.0      -777716.0      -787227.0
      -796703.0      -806118.0      -815442.0      -824689.0      -833898.0
      -843014.0      -852030.0      -861000.0      -869870.0      -878692.0
      -887457.0      -896127.0      -904743.0      -913262.0      -921709.0
      -930087.0      -938402.0      -946650.0      -954800.0      -962883.0
      -970912.0      -978862.0      -986737.0      -994518.0      -1002179.
      -1009815.      -1017399.      -1024864.      -1032263.      -1039600.
      -1046815.      -1053960.      -1061087.      -1068082.      -1074980.
      -1081832.      -1088561.      -1095220.      -1101825.      -1108288.
      -1114691.      -1121032.      -1127226.      -1133367.      -1139450.
      -1145435.      -1151340.      -1157149.      -1162885.      -1168537.
      -1174081.      -1179574.      -1185000.      -1190334.      -1195595.
      -1200748.      -1205817.      -1210833.      -1215745.      -1220573.
      -1225308.      -1229936.      -1234528.      -1238999.      -1243347.
      -1247661.      -1251862.      -1255978.      -1260045.      -1264001.
      -1267883.      -1271706.      -1275427.      -1279066.      -1282648.
      -1286138.      -1289531.      -1292851.      -1296088.      -1299237.
      -1302278.      -1305246.      -1308149.      -1310962.      -1313699.
      -1316312.      -1318846.      -1321308.      -1323672.      -1325960.
      -1328154.      -1330282.      -1332301.      -1334246.      -1336117.
      -1337882.      -1339592.      -1341174.      -1342645.      -1344071.
      -1345390.      -1346647.      -1347838.      -1348876.      -1349860.
      -1350771.      -1351527.      -1352233.      -1352855.      -1353386.
      -1353908.      -1354287.      -1354564.      -1354797.      -1354929.
      -1355026.      -1355009.      -1354904.      -1354721.      -1354464.
      -1354167.      -1353740.      -1353259.      -1352717.      -1352051.
      -1351315.      -1350496.      -1349576.      -1348576.      -1347482.
      -1346313.      -1345072.      -1343729.      -1342297.      -1340794.
      -1339231.      -1337578.      -1335838.      -1333981.      -1332047.
      -1330060.      -1327985.      -1325849.      -1323591.      -1321237.
      -1318852.      -1316393.      -1313817.      -1311181.      -1308483.
      -1305657.      -1302786.      -1299862.      -1296834.      -1293751.
      -1290585.      -1287314.      -1283971.      -1280525.      -1276995.
      -1273420.      -1269766.      -1266039.      -1262235.      -1258318.
      -1254321.      -1250253.      -1246138.      -1241952.      -1237666.
      -1233319.      -1228910.      -1224468.      -1219934.      -1215311.
      -1210627.      -1205861.      -1201027.      -1196143.      -1191195.
      -1186113.      -1180949.      -1175753.      -1170485.      -1165127.
      -1159672.      -1154143.      -1148567.      -1142906.      -1137152.
      -1131345.      -1125453.      -1119479.      -1113464.      -1107371.
      -1101192.      -1094958.      -1088630.      -1082250.      -1075791.
      -1069223.      -1062597.      -1055898.      -1049137.      -1042311.
      -1035406.      -1028401.      -1021319.      -1014165.      -1006913.
      -999604.0      -992246.0      -984801.0      -977282.0      -969696.0
      -962050.0      -954321.0      -946511.0      -938674.0      -930715.0
      -922719.0      -914696.0      -906513.0      -898289.0      -890012.0
      -881627.0      -873187.0      -864655.0      -856057.0      -847433.0
      -838709.0      -829927.0      -821100.0      -812151.0      -803166.0
      -794139.0      -785005.0      -775820.0      -766569.0      -757224.0
      -747814.0      -738332.0      -728764.0      -719125.0      -709413.0
      -699650.0      -689827.0      -679906.0      -669912.0      -659893.0
      -649801.0      -639615.0      -629376.0      -619063.0      -608715.0
      -598315.0      -587835.0      -577329.0      -566755.0      -556062.0
      -545317.0      -534540.0      -523662.0      -512731.0      -501770.0
      -490723.0      -479603.0      -468435.0      -457204.0      -445902.0
      -434539.0      -423123.0      -411661.0      -400142.0      -388549.0
      -376902.0      -365212.0      -353476.0      -341699.0      -329885.0
      -318035.0      -306122.0      -294160.0      -282149.0      -270064.0
      -257948.0      -245783.0      -233583.0      -221346.0      -209076.0
      -196789.0      -184436.0      -172050.0      -159615.0      -147137.0
      -134638.0      -122077.0      -109513.0      -96963.00      -84338.00
      -71651.00      -58961.00      -46256.00      -33503.00      -20716.00
      -7929.000       4873.000       17726.00       30611.00       43495.00
       56404.00       69361.00       82312.00       95274.00       108275.0
       121282.0       134325.0       147354.0       160378.0       173458.0
       186511.0       199578.0       212700.0       225814.0       238929.0
       252053.0       265167.0       278279.0       291407.0       304547.0
       317679.0       330825.0       343961.0       357056.0       370178.0
       383289.0       396397.0       409526.0       422592.0       435675.0
       448758.0       461821.0       474887.0       487887.0       500918.0
       513939.0       526889.0       539849.0       552752.0       565649.0
       578541.0       591368.0       604238.0       617076.0       629808.0
       642538.0       655250.0       667914.0       680580.0       693184.0
       705719.0       718230.0       730683.0       743091.0       755467.0
       767806.0       780087.0       792334.0       804540.0       816671.0
       828759.0       840809.0       852804.0       864710.0       876555.0
       888357.0       900056.0       911714.0       923327.0       934875.0
       946370.0       957774.0       969129.0       980440.0       991683.0
       1002844.       1013946.       1024983.       1035945.       1046886.
       1057768.       1068536.       1079209.       1089831.       1100406.
       1110900.       1121295.       1131630.       1141905.       1152062.
       1162154.       1172211.       1182162.       1192022.       1201785.
       1211498.       1221171.       1230660.       1240072.       1249450.
       1258710.       1267895.       1276958.       1285944.       1294857.
       1303650.       1312386.       1321003.       1329501.       1337937.
       1346286.       1354534.       1362652.       1370664.       1378604.
       1386440.       1394169.       1401786.       1409311.       1416737.
       1424048.       1431285.       1438424.       1445438.       1452354.
       1459176.       1465897.       1472514.       1479032.       1485450.
       1491744.       1497921.       1503975.       1509881.       1515703.
       1521420.       1527029.       1532570.       1537953.       1543207.
       1548353.       1553397.       1558354.       1563173.       1567903.
       1572505.       1576959.       1581317.       1585561.       1589715.
       1593709.       1597591.       1601398.       1605027.       1608571.
       1611997.       1615268.       1618456.       1621486.       1624398.
       1627176.       1629821.       1632376.       1634766.       1637035.
       1639190.       1641211.       1643123.       1644895.       1646538.
       1648069.       1649428.       1650608.       1651703.       1652640.
       1653411.       1654118.       1654633.       1655000.       1655297.
       1655410.       1655404.       1655270.       1654981.       1654572.
       1654025.       1653327.       1652446.       1651443.       1650330.
       1649060.       1647646.       1646083.       1644366.       1642548.
       1640576.       1638437.       1636189.       1633740.       1631128.
       1628448.       1625641.       1622655.       1619513.       1616222.
       1612761.       1609173.       1605399.       1601456.       1597423.
       1593211.       1588809.       1584281.       1579564.       1574681.
       1569695.       1564567.       1559287.       1553835.       1548219.
       1542430.       1536500.       1530463.       1524233.       1517838.
       1511340.       1504684.       1497848.       1490878.       1483733.
       1476458.       1469077.       1461501.       1453808.       1445982.
       1437947.       1429793.       1421527.       1413095.       1404524.
       1395794.       1386889.       1377872.       1368741.       1359436.
       1349996.       1340457.       1330769.       1320940.       1310962.
       1300865.       1290670.       1280261.       1269735.       1259126.
       1248319.       1237438.       1226452.       1215304.       1204046.
       1192607.       1181061.       1169432.       1157675.       1145801.
       1133768.       1121673.       1109464.       1097055.       1084612.
       1072072.       1059348.       1046570.       1033672.       1020631.
       1007570.       994380.0       981029.0       967673.0       954214.0
       940602.0       926943.0       913167.0       899298.0       885379.0
       871352.0       857247.0       843082.0       828802.0       814437.0
       800021.0       785509.0       770934.0       756316.0       741601.0
       726800.0       711952.0       697039.0       682082.0       667060.0
       651958.0       636838.0       621634.0       606334.0       591024.0
       575644.0       560202.0       544760.0       529255.0       513691.0
       498126.0       482509.0       466828.0       451134.0       435396.0
       419629.0       403867.0       388064.0       372188.0       356268.0
       340361.0       324425.0       308450.0       292472.0       276472.0
       260417.0       244312.0       228217.0       212122.0       196017.0
       179925.0       163820.0       147661.0       131522.0       115414.0
       99258.00       83146.00       67045.00       50933.00       34853.00
       18733.00       2643.000      -13411.00      -29478.00      -45521.00
      -61564.00      -77591.00      -93558.00      -109527.0      -125489.0
      -141440.0      -157372.0      -173248.0      -189126.0      -204993.0
      -220823.0      -236616.0      -252386.0      -268121.0      -283804.0
      -299446.0      -315087.0      -330710.0      -346257.0      -361777.0
      -377277.0      -392726.0      -408132.0      -423512.0      -438839.0
      -454139.0      -469370.0      -484508.0      -499620.0      -514664.0
      -529692.0      -544658.0      -559546.0      -574408.0      -589163.0
      -603884.0      -618583.0      -633174.0      -647718.0      -662227.0
      -676628.0      -690958.0      -705230.0      -719427.0      -733572.0
      -747642.0      -761657.0      -775596.0      -789420.0      -803179.0
      -816868.0      -830493.0      -844035.0      -857451.0      -870822.0
      -884114.0      -897281.0      -910408.0      -923453.0      -936379.0
      -949233.0      -961971.0      -974634.0      -987225.0      -999662.0
      -1012056.      -1024340.      -1036495.      -1048620.      -1060578.
      -1072443.      -1084268.      -1095915.      -1107448.      -1118913.
      -1130230.      -1141501.      -1152699.      -1163701.      -1174630.
      -1185449.      -1196157.      -1206779.      -1217216.      -1227557.
      -1237821.      -1247926.      -1257918.      -1267800.      -1277543.
      -1287212.      -1296749.      -1306130.      -1315412.      -1324553.
      -1333540.      -1342386.      -1351133.      -1359775.      -1368268.
      -1376633.      -1384864.      -1392927.      -1400872.      -1408685.
      -1416340.      -1423885.      -1431298.      -1438585.      -1445721.
      -1452678.      -1459503.      -1466226.      -1472813.      -1479252.
      -1485569.      -1491697.      -1497668.      -1503527.      -1509224.
      -1514809.      -1520245.      -1525484.      -1530629.      -1535626.
      -1540442.      -1545136.      -1549640.      -1553986.      -1558247.
      -1562307.      -1566197.      -1569974.      -1573522.      -1576925.
      -1580216.      -1583309.      -1586260.      -1589059.      -1591686.
      -1594172.      -1596490.      -1598649.      -1600671.      -1602503.
      -1604177.      -1605712.      -1607064.      -1608281.      -1609316.
      -1610160.      -1610910.      -1611476.      -1611859.      -1612135.
      -1612235.      -1612189.      -1612009.      -1611637.      -1611093.
      -1610407.      -1609602.      -1608671.      -1607554.      -1606258.
      -1604849.      -1603308.      -1601598.      -1599717.      -1597701.
      -1595533.      -1593191.      -1590737.      -1588115.      -1585345.
      -1582456.      -1579396.      -1576225.      -1572911.      -1569411.
      -1565774.      -1562006.      -1558078.      -1554016.      -1549835.
      -1545484.      -1540988.      -1536389.      -1531637.      -1526727.
      -1521671.      -1516481.      -1511188.      -1505774.      -1500214.
      -1494471.      -1488609.      -1482642.      -1476546.      -1470340.
