     0.02500000      -12345.00      -12345.00   1.974680e+09      -12345.00
   0.0005380000       1859.976      -465.0196      -12345.00      -12345.00
      -12345.00      -12345.00      -12345.00      -12345.00      -12345.00
      -12345.00      -12345.00      -12345.00      -12345.00      -12345.00
      -12345.00      -12345.00      -12345.00      -12345.00      -12345.00
      -12345.00      -12345.00      -12345.00      -12345.00      -12345.00
      -12345.00      -21.15900       119.7313       182.0000       8.000000
      -42.72450       173.0647      -12345.00       22.00000      -12345.00
      -12345.00      -12345.00      -12345.00      -12345.00      -12345.00
      -12345.00      -12345.00      -12345.00      -12345.00      -12345.00
       5471.397       278.5350       128.6724       49.20764      -12345.00
      -12345.00      -12345.00       352.0000       90.00000      -12345.00
      -12345.00      -12345.00      -12345.00      -12345.00      -12345.00
      -12345.00      -12345.00      -12345.00      -12345.00      -12345.00
      2016       318        11        10        44
        19         6    -12345    -12345     74400
    -12345    -12345    -12345    -12345    -12345
         1    -12345    -12345    -12345    -12345
    -12345    -12345    -12345    -12345    -12345
    -12345    -12345    -12345    -12345    -12345
    -12345    -12345    -12345    -12345    -12345
         1    -12345    -12345    -12345    -12345
MBWA    South Island, Ne
00      -12345  -12345  
-12345  -12345  -12345  
-12345  -12345  -12345  
-12345  -12345  -12345  
-12345  -12345  -12345  
-12345  -12345  BH1     
IU      -12345  T120 pos
[...]
       533942.0       547053.0       560129.0       573119.0       586058.0
       598964.0       611794.0       624573.0       637289.0       649925.0
       662488.0       674976.0       687421.0       699795.0       712103.0
       724340.0       736480.0       748568.0       760546.0       772447.0
       784329.0       796108.0       807794.0       819410.0       830932.0
       842374.0       853753.0       865040.0       876223.0       887339.0
       898379.0       909345.0       920195.0       930920.0       941595.0
       952169.0       962637.0       973036.0       983316.0       993505.0
       1003591.       1013559.       1023456.       1033243.       1042933.
       1052518.       1061981.       1071356.       1080605.       1089762.
       1098821.       1107747.       1116583.       1125305.       1133891.
       1142353.       1150705.       1158947.       1167072.       1175076.
       1182947.       1190716.       1198362.       1205892.       1213292.
       1220556.       1227729.       1234745.       1241618.       1248387.
       1255020.       1261524.       1267917.       1274183.       1280315.
       1286320.       1292181.       1297915.       1303510.       1308995.
       1314363.       1319553.       1324626.       1329586.       1334399.
       1339073.       1343603.       1348015.       1352292.       1356424.
       1360420.       1364304.       1368052.       1371600.       1375026.
       1378332.       1381482.       1384505.       1387350.       1390071.
       1392690.       1395138.       1397445.       1399614.       1401653.
       1403573.       1405354.       1406984.       1408464.       1409805.
       1410989.       1412050.       1412976.       1413766.       1414445.
       1414942.       1415314.       1415558.       1415644.       1415615.
       1415431.       1415114.       1414660.       1414067.       1413349.
       1412491.       1411501.       1410370.       1409124.       1407737.
       1406203.       1404542.       1402738.       1400818.       1398784.
       1396619.       1394296.       1391848.       1389296.       1386605.
       1383771.       1380805.       1377733.       1374545.       1371219.
       1367754.       1364167.       1360462.       1356627.       1352681.
       1348624.       1344432.       1340112.       1335684.       1331139.
       1326465.       1321652.       1316735.       1311696.       1306531.
       1301274.       1295865.       1290325.       1284709.       1278959.
       1273073.       1267073.       1260947.       1254712.       1248363.
       1241887.       1235309.       1228655.       1221867.       1214949.
       1207967.       1200853.       1193642.       1186346.       1178933.
       1171445.       1163849.       1156134.       1148335.       1140439.
       1132445.       1124390.       1116229.       1107987.       1099668.
       1091236.       1082766.       1074176.       1065465.       1056701.
       1047833.       1038895.       1029873.       1020740.       1011537.
       1002226.       992844.0       983412.0       973861.0       964224.0
       954535.0       944758.0       934906.0       924972.0       914953.0
       904883.0       894737.0       884543.0       874298.0       863956.0
       853560.0       843119.0       832598.0       822020.0       811383.0
       800675.0       789929.0       779099.0       768192.0       757276.0
       746297.0       735212.0       724098.0       712972.0       701765.0
       690529.0       679257.0       667909.0       656537.0       645110.0
       633639.0       622154.0       610631.0       599077.0       587473.0
       575817.0       564126.0       552407.0       540692.0       528937.0
       517126.0       505314.0       493479.0       481607.0       469710.0
       457767.0       445799.0       433818.0       421835.0       409849.0
       397827.0       385783.0       373722.0       361668.0       349612.0
       337528.0       325451.0       313355.0       301239.0       289138.0
       277031.0       264894.0       252725.0       240569.0       228416.0
       216222.0       204044.0       191870.0       179692.0       167551.0
       155392.0       143233.0       131090.0       118917.0       106771.0
       94667.00       82546.00       70447.00       58373.00       46265.00
       34163.00       22090.00       10017.00      -2027.000      -14043.00
      -26066.00      -38065.00      -50062.00      -62025.00      -73923.00
      -85823.00      -97715.00      -109578.0      -121410.0      -133241.0
      -145042.0      -156798.0      -168557.0      -180299.0      -192027.0
      -203724.0      -215368.0      -227005.0      -238627.0      -250195.0
      -261723.0      -273220.0      -284705.0      -296151.0      -307528.0
      -318890.0      -330234.0      -341519.0      -352777.0      -364009.0
      -375193.0      -386334.0      -397425.0      -408496.0      -419515.0
      -430465.0      -441379.0      -452238.0      -463047.0      -473814.0
      -484536.0      -495202.0      -505790.0      -516332.0      -526855.0
      -537332.0      -547747.0      -558101.0      -568398.0      -578636.0
      -588855.0      -599024.0      -609118.0      -619177.0      -629153.0
      -639089.0      -648993.0      -658809.0      -668601.0      -678346.0
      -687988.0      -697577.0      -707098.0      -716545.0      -725956.0
      -735297.0      -744599.0      -753832.0      -762957.0      -772039.0
      -781076.0      -790045.0      -798936.0      -807755.0      -816535.0
      -825218.0      -833818.0      -842379.0      -850834.0      -859249.0
      -867601.0      -875862.0      -884075.0      -892192.0      -900249.0
      -908240.0      -916157.0      -924017.0      -931784.0      -939483.0
      -947130.0      -954692.0      -962187.0      -969579.0      -976868.0
      -984140.0      -991332.0      -998427.0      -1005461.      -1012411.
      -1019260.      -1026045.      -1032784.      -1039411.      -1045949.
      -1052425.      -1058795.      -1065095.      -1071328.      -1077439.
      -1083492.      -1089462.      -1095312.      -1101109.      -1106831.
      -1112466.      -1118015.      -1123474.      -1128861.      -1134156.
      -1139360.      -1144498.      -1149566.      -1154551.      -1159451.
      -1164252.      -1168974.      -1173631.      -1178190.      -1182667.
      -1187046.      -1191331.      -1195562.      -1199673.      -1203688.
      -1207645.      -1211493.      -1215263.      -1218959.      -1222563.
      -1226092.      -1229546.      -1232911.      -1236191.      -1239401.
      -1242520.      -1245546.      -1248499.      -1251368.      -1254140.
      -1256811.      -1259416.      -1261938.      -1264376.      -1266734.
      -1268964.      -1271127.      -1273207.      -1275189.      -1277099.
      -1278914.      -1280646.      -1282281.      -1283833.      -1285302.
      -1286687.      -1287993.      -1289181.      -1290275.      -1291293.
      -1292221.      -1293082.      -1293851.      -1294499.      -1295079.
      -1295569.      -1295933.      -1296236.      -1296447.      -1296580.
      -1296672.      -1296631.      -1296504.      -1296306.      -1296017.
      -1295678.      -1295227.      -1294695.      -1294081.      -1293398.
      -1292646.      -1291779.      -1290858.      -1289850.      -1288742.
      -1287561.      -1286284.      -1284912.      -1283451.      -1281898.
      -1280273.      -1278562.      -1276751.      -1274859.      -1272896.
      -1270857.      -1268732.      -1266509.      -1264178.      -1261784.
      -1259310.      -1256761.      -1254135.      -1251383.      -1248558.
      -1245677.      -1242718.      -1239658.      -1236530.      -1233326.
      -1230010.      -1226639.      -1223206.      -1219675.      -1216084.
      -1212408.      -1208630.      -1204779.      -1200830.      -1196801.
      -1192714.      -1188547.      -1184311.      -1179988.      -1175566.
      -1171064.      -1166490.      -1161869.      -1157158.      -1152366.
      -1147510.      -1142584.      -1137611.      -1132548.      -1127408.
      -1122198.      -1116907.      -1111552.      -1106146.      -1100655.
      -1095051.      -1089386.      -1083663.      -1077872.      -1071991.
      -1066022.      -1059991.      -1053898.      -1047726.      -1041473.
      -1035158.      -1028763.      -1022289.      -1015772.      -1009172.
      -1002494.      -995763.0      -988943.0      -982070.0      -975119.0
      -968073.0      -960965.0      -953797.0      -946566.0      -939271.0
      -931903.0      -924440.0      -916908.0      -909308.0      -901623.0
      -893886.0      -886095.0      -878226.0      -870286.0      -862287.0
      -854234.0      -846100.0      -837906.0      -829667.0      -821330.0
      -812968.0      -804550.0      -796014.0      -787440.0      -778808.0
      -770096.0      -761329.0      -752483.0      -743581.0      -734650.0
      -725637.0      -716576.0      -707458.0      -698245.0      -689009.0
      -679715.0      -670348.0      -660937.0      -651457.0      -641912.0
      -632306.0      -622644.0      -612911.0      -603113.0      -593273.0
      -583379.0      -573433.0      -563410.0      -553328.0      -543231.0
      -533070.0      -522837.0      -512559.0      -502222.0      -491852.0
      -481439.0      -470969.0      -460476.0      -449919.0      -439274.0
      -428604.0      -417887.0      -407093.0      -396267.0      -385405.0
      -374489.0      -363520.0      -352513.0      -341459.0      -330350.0
      -319198.0      -308005.0      -296783.0      -285519.0      -274198.0
      -262844.0      -251457.0      -240038.0      -228591.0      -217117.0
      -205620.0      -194075.0      -182502.0      -170892.0      -159226.0
      -147551.0      -135841.0      -124104.0      -112355.0      -100588.0
      -88803.00      -76981.00      -65134.00      -53249.00      -41346.00
      -29428.00      -17473.00      -5539.000       6397.000       18395.00
       30413.00       42425.00       54449.00       66499.00       78562.00
       90617.00       102684.0       114780.0       126879.0       138971.0
       151082.0       163207.0       175323.0       187451.0       199577.0
       211708.0       223855.0       235971.0       248092.0       260225.0
       272326.0       284444.0       296575.0       308694.0       320803.0
       332895.0       344977.0       357043.0       369108.0       381170.0
       393204.0       405247.0       417262.0       429233.0       441217.0
       453171.0       465117.0       477054.0       488933.0       500811.0
       512671.0       524507.0       536315.0       548067.0       559826.0
       571546.0       583214.0       594868.0       606461.0       618036.0
       629578.0       641071.0       652581.0       664031.0       675395.0
       686743.0       698048.0       709314.0       720552.0       731714.0
       742822.0       753881.0       764876.0       775826.0       786735.0
       797584.0       808366.0       819113.0       829803.0       840422.0
       850989.0       861507.0       871955.0       882312.0       892613.0
       902843.0       912989.0       923090.0       933117.0       943085.0
       952983.0       962789.0       972550.0       982252.0       991873.0
       1001413.       1010887.       1020290.       1029621.       1038912.
       1048133.       1057241.       1066264.       1075230.       1084127.
       1092943.       1101666.       1110318.       1118898.       1127371.
       1135781.       1144128.       1152372.       1160534.       1168596.
       1176603.       1184540.       1192316.       1200032.       1207680.
       1215215.       1222676.       1230026.       1237289.       1244468.
       1251547.       1258549.       1265443.       1272229.       1278938.
       1285566.       1292088.       1298490.       1304801.       1311025.
       1317152.       1323169.       1329075.       1334905.       1340627.
       1346239.       1351782.       1357216.       1362540.       1367778.
       1372909.       1377935.       1382873.       1387710.       1392443.
       1397068.       1401579.       1405972.       1410235.       1414410.
       1418482.       1422464.       1426363.       1430124.       1433764.
       1437294.       1440739.       1444083.       1447310.       1450450.
       1453461.       1456353.       1459148.       1461839.       1464436.
       1466887.       1469248.       1471523.       1473641.       1475680.
       1477600.       1479385.       1481088.       1482657.       1484104.
       1485444.       1486666.       1487788.       1488783.       1489650.
       1490418.       1491081.       1491626.       1492056.       1492365.
       1492562.       1492614.       1492520.       1492340.       1492012.
       1491554.       1491016.       1490308.       1489494.       1488598.
       1487544.       1486384.       1485105.       1483695.       1482176.
       1480536.       1478753.       1476826.       1474793.       1472653.
       1470377.       1467976.       1465446.       1462787.       1460037.
       1457145.       1454118.       1450982.       1447680.       1444259.
       1440759.       1437153.       1433392.       1429500.       1425481.
       1421313.       1417038.       1412601.       1408037.       1403391.
       1398575.       1393619.       1388550.       1383316.       1377958.
       1372508.       1366936.       1361227.       1355375.       1349393.
       1343271.       1337037.       1330694.       1324194.       1317570.
       1310847.       1303989.       1296992.       1289871.       1282618.
       1275269.       1267806.       1260198.       1252492.       1244659.
       1236673.       1228584.       1220402.       1212088.       1203643.
       1195074.       1186367.       1177567.       1168670.       1159621.
       1150479.       1141251.       1131889.       1122427.       1112840.
       1103160.       1093390.       1083449.       1073429.       1063325.
       1053067.       1042756.       1032350.       1021810.       1011178.
       1000409.       989558.0       978634.0       967609.0       956479.0
       945237.0       933945.0       922537.0       910995.0       899429.0
       887760.0       875968.0       864123.0       852171.0       840132.0
       828061.0       815877.0       803589.0       791292.0       778899.0
       766399.0       753853.0       741215.0       728516.0       715767.0
       702936.0       690048.0       677103.0       664067.0       650970.0
       637830.0       624617.0       611364.0       598072.0       584695.0
       571257.0       557788.0       544268.0       530714.0       517110.0
       503453.0       489775.0       476025.0       462215.0       448394.0
       434520.0       420611.0       406694.0       392726.0       378721.0
       364717.0       350670.0       336584.0       322492.0       308366.0
       294230.0       280089.0       265912.0       251686.0       237440.0
       223203.0       208941.0       194663.0       180383.0       166088.0
       151747.0       137380.0       123038.0       108685.0       94336.00
       80003.00       65654.00       51282.00       36935.00       22605.00
       8251.000      -6059.000      -20362.00      -34659.00      -48931.00
      -63222.00      -77478.00      -91714.00      -105949.0      -120158.0
      -134365.0      -148537.0      -162662.0      -176790.0      -190893.0
      -204984.0      -219046.0      -233059.0      -247074.0      -261061.0
      -275012.0      -288928.0      -302809.0      -316660.0      -330465.0
      -344225.0      -357986.0      -371706.0      -385367.0      -399007.0
      -412605.0      -426166.0      -439680.0      -453155.0      -466592.0
      -479986.0      -493310.0      -506569.0      -519781.0      -532939.0
      -546072.0      -559135.0      -572146.0      -585111.0      -597987.0
      -610834.0      -623635.0      -636342.0      -649008.0      -661627.0
      -674146.0      -686610.0      -699009.0      -711338.0      -723611.0
      -735807.0      -747959.0      -760029.0      -771995.0      -783908.0
      -795746.0      -807519.0      -819211.0      -830805.0      -842349.0
      -853807.0      -865164.0      -876476.0      -887704.0      -898823.0
      -909871.0      -920818.0      -931696.0      -942495.0      -953172.0
      -963792.0      -974305.0      -984719.0      -995077.0      -1005300.
      -1015445.      -1025521.      -1035455.      -1045294.      -1055046.
      -1064683.      -1074276.      -1083769.      -1093112.      -1102385.
      -1111547.      -1120617.      -1129587.      -1138403.      -1147139.
      -1155790.      -1164297.      -1172704.      -1181008.      -1189192.
      -1197301.      -1205278.      -1213125.      -1220881.      -1228506.
      -1235990.      -1243356.      -1250635.      -1257797.      -1264836.
      -1271770.      -1278563.      -1285215.      -1291761.      -1298175.
      -1304469.      -1310648.      -1316706.      -1322656.      -1328453.
      -1334113.      -1339658.      -1345091.      -1350414.      -1355597.
      -1360664.      -1365572.      -1370338.      -1375004.      -1379531.
      -1383951.      -1388229.      -1392348.      -1396371.      -1400251.
      -1403984.      -1407597.      -1411052.      -1414376.      -1417603.
      -1420658.      -1423573.      -1426368.      -1428968.      -1431453.
      -1433826.      -1436026.      -1438103.      -1440042.      -1441830.
      -1443486.      -1444995.      -1446372.      -1447617.      -1448695.
      -1449639.      -1450454.      -1451116.      -1451654.      -1452025.
      -1452242.      -1452366.      -1452323.      -1452133.      -1451835.
      -1451381.      -1450805.      -1450099.      -1449227.      -1448212.
      -1447073.      -1445826.      -1444449.      -1442914.      -1441240.
      -1439454.      -1437544.      -1435492.      -1433284.      -1430959.
      -1428497.      -1425885.      -1423173.      -1420305.      -1417318.
      -1414218.      -1410968.      -1407620.      -1404135.      -1400494.
      -1396733.      -1392848.      -1388831.      -1384694.      -1380439.
      -1376039.      -1371520.      -1366894.      -1362131.      -1357232.
