     0.05000000      -12345.00      -12345.00   4.643060e+09      -12345.00
   0.0005380000       1859.951      -695.0195      -12345.00      -12345.00
      -12345.00      -12345.00      -12345.00      -12345.00      -12345.00
      -12345.00      -12345.00      -12345.00      -12345.00      -12345.00
      -12345.00      -12345.00      -12345.00      -12345.00      -12345.00
      -12345.00      -12345.00      -12345.00      -12345.00      -12345.00
      -12345.00       36.54567       138.2041       405.0000       0.000000
      -42.72450       173.0647      -12345.00       22.00000      -12345.00
      -12345.00      -12345.00      -12345.00      -12345.00      -12345.00
      -12345.00      -12345.00      -12345.00      -12345.00      -12345.00
       9457.736       332.4834       154.9907       85.05923      -12345.00
      -12345.00      -12345.00       357.0000       90.00000      -12345.00
      -12345.00      -12345.00      -12345.00      -12345.00      -12345.00
      -12345.00      -12345.00      -12345.00      -12345.00      -12345.00
      2016       318        11        14        34
        19         6    -12345    -12345     37200
    -12345    -12345    -12345    -12345    -12345
         1    -12345    -12345    -12345    -12345
    -12345    -12345    -12345    -12345    -12345
    -12345    -12345    -12345    -12345    -12345
    -12345    -12345    -12345    -12345    -12345
         1    -12345    -12345    -12345    -12345
MAJO    South Island, Ne
00      -12345  -12345  
-12345  -12345  -12345  
-12345  -12345  -12345  
-12345  -12345  -12345  
-12345  -12345  -12345  
-12345  -12345  BH1     
IU      -12345  Streckei
[...]
       73200.00       74927.00       76646.00       78348.00       80016.00
       81706.00       83435.00       85174.00       86975.00       88786.00
       90646.00       92459.00       94257.00       96120.00       97973.00
       99900.00       101849.0       103753.0       105645.0       107546.0
       109447.0       111380.0       113378.0       115367.0       117331.0
       119299.0       121277.0       123259.0       125261.0       127241.0
       129197.0       131147.0       133100.0       135091.0       137093.0
       139115.0       141140.0       143093.0       145037.0       147017.0
       148999.0       151049.0       153045.0       155005.0       156989.0
       158936.0       160971.0       163018.0       165082.0       167132.0
       169184.0       171290.0       173370.0       175494.0       177606.0
       179802.0       182086.0       184364.0       186660.0       188946.0
       191241.0       193554.0       195889.0       198280.0       200760.0
       203207.0       205621.0       208042.0       210481.0       213020.0
       215572.0       218179.0       220832.0       223484.0       226180.0
       228899.0       231630.0       234384.0       237204.0       240023.0
       242885.0       245783.0       248662.0       251578.0       254500.0
       257473.0       260468.0       263484.0       266529.0       269508.0
       272481.0       275472.0       278488.0       281562.0       284604.0
       287616.0       290671.0       293681.0       296656.0       299662.0
       302681.0       305687.0       308704.0       311720.0       314724.0
       317755.0       320755.0       323753.0       326741.0       329726.0
       332722.0       335712.0       338681.0       341580.0       344444.0
       347285.0       350146.0       353008.0       355862.0       358690.0
       361412.0       364102.0       366787.0       369507.0       372234.0
       374891.0       377503.0       380037.0       382537.0       385023.0
       387477.0       389945.0       392378.0       394726.0       397062.0
       399383.0       401717.0       404070.0       406356.0       408643.0
       410852.0       413007.0       415193.0       417298.0       419434.0
       421515.0       423474.0       425401.0       427237.0       429034.0
       430784.0       432448.0       434065.0       435620.0       437109.0
       438563.0       439940.0       441258.0       442544.0       443756.0
       444927.0       446041.0       447056.0       448062.0       449034.0
       449926.0       450796.0       451591.0       452325.0       453028.0
       453662.0       454212.0       454733.0       455191.0       455566.0
       455979.0       456325.0       456565.0       456737.0       456828.0
       456946.0       457006.0       456962.0       456894.0       456711.0
       456429.0       456115.0       455768.0       455417.0       454984.0
       454491.0       453926.0       453266.0       452584.0       451857.0
       451096.0       450286.0       449417.0       448457.0       447517.0
       446595.0       445569.0       444460.0       443230.0       441925.0
       440566.0       439208.0       437832.0       436409.0       434909.0
       433285.0       431628.0       429914.0       428139.0       426330.0
       424485.0       422550.0       420581.0       418591.0       416531.0
       414460.0       412276.0       410037.0       407800.0       405533.0
       403216.0       400818.0       398351.0       395839.0       393305.0
       390718.0       388167.0       385542.0       382837.0       380102.0
       377294.0       374545.0       371764.0       368989.0       366246.0
       363422.0       360594.0       357711.0       354784.0       351910.0
       349011.0       346107.0       343189.0       340206.0       337166.0
       334135.0       331120.0       328062.0       325062.0       322038.0
       318943.0       315863.0       312744.0       309660.0       306572.0
       303461.0       300404.0       297279.0       294162.0       291051.0
       287922.0       284848.0       281740.0       278639.0       275511.0
       272377.0       269299.0       266266.0       263241.0       260232.0
       257254.0       254235.0       251246.0       248239.0       245256.0
       242390.0       239526.0       236676.0       233829.0       230994.0
       228240.0       225497.0       222808.0       220160.0       217498.0
       214900.0       212341.0       209845.0       207389.0       204937.0
       202532.0       200219.0       197973.0       195700.0       193441.0
       191142.0       188866.0       186723.0       184640.0       182588.0
       180560.0       178492.0       176430.0       174457.0       172511.0
       170695.0       168921.0       167119.0       165356.0       163594.0
       161944.0       160347.0       158768.0       157238.0       155770.0
       154340.0       152937.0       151577.0       150177.0       148866.0
       147639.0       146482.0       145400.0       144292.0       143233.0
       142160.0       141097.0       140146.0       139276.0       138435.0
       137629.0       136860.0       136038.0       135254.0       134513.0
       133821.0       133204.0       132573.0       131980.0       131397.0
       130799.0       130197.0       129580.0       128989.0       128423.0
       127862.0       127340.0       126844.0       126315.0       125825.0
       125319.0       124795.0       124322.0       123823.0       123372.0
       122975.0       122546.0       122093.0       121650.0       121163.0
       120721.0       120338.0       119934.0       119546.0       119129.0
       118749.0       118410.0       118050.0       117735.0       117471.0
       117200.0       116925.0       116630.0       116290.0       115936.0
       115628.0       115395.0       115183.0       114954.0       114657.0
       114291.0       113896.0       113544.0       113196.0       112821.0
       112463.0       112064.0       111641.0       111179.0       110699.0
       110225.0       109735.0       109204.0       108621.0       108043.0
       107468.0       106920.0       106311.0       105660.0       105020.0
       104335.0       103688.0       103019.0       102297.0       101580.0
       100815.0       100089.0       99382.00       98606.00       97789.00
       96892.00       95998.00       95117.00       94247.00       93334.00
       92358.00       91394.00       90400.00       89444.00       88430.00
       87364.00       86299.00       85175.00       84091.00       82974.00
       81831.00       80675.00       79469.00       78226.00       76928.00
       75613.00       74238.00       72863.00       71466.00       70026.00
       68545.00       67011.00       65485.00       63900.00       62318.00
       60692.00       59000.00       57301.00       55524.00       53763.00
       52024.00       50238.00       48420.00       46557.00       44675.00
       42832.00       41001.00       39131.00       37255.00       35361.00
       33417.00       31468.00       29487.00       27486.00       25471.00
       23423.00       21385.00       19339.00       17297.00       15184.00
       12989.00       10805.00       8533.000       6241.000       4004.000
       1702.000      -657.0000      -3101.000      -5616.000      -8085.000
      -10548.00      -13065.00      -15613.00      -18206.00      -20826.00
      -23442.00      -26117.00      -28755.00      -31395.00      -34123.00
      -36843.00      -39632.00      -42450.00      -45254.00      -48046.00
      -50850.00      -53711.00      -56613.00      -59565.00      -62531.00
      -65553.00      -68527.00      -71502.00      -74581.00      -77628.00
      -80740.00      -83873.00      -86960.00      -90133.00      -93333.00
      -96545.00      -99841.00      -103141.0      -106444.0      -109768.0
      -113063.0      -116405.0      -119760.0      -123061.0      -126403.0
      -129803.0      -133258.0      -136758.0      -140209.0      -143650.0
      -147121.0      -150594.0      -154118.0      -157697.0      -161276.0
      -164817.0      -168337.0      -171906.0      -175502.0      -179111.0
      -182733.0      -186340.0      -189937.0      -193489.0      -197055.0
      -200629.0      -204173.0      -207681.0      -211160.0      -214714.0
      -218280.0      -221827.0      -225376.0      -228859.0      -232297.0
      -235757.0      -239230.0      -242719.0      -246208.0      -249635.0
      -253055.0      -256455.0      -259819.0      -263182.0      -266507.0
      -269828.0      -273145.0      -276460.0      -279744.0      -282952.0
      -286152.0      -289364.0      -292585.0      -295783.0      -298970.0
      -302124.0      -305227.0      -308337.0      -311424.0      -314537.0
      -317674.0      -320780.0      -323895.0      -326984.0      -330039.0
      -333070.0      -336064.0      -339033.0      -341972.0      -344900.0
      -347817.0      -350731.0      -353594.0      -356381.0      -359134.0
      -361810.0      -364512.0      -367226.0      -369900.0      -372600.0
      -375226.0      -377822.0      -380399.0      -382930.0      -385505.0
      -388105.0      -390702.0      -393323.0      -395940.0      -398473.0
      -400979.0      -403472.0      -405959.0      -408481.0      -410997.0
      -413506.0      -415976.0      -418362.0      -420699.0      -423015.0
      -425338.0      -427697.0      -430038.0      -432352.0      -434611.0
      -436766.0      -438892.0      -440992.0      -443127.0      -445294.0
      -447383.0      -449485.0      -451507.0      -453444.0      -455443.0
      -457435.0      -459412.0      -461400.0      -463357.0      -465260.0
      -467187.0      -469109.0      -470994.0      -472874.0      -474742.0
      -476695.0      -478669.0      -480600.0      -482522.0      -484393.0
      -486274.0      -488230.0      -490228.0      -492227.0      -494259.0
      -496223.0      -498102.0      -500005.0      -501869.0      -503793.0
      -505754.0      -507614.0      -509474.0      -511309.0      -513099.0
      -514932.0      -516779.0      -518621.0      -520466.0      -522307.0
      -524126.0      -525944.0      -527793.0      -529644.0      -531537.0
      -533444.0      -535347.0      -537277.0      -539127.0      -540949.0
      -542813.0      -544690.0      -546636.0      -548629.0      -550576.0
      -552487.0      -554372.0      -556233.0      -558175.0      -560176.0
      -562175.0      -564212.0      -566229.0      -568246.0      -570268.0
      -572267.0      -574300.0      -576351.0      -578378.0      -580404.0
      -582432.0      -584459.0      -586510.0      -588536.0      -590576.0
      -592619.0      -594635.0      -596690.0      -598774.0      -600813.0
      -602850.0      -604985.0      -607100.0      -609225.0      -611327.0
      -613387.0      -615544.0      -617668.0      -619830.0      -622008.0
      -624094.0      -626227.0      -628385.0      -630520.0      -632688.0
      -634849.0      -636981.0      -639166.0      -641329.0      -643555.0
      -645838.0      -648043.0      -650267.0      -652481.0      -654705.0
      -656969.0      -659247.0      -661507.0      -663761.0      -665998.0
      -668213.0      -670478.0      -672747.0      -674996.0      -677206.0
      -679414.0      -681598.0      -683774.0      -685992.0      -688168.0
      -690315.0      -692405.0      -694512.0      -696670.0      -698841.0
      -701046.0      -703193.0      -705324.0      -707465.0      -709610.0
      -711825.0      -714054.0      -716266.0      -718423.0      -720576.0
      -722772.0      -724992.0      -727302.0      -729580.0      -731780.0
      -733932.0      -736035.0      -738183.0      -740344.0      -742565.0
      -744758.0      -746865.0      -748921.0      -750905.0      -752913.0
      -754933.0      -756989.0      -759057.0      -761083.0      -763011.0
      -764890.0      -766753.0      -768589.0      -770510.0      -772426.0
      -774328.0      -776187.0      -777978.0      -779755.0      -781506.0
      -783241.0      -784950.0      -786655.0      -788325.0      -789975.0
      -791646.0      -793306.0      -794924.0      -796523.0      -798088.0
      -799614.0      -801119.0      -802591.0      -804059.0      -805510.0
      -806993.0      -808444.0      -809824.0      -811122.0      -812363.0
      -813647.0      -814909.0      -816269.0      -817599.0      -818786.0
      -819907.0      -820923.0      -821942.0      -822979.0      -824091.0
      -825224.0      -826252.0      -827125.0      -827863.0      -828585.0
      -829379.0      -830239.0      -831055.0      -831803.0      -832401.0
      -832898.0      -833388.0      -833866.0      -834376.0      -834828.0
      -835242.0      -835542.0      -835719.0      -835885.0      -836024.0
      -836145.0      -836204.0      -836232.0      -836205.0      -836111.0
      -835971.0      -835761.0      -835510.0      -835148.0      -834724.0
      -834292.0      -833791.0      -833248.0      -832607.0      -831891.0
      -831185.0      -830408.0      -829567.0      -828653.0      -827683.0
      -826687.0      -825615.0      -824562.0      -823485.0      -822278.0
      -821015.0      -819699.0      -818317.0      -816893.0      -815459.0
      -813969.0      -812393.0      -810754.0      -809030.0      -807261.0
      -805445.0      -803614.0      -801692.0      -799742.0      -797778.0
      -795687.0      -793640.0      -791520.0      -789344.0      -787138.0
      -784834.0      -782525.0      -780124.0      -777716.0      -775273.0
      -772745.0      -770177.0      -767549.0      -764896.0      -762210.0
      -759454.0      -756631.0      -753801.0      -750842.0      -747817.0
      -744749.0      -741632.0      -738570.0      -735404.0      -732189.0
      -728938.0      -725574.0      -722166.0      -718744.0      -715313.0
      -711860.0      -708320.0      -704689.0      -701025.0      -697271.0
      -693504.0      -689704.0      -685822.0      -681942.0      -677954.0
      -673940.0      -669904.0      -665770.0      -661584.0      -657255.0
      -652907.0      -648571.0      -644168.0      -639743.0      -635264.0
      -630725.0      -626108.0      -621397.0      -616628.0      -611829.0
      -607016.0      -602215.0      -597400.0      -592492.0      -587503.0
      -582437.0      -577300.0      -572205.0      -567124.0      -562024.0
      -556874.0      -551609.0      -546269.0      -540875.0      -535501.0
      -530186.0      -524868.0      -519500.0      -514034.0      -508475.0
      -502870.0      -497284.0      -491712.0      -486106.0      -480488.0
      -474851.0      -469185.0      -463442.0      -457643.0      -451859.0
      -446040.0      -440192.0      -434315.0      -428321.0      -422294.0
      -416318.0      -410285.0      -404257.0      -398206.0      -392077.0
      -385910.0      -379691.0      -373447.0      -367169.0      -360911.0
      -354642.0      -348349.0      -342010.0      -335596.0      -329213.0
      -322844.0      -316529.0      -310235.0      -303915.0      -297576.0
      -291174.0      -284786.0      -278425.0      -272083.0      -265773.0
      -259457.0      -253135.0      -246788.0      -240411.0      -234061.0
      -227743.0      -221449.0      -215140.0      -208797.0      -202450.0
      -196105.0      -189779.0      -183443.0      -177165.0      -170964.0
      -164763.0      -158590.0      -152404.0      -146240.0      -140138.0
      -134007.0      -127906.0      -121886.0      -115909.0      -109966.0
      -104036.0      -98134.00      -92183.00      -86247.00      -80386.00
      -74536.00      -68785.00      -63050.00      -57322.00      -51629.00
      -45913.00      -40217.00      -34538.00      -28905.00      -23361.00
      -17879.00      -12370.00      -6821.000      -1345.000       4138.000
       9645.000       15102.00       20602.00       26056.00       31447.00
       36835.00       42229.00       47576.00       52910.00       58337.00
       63679.00       69044.00       74365.00       79536.00       84774.00
       90031.00       95290.00       100566.0       105824.0       110984.0
       116060.0       121123.0       126167.0       131254.0       136326.0
       141322.0       146322.0       151281.0       156176.0       161082.0
       165962.0       170815.0       175673.0       180548.0       185351.0
       190142.0       194981.0       199790.0       204606.0       209391.0
       214139.0       218822.0       223524.0       228240.0       232929.0
       237637.0       242244.0       246849.0       251427.0       255959.0
       260534.0       265113.0       269684.0       274158.0       278579.0
       282950.0       287283.0       291640.0       295980.0       300309.0
       304582.0       308793.0       312953.0       317029.0       321022.0
       324982.0       328941.0       332881.0       336789.0       340674.0
       344494.0       348221.0       351935.0       355623.0       359261.0
       362890.0       366487.0       370031.0       373504.0       376939.0
       380342.0       383739.0       387160.0       390537.0       393881.0
       397199.0       400496.0       403777.0       406989.0       410204.0
       413394.0       416538.0       419697.0       422841.0       425976.0
       429084.0       432168.0       435253.0       438334.0       441355.0
       444356.0       447389.0       450412.0       453433.0       456464.0
       459499.0       462454.0       465362.0       468292.0       471258.0
       474234.0       477156.0       480085.0       482968.0       485804.0
       488634.0       491373.0       494059.0       496743.0       499501.0
       502245.0       504862.0       507457.0       510003.0       512524.0
       515082.0       517653.0       520194.0       522747.0       525335.0
       527864.0       530403.0       532943.0       535442.0       537931.0
       540372.0       542832.0       545314.0       547787.0       550266.0
       552700.0       555114.0       557539.0       559932.0       562305.0
       564698.0       567087.0       569490.0       571929.0       574343.0
       576731.0       579071.0       581350.0       583617.0       585865.0
       588131.0       590434.0       592644.0       594807.0       596913.0
       598924.0       600990.0       603074.0       605154.0       607218.0
