     0.02500000      -12345.00      -12345.00   1.001180e+09      -12345.00
   0.0005380000       1859.976      -695.0195      -12345.00      -12345.00
      -12345.00      -12345.00      -12345.00      -12345.00      -12345.00
      -12345.00      -12345.00      -12345.00      -12345.00      -12345.00
      -12345.00      -12345.00      -12345.00      -12345.00      -12345.00
      -12345.00      -12345.00      -12345.00      -12345.00      -12345.00
      -12345.00       36.54567       138.2041       405.0000       0.000000
      -42.72450       173.0647      -12345.00       22.00000      -12345.00
      -12345.00      -12345.00      -12345.00      -12345.00      -12345.00
      -12345.00      -12345.00      -12345.00      -12345.00      -12345.00
       9457.736       332.4834       154.9907       85.05923      -12345.00
      -12345.00      -12345.00       90.00000       90.00000      -12345.00
      -12345.00      -12345.00      -12345.00      -12345.00      -12345.00
      -12345.00      -12345.00      -12345.00      -12345.00      -12345.00
      2016       318        11        14        34
        19         6    -12345    -12345     74400
    -12345    -12345    -12345    -12345    -12345
         1    -12345    -12345    -12345    -12345
    -12345    -12345    -12345    -12345    -12345
    -12345    -12345    -12345    -12345    -12345
    -12345    -12345    -12345    -12345    -12345
         1    -12345    -12345    -12345    -12345
MAJO    South Island, Ne
60      -12345  -12345  
-12345  -12345  -12345  
-12345  -12345  -12345  
-12345  -12345  -12345  
-12345  -12345  -12345  
-12345  -12345  BH2     
IU      -12345  Metrozet
[...]
       20219.00       20059.00       19896.00       19732.00       19570.00
       19409.00       19242.00       19071.00       18907.00       18734.00
       18561.00       18394.00       18224.00       18057.00       17887.00
       17715.00       17554.00       17387.00       17219.00       17051.00
       16873.00       16700.00       16524.00       16340.00       16163.00
       15979.00       15798.00       15616.00       15434.00       15257.00
       15079.00       14903.00       14729.00       14552.00       14373.00
       14195.00       14012.00       13820.00       13632.00       13447.00
       13250.00       13056.00       12864.00       12674.00       12490.00
       12295.00       12105.00       11915.00       11720.00       11526.00
       11329.00       11127.00       10915.00       10703.00       10505.00
       10301.00       10091.00       9882.000       9674.000       9470.000
       9264.000       9051.000       8843.000       8630.000       8416.000
       8210.000       8000.000       7785.000       7564.000       7349.000
       7134.000       6914.000       6700.000       6472.000       6249.000
       6034.000       5807.000       5590.000       5384.000       5164.000
       4939.000       4726.000       4507.000       4279.000       4052.000
       3826.000       3605.000       3388.000       3167.000       2943.000
       2724.000       2508.000       2283.000       2060.000       1839.000
       1614.000       1389.000       1168.000       940.0000       707.0000
       478.0000       247.0000       20.00000      -205.0000      -430.0000
      -653.0000      -880.0000      -1104.000      -1322.000      -1547.000
      -1775.000      -2006.000      -2237.000      -2466.000      -2700.000
      -2932.000      -3156.000      -3384.000      -3614.000      -3842.000
      -4073.000      -4308.000      -4545.000      -4781.000      -5018.000
      -5255.000      -5490.000      -5723.000      -5961.000      -6206.000
      -6446.000      -6690.000      -6941.000      -7185.000      -7428.000
      -7674.000      -7917.000      -8158.000      -8404.000      -8654.000
      -8899.000      -9148.000      -9396.000      -9642.000      -9890.000
      -10135.00      -10383.00      -10633.00      -10884.00      -11136.00
      -11393.00      -11645.00      -11899.00      -12163.00      -12425.00
      -12682.00      -12941.00      -13195.00      -13448.00      -13707.00
      -13961.00      -14215.00      -14475.00      -14730.00      -14985.00
      -15241.00      -15494.00      -15752.00      -16014.00      -16267.00
      -16522.00      -16779.00      -17033.00      -17286.00      -17544.00
      -17798.00      -18044.00      -18296.00      -18540.00      -18789.00
      -19046.00      -19301.00      -19553.00      -19803.00      -20061.00
      -20312.00      -20562.00      -20816.00      -21065.00      -21316.00
      -21564.00      -21809.00      -22056.00      -22307.00      -22559.00
      -22807.00      -23059.00      -23311.00      -23571.00      -23836.00
      -24089.00      -24342.00      -24591.00      -24843.00      -25101.00
      -25349.00      -25599.00      -25858.00      -26117.00      -26370.00
      -26630.00      -26901.00      -27162.00      -27419.00      -27684.00
      -27949.00      -28209.00      -28469.00      -28722.00      -28973.00
      -29230.00      -29492.00      -29752.00      -30011.00      -30280.00
      -30544.00      -30802.00      -31072.00      -31337.00      -31597.00
      -31863.00      -32125.00      -32386.00      -32648.00      -32914.00
      -33176.00      -33434.00      -33696.00      -33963.00      -34224.00
      -34485.00      -34757.00      -35024.00      -35286.00      -35558.00
      -35833.00      -36099.00      -36361.00      -36629.00      -36893.00
      -37152.00      -37412.00      -37672.00      -37928.00      -38183.00
      -38444.00      -38705.00      -38964.00      -39223.00      -39485.00
      -39748.00      -40005.00      -40266.00      -40528.00      -40781.00
      -41034.00      -41278.00      -41529.00      -41782.00      -42025.00
      -42279.00      -42534.00      -42787.00      -43043.00      -43297.00
      -43552.00      -43794.00      -44040.00      -44294.00      -44532.00
      -44769.00      -45017.00      -45261.00      -45502.00      -45748.00
      -46002.00      -46252.00      -46506.00      -46762.00      -47011.00
      -47262.00      -47513.00      -47760.00      -48006.00      -48249.00
      -48496.00      -48743.00      -48987.00      -49234.00      -49479.00
      -49725.00      -49976.00      -50226.00      -50477.00      -50729.00
      -50984.00      -51241.00      -51502.00      -51762.00      -52016.00
      -52267.00      -52521.00      -52768.00      -53018.00      -53273.00
      -53521.00      -53775.00      -54034.00      -54286.00      -54543.00
      -54806.00      -55066.00      -55332.00      -55588.00      -55841.00
      -56107.00      -56365.00      -56614.00      -56876.00      -57139.00
      -57395.00      -57660.00      -57925.00      -58183.00      -58454.00
      -58727.00      -58991.00      -59259.00      -59534.00      -59805.00
      -60076.00      -60353.00      -60629.00      -60904.00      -61179.00
      -61455.00      -61731.00      -62011.00      -62292.00      -62569.00
      -62854.00      -63144.00      -63431.00      -63718.00      -64012.00
      -64308.00      -64597.00      -64892.00      -65188.00      -65480.00
      -65776.00      -66071.00      -66369.00      -66673.00      -66973.00
      -67269.00      -67569.00      -67876.00      -68181.00      -68487.00
      -68798.00      -69102.00      -69410.00      -69720.00      -70029.00
      -70343.00      -70641.00      -70936.00      -71244.00      -71552.00
      -71853.00      -72156.00      -72463.00      -72768.00      -73079.00
      -73395.00      -73704.00      -74015.00      -74324.00      -74630.00
      -74937.00      -75237.00      -75537.00      -75832.00      -76133.00
      -76441.00      -76745.00      -77056.00      -77366.00      -77680.00
      -78001.00      -78313.00      -78624.00      -78936.00      -79244.00
      -79551.00      -79864.00      -80170.00      -80472.00      -80780.00
      -81092.00      -81409.00      -81720.00      -82038.00      -82362.00
      -82682.00      -83006.00      -83338.00      -83665.00      -83985.00
      -84317.00      -84644.00      -84971.00      -85298.00      -85621.00
      -85956.00      -86281.00      -86609.00      -86946.00      -87284.00
      -87629.00      -87970.00      -88309.00      -88658.00      -89012.00
      -89353.00      -89699.00      -90051.00      -90393.00      -90738.00
      -91088.00      -91431.00      -91780.00      -92133.00      -92483.00
      -92841.00      -93201.00      -93560.00      -93926.00      -94287.00
      -94648.00      -95011.00      -95369.00      -95732.00      -96099.00
      -96458.00      -96821.00      -97184.00      -97545.00      -97908.00
      -98273.00      -98643.00      -99003.00      -99370.00      -99749.00
      -100117.0      -100485.0      -100854.0      -101221.0      -101592.0
      -101963.0      -102326.0      -102695.0      -103073.0      -103441.0
      -103808.0      -104181.0      -104548.0      -104915.0      -105290.0
      -105669.0      -106043.0      -106418.0      -106798.0      -107178.0
      -107560.0      -107940.0      -108318.0      -108696.0      -109077.0
      -109454.0      -109828.0      -110206.0      -110588.0      -110968.0
      -111350.0      -111743.0      -112130.0      -112517.0      -112915.0
      -113309.0      -113705.0      -114097.0      -114486.0      -114886.0
      -115278.0      -115673.0      -116069.0      -116457.0      -116857.0
      -117259.0      -117668.0      -118084.0      -118500.0      -118916.0
      -119324.0      -119747.0      -120168.0      -120578.0      -120998.0
      -121405.0      -121809.0      -122235.0      -122652.0      -123059.0
      -123479.0      -123905.0      -124331.0      -124762.0      -125195.0
      -125623.0      -126056.0      -126497.0      -126932.0      -127361.0
      -127795.0      -128228.0      -128658.0      -129097.0      -129533.0
      -129965.0      -130401.0      -130843.0      -131294.0      -131750.0
      -132201.0      -132649.0      -133103.0      -133564.0      -134017.0
      -134465.0      -134920.0      -135367.0      -135811.0      -136262.0
      -136708.0      -137155.0      -137611.0      -138066.0      -138519.0
      -138982.0      -139448.0      -139909.0      -140373.0      -140831.0
      -141280.0      -141736.0      -142190.0      -142631.0      -143071.0
      -143509.0      -143958.0      -144414.0      -144863.0      -145319.0
      -145770.0      -146219.0      -146678.0      -147133.0      -147579.0
      -148022.0      -148466.0      -148903.0      -149340.0      -149786.0
      -150226.0      -150662.0      -151105.0      -151546.0      -151983.0
      -152423.0      -152859.0      -153293.0      -153727.0      -154158.0
      -154592.0      -155024.0      -155449.0      -155876.0      -156302.0
      -156723.0      -157148.0      -157572.0      -157991.0      -158409.0
      -158826.0      -159243.0      -159661.0      -160073.0      -160483.0
      -160892.0      -161295.0      -161702.0      -162115.0      -162519.0
      -162922.0      -163330.0      -163732.0      -164139.0      -164539.0
      -164933.0      -165328.0      -165711.0      -166101.0      -166485.0
      -166859.0      -167242.0      -167619.0      -167996.0      -168378.0
      -168754.0      -169131.0      -169504.0      -169875.0      -170247.0
      -170612.0      -170973.0      -171332.0      -171688.0      -172044.0
      -172402.0      -172758.0      -173110.0      -173465.0      -173822.0
      -174179.0      -174534.0      -174878.0      -175213.0      -175557.0
      -175893.0      -176219.0      -176550.0      -176876.0      -177201.0
      -177535.0      -177868.0      -178202.0      -178534.0      -178863.0
      -179190.0      -179515.0      -179840.0      -180161.0      -180475.0
      -180783.0      -181085.0      -181394.0      -181700.0      -182002.0
      -182309.0      -182609.0      -182915.0      -183224.0      -183525.0
      -183827.0      -184125.0      -184417.0      -184709.0      -184992.0
      -185273.0      -185548.0      -185819.0      -186096.0      -186367.0
      -186634.0      -186909.0      -187180.0      -187450.0      -187722.0
      -187989.0      -188255.0      -188523.0      -188780.0      -189034.0
      -189288.0      -189535.0      -189786.0      -190030.0      -190263.0
      -190502.0      -190748.0      -190993.0      -191228.0      -191459.0
      -191697.0      -191935.0      -192159.0      -192389.0      -192612.0
      -192823.0      -193042.0      -193255.0      -193464.0      -193678.0
      -193883.0      -194093.0      -194308.0      -194515.0      -194723.0
      -194929.0      -195123.0      -195319.0      -195515.0      -195701.0
      -195885.0      -196067.0      -196246.0      -196429.0      -196615.0
      -196799.0      -196979.0      -197153.0      -197326.0      -197497.0
      -197666.0      -197828.0      -197989.0      -198147.0      -198301.0
      -198462.0      -198614.0      -198768.0      -198926.0      -199076.0
      -199226.0      -199374.0      -199525.0      -199667.0      -199803.0
      -199950.0      -200089.0      -200221.0      -200358.0      -200492.0
      -200622.0      -200752.0      -200895.0      -201030.0      -201158.0
      -201298.0      -201431.0      -201556.0      -201683.0      -201810.0
      -201931.0      -202050.0      -202173.0      -202292.0      -202408.0
      -202527.0      -202650.0      -202769.0      -202883.0      -202999.0
      -203116.0      -203228.0      -203332.0      -203441.0      -203544.0
      -203641.0      -203744.0      -203838.0      -203931.0      -204030.0
      -204120.0      -204209.0      -204305.0      -204398.0      -204488.0
      -204582.0      -204674.0      -204761.0      -204853.0      -204937.0
      -205019.0      -205110.0      -205189.0      -205259.0      -205337.0
      -205415.0      -205489.0      -205564.0      -205642.0      -205717.0
      -205788.0      -205865.0      -205937.0      -206006.0      -206079.0
      -206137.0      -206192.0      -206252.0      -206302.0      -206352.0
      -206405.0      -206453.0      -206507.0      -206561.0      -206609.0
      -206661.0      -206711.0      -206756.0      -206798.0      -206837.0
      -206872.0      -206899.0      -206930.0      -206958.0      -206983.0
      -207014.0      -207039.0      -207061.0      -207085.0      -207110.0
      -207132.0      -207152.0      -207170.0      -207179.0      -207185.0
      -207188.0      -207188.0      -207185.0      -207178.0      -207164.0
      -207156.0      -207153.0      -207147.0      -207141.0      -207132.0
      -207121.0      -207109.0      -207094.0      -207076.0      -207054.0
      -207026.0      -206994.0      -206970.0      -206949.0      -206919.0
      -206890.0      -206862.0      -206832.0      -206804.0      -206778.0
      -206741.0      -206698.0      -206662.0      -206622.0      -206578.0
      -206533.0      -206487.0      -206441.0      -206393.0      -206342.0
      -206285.0      -206232.0      -206179.0      -206115.0      -206059.0
      -206008.0      -205947.0      -205894.0      -205837.0      -205770.0
      -205716.0      -205653.0      -205584.0      -205513.0      -205437.0
      -205371.0      -205305.0      -205232.0      -205161.0      -205092.0
      -205022.0      -204950.0      -204880.0      -204808.0      -204734.0
      -204663.0      -204588.0      -204511.0      -204437.0      -204360.0
      -204277.0      -204188.0      -204109.0      -204024.0      -203934.0
      -203854.0      -203766.0      -203676.0      -203595.0      -203510.0
      -203424.0      -203335.0      -203245.0      -203155.0      -203067.0
      -202974.0      -202872.0      -202779.0      -202685.0      -202580.0
      -202483.0      -202386.0      -202281.0      -202180.0      -202079.0
      -201974.0      -201858.0      -201749.0      -201645.0      -201530.0
      -201418.0      -201310.0      -201192.0      -201073.0      -200954.0
      -200830.0      -200703.0      -200574.0      -200443.0      -200315.0
      -200183.0      -200046.0      -199913.0      -199784.0      -199644.0
      -199505.0      -199369.0      -199220.0      -199068.0      -198920.0
      -198767.0      -198606.0      -198450.0      -198294.0      -198134.0
      -197980.0      -197816.0      -197647.0      -197480.0      -197308.0
      -197138.0      -196959.0      -196777.0      -196600.0      -196420.0
      -196241.0      -196060.0      -195872.0      -195677.0      -195492.0
      -195307.0      -195105.0      -194907.0      -194707.0      -194500.0
      -194303.0      -194099.0      -193886.0      -193678.0      -193471.0
      -193259.0      -193047.0      -192836.0      -192615.0      -192393.0
      -192175.0      -191953.0      -191724.0      -191494.0      -191261.0
      -191026.0      -190796.0      -190560.0      -190320.0      -190081.0
      -189839.0      -189590.0      -189340.0      -189088.0      -188828.0
      -188567.0      -188311.0      -188047.0      -187783.0      -187526.0
      -187260.0      -186999.0      -186741.0      -186470.0      -186201.0
      -185928.0      -185643.0      -185365.0      -185085.0      -184785.0
      -184488.0      -184200.0      -183907.0      -183611.0      -183313.0
      -183007.0      -182698.0      -182388.0      -182080.0      -181767.0
      -181444.0      -181121.0      -180803.0      -180479.0      -180156.0
      -179828.0      -179493.0      -179159.0      -178831.0      -178507.0
      -178171.0      -177829.0      -177494.0      -177155.0      -176814.0
      -176474.0      -176129.0      -175793.0      -175457.0      -175109.0
      -174758.0      -174413.0      -174066.0      -173717.0      -173367.0
      -173016.0      -172669.0      -172318.0      -171967.0      -171615.0
      -171256.0      -170908.0      -170555.0      -170188.0      -169835.0
      -169490.0      -169136.0      -168778.0      -168417.0      -168056.0
      -167696.0      -167338.0      -166975.0      -166608.0      -166242.0
      -165886.0      -165524.0      -165150.0      -164777.0      -164410.0
      -164042.0      -163670.0      -163296.0      -162918.0      -162547.0
      -162175.0      -161801.0      -161424.0      -161043.0      -160669.0
      -160289.0      -159901.0      -159517.0      -159127.0      -158731.0
      -158345.0      -157959.0      -157564.0      -157174.0      -156783.0
      -156389.0      -155999.0      -155605.0      -155211.0      -154816.0
      -154415.0      -154015.0      -153614.0      -153211.0      -152808.0
      -152407.0      -152004.0      -151599.0      -151194.0      -150789.0
      -150380.0      -149976.0      -149567.0      -149153.0      -148750.0
      -148340.0      -147924.0      -147508.0      -147091.0      -146675.0
      -146249.0      -145824.0      -145406.0      -144981.0      -144559.0
      -144132.0      -143708.0      -143284.0      -142853.0      -142427.0
      -141995.0      -141557.0      -141122.0      -140684.0      -140244.0
      -139807.0      -139374.0      -138944.0      -138509.0      -138074.0
      -137641.0      -137196.0      -136753.0      -136318.0      -135867.0
      -135418.0      -134971.0      -134512.0      -134062.0      -133609.0
      -133147.0      -132699.0      -132247.0      -131790.0      -131339.0
      -130891.0      -130438.0      -129985.0      -129533.0      -129074.0
      -128615.0      -128155.0      -127692.0      -127226.0      -126755.0
      -126292.0      -125830.0      -125362.0      -124901.0      -124442.0
      -123977.0      -123512.0      -123050.0      -122580.0      -122112.0
      -121644.0      -121167.0      -120702.0      -120232.0      -119757.0
      -119293.0      -118820.0      -118346.0      -117877.0      -117410.0
      -116943.0      -116474.0      -116002.0      -115532.0      -115066.0
      -114593.0      -114122.0      -113654.0      -113176.0      -112705.0
      -112238.0      -111764.0      -111298.0      -110829.0      -110354.0
