     0.02500000      -12345.00      -12345.00   1.974680e+09      -12345.00
   0.0005360000       1859.976      -465.0195      -12345.00      -12345.00
      -12345.00      -12345.00      -12345.00      -12345.00      -12345.00
      -12345.00      -12345.00      -12345.00      -12345.00      -12345.00
      -12345.00      -12345.00      -12345.00      -12345.00      -12345.00
      -12345.00      -12345.00      -12345.00      -12345.00      -12345.00
      -12345.00      -21.15900       119.7313       182.0000       8.000000
      -42.72450       173.0647      -12345.00       22.00000      -12345.00
      -12345.00      -12345.00      -12345.00      -12345.00      -12345.00
      -12345.00      -12345.00      -12345.00      -12345.00      -12345.00
       5471.397       278.5350       128.6724       49.20764      -12345.00
      -12345.00      -12345.00       82.00000       90.00000      -12345.00
      -12345.00      -12345.00      -12345.00      -12345.00      -12345.00
      -12345.00      -12345.00      -12345.00      -12345.00      -12345.00
      2016       318        11        10        44
        19         6    -12345    -12345     74400
    -12345    -12345    -12345    -12345    -12345
         1    -12345    -12345    -12345    -12345
    -12345    -12345    -12345    -12345    -12345
    -12345    -12345    -12345    -12345    -12345
    -12345    -12345    -12345    -12345    -12345
         1    -12345    -12345    -12345    -12345
MBWA    South Island, Ne
00      -12345  -12345  
-12345  -12345  -12345  
-12345  -12345  -12345  
-12345  -12345  -12345  
-12345  -12345  -12345  
-12345  -12345  BH2     
IU      -12345  T120 pos
[...]
      -1013182.      -1022720.      -1032174.      -1041531.      -1050839.
      -1060067.      -1069224.      -1078312.      -1087278.      -1096191.
      -1104992.      -1113719.      -1122415.      -1130955.      -1139452.
      -1147908.      -1156221.      -1164469.      -1172631.      -1180689.
      -1188690.      -1196594.      -1204409.      -1212151.      -1219815.
      -1227402.      -1234873.      -1242259.      -1249574.      -1256792.
      -1263943.      -1271000.      -1277957.      -1284864.      -1291657.
      -1298360.      -1305017.      -1311558.      -1318007.      -1324380.
      -1330666.      -1336858.      -1342964.      -1348981.      -1354912.
      -1360768.      -1366537.      -1372220.      -1377782.      -1383297.
      -1388709.      -1393992.      -1399239.      -1404365.      -1409388.
      -1414355.      -1419199.      -1423963.      -1428677.      -1433269.
      -1437776.      -1442194.      -1446492.      -1450707.      -1454839.
      -1458865.      -1462791.      -1466645.      -1470410.      -1474076.
      -1477667.      -1481189.      -1484584.      -1487885.      -1491098.
      -1494207.      -1497247.      -1500161.      -1503006.      -1505774.
      -1508423.      -1511008.      -1513481.      -1515865.      -1518164.
      -1520333.      -1522433.      -1524451.      -1526355.      -1528173.
      -1529899.      -1531523.      -1533065.      -1534502.      -1535845.
      -1537135.      -1538295.      -1539340.      -1540302.      -1541157.
      -1541935.      -1542627.      -1543239.      -1543748.      -1544139.
      -1544443.      -1544645.      -1544777.      -1544819.      -1544734.
      -1544565.      -1544307.      -1543943.      -1543498.      -1542988.
      -1542359.      -1541649.      -1540871.      -1539959.      -1538980.
      -1537920.      -1536729.      -1535474.      -1534127.      -1532672.
      -1531133.      -1529495.      -1527778.      -1525965.      -1524070.
      -1522077.      -1519968.      -1517785.      -1515508.      -1513146.
      -1510698.      -1508170.      -1505515.      -1502764.      -1499975.
      -1497076.      -1494086.      -1491010.      -1487862.      -1484637.
      -1481296.      -1477894.      -1474409.      -1470805.      -1467131.
      -1463371.      -1459529.      -1455628.      -1451617.      -1447516.
      -1443329.      -1439062.      -1434728.      -1430287.      -1425768.
      -1421164.      -1416468.      -1411709.      -1406880.      -1401971.
      -1396957.      -1391857.      -1386692.      -1381432.      -1376086.
      -1370663.      -1365121.      -1359544.      -1353912.      -1348146.
      -1342352.      -1336440.      -1330439.      -1324384.      -1318217.
      -1312008.      -1305695.      -1299309.      -1292857.      -1286313.
      -1279710.      -1273009.      -1266213.      -1259358.      -1252434.
      -1245420.      -1238349.      -1231207.      -1223958.      -1216638.
      -1209263.      -1201799.      -1194282.      -1186707.      -1179032.
      -1171330.      -1163542.      -1155657.      -1147752.      -1139737.
      -1131652.      -1123522.      -1115293.      -1107027.      -1098682.
      -1090257.      -1081774.      -1073221.      -1064616.      -1055953.
      -1047220.      -1038396.      -1029518.      -1020606.      -1011605.
      -1002538.      -993431.0      -984230.0      -974984.0      -965705.0
      -956337.0      -946952.0      -937493.0      -927953.0      -918405.0
      -908782.0      -899088.0      -889336.0      -879556.0      -869740.0
      -859839.0      -849910.0      -839929.0      -829894.0      -819823.0
      -809694.0      -799521.0      -789290.0      -778995.0      -768666.0
      -758292.0      -747849.0      -737376.0      -726870.0      -716305.0
      -705723.0      -695072.0      -684373.0      -673647.0      -662859.0
      -652069.0      -641221.0      -630351.0      -619459.0      -608479.0
      -597467.0      -586442.0      -575379.0      -564268.0      -553142.0
      -541975.0      -530757.0      -519519.0      -508245.0      -496933.0
      -485611.0      -474257.0      -462852.0      -451425.0      -439956.0
      -428452.0      -416928.0      -405368.0      -393783.0      -382147.0
      -370504.0      -358852.0      -347143.0      -335426.0      -323689.0
      -311920.0      -300165.0      -288367.0      -276495.0      -264629.0
      -252727.0      -240823.0      -228919.0      -216964.0      -205005.0
      -193030.0      -181041.0      -168985.0      -156938.0      -144896.0
      -132790.0      -120700.0      -108605.0      -96501.00      -84351.00
      -72169.00      -60016.00      -47818.00      -35614.00      -23412.00
      -11161.00       1044.000       13250.00       25502.00       37751.00
       50036.00       62294.00       74547.00       86842.00       99085.00
       111342.0       123637.0       135908.0       148205.0       160508.0
       172798.0       185090.0       197371.0       209660.0       221947.0
       234214.0       246512.0       258822.0       271103.0       283378.0
       295651.0       307921.0       320198.0       332467.0       344725.0
       356999.0       369267.0       381498.0       393731.0       405980.0
       418193.0       430392.0       442598.0       454766.0       466963.0
       479137.0       491278.0       503468.0       515586.0       527675.0
       539780.0       551865.0       563942.0       575987.0       588008.0
       600015.0       612002.0       623942.0       635888.0       647803.0
       659679.0       671560.0       683410.0       695248.0       707047.0
       718822.0       730565.0       742263.0       753940.0       765587.0
       777208.0       788803.0       800351.0       811859.0       823339.0
       834763.0       846174.0       857563.0       868882.0       880171.0
       891422.0       902617.0       913745.0       924843.0       935887.0
       946872.0       957825.0       968727.0       979590.0       990386.0
       1001159.       1011894.       1022539.       1033147.       1043676.
       1054141.       1064604.       1074977.       1085285.       1095562.
       1105749.       1115908.       1126023.       1136029.       1145971.
       1155876.       1165670.       1175402.       1185130.       1194763.
       1204344.       1213860.       1223268.       1232643.       1241917.
       1251094.       1260246.       1269305.       1278273.       1287185.
       1296012.       1304757.       1313414.       1321981.       1330494.
       1338928.       1347287.       1355576.       1363747.       1371854.
       1379893.       1387815.       1395656.       1403416.       1411077.
       1418658.       1426172.       1433607.       1440941.       1448180.
       1455328.       1462390.       1469357.       1476220.       1483015.
       1489711.       1496309.       1502837.       1509252.       1515583.
       1521809.       1527914.       1533957.       1539873.       1545678.
       1551414.       1557037.       1562553.       1567999.       1573331.
       1578518.       1583635.       1588646.       1593540.       1598343.
       1603042.       1607636.       1612117.       1616493.       1620744.
       1624886.       1628928.       1632856.       1636668.       1640375.
       1644008.       1647508.       1650861.       1654135.       1657288.
       1660334.       1663271.       1666072.       1668778.       1671342.
       1673809.       1676167.       1678415.       1680562.       1682531.
       1684409.       1686186.       1687812.       1689343.       1690777.
       1692077.       1693261.       1694345.       1695273.       1696082.
       1696788.       1697367.       1697826.       1698155.       1698390.
       1698483.       1698396.       1698209.       1697924.       1697500.
       1696953.       1696281.       1695497.       1694590.       1693540.
       1692343.       1691032.       1689617.       1688061.       1686377.
       1684571.       1682639.       1680552.       1678334.       1675992.
       1673524.       1670949.       1668227.       1665394.       1662414.
       1659283.       1656025.       1652629.       1649160.       1645520.
       1641710.       1637802.       1633723.       1629537.       1625232.
       1620773.       1616201.       1611488.       1606633.       1601622.
       1596498.       1591262.       1585864.       1580326.       1574657.
       1568872.       1562944.       1556894.       1550721.       1544376.
       1537913.       1531308.       1524568.       1517730.       1510743.
       1503614.       1496346.       1488950.       1481427.       1473745.
       1465944.       1458027.       1449978.       1441815.       1433503.
       1425049.       1416475.       1407757.       1398915.       1389989.
       1380931.       1371718.       1362395.       1352926.       1343328.
       1333622.       1323809.       1313872.       1303776.       1293556.
       1283217.       1272770.       1262188.       1251508.       1240729.
       1229779.       1218736.       1207558.       1196262.       1184870.
       1173332.       1161723.       1149983.       1138105.       1126134.
       1114035.       1101856.       1089589.       1077193.       1064714.
       1052107.       1039369.       1026558.       1013613.       1000581.
       987492.0       974287.0       960993.0       947595.0       934077.0
       920488.0       906803.0       893039.0       879203.0       865239.0
       851200.0       837078.0       822867.0       808588.0       794223.0
       779786.0       765252.0       750645.0       735972.0       721239.0
       706428.0       691517.0       676554.0       661508.0       646399.0
       631232.0       615999.0       600707.0       585337.0       569923.0
       554442.0       538901.0       523325.0       507690.0       491999.0
       476243.0       460431.0       444585.0       428713.0       412799.0
       396834.0       380827.0       364762.0       348666.0       332563.0
       316406.0       300198.0       283984.0       267757.0       251500.0
       235195.0       218871.0       202553.0       186189.0       169791.0
       153407.0       137014.0       120574.0       104131.0       87687.00
       71215.00       54758.00       38277.00       21794.00       5344.000
      -11152.00      -27651.00      -44123.00      -60607.00      -77056.00
      -93533.00      -110026.0      -126434.0      -142864.0      -159312.0
      -175736.0      -192144.0      -208502.0      -224850.0      -241188.0
      -257465.0      -273717.0      -289975.0      -306193.0      -322390.0
      -338551.0      -354660.0      -370756.0      -386803.0      -402792.0
      -418735.0      -434652.0      -450512.0      -466319.0      -482096.0
      -497817.0      -513499.0      -529131.0      -544705.0      -560239.0
      -575694.0      -591079.0      -606428.0      -621718.0      -636948.0
      -652093.0      -667192.0      -682260.0      -697239.0      -712146.0
      -726963.0      -741713.0      -756435.0      -771056.0      -785599.0
      -800100.0      -814481.0      -828793.0      -843044.0      -857185.0
      -871283.0      -885284.0      -899199.0      -913067.0      -926821.0
      -940477.0      -954063.0      -967546.0      -980939.0      -994270.0
      -1007493.      -1020619.      -1033680.      -1046613.      -1059431.
      -1072197.      -1084847.      -1097368.      -1109816.      -1122163.
      -1134411.      -1146550.      -1158590.      -1170526.      -1182339.
      -1194055.      -1205674.      -1217187.      -1228602.      -1239918.
      -1251094.      -1262164.      -1273108.      -1283928.      -1294667.
      -1305269.      -1315765.      -1326143.      -1336391.      -1346531.
      -1356536.      -1366442.      -1376215.      -1385867.      -1395404.
      -1404782.      -1414049.      -1423201.      -1432221.      -1441137.
      -1449914.      -1458539.      -1467024.      -1475390.      -1483646.
      -1491730.      -1499689.      -1507538.      -1515246.      -1522822.
      -1530233.      -1537509.      -1544678.      -1551711.      -1558581.
      -1565311.      -1571900.      -1578328.      -1584635.      -1590801.
      -1596812.      -1602723.      -1608471.      -1614045.      -1619508.
      -1624788.      -1629931.      -1634950.      -1639795.      -1644532.
      -1649113.      -1653514.      -1657801.      -1661933.      -1665899.
      -1669723.      -1673383.      -1676914.      -1680292.      -1683494.
      -1686569.      -1689498.      -1692252.      -1694862.      -1697326.
      -1699626.      -1701780.      -1703774.      -1705638.      -1707344.
      -1708873.      -1710249.      -1711442.      -1712523.      -1713470.
      -1714227.      -1714857.      -1715345.      -1715665.      -1715807.
      -1715788.      -1715653.      -1715357.      -1714887.      -1714264.
      -1713482.      -1712568.      -1711496.      -1710271.      -1708928.
      -1707411.      -1705711.      -1703903.      -1701933.      -1699776.
      -1697505.      -1695065.      -1692483.      -1689795.      -1686931.
      -1683882.      -1680705.      -1677396.      -1673912.      -1670331.
      -1666599.      -1662693.      -1658665.      -1654425.      -1650089.
      -1645646.      -1641008.      -1636262.      -1631352.      -1626283.
      -1621109.      -1615771.      -1610323.      -1604753.      -1599027.
      -1593181.      -1587167.      -1581011.      -1574733.      -1568314.
      -1561786.      -1555125.      -1548310.      -1541401.      -1534341.
      -1527147.      -1519880.      -1512432.      -1504871.      -1497218.
      -1489413.      -1481505.      -1473456.      -1465277.      -1456991.
      -1448589.      -1440089.      -1431482.      -1422753.      -1413912.
      -1404951.      -1395860.      -1386669.      -1377360.      -1367935.
      -1358435.      -1348827.      -1339105.      -1329284.      -1319341.
      -1309315.      -1299192.      -1288931.      -1278593.      -1268170.
      -1257642.      -1247035.      -1236310.      -1225511.      -1214620.
      -1203633.      -1192589.      -1181426.      -1170196.      -1158888.
      -1147468.      -1136005.      -1124441.      -1112785.      -1101099.
      -1089305.      -1077446.      -1065521.      -1053488.      -1041427.
      -1029288.      -1017080.      -1004828.      -992482.0      -980081.0
      -967619.0      -955067.0      -942475.0      -929848.0      -917154.0
      -904405.0      -891581.0      -878725.0      -865833.0      -852864.0
      -839850.0      -826793.0      -813685.0      -800558.0      -787406.0
      -774170.0      -760913.0      -747614.0      -734262.0      -720917.0
      -707498.0      -694059.0      -680611.0      -667099.0      -653561.0
      -639996.0      -626404.0      -612788.0      -599142.0      -585492.0
      -571833.0      -558142.0      -544431.0      -530687.0      -516927.0
      -503169.0      -489391.0      -475594.0      -461790.0      -447985.0
      -434152.0      -420297.0      -406446.0      -392587.0      -378732.0
      -364902.0      -351057.0      -337195.0      -323321.0      -309440.0
      -295593.0      -281746.0      -267913.0      -254090.0      -240260.0
      -226463.0      -212676.0      -198895.0      -185129.0      -171352.0
      -157614.0      -143908.0      -130178.0      -116510.0      -102851.0
      -89188.00      -75602.00      -62020.00      -48458.00      -34911.00
      -21363.00      -7859.000       5614.000       19040.00       32435.00
       45818.00       59151.00       72453.00       85717.00       98919.00
       112090.0       125219.0       138333.0       151417.0       164438.0
       177416.0       190359.0       203246.0       216086.0       228886.0
       241638.0       254349.0       266999.0       279606.0       292133.0
       304626.0       317118.0       329487.0       341818.0       354116.0
       366319.0       378508.0       390612.0       402630.0       414615.0
       426530.0       438398.0       450198.0       461920.0       473572.0
       485150.0       496683.0       508143.0       519525.0       530832.0
       542072.0       553237.0       564317.0       575325.0       586260.0
       597111.0       607908.0       618650.0       629289.0       639851.0
       650333.0       660734.0       671065.0       681303.0       691486.0
       701591.0       711576.0       721490.0       731337.0       741092.0
       750775.0       760361.0       769877.0       779301.0       788606.0
       797872.0       807036.0       816132.0       825182.0       834096.0
       842936.0       851670.0       860313.0       868875.0       877331.0
       885742.0       894026.0       902216.0       910324.0       918326.0
       926261.0       934089.0       941863.0       949545.0       957113.0
       964603.0       971946.0       979221.0       986453.0       993559.0
       1000586.       1007497.       1014286.       1021007.       1027615.
       1034140.       1040594.       1046932.       1053185.       1059341.
       1065395.       1071357.       1077205.       1082990.       1088686.
       1094258.       1099755.       1105158.       1110462.       1115675.
       1120793.       1125815.       1130737.       1135557.       1140292.
       1144948.       1149480.       1153904.       1158235.       1162452.
       1166606.       1170686.       1174620.       1178484.       1182277.
       1185937.       1189517.       1192994.       1196375.       1199684.
       1202893.       1206017.       1209019.       1211887.       1214724.
       1217468.       1220083.       1222675.       1225131.       1227450.
       1229726.       1231907.       1234034.       1236073.       1237977.
       1239822.       1241554.       1243182.       1244757.       1246238.
       1247629.       1248922.       1250139.       1251245.       1252284.
       1253258.       1254106.       1254903.       1255616.       1256252.
       1256796.       1257243.       1257610.       1257864.       1258064.
       1258175.       1258202.       1258168.       1258018.       1257797.
       1257520.       1257123.       1256648.       1256129.       1255505.
       1254800.       1254011.       1253137.       1252185.       1251162.
