     0.02500000      -12345.00      -12345.00   2.447790e+09      -12345.00
   0.0005380000       1859.976      -465.0196      -12345.00      -12345.00
      -12345.00      -12345.00      -12345.00      -12345.00      -12345.00
      -12345.00      -12345.00      -12345.00      -12345.00      -12345.00
      -12345.00      -12345.00      -12345.00      -12345.00      -12345.00
      -12345.00      -12345.00      -12345.00      -12345.00      -12345.00
      -12345.00      -21.15900       119.7313       190.0000       0.000000
      -42.72450       173.0647      -12345.00       22.00000      -12345.00
      -12345.00      -12345.00      -12345.00      -12345.00      -12345.00
      -12345.00      -12345.00      -12345.00      -12345.00      -12345.00
       5471.397       278.5350       128.6724       49.20764      -12345.00
      -12345.00      -12345.00       91.00000       90.00000      -12345.00
      -12345.00      -12345.00      -12345.00      -12345.00      -12345.00
      -12345.00      -12345.00      -12345.00      -12345.00      -12345.00
      2016       318        11        10        44
        19         6    -12345    -12345     74400
    -12345    -12345    -12345    -12345    -12345
         1    -12345    -12345    -12345    -12345
    -12345    -12345    -12345    -12345    -12345
    -12345    -12345    -12345    -12345    -12345
    -12345    -12345    -12345    -12345    -12345
         1    -12345    -12345    -12345    -12345
MBWA    South Island, Ne
10      -12345  -12345  
-12345  -12345  -12345  
-12345  -12345  -12345  
-12345  -12345  -12345  
-12345  -12345  -12345  
-12345  -12345  BH2     
IU      -12345  Streckei
[...]
      -1410326.      -1422071.      -1433720.      -1445212.      -1456630.
      -1467904.      -1479049.      -1490178.      -1501101.      -1511931.
      -1522737.      -1533345.      -1543854.      -1554256.      -1564502.
      -1574685.      -1584739.      -1594660.      -1604493.      -1614203.
      -1623825.      -1633297.      -1642633.      -1651892.      -1661008.
      -1670026.      -1678938.      -1687698.      -1696388.      -1704938.
      -1713346.      -1721706.      -1729917.      -1737989.      -1745966.
      -1753820.      -1761541.      -1769157.      -1776653.      -1784025.
      -1791305.      -1798461.      -1805510.      -1812395.      -1819192.
      -1825884.      -1832388.      -1838832.      -1845145.      -1851292.
      -1857360.      -1863288.      -1869083.      -1874817.      -1880402.
      -1885853.      -1891200.      -1896380.      -1901439.      -1906396.
      -1911210.      -1915889.      -1920470.      -1924926.      -1929255.
      -1933477.      -1937603.      -1941574.      -1945411.      -1949130.
      -1952706.      -1956194.      -1959515.      -1962729.      -1965854.
      -1968816.      -1971703.      -1974436.      -1977032.      -1979544.
      -1981870.      -1984099.      -1986235.      -1988212.      -1990079.
      -1991820.      -1993415.      -1994911.      -1996272.      -1997495.
      -1998652.      -1999647.      -2000482.      -2001207.      -2001781.
      -2002257.      -2002626.      -2002881.      -2003015.      -2002980.
      -2002832.      -2002555.      -2002164.      -2001676.      -2001027.
      -2000248.      -1999360.      -1998333.      -1997185.      -1995961.
      -1994584.      -1993087.      -1991522.      -1989775.      -1987923.
      -1985986.      -1983861.      -1981650.      -1979333.      -1976861.
      -1974295.      -1971591.      -1968775.      -1965848.      -1962803.
      -1959643.      -1956332.      -1952908.      -1949370.      -1945724.
      -1941955.      -1938090.      -1934072.      -1929902.      -1925695.
      -1921342.      -1916859.      -1912289.      -1907601.      -1902820.
      -1897901.      -1892876.      -1887763.      -1882497.      -1877122.
      -1871647.      -1866060.      -1860399.      -1854601.      -1848676.
      -1842647.      -1836511.      -1830288.      -1823935.      -1817470.
      -1810894.      -1804212.      -1797434.      -1790563.      -1783609.
      -1776509.      -1769292.      -1762006.      -1754586.      -1747059.
      -1739445.      -1731661.      -1723828.      -1715944.      -1707874.
      -1699769.      -1691527.      -1683150.      -1674731.      -1666149.
      -1657513.      -1648764.      -1639894.      -1630964.      -1621910.
      -1612777.      -1603531.      -1594155.      -1584709.      -1575179.
      -1565530.      -1555807.      -1546006.      -1536064.      -1526021.
      -1515926.      -1505714.      -1495419.      -1485075.      -1474593.
      -1464069.      -1453467.      -1442717.      -1431952.      -1421051.
      -1410044.      -1399013.      -1387837.      -1376613.      -1365312.
      -1353887.      -1342407.      -1330826.      -1319175.      -1307473.
      -1295677.      -1283769.      -1271786.      -1259763.      -1247643.
      -1235424.      -1223157.      -1210793.      -1198352.      -1185878.
      -1173301.      -1160688.      -1148011.      -1135216.      -1122408.
      -1109526.      -1096552.      -1083504.      -1070417.      -1057304.
      -1044075.      -1030808.      -1017490.      -1004101.      -990683.0
      -977189.0      -963633.0      -950023.0      -936327.0      -922586.0
      -908810.0      -894941.0      -881029.0      -867099.0      -853085.0
      -839055.0      -824960.0      -810789.0      -796603.0      -782339.0
      -768076.0      -753756.0      -739393.0      -725028.0      -710558.0
      -696037.0      -681504.0      -666948.0      -652327.0      -637692.0
      -623021.0      -608289.0      -593540.0      -578750.0      -563922.0
      -549077.0      -534202.0      -519273.0      -504325.0      -489332.0
      -474301.0      -459250.0      -444152.0      -429044.0      -413873.0
      -398690.0      -383527.0      -368282.0      -353035.0      -337788.0
      -322486.0      -307216.0      -291917.0      -276516.0      -261137.0
      -245722.0      -230302.0      -214904.0      -199444.0      -183992.0
      -168523.0      -153047.0      -137508.0      -121958.0      -106452.0
      -90875.00      -75299.00      -59748.00      -44192.00      -28584.00
      -12944.00       2654.000       18294.00       33937.00       49557.00
       65243.00       80867.00       96463.00       112126.0       127761.0
       143439.0       159097.0       174701.0       190372.0       205977.0
       221555.0       237201.0       252802.0       268414.0       284034.0
       299625.0       315210.0       330768.0       346325.0       361882.0
       377392.0       392917.0       408474.0       423975.0       439455.0
       454930.0       470380.0       485834.0       501273.0       516671.0
       532089.0       547499.0       562836.0       578171.0       593518.0
       608814.0       624078.0       639336.0       654541.0       669765.0
       684966.0       700095.0       715289.0       730393.0       745429.0
       760484.0       775494.0       790501.0       805452.0       820358.0
       835239.0       850086.0       864870.0       879636.0       894370.0
       909039.0       923698.0       938312.0       952906.0       967437.0
       981925.0       996379.0       1010755.       1025098.       1039401.
       1053649.       1067864.       1082015.       1096094.       1110146.
       1124112.       1138042.       1151955.       1165760.       1179523.
       1193238.       1206863.       1220407.       1233897.       1247320.
       1260665.       1273948.       1287162.       1300331.       1313404.
       1326427.       1339414.       1352277.       1365081.       1377798.
       1390403.       1403005.       1415514.       1427899.       1440263.
       1452507.       1464681.       1476831.       1488834.       1500735.
       1512600.       1524329.       1535945.       1547566.       1559075.
       1570498.       1581860.       1593068.       1604228.       1615276.
       1626176.       1637049.       1647815.       1658450.       1669014.
       1679473.       1689831.       1700077.       1710198.       1720251.
       1730207.       1740060.       1749834.       1759456.       1768984.
       1778442.       1787743.       1796943.       1806051.       1815012.
       1823875.       1832662.       1841343.       1849908.       1858350.
       1866674.       1874897.       1882996.       1890958.       1898842.
       1906606.       1914233.       1921785.       1929197.       1936502.
       1943690.       1950705.       1957646.       1964445.       1971086.
       1977658.       1984091.       1990381.       1996582.       2002654.
       2008549.       2014350.       2020020.       2025545.       2030965.
       2036249.       2041417.       2046432.       2051322.       2056070.
       2060666.       2065151.       2069500.       2073701.       2077773.
       2081752.       2085580.       2089225.       2092774.       2096173.
       2099443.       2102590.       2105552.       2108409.       2111090.
       2113647.       2116089.       2118374.       2120570.       2122538.
       2124368.       2126109.       2127643.       2129058.       2130373.
       2131518.       2132520.       2133418.       2134117.       2134664.
       2135093.       2135363.       2135500.       2135471.       2135327.
       2135041.       2134511.       2133849.       2133092.       2132159.
       2131090.       2129859.       2128487.       2126986.       2125300.
       2123444.       2121446.       2119324.       2117040.       2114599.
       2112007.       2109264.       2106339.       2103245.       2100015.
       2096620.       2093099.       2089415.       2085587.       2081594.
       2077409.       2073076.       2068566.       2063978.       2059205.
       2054200.       2049091.       2043777.       2038323.       2032744.
       2026960.       2021052.       2014982.       2008731.       2002305.
       1995727.       1989031.       1982144.       1975076.       1967859.
       1960495.       1952962.       1945286.       1937470.       1929439.
       1921265.       1912926.       1904420.       1895798.       1886995.
       1878027.       1868887.       1859589.       1850151.       1840511.
       1830722.       1820807.       1810725.       1800512.       1790125.
       1779552.       1768842.       1757963.       1746918.       1735781.
       1724500.       1713018.       1701405.       1689615.       1677661.
       1665585.       1653374.       1641031.       1628487.       1615783.
       1602945.       1589977.       1576846.       1563588.       1550228.
       1536657.       1522964.       1509121.       1495120.       1481017.
       1466733.       1452362.       1437844.       1423141.       1408342.
       1393375.       1378306.       1363149.       1347817.       1332397.
       1316836.       1301082.       1285255.       1269277.       1253157.
       1237004.       1220701.       1204270.       1187747.       1171051.
       1154264.       1137383.       1120382.       1103308.       1086085.
       1068750.       1051333.       1033801.       1016172.       998448.0
       980648.0       962722.0       944699.0       926601.0       908422.0
       890157.0       871767.0       853316.0       834762.0       816126.0
       797426.0       778636.0       759787.0       740835.0       721822.0
       702732.0       683569.0       664358.0       645076.0       625730.0
       606297.0       586798.0       567250.0       547671.0       528052.0
       508357.0       488610.0       468806.0       448948.0       429088.0
       409173.0       389174.0       369175.0       349159.0       329106.0
       309001.0       288856.0       268728.0       248554.0       228316.0
       208092.0       187878.0       167589.0       147291.0       127005.0
       106672.0       86359.00       66018.00       45654.00       25347.00
       4991.000      -15391.00      -35728.00      -56090.00      -76413.00
      -96753.00      -117145.0      -137417.0      -157701.0      -178040.0
      -198339.0      -218629.0      -238851.0      -259055.0      -279265.0
      -299403.0      -319508.0      -339622.0      -359689.0      -379735.0
      -399749.0      -419688.0      -439615.0      -459500.0      -479307.0
      -499056.0      -518783.0      -538447.0      -558037.0      -577598.0
      -597095.0      -616547.0      -635943.0      -655271.0      -674560.0
      -693753.0      -712858.0      -731928.0      -750926.0      -769859.0
      -788689.0      -807454.0      -826205.0      -844847.0      -863399.0
      -881858.0      -900226.0      -918567.0      -936802.0      -954928.0
      -973021.0      -990981.0      -1008828.      -1026627.      -1044295.
      -1061909.      -1079427.      -1096818.      -1114171.      -1131406.
      -1148499.      -1165524.      -1182443.      -1199224.      -1215947.
      -1232553.      -1249033.      -1265451.      -1281722.      -1297842.
      -1313905.      -1329845.      -1345621.      -1361310.      -1376888.
      -1392354.      -1407698.      -1422914.      -1438014.      -1452974.
      -1467801.      -1482524.      -1497134.      -1511617.      -1525995.
      -1540209.      -1554289.      -1568238.      -1582024.      -1595721.
      -1609267.      -1622684.      -1635966.      -1649088.      -1662093.
      -1674936.      -1687656.      -1700232.      -1712657.      -1724953.
      -1737061.      -1749030.      -1760869.      -1772558.      -1784126.
      -1795525.      -1806749.      -1817802.      -1828711.      -1839512.
      -1850093.      -1860508.      -1870817.      -1880947.      -1890932.
      -1900719.      -1910330.      -1919838.      -1929175.      -1938314.
      -1947294.      -1956097.      -1964711.      -1973183.      -1981497.
      -1989620.      -1997622.      -2005444.      -2013044.      -2020517.
      -2027774.      -2034860.      -2041807.      -2048538.      -2055153.
      -2061589.      -2067794.      -2073864.      -2079750.      -2085444.
      -2090974.      -2096294.      -2101471.      -2106470.      -2111234.
      -2115860.      -2120319.      -2124561.      -2128626.      -2132518.
      -2136218.      -2139739.      -2143058.      -2146223.      -2149214.
      -2151980.      -2154566.      -2156922.      -2159131.      -2161208.
      -2163041.      -2164713.      -2166221.      -2167523.      -2168622.
      -2169507.      -2170254.      -2170827.      -2171171.      -2171331.
      -2171296.      -2171095.      -2170715.      -2170135.      -2169411.
      -2168498.      -2167342.      -2166049.      -2164578.      -2162857.
      -2161000.      -2158951.      -2156703.      -2154332.      -2151762.
      -2148953.      -2145970.      -2142843.      -2139493.      -2136013.
      -2132367.      -2128490.      -2124477.      -2120193.      -2115761.
      -2111235.      -2106443.      -2101518.      -2096407.      -2091069.
      -2085621.      -2079958.      -2074144.      -2068212.      -2062056.
      -2055752.      -2049255.      -2042550.      -2035708.      -2028688.
      -2021525.      -2014206.      -2006679.      -1999029.      -1991212.
      -1983198.      -1975095.      -1966780.      -1958295.      -1949707.
      -1940922.      -1931996.      -1922902.      -1913634.      -1904226.
      -1894673.      -1884983.      -1875153.      -1865176.      -1855044.
      -1844762.      -1834313.      -1823724.      -1812992.      -1802094.
      -1791088.      -1779959.      -1768672.      -1757252.      -1745674.
      -1733969.      -1722152.      -1710154.      -1698038.      -1685814.
      -1673447.      -1660974.      -1648349.      -1635609.      -1622753.
      -1609761.      -1596700.      -1583485.      -1570155.      -1556734.
      -1543146.      -1529495.      -1515715.      -1501785.      -1487828.
      -1473722.      -1459508.      -1445223.      -1430769.      -1416262.
      -1401659.      -1386947.      -1372179.      -1357272.      -1342274.
      -1327202.      -1311995.      -1296716.      -1281387.      -1265954.
      -1250447.      -1234827.      -1219137.      -1203407.      -1187562.
      -1171643.      -1155657.      -1139583.      -1123470.      -1107320.
      -1091042.      -1074717.      -1058336.      -1041847.      -1025371.
      -1008795.      -992146.0      -975498.0      -958735.0      -941920.0
      -925071.0      -908151.0      -891195.0      -874180.0      -857133.0
      -840078.0      -822950.0      -805781.0      -788564.0      -771295.0
      -754020.0      -736699.0      -719338.0      -701951.0      -684540.0
      -667085.0      -649578.0      -632057.0      -614512.0      -596946.0
      -579399.0      -561828.0      -544207.0      -526559.0      -508876.0
      -491214.0      -473547.0      -455870.0      -438204.0      -420496.0
      -402811.0      -385132.0      -367420.0      -349737.0      -332012.0
      -314298.0      -296635.0      -278903.0      -261236.0      -243585.0
      -225876.0      -208264.0      -190645.0      -173016.0      -155418.0
      -137784.0      -120182.0      -102611.0      -85065.00      -67568.00
      -50058.00      -32574.00      -15143.00       2279.000       19644.00
       36964.00       54260.00       71546.00       88808.00       106019.0
       123188.0       140317.0       157409.0       174454.0       191453.0
       208418.0       225342.0       242202.0       259032.0       275772.0
       292462.0       309194.0       325787.0       342323.0       358852.0
       375262.0       391668.0       408004.0       424223.0       440415.0
       456538.0       472613.0       488626.0       504536.0       520380.0
       536138.0       551841.0       567491.0       583044.0       598511.0
       613909.0       629220.0       644434.0       659568.0       674618.0
       689581.0       704473.0       719312.0       734043.0       748675.0
       763211.0       777657.0       792026.0       806282.0       820482.0
       834599.0       848568.0       862447.0       876253.0       889952.0
       903566.0       917071.0       930482.0       943801.0       956970.0
       970091.0       983104.0       996012.0       1008892.       1021600.
       1034219.       1046728.       1059092.       1071386.       1083531.
       1095618.       1107579.       1119383.       1131112.       1142707.
       1154213.       1165601.       1176900.       1188105.       1199162.
       1210113.       1220892.       1231568.       1242205.       1252687.
       1263065.       1273302.       1283365.       1293351.       1303190.
       1312916.       1322569.       1332061.       1341448.       1350711.
       1359834.       1368852.       1377710.       1386479.       1395155.
       1403656.       1412052.       1420342.       1428487.       1436522.
       1444436.       1452214.       1459873.       1467388.       1474785.
       1482092.       1489227.       1496219.       1503097.       1509815.
       1516442.       1522983.       1529323.       1535558.       1541722.
       1547694.       1553557.       1559291.       1564879.       1570382.
       1575742.       1580992.       1586096.       1590994.       1595846.
       1600597.       1605144.       1609662.       1614030.       1618181.
       1622275.       1626239.       1630115.       1633900.       1637487.
       1640990.       1644354.       1647553.       1650690.       1653699.
       1656574.       1659324.       1661962.       1664453.       1666838.
       1669140.       1671266.       1673313.       1675249.       1677067.
       1678780.       1680337.       1681801.       1683100.       1684301.
       1685413.       1686385.       1687269.       1688009.       1688627.
       1689172.       1689568.       1689820.       1690031.       1690097.
       1690026.       1689863.       1689562.       1689157.       1688650.
       1688049.       1687330.       1686542.       1685616.       1684534.
