     0.05000000      -12345.00      -12345.00   6.007140e+09      -12345.00
   0.0005380000       1859.951      -695.0195      -12345.00      -12345.00
      -12345.00      -12345.00      -12345.00      -12345.00      -12345.00
      -12345.00      -12345.00      -12345.00      -12345.00      -12345.00
      -12345.00      -12345.00      -12345.00      -12345.00      -12345.00
      -12345.00      -12345.00      -12345.00      -12345.00      -12345.00
      -12345.00       36.54567       138.2041       405.0000       0.000000
      -42.72450       173.0647      -12345.00       22.00000      -12345.00
      -12345.00      -12345.00      -12345.00      -12345.00      -12345.00
      -12345.00      -12345.00      -12345.00      -12345.00      -12345.00
       9457.736       332.4834       154.9907       85.05923      -12345.00
      -12345.00      -12345.00       0.000000       0.000000      -12345.00
      -12345.00      -12345.00      -12345.00      -12345.00      -12345.00
      -12345.00      -12345.00      -12345.00      -12345.00      -12345.00
      2016       318        11        14        34
        19         6    -12345    -12345     37200
    -12345    -12345    -12345    -12345    -12345
         1    -12345    -12345    -12345    -12345
    -12345    -12345    -12345    -12345    -12345
    -12345    -12345    -12345    -12345    -12345
    -12345    -12345    -12345    -12345    -12345
         1    -12345    -12345    -12345    -12345
MAJO    South Island, Ne
00      -12345  -12345  
-12345  -12345  -12345  
-12345  -12345  -12345  
-12345  -12345  -12345  
-12345  -12345  -12345  
-12345  -12345  BHZ     
IU      -12345  Streckei
[...]
       266986.0       265339.0       263688.0       261948.0       260019.0
       258014.0       256013.0       254187.0       252467.0       250769.0
       249031.0       247045.0       244991.0       243009.0       241102.0
       239338.0       237559.0       235703.0       233714.0       231667.0
       229652.0       227699.0       225894.0       224054.0       222172.0
       220147.0       218038.0       215930.0       213891.0       212041.0
       210185.0       208276.0       206311.0       204262.0       202094.0
       200058.0       198079.0       196123.0       194263.0       192268.0
       190155.0       187865.0       185607.0       183478.0       181494.0
       179592.0       177546.0       175421.0       173187.0       170973.0
       168863.0       166868.0       164958.0       162893.0       160698.0
       158479.0       156298.0       154303.0       152364.0       150292.0
       148099.0       145869.0       143581.0       141302.0       139153.0
       136981.0       134833.0       132638.0       130345.0       127989.0
       125596.0       123284.0       121047.0       118904.0       116655.0
       114270.0       111820.0       109370.0       106986.0       104709.0
       102451.0       100096.0       97709.00       95219.00       92774.00
       90387.00       88068.00       85790.00       83431.00       81090.00
       78663.00       76207.00       73767.00       71444.00       69262.00
       67020.00       64708.00       62309.00       59852.00       57444.00
       55193.00       53015.00       50800.00       48499.00       46177.00
       43779.00       41402.00       39056.00       36720.00       34532.00
       32206.00       29895.00       27583.00       25151.00       22740.00
       20453.00       18255.00       16065.00       13935.00       11602.00
       9128.000       6723.000       4411.000       2167.000       12.00000
      -2184.000      -4616.000      -7152.000      -9605.000      -11916.00
      -14108.00      -16336.00      -18619.00      -20898.00      -23371.00
      -25835.00      -28130.00      -30311.00      -32493.00      -34748.00
      -37033.00      -39442.00      -41777.00      -44058.00      -46320.00
      -48586.00      -50964.00      -53350.00      -55767.00      -58143.00
      -60424.00      -62651.00      -65038.00      -67480.00      -69817.00
      -72302.00      -74735.00      -77073.00      -79400.00      -81693.00
      -84025.00      -86421.00      -88919.00      -91385.00      -93769.00
      -96071.00      -98383.00      -100705.0      -103032.0      -105479.0
      -107895.0      -110242.0      -112529.0      -114824.0      -117212.0
      -119490.0      -121862.0      -124291.0      -126569.0      -128854.0
      -131076.0      -133242.0      -135487.0      -137690.0      -139909.0
      -142102.0      -144108.0      -146199.0      -148116.0      -150155.0
      -152328.0      -154333.0      -156353.0      -158092.0      -159947.0
      -161785.0      -163602.0      -165660.0      -167518.0      -169211.0
      -170912.0      -172591.0      -174216.0      -175942.0      -177728.0
      -179539.0      -181189.0      -182718.0      -184276.0      -185752.0
      -187346.0      -188876.0      -190320.0      -191754.0      -193130.0
      -194553.0      -195913.0      -197242.0      -198626.0      -199994.0
      -201230.0      -202454.0      -203755.0      -204907.0      -206079.0
      -207354.0      -208469.0      -209627.0      -210748.0      -211819.0
      -213017.0      -214187.0      -215396.0      -216550.0      -217663.0
      -218762.0      -219858.0      -221018.0      -222195.0      -223403.0
      -224495.0      -225575.0      -226711.0      -227846.0      -228866.0
      -229873.0      -230864.0      -231842.0      -232842.0      -233699.0
      -234640.0      -235405.0      -236233.0      -236980.0      -237586.0
      -238343.0      -238901.0      -239535.0      -239894.0      -240350.0
      -240974.0      -241410.0      -242001.0      -242335.0      -242648.0
      -243019.0      -243318.0      -243697.0      -244066.0      -244434.0
      -244628.0      -244866.0      -245174.0      -245437.0      -245785.0
      -246049.0      -246442.0      -246816.0      -247105.0      -247502.0
      -247822.0      -248298.0      -248665.0      -248963.0      -249455.0
      -249815.0      -250258.0      -250719.0      -251041.0      -251396.0
      -251754.0      -252142.0      -252618.0      -253005.0      -253348.0
      -253652.0      -253829.0      -254140.0      -254453.0      -254806.0
      -255075.0      -255346.0      -255649.0      -255649.0      -255901.0
      -256232.0      -256585.0      -256987.0      -257112.0      -257356.0
      -257493.0      -257759.0      -258096.0      -258276.0      -258736.0
      -258928.0      -259176.0      -259501.0      -259674.0      -260043.0
      -260223.0      -260552.0      -260860.0      -260994.0      -261176.0
      -261292.0      -261576.0      -261830.0      -262101.0      -262353.0
      -262516.0      -262596.0      -262688.0      -262917.0      -263107.0
      -263344.0      -263424.0      -263480.0      -263466.0      -263369.0
      -263374.0      -263307.0      -263364.0      -263471.0      -263504.0
      -263453.0      -263461.0      -263513.0      -263486.0      -263556.0
      -263619.0      -263618.0      -263436.0      -263154.0      -262861.0
      -262472.0      -262217.0      -261854.0      -261496.0      -261186.0
      -260759.0      -260509.0      -260229.0      -260098.0      -260078.0
      -259770.0      -259442.0      -258984.0      -258308.0      -257821.0
      -257233.0      -256452.0      -255670.0      -254690.0      -253773.0
      -252818.0      -251711.0      -250774.0      -249816.0      -248687.0
      -247528.0      -246274.0      -244976.0      -243604.0      -242197.0
      -240843.0      -239486.0      -238181.0      -236783.0      -235490.0
      -234133.0      -232550.0      -231003.0      -229339.0      -227738.0
      -226070.0      -224242.0      -222369.0      -220424.0      -218618.0
      -216897.0      -215307.0      -213795.0      -212224.0      -210683.0
      -209240.0      -207938.0      -206554.0      -205046.0      -203432.0
      -201672.0      -199712.0      -197611.0      -195575.0      -193353.0
      -190968.0      -188408.0      -185616.0      -182813.0      -179966.0
      -177163.0      -174382.0      -171534.0      -168491.0      -165301.0
      -162005.0      -158652.0      -155435.0      -151999.0      -148452.0
      -144815.0      -140890.0      -136997.0      -132995.0      -129140.0
      -125517.0      -121782.0      -118092.0      -114376.0      -110570.0
      -106866.0      -103502.0      -100143.0      -96601.00      -92954.00
      -88942.00      -84964.00      -81057.00      -77142.00      -73497.00
      -69567.00      -65506.00      -61473.00      -57323.00      -53314.00
      -49118.00      -45118.00      -41109.00      -36840.00      -32577.00
      -28011.00      -23491.00      -18982.00      -14619.00      -10404.00
      -5898.000      -1266.000       3474.000       8299.000       13084.00
       17906.00       22782.00       27865.00       33149.00       38481.00
       43963.00       49245.00       54477.00       59725.00       64812.00
       69933.00       74887.00       79756.00       84499.00       89087.00
       93605.00       98095.00       102585.0       107024.0       111450.0
       115756.0       119926.0       123947.0       127894.0       131809.0
       135685.0       139539.0       143460.0       147428.0       151476.0
       155713.0       159954.0       164288.0       168669.0       173031.0
       177515.0       182119.0       186851.0       191597.0       196457.0
       201410.0       206348.0       211394.0       216512.0       221770.0
       227120.0       232465.0       237856.0       243220.0       248502.0
       253728.0       258925.0       263977.0       268959.0       273867.0
       278667.0       283493.0       288190.0       292886.0       297641.0
       302302.0       306867.0       311227.0       315506.0       319706.0
       323827.0       327909.0       331860.0       335768.0       339637.0
       343471.0       347251.0       350906.0       354352.0       357720.0
       360996.0       364102.0       367153.0       370067.0       372957.0
       375802.0       378586.0       381425.0       384250.0       387115.0
       390018.0       392957.0       395953.0       398981.0       402002.0
       404914.0       407850.0       410757.0       413541.0       416390.0
       419097.0       421727.0       424341.0       426727.0       429159.0
       431539.0       433923.0       436362.0       438680.0       441045.0
       443277.0       445465.0       447573.0       449504.0       451312.0
       452922.0       454328.0       455458.0       456599.0       457617.0
       458623.0       459721.0       460651.0       461650.0       462680.0
       463784.0       464916.0       466052.0       467200.0       468170.0
       469039.0       469726.0       470109.0       470410.0       470506.0
       470501.0       470488.0       470304.0       470211.0       470050.0
       470036.0       470144.0       470236.0       470307.0       470145.0
       469885.0       469451.0       469073.0       468560.0       467912.0
       467304.0       466550.0       465780.0       464862.0       463931.0
       462972.0       461984.0       460971.0       459914.0       458949.0
       457797.0       456513.0       455027.0       453390.0       451786.0
       450118.0       448465.0       446760.0       445061.0       443321.0
       441412.0       439429.0       437364.0       435139.0       432897.0
       430727.0       428493.0       426334.0       424189.0       421972.0
       419756.0       417541.0       415308.0       412969.0       410644.0
       408230.0       405645.0       402790.0       399786.0       396773.0
       393580.0       390343.0       387033.0       383679.0       380294.0
       376904.0       373467.0       369924.0       366327.0       362429.0
       358478.0       354474.0       350228.0       345972.0       341512.0
       337028.0       332545.0       327950.0       323438.0       318850.0
       314227.0       309505.0       304731.0       299888.0       294996.0
       290190.0       285134.0       279983.0       274693.0       269276.0
       263878.0       258325.0       252767.0       247127.0       241425.0
       235721.0       229989.0       224293.0       218630.0       212915.0
       207156.0       201345.0       195355.0       189382.0       183362.0
       177322.0       171398.0       165426.0       159446.0       153347.0
       147277.0       141188.0       134979.0       128836.0       122556.0
       116379.0       110244.0       103990.0       97757.00       91292.00
       84735.00       78280.00       71781.00       65176.00       58513.00
       51863.00       45190.00       38535.00       31978.00       25434.00
       18988.00       12527.00       6045.000      -466.0000      -7038.000
      -13613.00      -20378.00      -27063.00      -33817.00      -40627.00
      -47415.00      -54309.00      -61144.00      -68066.00      -74985.00
      -81954.00      -89032.00      -96223.00      -103474.0      -110692.0
      -117863.0      -124903.0      -131991.0      -139009.0      -145965.0
      -152934.0      -159695.0      -166467.0      -173264.0      -179973.0
      -186698.0      -193355.0      -199937.0      -206396.0      -212789.0
      -219132.0      -225367.0      -231541.0      -237665.0      -243769.0
      -249801.0      -255754.0      -261713.0      -267616.0      -273495.0
      -279495.0      -285419.0      -291327.0      -297219.0      -302945.0
      -308690.0      -314355.0      -319876.0      -325332.0      -330704.0
      -336078.0      -341492.0      -346822.0      -352098.0      -357196.0
      -362235.0      -367253.0      -371957.0      -376592.0      -381051.0
      -385350.0      -389628.0      -393754.0      -397800.0      -401795.0
      -405657.0      -409360.0      -412994.0      -416377.0      -419703.0
      -423031.0      -426121.0      -429185.0      -432027.0      -434685.0
      -437261.0      -439595.0      -442015.0      -444432.0      -446684.0
      -448843.0      -450912.0      -452929.0      -454886.0      -456807.0
      -458658.0      -460455.0      -462097.0      -463668.0      -465176.0
      -466627.0      -468048.0      -469347.0      -470706.0      -472057.0
      -473404.0      -474715.0      -475961.0      -477205.0      -478367.0
      -479565.0      -480764.0      -481785.0      -482694.0      -483500.0
      -484202.0      -484850.0      -485373.0      -485765.0      -485928.0
      -486025.0      -486037.0      -485969.0      -485872.0      -485551.0
      -485246.0      -484731.0      -484155.0      -483656.0      -483000.0
      -482482.0      -481820.0      -481033.0      -480264.0      -479334.0
      -478280.0      -477168.0      -476033.0      -474674.0      -473262.0
      -471792.0      -470155.0      -468382.0      -466469.0      -464448.0
      -462332.0      -460348.0      -458271.0      -456217.0      -454152.0
      -451943.0      -449883.0      -447781.0      -445658.0      -443468.0
      -441166.0      -438806.0      -436292.0      -433676.0      -431124.0
      -428586.0      -425906.0      -423213.0      -420388.0      -417602.0
      -414962.0      -412248.0      -409580.0      -406809.0      -404123.0
      -401408.0      -398463.0      -395550.0      -392466.0      -389417.0
      -386312.0      -383150.0      -380083.0      -376813.0      -373647.0
      -370549.0      -367481.0      -364506.0      -361504.0      -358423.0
      -355161.0      -351795.0      -348352.0      -344969.0      -341459.0
      -337829.0      -334117.0      -330277.0      -326489.0      -322608.0
      -318804.0      -315028.0      -311066.0      -307101.0      -303134.0
      -299198.0      -295259.0      -291278.0      -287314.0      -283338.0
      -279440.0      -275485.0      -271496.0      -267550.0      -263539.0
      -259642.0      -255835.0      -252094.0      -248351.0      -244530.0
      -240694.0      -236761.0      -232874.0      -228948.0      -224808.0
      -220599.0      -216338.0      -212030.0      -207721.0      -203437.0
      -199090.0      -194682.0      -190228.0      -185738.0      -181198.0
      -176561.0      -171909.0      -167007.0      -161964.0      -156998.0
      -152034.0      -147199.0      -142492.0      -137762.0      -133021.0
      -128461.0      -123915.0      -119461.0      -115245.0      -111056.0
      -106985.0      -102939.0      -99024.00      -95202.00      -91390.00
      -87730.00      -84018.00      -80378.00      -76686.00      -73051.00
      -69584.00      -66124.00      -62984.00      -59828.00      -56594.00
      -53417.00      -50161.00      -46972.00      -43804.00      -40714.00
      -37544.00      -34374.00      -31240.00      -27966.00      -24854.00
      -21770.00      -18651.00      -15609.00      -12468.00      -9322.000
      -6092.000      -2702.000       716.0000       4268.000       7852.000
       11522.00       15263.00       18978.00       22677.00       26155.00
       29525.00       32739.00       35857.00       38957.00       41978.00
       44950.00       47680.00       50348.00       53011.00       55643.00
       58282.00       60777.00       63280.00       65664.00       67713.00
       69610.00       71324.00       72854.00       74279.00       75469.00
       76555.00       77612.00       78609.00       79742.00       80949.00
       82202.00       83464.00       84709.00       85932.00       87149.00
       88399.00       89547.00       90707.00       91795.00       92810.00
       93847.00       94756.00       95601.00       96457.00       97338.00
       98231.00       99199.00       100246.0       101257.0       102285.0
       103297.0       104188.0       105017.0       105702.0       106207.0
       106710.0       107163.0       107491.0       107719.0       107793.0
       107786.0       107654.0       107381.0       107153.0       106767.0
       106334.0       105963.0       105622.0       105420.0       105105.0
       104817.0       104487.0       104187.0       103951.0       103599.0
       103317.0       102926.0       102508.0       102017.0       101437.0
       100799.0       100023.0       99222.00       98384.00       97574.00
       96799.00       96053.00       95308.00       94625.00       93946.00
       93091.00       92128.00       91125.00       90026.00       88989.00
       88021.00       86948.00       85815.00       84498.00       83133.00
       81827.00       80447.00       79133.00       77880.00       76583.00
       75306.00       74071.00       72793.00       71651.00       70559.00
       69354.00       68282.00       67127.00       65923.00       64765.00
       63609.00       62606.00       61573.00       60583.00       59638.00
       58647.00       57725.00       56903.00       56043.00       55113.00
       54158.00       53066.00       51836.00       50540.00       49173.00
       47724.00       46310.00       44836.00       43248.00       41627.00
       40010.00       38472.00       36945.00       35379.00       33789.00
       32141.00       30479.00       28880.00       27327.00       25747.00
       24105.00       22456.00       20690.00       18974.00       17353.00
       15665.00       14013.00       12274.00       10618.00       9041.000
       7462.000       5913.000       4349.000       2846.000       1351.000
       31.00000      -1298.000      -2750.000      -4193.000      -5712.000
      -7205.000      -8811.000      -10534.00      -12287.00      -14125.00
      -15997.00      -17952.00      -19919.00      -22064.00      -24267.00
      -26443.00      -28738.00      -30984.00      -33340.00      -35590.00
      -37768.00      -39979.00      -41946.00      -43970.00      -45979.00
      -47960.00      -49922.00      -51676.00      -53317.00      -54900.00
      -56453.00      -57919.00      -59361.00      -60671.00      -61912.00
      -63149.00      -64220.00      -65362.00      -66584.00      -67709.00
      -68828.00      -69898.00      -71093.00      -72267.00      -73387.00
