     0.02500000      -12345.00      -12345.00   3.262830e+10      -12345.00
   0.0005380000       1859.976      -695.0195      -12345.00      -12345.00
      -12345.00      -12345.00      -12345.00      -12345.00      -12345.00
      -12345.00      -12345.00      -12345.00      -12345.00      -12345.00
      -12345.00      -12345.00      -12345.00      -12345.00      -12345.00
      -12345.00      -12345.00      -12345.00      -12345.00      -12345.00
      -12345.00       36.54567       138.2041       405.0000       0.000000
      -42.72450       173.0647      -12345.00       22.00000      -12345.00
      -12345.00      -12345.00      -12345.00      -12345.00      -12345.00
      -12345.00      -12345.00      -12345.00      -12345.00      -12345.00
       9457.736       332.4834       154.9907       85.05923      -12345.00
      -12345.00      -12345.00       0.000000       90.00000      -12345.00
      -12345.00      -12345.00      -12345.00      -12345.00      -12345.00
      -12345.00      -12345.00      -12345.00      -12345.00      -12345.00
      2016       318        11        14        34
        19         6    -12345    -12345     74400
    -12345    -12345    -12345    -12345    -12345
         1    -12345    -12345    -12345    -12345
    -12345    -12345    -12345    -12345    -12345
    -12345    -12345    -12345    -12345    -12345
    -12345    -12345    -12345    -12345    -12345
         1    -12345    -12345    -12345    -12345
MAJO    South Island, Ne
10      -12345  -12345  
-12345  -12345  -12345  
-12345  -12345  -12345  
-12345  -12345  -12345  
-12345  -12345  -12345  
-12345  -12345  BH1     
IU      -12345  Streckei
[...]
      -4180626.      -4181166.      -4181621.      -4182164.      -4182493.
      -4182708.      -4183064.      -4183368.      -4183433.      -4183536.
      -4183740.      -4183753.      -4183827.      -4183945.      -4183819.
      -4183722.      -4183584.      -4183383.      -4183304.      -4183172.
      -4183009.      -4182938.      -4182748.      -4182368.      -4182093.
      -4181759.      -4181164.      -4180679.      -4180228.      -4179546.
      -4178851.      -4178119.      -4177274.      -4176413.      -4175570.
      -4174755.      -4173826.      -4172830.      -4171870.      -4171102.
      -4170343.      -4169338.      -4168348.      -4167102.      -4165668.
      -4164325.      -4162702.      -4160914.      -4159277.      -4157715.
      -4156106.      -4154480.      -4152969.      -4151648.      -4150362.
      -4149000.      -4147437.      -4145492.      -4143457.      -4141381.
      -4138970.      -4136486.      -4133937.      -4131331.      -4128885.
      -4126295.      -4123910.      -4121830.      -4119671.      -4117610.
      -4115366.      -4112914.      -4110264.      -4107108.      -4103820.
      -4100389.      -4096709.      -4093129.      -4089535.      -4086173.
      -4083169.      -4079904.      -4076702.      -4073660.      -4070274.
      -4066744.      -4063071.      -4059130.      -4054883.      -4050420.
      -4046017.      -4041609.      -4037157.      -4032697.      -4028285.
      -4024009.      -4019630.      -4015068.      -4010553.      -4005945.
      -4000990.      -3995885.      -3990691.      -3985134.      -3979539.
      -3974136.      -3968471.      -3962807.      -3957328.      -3951457.
      -3945559.      -3939891.      -3933802.      -3927669.      -3921870.
      -3915687.      -3909160.      -3902845.      -3896445.      -3889719.
      -3882977.      -3876257.      -3869430.      -3862308.      -3855087.
      -3847935.      -3840470.      -3832801.      -3825190.      -3817689.
      -3809963.      -3802042.      -3794317.      -3786332.      -3778115.
      -3769869.      -3761355.      -3752807.      -3744355.      -3735889.
      -3727199.      -3718361.      -3709607.      -3700585.      -3691507.
      -3682484.      -3673025.      -3663572.      -3654230.      -3644657.
      -3635035.      -3625345.      -3615663.      -3606079.      -3596448.
      -3586701.      -3576756.      -3566519.      -3556216.      -3545985.
      -3535535.      -3524977.      -3514388.      -3503654.      -3492838.
      -3481939.      -3471074.      -3460206.      -3449269.      -3438211.
      -3426928.      -3415644.      -3404324.      -3392710.      -3380902.
      -3368912.      -3357033.      -3345311.      -3333252.      -3320985.
      -3308766.      -3296674.      -3284484.      -3272033.      -3259508.
      -3246882.      -3234298.      -3221727.      -3208989.      -3196038.
      -3183065.      -3170305.      -3157421.      -3144370.      -3131168.
      -3117962.      -3104945.      -3091514.      -3077888.      -3064394.
      -3050758.      -3037120.      -3023403.      -3009512.      -2995533.
      -2981517.      -2967602.      -2953667.      -2939480.      -2925208.
      -2910870.      -2896479.      -2882107.      -2867463.      -2852725.
      -2838203.      -2823533.      -2808581.      -2793762.      -2779004.
      -2764002.      -2748763.      -2733526.      -2718431.      -2703154.
      -2687515.      -2671752.      -2656084.      -2640197.      -2624175.
      -2608295.      -2592243.      -2576278.      -2560389.      -2544436.
      -2528395.      -2512011.      -2495768.      -2479606.      -2463198.
      -2446635.      -2429710.      -2412787.      -2396091.      -2379207.
      -2362214.      -2345391.      -2328545.      -2311524.      -2294615.
      -2277724.      -2260471.      -2242984.      -2225517.      -2208126.
      -2190568.      -2172666.      -2154821.      -2137112.      -2119249.
      -2101333.      -2083319.      -2065212.      -2047180.      -2028956.
      -2010654.      -1992431.      -1973967.      -1955494.      -1936938.
      -1918274.      -1899887.      -1881056.      -1862024.      -1843285.
      -1824120.      -1804831.      -1785452.      -1765786.      -1746275.
      -1726819.      -1707345.      -1687732.      -1668098.      -1648614.
      -1628886.      -1609079.      -1589324.      -1569368.      -1549377.
      -1529359.      -1509117.      -1488728.      -1468261.      -1447589.
      -1426921.      -1406286.      -1385432.      -1364693.      -1344030.
      -1323216.      -1302544.      -1281987.      -1261318.      -1240512.
      -1219644.      -1198611.      -1177417.      -1156222.      -1134781.
      -1113175.      -1091657.      -1070021.      -1048528.      -1027303.
      -1006091.      -984762.0      -963287.0      -942003.0      -920661.0
      -898953.0      -877159.0      -855345.0      -833322.0      -811071.0
      -788904.0      -766777.0      -744716.0      -722780.0      -700946.0
      -679304.0      -657557.0      -635824.0      -614010.0      -591970.0
      -569963.0      -547624.0      -525022.0      -502540.0      -480117.0
      -457613.0      -435122.0      -412687.0      -390231.0      -367980.0
      -345678.0      -323245.0      -300938.0      -278610.0      -256200.0
      -233761.0      -211355.0      -188834.0      -166066.0      -143340.0
      -120704.0      -97893.00      -75088.00      -52421.00      -29722.00
      -6920.000       15887.00       38653.00       61558.00       84574.00
       107804.0       131176.0       154325.0       177439.0       200589.0
       223663.0       246824.0       269967.0       293055.0       316160.0
       339304.0       362633.0       385932.0       409217.0       432757.0
       456286.0       479734.0       503369.0       527032.0       550563.0
       574147.0       597846.0       621455.0       644858.0       668375.0
       691922.0       715345.0       738959.0       762632.0       786302.0
       810125.0       833981.0       857628.0       881171.0       904905.0
       928400.0       951469.0       974679.0       998106.0       1021295.
       1044191.       1067297.       1090744.       1114028.       1137235.
       1160661.       1183966.       1207074.       1230160.       1253272.
       1276262.       1299046.       1321832.       1344671.       1367464.
       1390085.       1412748.       1435592.       1458389.       1481133.
       1503781.       1526488.       1549294.       1571783.       1594138.
       1616651.       1639064.       1661286.       1683491.       1705827.
       1728268.       1750559.       1772880.       1795297.       1817436.
       1839602.       1861802.       1883838.       1906009.       1928096.
       1949865.       1971431.       1993008.       2014650.       2035958.
       2057115.       2078553.       2099857.       2120960.       2142298.
       2163461.       2184330.       2205278.       2226172.       2247009.
       2267783.       2288559.       2309186.       2329471.       2349784.
       2369953.       2389960.       2410050.       2429951.       2449769.
       2469552.       2489323.       2509172.       2528861.       2548657.
       2568566.       2588133.       2607434.       2626801.       2646201.
       2665400.       2684320.       2702916.       2721699.       2740744.
       2759363.       2777786.       2796429.       2815127.       2833510.
       2851838.       2870588.       2889079.       2907220.       2925485.
       2943586.       2961518.       2979280.       2996847.       3014386.
       3031767.       3049195.       3066881.       3084441.       3101776.
       3119158.       3136508.       3153750.       3171049.       3188295.
       3205381.       3222549.       3239774.       3256819.       3273908.
       3290983.       3307728.       3324432.       3341168.       3357749.
       3374332.       3390947.       3407462.       3423901.       3440244.
       3456449.       3472767.       3489371.       3505944.       3522186.
       3538335.       3554643.       3570903.       3586947.       3602720.
       3618179.       3633660.       3649333.       3664942.       3680668.
       3696423.       3711949.       3727725.       3743499.       3758970.
       3774530.       3789999.       3805174.       3820041.       3834896.
       3849785.       3864382.       3879031.       3893702.       3908253.
       3922936.       3937700.       3952329.       3966768.       3981156.
       3995434.       4009607.       4023795.       4037880.       4051869.
       4065764.       4079476.       4093253.       4107050.       4120690.
       4134347.       4147878.       4161280.       4174806.       4188394.
       4201908.       4215284.       4228532.       4241673.       4254843.
       4268100.       4281332.       4294485.       4307697.       4320867.
       4333809.       4346991.       4360132.       4372857.       4385658.
       4398325.       4410800.       4423373.       4435920.       4448402.
       4460928.       4473458.       4485935.       4498433.       4510780.
       4523025.       4535286.       4547281.       4559189.       4571168.
       4582980.       4594736.       4606488.       4618188.       4629928.
       4641690.       4653514.       4665301.       4676906.       4688466.
       4699814.       4710932.       4722096.       4733102.       4743939.
       4754738.       4765374.       4776030.       4786809.       4797491.
       4808185.       4818901.       4829353.       4839781.       4850246.
       4860479.       4870553.       4880488.       4890307.       4899994.
       4909551.       4918981.       4928200.       4937322.       4946298.
       4955183.       4964230.       4973271.       4982101.       4990919.
       4999723.       5008327.       5016954.       5025645.       5034035.
       5042148.       5050205.       5058131.       5066047.       5073977.
       5081691.       5089435.       5097086.       5104600.       5112213.
       5119596.       5126927.       5134331.       5141555.       5148538.
       5155390.       5162278.       5168925.       5175510.       5182255.
       5188814.       5195295.       5201871.       5208455.       5214997.
       5221419.       5227725.       5234068.       5240388.       5246455.
       5252447.       5258546.       5264600.       5270531.       5276365.
       5282143.       5287842.       5293494.       5299193.       5304756.
       5310163.       5315621.       5321033.       5326435.       5331788.
       5337111.       5342556.       5347748.       5352867.       5358200.
       5363274.       5368266.       5373417.       5378451.       5383452.
       5388422.       5393374.       5398291.       5402933.       5407584.
       5412386.       5417102.       5421843.       5426553.       5431156.
       5435929.       5440645.       5445311.       5450151.       5454822.
       5459327.       5463711.       5468082.       5472387.       5476519.
       5480815.       5485148.       5489451.       5493788.       5498164.
       5502563.       5506809.       5510954.       5515120.       5519226.
       5523185.       5527111.       5530948.       5534821.       5538610.
       5542116.       5545706.       5548994.       5552031.       5555389.
       5558568.       5561757.       5565275.       5568633.       5571995.
       5575264.       5578164.       5580970.       5583771.       5586581.
       5589123.       5591512.       5594162.       5596759.       5599298.
       5601915.       5604539.       5607209.       5609759.       5612241.
       5614800.       5617419.       5620040.       5622616.       5625155.
       5627612.       5630086.       5632565.       5634885.       5637269.
       5639715.       5641935.       5644084.       5646264.       5648375.
       5650413.       5652521.       5654726.       5656787.       5658894.
       5661175.       5663343.       5665411.       5667443.       5669450.
       5671343.       5673097.       5675036.       5677031.       5678826.
       5680591.       5682385.       5684113.       5685789.       5687452.
       5689142.       5690926.       5692658.       5694400.       5696227.
       5698033.       5699885.       5701592.       5703371.       5705292.
       5706786.       5708100.       5709488.       5710829.       5712082.
       5713175.       5714250.       5715376.       5716537.       5717726.
       5718986.       5720174.       5721224.       5722311.       5723212.
       5723897.       5724594.       5725105.       5725369.       5725650.
       5725943.       5726167.       5726565.       5727135.       5727502.
       5727756.       5728195.       5728606.       5728736.       5728783.
       5728905.       5728841.       5728598.       5728518.       5728426.
       5728082.       5727733.       5727434.       5727136.       5726742.
       5726209.       5725691.       5725101.       5724510.       5723822.
       5722985.       5722194.       5721320.       5720408.       5719487.
       5718489.       5717458.       5716363.       5715176.       5713982.
       5712759.       5711450.       5710136.       5708876.       5707679.
       5706334.       5704875.       5703353.       5701770.       5700315.
       5698601.       5696684.       5694889.       5692975.       5690961.
       5688863.       5686742.       5684615.       5682284.       5679820.
       5677371.       5674862.       5672161.       5669488.       5666882.
       5664173.       5661434.       5658479.       5655495.       5652780.
       5649894.       5646856.       5643815.       5640519.       5637189.
       5633815.       5630128.       5626387.       5622755.       5619097.
       5615373.       5611695.       5608098.       5604419.       5600545.
       5596619.       5592751.       5588672.       5584363.       5579952.
       5575485.       5571111.       5566546.       5561879.       5557474.
       5553028.       5548494.       5543987.       5539403.       5534843.
       5530182.       5525290.       5520289.       5515175.       5509849.
       5504323.       5498743.       5493095.       5487417.       5481755.
       5476138.       5470591.       5464938.       5459294.       5453674.
       5447920.       5442139.       5436344.       5430366.       5424233.
       5418102.       5411829.       5405419.       5398903.       5392267.
       5385502.       5378525.       5371746.       5364955.       5357952.
       5351288.       5344569.       5337838.       5331349.       5324490.
       5317507.       5310494.       5303242.       5295801.       5287923.
       5279950.       5272039.       5263938.       5255785.       5247628.
       5239611.       5231579.       5223401.       5215464.       5207449.
       5199055.       5190551.       5181958.       5173226.       5164294.
       5155046.       5145571.       5136187.       5126840.       5117297.
       5107768.       5098397.       5088968.       5079316.       5069757.
       5060335.       5050661.       5041022.       5031533.       5021765.
       5011751.       5001656.       4991636.       4981494.       4971032.
       4960783.       4950517.       4939948.       4929552.       4919180.
       4908726.       4898423.       4888198.       4877776.       4867165.
       4856770.       4846401.       4835600.       4824749.       4814004.
       4802998.       4791821.       4780635.       4769438.       4758287.
       4747085.       4735767.       4724485.       4713304.       4702032.
       4690646.       4679387.       4668026.       4656402.       4644718.
       4632962.       4621235.       4609419.       4597256.       4585056.
       4573064.       4560898.       4548556.       4536392.       4524227.
       4512094.       4500040.       4487844.       4475709.       4463619.
       4451321.       4438916.       4426569.       4414256.       4401796.
       4389208.       4376702.       4364269.       4351785.       4339283.
       4326817.       4314478.       4302242.       4289926.       4277695.
       4265664.       4253418.       4240894.       4228519.       4216286.
       4203864.       4191148.       4178481.       4166088.       4153515.
       4140799.       4128367.       4115904.       4103297.       4090818.
       4078466.       4066102.       4053716.       4041360.       4028899.
       4016370.       4003878.       3991255.       3978554.       3965864.
       3953116.       3940322.       3927386.       3914473.       3901648.
       3888849.       3876144.       3863476.       3851016.       3838495.
       3825700.       3813129.       3800619.       3787715.       3774718.
       3761666.       3748469.       3735337.       3722057.       3708968.
       3696259.       3683390.       3670588.       3658091.       3645562.
       3632938.       3620551.       3608225.       3595517.       3582777.
       3570129.       3557273.       3544340.       3531387.       3518581.
       3505919.       3492968.       3480035.       3467362.       3454625.
       3441689.       3428813.       3416150.       3403180.       3390113.
       3377371.       3364539.       3351462.       3338251.       3325017.
       3311800.       3298536.       3285080.       3271484.       3258059.
       3244686.       3231154.       3217682.       3204257.       3190762.
       3177351.       3163819.       3150019.       3136279.       3122650.
       3108834.       3094842.       3080918.       3067025.       3053005.
       3038756.       3024441.       3010195.       2995861.       2981503.
       2967197.       2952916.       2938672.       2924466.       2910240.
       2895847.       2881405.       2866770.       2851814.       2836869.
       2821951.       2806895.       2791679.       2776606.       2761701.
       2746641.       2731477.       2716270.       2701191.       2686115.
       2670657.       2655025.       2639439.       2623877.       2608265.
       2592558.       2576827.       2560997.       2545203.       2529551.
       2513698.       2497666.       2481761.       2465802.       2449732.
       2433792.       2417693.       2401444.       2385302.       2369022.
       2352800.       2336733.       2320450.       2304004.       2287705.
