     0.02500000      -12345.00      -12345.00   1.004120e+09      -12345.00
   0.0005380000       1859.976      -695.0195      -12345.00      -12345.00
      -12345.00      -12345.00      -12345.00      -12345.00      -12345.00
      -12345.00      -12345.00      -12345.00      -12345.00      -12345.00
      -12345.00      -12345.00      -12345.00      -12345.00      -12345.00
      -12345.00      -12345.00      -12345.00      -12345.00      -12345.00
      -12345.00       36.54567       138.2041       405.0000       0.000000
      -42.72450       173.0647      -12345.00       22.00000      -12345.00
      -12345.00      -12345.00      -12345.00      -12345.00      -12345.00
      -12345.00      -12345.00      -12345.00      -12345.00      -12345.00
       9457.736       332.4834       154.9907       85.05923      -12345.00
      -12345.00      -12345.00       0.000000       90.00000      -12345.00
      -12345.00      -12345.00      -12345.00      -12345.00      -12345.00
      -12345.00      -12345.00      -12345.00      -12345.00      -12345.00
      2016       318        11        14        34
        19         6    -12345    -12345     74400
    -12345    -12345    -12345    -12345    -12345
         1    -12345    -12345    -12345    -12345
    -12345    -12345    -12345    -12345    -12345
    -12345    -12345    -12345    -12345    -12345
    -12345    -12345    -12345    -12345    -12345
         1    -12345    -12345    -12345    -12345
MAJO    South Island, Ne
60      -12345  -12345  
-12345  -12345  -12345  
-12345  -12345  -12345  
-12345  -12345  -12345  
-12345  -12345  -12345  
-12345  -12345  BH1     
IU      -12345  Metrozet
[...]
       20932.00       20814.00       20701.00       20592.00       20472.00
       20352.00       20231.00       20111.00       19987.00       19861.00
       19741.00       19622.00       19495.00       19366.00       19239.00
       19114.00       18984.00       18853.00       18720.00       18581.00
       18446.00       18306.00       18161.00       18018.00       17866.00
       17714.00       17568.00       17416.00       17257.00       17100.00
       16945.00       16788.00       16631.00       16468.00       16299.00
       16134.00       15963.00       15788.00       15618.00       15450.00
       15272.00       15088.00       14913.00       14736.00       14559.00
       14376.00       14179.00       13992.00       13805.00       13609.00
       13409.00       13210.00       13016.00       12817.00       12618.00
       12423.00       12229.00       12027.00       11820.00       11617.00
       11408.00       11198.00       10986.00       10774.00       10570.00
       10362.00       10153.00       9949.000       9743.000       9531.000
       9322.000       9114.000       8900.000       8684.000       8466.000
       8250.000       8034.000       7812.000       7591.000       7368.000
       7142.000       6920.000       6695.000       6466.000       6237.000
       6007.000       5778.000       5549.000       5322.000       5093.000
       4861.000       4633.000       4399.000       4159.000       3914.000
       3668.000       3424.000       3174.000       2922.000       2666.000
       2407.000       2153.000       1899.000       1646.000       1392.000
       1136.000       870.0000       596.0000       328.0000       57.00000
      -226.0000      -513.0000      -786.0000      -1060.000      -1345.000
      -1622.000      -1901.000      -2185.000      -2467.000      -2754.000
      -3046.000      -3339.000      -3630.000      -3924.000      -4219.000
      -4517.000      -4812.000      -5110.000      -5416.000      -5705.000
      -5995.000      -6299.000      -6604.000      -6912.000      -7214.000
      -7523.000      -7837.000      -8147.000      -8465.000      -8782.000
      -9095.000      -9409.000      -9723.000      -10037.00      -10350.00
      -10668.00      -10987.00      -11305.00      -11630.00      -11959.00
      -12287.00      -12622.00      -12958.00      -13286.00      -13623.00
      -13966.00      -14300.00      -14630.00      -14966.00      -15302.00
      -15647.00      -15992.00      -16330.00      -16677.00      -17025.00
      -17373.00      -17726.00      -18075.00      -18420.00      -18771.00
      -19126.00      -19480.00      -19841.00      -20200.00      -20553.00
      -20922.00      -21294.00      -21657.00      -22031.00      -22403.00
      -22768.00      -23141.00      -23517.00      -23885.00      -24253.00
      -24628.00      -25004.00      -25375.00      -25753.00      -26129.00
      -26495.00      -26870.00      -27242.00      -27617.00      -28002.00
      -28379.00      -28764.00      -29159.00      -29551.00      -29940.00
      -30328.00      -30714.00      -31100.00      -31490.00      -31875.00
      -32266.00      -32654.00      -33042.00      -33438.00      -33832.00
      -34234.00      -34640.00      -35035.00      -35437.00      -35845.00
      -36235.00      -36626.00      -37025.00      -37420.00      -37823.00
      -38226.00      -38628.00      -39034.00      -39440.00      -39841.00
      -40248.00      -40657.00      -41058.00      -41462.00      -41867.00
      -42264.00      -42662.00      -43063.00      -43463.00      -43861.00
      -44259.00      -44662.00      -45058.00      -45449.00      -45843.00
      -46234.00      -46621.00      -47016.00      -47420.00      -47819.00
      -48215.00      -48615.00      -49013.00      -49412.00      -49809.00
      -50198.00      -50587.00      -50976.00      -51360.00      -51745.00
      -52135.00      -52523.00      -52909.00      -53301.00      -53696.00
      -54081.00      -54474.00      -54863.00      -55241.00      -55629.00
      -56008.00      -56388.00      -56773.00      -57147.00      -57521.00
      -57900.00      -58277.00      -58649.00      -59024.00      -59399.00
      -59763.00      -60139.00      -60515.00      -60879.00      -61250.00
      -61620.00      -61983.00      -62344.00      -62705.00      -63067.00
      -63426.00      -63781.00      -64143.00      -64506.00      -64860.00
      -65219.00      -65579.00      -65938.00      -66296.00      -66646.00
      -66999.00      -67346.00      -67692.00      -68047.00      -68389.00
      -68734.00      -69086.00      -69431.00      -69780.00      -70129.00
      -70480.00      -70833.00      -71179.00      -71525.00      -71876.00
      -72225.00      -72568.00      -72911.00      -73253.00      -73592.00
      -73932.00      -74272.00      -74606.00      -74936.00      -75263.00
      -75599.00      -75930.00      -76254.00      -76584.00      -76907.00
      -77232.00      -77564.00      -77890.00      -78210.00      -78529.00
      -78843.00      -79154.00      -79466.00      -79770.00      -80070.00
      -80373.00      -80672.00      -80975.00      -81281.00      -81581.00
      -81881.00      -82183.00      -82485.00      -82786.00      -83082.00
      -83376.00      -83668.00      -83957.00      -84247.00      -84534.00
      -84818.00      -85103.00      -85391.00      -85676.00      -85969.00
      -86262.00      -86551.00      -86845.00      -87137.00      -87432.00
      -87730.00      -88016.00      -88303.00      -88592.00      -88867.00
      -89147.00      -89431.00      -89706.00      -89989.00      -90267.00
      -90545.00      -90833.00      -91113.00      -91399.00      -91680.00
      -91957.00      -92240.00      -92515.00      -92782.00      -93049.00
      -93311.00      -93572.00      -93836.00      -94095.00      -94354.00
      -94617.00      -94877.00      -95141.00      -95411.00      -95670.00
      -95928.00      -96193.00      -96447.00      -96693.00      -96942.00
      -97182.00      -97419.00      -97657.00      -97891.00      -98131.00
      -98370.00      -98611.00      -98854.00      -99087.00      -99329.00
      -99570.00      -99800.00      -100036.0      -100266.0      -100490.0
      -100709.0      -100928.0      -101152.0      -101374.0      -101597.0
      -101822.0      -102047.0      -102269.0      -102489.0      -102712.0
      -102939.0      -103157.0      -103365.0      -103583.0      -103802.0
      -104013.0      -104233.0      -104451.0      -104659.0      -104870.0
      -105084.0      -105299.0      -105506.0      -105718.0      -105938.0
      -106154.0      -106378.0      -106603.0      -106821.0      -107040.0
      -107251.0      -107467.0      -107684.0      -107890.0      -108103.0
      -108319.0      -108534.0      -108755.0      -108980.0      -109208.0
      -109433.0      -109659.0      -109889.0      -110113.0      -110342.0
      -110566.0      -110771.0      -110985.0      -111203.0      -111411.0
      -111625.0      -111841.0      -112050.0      -112268.0      -112493.0
      -112712.0      -112925.0      -113133.0      -113342.0      -113554.0
      -113761.0      -113965.0      -114172.0      -114373.0      -114575.0
      -114787.0      -114997.0      -115202.0      -115412.0      -115622.0
      -115825.0      -116034.0      -116247.0      -116454.0      -116657.0
      -116863.0      -117070.0      -117275.0      -117484.0      -117696.0
      -117905.0      -118112.0      -118325.0      -118541.0      -118753.0
      -118975.0      -119189.0      -119399.0      -119625.0      -119842.0
      -120049.0      -120258.0      -120464.0      -120671.0      -120881.0
      -121091.0      -121304.0      -121521.0      -121738.0      -121957.0
      -122183.0      -122411.0      -122632.0      -122848.0      -123068.0
      -123285.0      -123497.0      -123713.0      -123918.0      -124128.0
      -124352.0      -124570.0      -124797.0      -125026.0      -125247.0
      -125482.0      -125712.0      -125935.0      -126171.0      -126400.0
      -126619.0      -126852.0      -127084.0      -127308.0      -127540.0
      -127769.0      -127991.0      -128223.0      -128463.0      -128691.0
      -128915.0      -129150.0      -129381.0      -129606.0      -129837.0
      -130070.0      -130300.0      -130528.0      -130757.0      -130991.0
      -131222.0      -131450.0      -131680.0      -131913.0      -132146.0
      -132376.0      -132607.0      -132834.0      -133060.0      -133301.0
      -133538.0      -133768.0      -134005.0      -134235.0      -134462.0
      -134695.0      -134936.0      -135180.0      -135417.0      -135659.0
      -135901.0      -136140.0      -136379.0      -136612.0      -136848.0
      -137088.0      -137327.0      -137571.0      -137814.0      -138054.0
      -138297.0      -138545.0      -138790.0      -139036.0      -139278.0
      -139509.0      -139751.0      -139995.0      -140233.0      -140482.0
      -140727.0      -140967.0      -141212.0      -141460.0      -141703.0
      -141943.0      -142191.0      -142435.0      -142674.0      -142925.0
      -143175.0      -143419.0      -143668.0      -143921.0      -144179.0
      -144436.0      -144687.0      -144940.0      -145192.0      -145442.0
      -145692.0      -145944.0      -146198.0      -146449.0      -146705.0
      -146963.0      -147217.0      -147478.0      -147735.0      -147988.0
      -148243.0      -148500.0      -148757.0      -149006.0      -149259.0
      -149512.0      -149765.0      -150025.0      -150277.0      -150535.0
      -150789.0      -151043.0      -151299.0      -151547.0      -151799.0
      -152047.0      -152293.0      -152543.0      -152787.0      -153037.0
      -153287.0      -153535.0      -153785.0      -154029.0      -154274.0
      -154520.0      -154752.0      -154984.0      -155231.0      -155469.0
      -155705.0      -155957.0      -156205.0      -156445.0      -156696.0
      -156951.0      -157191.0      -157433.0      -157679.0      -157914.0
      -158155.0      -158403.0      -158643.0      -158888.0      -159137.0
      -159387.0      -159640.0      -159895.0      -160147.0      -160395.0
      -160640.0      -160884.0      -161127.0      -161372.0      -161622.0
      -161870.0      -162117.0      -162373.0      -162632.0      -162895.0
      -163156.0      -163408.0      -163663.0      -163911.0      -164157.0
      -164400.0      -164632.0      -164872.0      -165117.0      -165358.0
      -165607.0      -165852.0      -166100.0      -166353.0      -166601.0
      -166849.0      -167087.0      -167322.0      -167565.0      -167791.0
      -168016.0      -168247.0      -168467.0      -168695.0      -168925.0
      -169154.0      -169387.0      -169616.0      -169854.0      -170091.0
      -170316.0      -170543.0      -170768.0      -170985.0      -171196.0
      -171409.0      -171619.0      -171829.0      -172042.0      -172244.0
      -172459.0      -172683.0      -172899.0      -173114.0      -173330.0
      -173547.0      -173756.0      -173963.0      -174172.0      -174374.0
      -174574.0      -174775.0      -174977.0      -175174.0      -175366.0
      -175566.0      -175760.0      -175952.0      -176148.0      -176339.0
      -176531.0      -176717.0      -176901.0      -177092.0      -177283.0
      -177469.0      -177659.0      -177848.0      -178030.0      -178214.0
      -178399.0      -178575.0      -178750.0      -178932.0      -179108.0
      -179279.0      -179449.0      -179617.0      -179787.0      -179952.0
      -180120.0      -180289.0      -180450.0      -180614.0      -180781.0
      -180953.0      -181120.0      -181281.0      -181443.0      -181592.0
      -181743.0      -181892.0      -182030.0      -182177.0      -182317.0
      -182462.0      -182610.0      -182751.0      -182904.0      -183060.0
      -183212.0      -183362.0      -183500.0      -183631.0      -183765.0
      -183887.0      -184003.0      -184122.0      -184236.0      -184354.0
      -184469.0      -184585.0      -184714.0      -184841.0      -184971.0
      -185099.0      -185219.0      -185338.0      -185438.0      -185530.0
      -185622.0      -185704.0      -185788.0      -185871.0      -185954.0
      -186057.0      -186150.0      -186241.0      -186345.0      -186433.0
      -186520.0      -186607.0      -186678.0      -186744.0      -186804.0
      -186859.0      -186917.0      -186974.0      -187028.0      -187084.0
      -187142.0      -187203.0      -187257.0      -187308.0      -187360.0
      -187404.0      -187441.0      -187476.0      -187498.0      -187515.0
      -187540.0      -187562.0      -187576.0      -187598.0      -187613.0
      -187619.0      -187635.0      -187644.0      -187643.0      -187652.0
      -187657.0      -187647.0      -187642.0      -187639.0      -187621.0
      -187603.0      -187585.0      -187565.0      -187538.0      -187504.0
      -187474.0      -187435.0      -187388.0      -187339.0      -187295.0
      -187251.0      -187191.0      -187139.0      -187088.0      -187019.0
      -186954.0      -186881.0      -186801.0      -186726.0      -186650.0
      -186573.0      -186484.0      -186397.0      -186313.0      -186212.0
      -186118.0      -186016.0      -185907.0      -185803.0      -185692.0
      -185580.0      -185463.0      -185345.0      -185232.0      -185113.0
      -184999.0      -184878.0      -184744.0      -184607.0      -184470.0
      -184332.0      -184186.0      -184039.0      -183889.0      -183733.0
      -183578.0      -183419.0      -183261.0      -183104.0      -182941.0
      -182772.0      -182597.0      -182425.0      -182249.0      -182060.0
      -181867.0      -181672.0      -181483.0      -181291.0      -181087.0
      -180881.0      -180678.0      -180480.0      -180269.0      -180052.0
      -179839.0      -179616.0      -179400.0      -179180.0      -178951.0
      -178722.0      -178489.0      -178265.0      -178033.0      -177791.0
      -177551.0      -177315.0      -177072.0      -176818.0      -176565.0
      -176312.0      -176054.0      -175797.0      -175532.0      -175266.0
      -174998.0      -174725.0      -174459.0      -174187.0      -173904.0
      -173624.0      -173340.0      -173055.0      -172767.0      -172469.0
      -172173.0      -171884.0      -171583.0      -171275.0      -170979.0
      -170675.0      -170358.0      -170043.0      -169730.0      -169413.0
      -169088.0      -168753.0      -168421.0      -168086.0      -167740.0
      -167401.0      -167053.0      -166708.0      -166369.0      -166021.0
      -165675.0      -165320.0      -164962.0      -164608.0      -164250.0
      -163885.0      -163509.0      -163129.0      -162754.0      -162379.0
      -161993.0      -161612.0      -161236.0      -160849.0      -160466.0
      -160084.0      -159691.0      -159292.0      -158889.0      -158485.0
      -158081.0      -157668.0      -157251.0      -156834.0      -156417.0
      -155997.0      -155573.0      -155146.0      -154717.0      -154287.0
      -153852.0      -153416.0      -152978.0      -152532.0      -152089.0
      -151637.0      -151190.0      -150743.0      -150276.0      -149818.0
      -149354.0      -148880.0      -148407.0      -147920.0      -147435.0
      -146952.0      -146468.0      -145985.0      -145490.0      -145004.0
      -144515.0      -144016.0      -143522.0      -143018.0      -142513.0
      -142011.0      -141497.0      -140978.0      -140458.0      -139928.0
      -139396.0      -138868.0      -138332.0      -137796.0      -137263.0
      -136721.0      -136185.0      -135654.0      -135118.0      -134576.0
      -134034.0      -133486.0      -132930.0      -132375.0      -131813.0
      -131241.0      -130673.0      -130099.0      -129526.0      -128964.0
      -128399.0      -127833.0      -127261.0      -126688.0      -126124.0
      -125545.0      -124957.0      -124374.0      -123782.0      -123179.0
      -122579.0      -121978.0      -121377.0      -120782.0      -120184.0
      -119593.0      -119004.0      -118409.0      -117815.0      -117211.0
      -116608.0      -115998.0      -115374.0      -114753.0      -114132.0
      -113506.0      -112886.0      -112264.0      -111633.0      -111013.0
      -110394.0      -109765.0      -109143.0      -108518.0      -107890.0
      -107260.0      -106628.0      -105997.0      -105356.0      -104711.0
      -104070.0      -103426.0      -102777.0      -102129.0      -101486.0
      -100837.0      -100183.0      -99533.00      -98879.00      -98221.00
      -97554.00      -96878.00      -96211.00      -95545.00      -94873.00
      -94207.00      -93535.00      -92864.00      -92193.00      -91519.00
      -90847.00      -90166.00      -89484.00      -88805.00      -88117.00
      -87422.00      -86734.00      -86042.00      -85343.00      -84645.00
      -83949.00      -83251.00      -82546.00      -81849.00      -81155.00
      -80452.00      -79750.00      -79050.00      -78345.00      -77633.00
      -76921.00      -76207.00      -75492.00      -74783.00      -74071.00
      -73355.00      -72656.00      -71959.00      -71250.00      -70541.00
      -69844.00      -69148.00      -68435.00      -67721.00      -67016.00
      -66302.00      -65584.00      -64878.00      -64168.00      -63455.00
      -62749.00      -62044.00      -61340.00      -60639.00      -59930.00
      -59228.00      -58530.00      -57818.00      -57110.00      -56405.00
      -55691.00      -54987.00      -54277.00      -53566.00      -52868.00
      -52160.00      -51454.00      -50756.00      -50051.00      -49352.00
      -48644.00      -47934.00      -47232.00      -46518.00      -45811.00
      -45110.00      -44400.00      -43698.00      -42992.00      -42281.00
      -41581.00      -40888.00      -40195.00      -39499.00      -38807.00
      -38125.00      -37435.00      -36741.00      -36057.00      -35368.00
      -34677.00      -33994.00      -33313.00      -32631.00      -31948.00
      -31268.00      -30588.00      -29906.00      -29236.00      -28567.00
      -27897.00      -27237.00      -26571.00      -25908.00      -25251.00
      -24590.00      -23933.00      -23272.00      -22611.00      -21952.00
      -21285.00      -20625.00      -19972.00      -19321.00      -18669.00
