     0.02500000      -12345.00      -12345.00   1.974680e+09      -12345.00
   0.0005380000       1859.976      -465.0196      -12345.00      -12345.00
      -12345.00      -12345.00      -12345.00      -12345.00      -12345.00
      -12345.00      -12345.00      -12345.00      -12345.00      -12345.00
      -12345.00      -12345.00      -12345.00      -12345.00      -12345.00
      -12345.00      -12345.00      -12345.00      -12345.00      -12345.00
      -12345.00      -21.15900       119.7313       182.0000       8.000000
      -42.72450       173.0647      -12345.00       22.00000      -12345.00
      -12345.00      -12345.00      -12345.00      -12345.00      -12345.00
      -12345.00      -12345.00      -12345.00      -12345.00      -12345.00
       5471.397       278.5350       128.6724       49.20764      -12345.00
      -12345.00      -12345.00       0.000000       0.000000      -12345.00
      -12345.00      -12345.00      -12345.00      -12345.00      -12345.00
      -12345.00      -12345.00      -12345.00      -12345.00      -12345.00
      2016       318        11        10        44
        19         6    -12345    -12345     74400
    -12345    -12345    -12345    -12345    -12345
         1    -12345    -12345    -12345    -12345
    -12345    -12345    -12345    -12345    -12345
    -12345    -12345    -12345    -12345    -12345
    -12345    -12345    -12345    -12345    -12345
         1    -12345    -12345    -12345    -12345
MBWA    South Island, Ne
00      -12345  -12345  
-12345  -12345  -12345  
-12345  -12345  -12345  
-12345  -12345  -12345  
-12345  -12345  -12345  
-12345  -12345  BHZ     
IU      -12345  T120 pos
[...]
      -481372.0      -502089.0      -522817.0      -543508.0      -564160.0
      -584802.0      -605400.0      -625984.0      -646559.0      -667069.0
      -687541.0      -707991.0      -728404.0      -748791.0      -769128.0
      -789416.0      -809680.0      -829890.0      -850039.0      -870148.0
      -890184.0      -910172.0      -930124.0      -950008.0      -969837.0
      -989596.0      -1009295.      -1028920.      -1048456.      -1067908.
      -1087271.      -1106558.      -1125790.      -1144950.      -1163996.
      -1182983.      -1201902.      -1220740.      -1239500.      -1258166.
      -1276749.      -1295215.      -1313625.      -1331950.      -1350179.
      -1368344.      -1386396.      -1404347.      -1422187.      -1439952.
      -1457618.      -1475153.      -1492610.      -1509962.      -1527190.
      -1544312.      -1561310.      -1578191.      -1594983.      -1611643.
      -1628168.      -1644584.      -1660856.      -1677033.      -1693090.
      -1708994.      -1724806.      -1740472.      -1756018.      -1771494.
      -1786833.      -1802034.      -1817116.      -1832071.      -1846906.
      -1861609.      -1876179.      -1890599.      -1904865.      -1919005.
      -1933002.      -1946875.      -1960607.      -1974196.      -1987644.
      -2000942.      -2014113.      -2027123.      -2040015.      -2052755.
      -2065339.      -2077794.      -2090048.      -2102149.      -2114110.
      -2125914.      -2137549.      -2149004.      -2160301.      -2171438.
      -2182432.      -2193278.      -2203974.      -2214534.      -2224919.
      -2235132.      -2245186.      -2255065.      -2264788.      -2274354.
      -2283747.      -2292988.      -2302067.      -2310966.      -2319710.
      -2328258.      -2336659.      -2344908.      -2352968.      -2360871.
      -2368536.      -2376042.      -2383389.      -2390519.      -2397493.
      -2404279.      -2410868.      -2417290.      -2423515.      -2429557.
      -2435433.      -2441129.      -2446668.      -2452022.      -2457182.
      -2462160.      -2466944.      -2471534.      -2475956.      -2480223.
      -2484295.      -2488173.      -2491867.      -2495386.      -2498735.
      -2501903.      -2504897.      -2507720.      -2510361.      -2512807.
      -2515059.      -2517121.      -2518980.      -2520634.      -2522100.
      -2523380.      -2524461.      -2525347.      -2526043.      -2526525.
      -2526859.      -2526979.      -2526859.      -2526595.      -2526109.
      -2525425.      -2524551.      -2523458.      -2522180.      -2520702.
      -2519034.      -2517170.      -2515090.      -2512808.      -2510332.
      -2507648.      -2504791.      -2501742.      -2498460.      -2494992.
      -2491324.      -2487455.      -2483406.      -2479164.      -2474726.
      -2470082.      -2465228.      -2460167.      -2454915.      -2449469.
      -2443819.      -2437989.      -2431957.      -2425722.      -2419316.
      -2412683.      -2405873.      -2398888.      -2391676.      -2384291.
      -2376693.      -2368859.      -2360864.      -2352675.      -2344270.
      -2335689.      -2326894.      -2317911.      -2308732.      -2299330.
      -2289744.      -2279940.      -2269948.      -2259778.      -2249378.
      -2238806.      -2228049.      -2217080.      -2205936.      -2194601.
      -2183094.      -2171403.      -2159529.      -2147482.      -2135265.
      -2122847.      -2110246.      -2097494.      -2084534.      -2071409.
      -2058108.      -2044626.      -2030988.      -2017181.      -2003212.
      -1989071.      -1974747.      -1960244.      -1945594.      -1930763.
      -1915758.      -1900623.      -1885306.      -1869796.      -1854151.
      -1838349.      -1822378.      -1806250.      -1789964.      -1773533.
      -1756950.      -1740189.      -1723281.      -1706230.      -1688994.
      -1671642.      -1654147.      -1636488.      -1618701.      -1600723.
      -1582582.      -1564311.      -1545912.      -1527379.      -1508679.
      -1489825.      -1470865.      -1451769.      -1432523.      -1413172.
      -1393688.      -1374073.      -1354350.      -1334481.      -1314477.
      -1294356.      -1274120.      -1253791.      -1233315.      -1212762.
      -1192118.      -1171300.      -1150413.      -1129399.      -1108268.
      -1087074.      -1065732.      -1044294.      -1022781.      -1001148.
      -979424.0      -957593.0      -935662.0      -913690.0      -891627.0
      -869453.0      -847200.0      -824852.0      -802428.0      -779927.0
      -757333.0      -734669.0      -711944.0      -689129.0      -666250.0
      -643317.0      -620291.0      -597190.0      -574038.0      -550854.0
      -527637.0      -504359.0      -481046.0      -457666.0      -434222.0
      -410743.0      -387212.0      -363657.0      -340065.0      -316436.0
      -292753.0      -269038.0      -245323.0      -221574.0      -197773.0
      -173950.0      -150120.0      -126245.0      -102321.0      -78361.00
      -54389.00      -30406.00      -6428.000       17564.00       41571.00
       65558.00       89566.00       113572.0       137570.0       161568.0
       185529.0       209477.0       233444.0       257373.0       281284.0
       305196.0       329045.0       352891.0       376725.0       400508.0
       424299.0       448063.0       471758.0       495443.0       519101.0
       542720.0       566299.0       589823.0       613351.0       636835.0
       660252.0       683628.0       706961.0       730248.0       753465.0
       776655.0       799782.0       822855.0       845885.0       868840.0
       891762.0       914603.0       937392.0       960120.0       982738.0
       1005317.       1027815.       1050210.       1072533.       1094789.
       1116961.       1139039.       1161033.       1182933.       1204760.
       1226479.       1248094.       1269598.       1290971.       1312257.
       1333425.       1354495.       1375495.       1396363.       1417114.
       1437773.       1458302.       1478733.       1499068.       1519274.
       1539379.       1559390.       1579257.       1599009.       1618668.
       1638197.       1657627.       1676928.       1696082.       1715123.
       1734025.       1752780.       1771417.       1789919.       1808275.
       1826505.       1844586.       1862533.       1880349.       1898022.
       1915532.       1932875.       1950106.       1967194.       1984110.
       2000892.       2017513.       2033968.       2050264.       2066390.
       2082374.       2098211.       2113886.       2129393.       2144760.
       2159956.       2174983.       2189855.       2204529.       2219048.
       2233394.       2247546.       2261544.       2275379.       2289033.
       2302502.       2315761.       2328848.       2341778.       2354475.
       2366980.       2379298.       2391411.       2403377.       2415150.
       2426708.       2438084.       2449251.       2460230.       2471025.
       2481610.       2492003.       2502193.       2512178.       2521978.
       2531576.       2540967.       2550177.       2559171.       2567948.
       2576534.       2584913.       2593086.       2601070.       2608855.
       2616417.       2623772.       2630903.       2637811.       2644502.
       2650954.       2657199.       2663209.       2668993.       2674593.
       2679938.       2685064.       2689984.       2694662.       2699138.
       2703383.       2707389.       2711194.       2714765.       2718061.
       2721176.       2724090.       2726730.       2729135.       2731315.
       2733300.       2735052.       2736557.       2737833.       2738861.
       2739676.       2740258.       2740598.       2740736.       2740647.
       2740322.       2739771.       2738973.       2737932.       2736670.
       2735172.       2733427.       2731482.       2729304.       2726869.
       2724219.       2721322.       2718175.       2714787.       2711159.
       2707324.       2703277.       2698977.       2694435.       2689679.
       2684683.       2679466.       2674023.       2668336.       2662428.
       2656309.       2649959.       2643352.       2636525.       2629465.
       2622165.       2614639.       2606863.       2598881.       2590658.
       2582197.       2573532.       2564624.       2555496.       2546106.
       2536496.       2526674.       2516608.       2506345.       2495834.
       2485091.       2474124.       2462914.       2451479.       2439837.
       2427988.       2415933.       2403661.       2391156.       2378459.
       2365536.       2352403.       2339096.       2325561.       2311826.
       2297893.       2283716.       2269368.       2254837.       2240062.
       2225099.       2209939.       2194574.       2179001.       2163220.
       2147256.       2131115.       2114790.       2098265.       2081547.
       2064619.       2047502.       2030221.       2012755.       1995109.
       1977261.       1959218.       1941015.       1922623.       1904048.
       1885302.       1866357.       1847243.       1827955.       1808472.
       1788838.       1769035.       1749075.       1728970.       1708651.
       1688184.       1667572.       1646789.       1625876.       1604797.
       1583601.       1562253.       1540745.       1519123.       1497345.
       1475414.       1453347.       1431157.       1408810.       1386312.
       1363694.       1340902.       1317983.       1294954.       1271794.
       1248530.       1225115.       1201583.       1177941.       1154158.
       1130280.       1106300.       1082187.       1057972.       1033668.
       1009226.       984700.0       960090.0       935376.0       910583.0
       885688.0       860723.0       835676.0       810517.0       785299.0
       760008.0       734606.0       709160.0       683659.0       658071.0
       632441.0       606730.0       580938.0       555100.0       529204.0
       503263.0       477252.0       451175.0       425078.0       398916.0
       372687.0       346436.0       320130.0       293794.0       267440.0
       241038.0       214616.0       188151.0       161651.0       135150.0
       108636.0       82098.00       55547.00       28987.00       2402.000
      -24163.00      -50749.00      -77358.00      -103925.0      -130528.0
      -157113.0      -183676.0      -210282.0      -236849.0      -263404.0
      -289969.0      -316519.0      -343046.0      -369541.0      -396034.0
      -422497.0      -448905.0      -475261.0      -501576.0      -527872.0
      -554127.0      -580331.0      -606484.0      -632587.0      -658633.0
      -684634.0      -710575.0      -736471.0      -762305.0      -788057.0
      -813763.0      -839387.0      -864955.0      -890452.0      -915855.0
      -941195.0      -966428.0      -991595.0      -1016680.      -1041644.
      -1066565.      -1091393.      -1116095.      -1140742.      -1165278.
      -1189700.      -1214058.      -1238278.      -1262377.      -1286408.
      -1310310.      -1334089.      -1357751.      -1381283.      -1404716.
      -1428031.      -1451190.      -1474244.      -1497187.      -1519979.
      -1542677.      -1565228.      -1587628.      -1609925.      -1632045.
      -1654044.      -1675915.      -1697615.      -1719202.      -1740625.
      -1761902.      -1783067.      -1804043.      -1824869.      -1845559.
      -1866058.      -1886401.      -1906577.      -1926595.      -1946469.
      -1966142.      -1985636.      -2004938.      -2024060.      -2043050.
      -2061837.      -2080433.      -2098842.      -2117064.      -2135095.
      -2152912.      -2170561.      -2188000.      -2205251.      -2222318.
      -2239167.      -2255829.      -2272272.      -2288508.      -2304555.
      -2320391.      -2336028.      -2351472.      -2366699.      -2381708.
      -2396535.      -2411164.      -2425579.      -2439779.      -2453750.
      -2467488.      -2481028.      -2494355.      -2507473.      -2520380.
      -2533020.      -2545469.      -2557706.      -2569701.      -2581498.
      -2593051.      -2604385.      -2615494.      -2626372.      -2637038.
      -2647452.      -2657656.      -2667640.      -2677369.      -2686885.
      -2696168.      -2705181.      -2713969.      -2722508.      -2730791.
      -2738854.      -2746661.      -2754252.      -2761596.      -2768665.
      -2775524.      -2782138.      -2788529.      -2794697.      -2800608.
      -2806286.      -2811734.      -2816941.      -2821929.      -2826672.
      -2831153.      -2835404.      -2839408.      -2843159.      -2846689.
      -2849978.      -2852965.      -2855732.      -2858282.      -2860546.
      -2862588.      -2864389.      -2865938.      -2867270.      -2868327.
      -2869151.      -2869741.      -2870033.      -2870129.      -2869996.
      -2869571.      -2868932.      -2868038.      -2866882.      -2865506.
      -2863883.      -2862037.      -2859939.      -2857574.      -2855000.
      -2852164.      -2849076.      -2845770.      -2842199.      -2838393.
      -2834355.      -2830075.      -2825571.      -2820819.      -2815816.
      -2810571.      -2805096.      -2799391.      -2793431.      -2787240.
      -2780814.      -2774144.      -2767239.      -2760077.      -2752708.
      -2745102.      -2737230.      -2729160.      -2720851.      -2712315.
      -2703557.      -2694525.      -2685308.      -2675850.      -2666128.
      -2656250.      -2646117.      -2635757.      -2625184.      -2614364.
      -2603354.      -2592097.      -2580614.      -2568935.      -2557043.
      -2544951.      -2532628.      -2520067.      -2507309.      -2494331.
      -2481139.      -2467772.      -2454191.      -2440389.      -2426382.
      -2412170.      -2397785.      -2383182.      -2368373.      -2353405.
      -2338219.      -2322839.      -2307270.      -2291487.      -2275524.
      -2259369.      -2243034.      -2226511.      -2209802.      -2192915.
      -2175831.      -2158554.      -2141091.      -2123451.      -2105627.
      -2087619.      -2069426.      -2051062.      -2032546.      -2013858.
      -1994995.      -1975975.      -1956780.      -1937402.      -1917845.
      -1898158.      -1878308.      -1858267.      -1838105.      -1817751.
      -1797254.      -1776632.      -1755840.      -1734921.      -1713840.
      -1692640.      -1671325.      -1649853.      -1628236.      -1606497.
      -1584625.      -1562609.      -1540480.      -1518227.      -1495865.
      -1473373.      -1450731.      -1427999.      -1405148.      -1382184.
      -1359121.      -1335915.      -1312627.      -1289200.      -1265651.
      -1242023.      -1218261.      -1194411.      -1170465.      -1146399.
      -1122210.      -1097937.      -1073561.      -1049094.      -1024544.
      -999885.0      -975175.0      -950371.0      -925486.0      -900552.0
      -875542.0      -850435.0      -825271.0      -800058.0      -774753.0
      -749405.0      -724011.0      -698556.0      -673063.0      -647465.0
      -621824.0      -596178.0      -570421.0      -544632.0      -518790.0
      -492895.0      -467010.0      -441048.0      -415045.0      -389015.0
      -362926.0      -336814.0      -310653.0      -284441.0      -258206.0
      -231932.0      -205637.0      -179332.0      -153006.0      -126676.0
      -100360.0      -73997.00      -47653.00      -21311.00       5086.000
       31415.00       57789.00       84180.00       110517.0       136894.0
       163241.0       189557.0       215882.0       242183.0       268465.0
       294749.0       320995.0       347219.0       373437.0       399608.0
       425794.0       451972.0       478089.0       504182.0       530205.0
       556173.0       582116.0       608002.0       633846.0       659643.0
       685384.0       711059.0       736703.0       762284.0       787759.0
       813201.0       838568.0       863850.0       889089.0       914219.0
       939281.0       964276.0       989153.0       1013961.       1038690.
       1063312.       1087820.       1112222.       1136528.       1160726.
       1184823.       1208824.       1232729.       1256506.       1280174.
       1303747.       1327192.       1350526.       1373770.       1396890.
       1419882.       1442769.       1465537.       1488174.       1510697.
       1533110.       1555398.       1577574.       1599614.       1621508.
       1643255.       1664860.       1686312.       1707618.       1728769.
       1749739.       1770611.       1791283.       1811780.       1832191.
       1852371.       1872387.       1892254.       1911920.       1931439.
       1950757.       1969880.       1988833.       2007589.       2026164.
       2044568.       2062764.       2080765.       2098612.       2116249.
       2133696.       2150964.       2168019.       2184902.       2201577.
       2218054.       2234365.       2250458.       2266357.       2282060.
       2297551.       2312866.       2327957.       2342837.       2357538.
       2372006.       2386230.       2400232.       2414034.       2427604.
       2440947.       2454091.       2466991.       2479684.       2492149.
       2504353.       2516360.       2528138.       2539714.       2551088.
       2562202.       2573099.       2583771.       2594199.       2604412.
       2614385.       2624125.       2633638.       2642910.       2651963.
       2660756.       2669308.       2677654.       2685743.       2693594.
       2701226.       2708613.       2715759.       2722654.       2729286.
       2735712.       2741899.       2747814.       2753526.       2758966.
       2764165.       2769164.       2773864.       2778352.       2782622.
       2786598.       2790348.       2793875.       2797148.       2800170.
       2802939.       2805468.       2807779.       2809811.       2811591.
       2813174.       2814483.       2815566.       2816425.       2817000.
       2817367.       2817487.       2817329.       2816957.       2816344.
       2815493.       2814408.       2813062.       2811500.       2809723.
       2807702.       2805455.       2802963.       2800225.       2797264.
       2794045.       2790586.       2786940.       2783020.       2778851.
       2774462.       2769795.       2764901.       2759777.       2754430.
