     0.05000000      -12345.00      -12345.00   3.325240e+09      -12345.00
   0.0005380000       1859.951      -428.0196      -12345.00      -12345.00
      -12345.00      -12345.00      -12345.00      -12345.00      -12345.00
      -12345.00      -12345.00      -12345.00      -12345.00      -12345.00
      -12345.00      -12345.00      -12345.00      -12345.00      -12345.00
      -12345.00      -12345.00      -12345.00      -12345.00      -12345.00
      -12345.00      -32.92770       117.2390       275.1000       105.0000
      -42.72450       173.0647      -12345.00       22.00000      -12345.00
      -12345.00      -12345.00      -12345.00      -12345.00      -12345.00
      -12345.00      -12345.00      -12345.00      -12345.00      -12345.00
       4942.570       263.4972       119.4769       44.45157      -12345.00
      -12345.00      -12345.00       0.000000       0.000000      -12345.00
      -12345.00      -12345.00      -12345.00      -12345.00      -12345.00
      -12345.00      -12345.00      -12345.00      -12345.00      -12345.00
      2016       318        11        10         7
        19         6    -12345    -12345     37200
    -12345    -12345    -12345    -12345    -12345
         1    -12345    -12345    -12345    -12345
    -12345    -12345    -12345    -12345    -12345
    -12345    -12345    -12345    -12345    -12345
    -12345    -12345    -12345    -12345    -12345
         1    -12345    -12345    -12345    -12345
NWAO    South Island, Ne
00      -12345  -12345  
-12345  -12345  -12345  
-12345  -12345  -12345  
-12345  -12345  -12345  
-12345  -12345  -12345  
-12345  -12345  BHZ     
IU      -12345  Geotech 
[...]
       648686.0       650625.0       652440.0       654137.0       655713.0
       657180.0       658540.0       659756.0       660813.0       661681.0
       662368.0       662893.0       663232.0       663401.0       663410.0
       663248.0       662908.0       662396.0       661714.0       660870.0
       659875.0       658720.0       657411.0       655962.0       654390.0
       652699.0       650905.0       649019.0       647040.0       644986.0
       642873.0       640709.0       638467.0       636147.0       633748.0
       631263.0       628672.0       625968.0       623156.0       620205.0
       617128.0       613939.0       610625.0       607183.0       603616.0
       599961.0       596256.0       592515.0       588713.0       584842.0
       580919.0       576937.0       572889.0       568788.0       564636.0
       560427.0       556199.0       551984.0       547774.0       543559.0
       539314.0       535052.0       530778.0       526471.0       522139.0
       517774.0       513377.0       508951.0       504494.0       500016.0
       495498.0       490933.0       486336.0       481693.0       476996.0
       472264.0       467492.0       462689.0       457854.0       453002.0
       448152.0       443269.0       438351.0       433397.0       428411.0
       423397.0       418319.0       413161.0       407923.0       402591.0
       397169.0       391657.0       386044.0       380341.0       374534.0
       368620.0       362622.0       356514.0       350290.0       343952.0
       337482.0       330878.0       324138.0       317264.0       310237.0
       303082.0       295816.0       288417.0       280915.0       273308.0
       265584.0       257770.0       249877.0       241899.0       233845.0
       225726.0       217518.0       209249.0       200952.0       192610.0
       184246.0       175842.0       167402.0       158955.0       150473.0
       141976.0       133464.0       124905.0       116309.0       107662.0
       98968.00       90250.00       81493.00       72677.00       63814.00
       54898.00       45929.00       36904.00       27818.00       18665.00
       9414.000       67.00000      -9375.000      -18914.00      -28555.00
      -38333.00      -48242.00      -58250.00      -68358.00      -78586.00
      -88926.00      -99396.00      -110001.0      -120706.0      -131524.0
      -142476.0      -153549.0      -164735.0      -176038.0      -187450.0
      -198963.0      -210553.0      -222199.0      -233924.0      -245725.0
      -257586.0      -269533.0      -281537.0      -293563.0      -305646.0
      -317804.0      -330008.0      -342284.0      -354652.0      -367075.0
      -379584.0      -392202.0      -404907.0      -417701.0      -430582.0
      -443538.0      -456551.0      -469624.0      -482776.0      -495990.0
      -509252.0      -522568.0      -535937.0      -549352.0      -562804.0
      -576315.0      -589923.0      -603565.0      -617204.0      -630864.0
      -644545.0      -658257.0      -671991.0      -685740.0      -699496.0
      -713252.0      -727034.0      -740863.0      -754715.0      -768563.0
      -782464.0      -796410.0      -810356.0      -824321.0      -838301.0
      -852302.0      -866316.0      -880341.0      -894380.0      -908411.0
      -922467.0      -936531.0      -950592.0      -964686.0      -978775.0
      -992859.0      -1006948.      -1021039.      -1035122.      -1049158.
      -1063168.      -1077140.      -1091054.      -1104909.      -1118702.
      -1132431.      -1146081.      -1159632.      -1173050.      -1186353.
      -1199540.      -1212593.      -1225528.      -1238323.      -1250960.
      -1263454.      -1275823.      -1288085.      -1300220.      -1312217.
      -1324075.      -1335796.      -1347405.      -1358892.      -1370246.
      -1381502.      -1392664.      -1403734.      -1414729.      -1425652.
      -1436466.      -1447129.      -1457668.      -1468120.      -1478477.
      -1488733.      -1498862.      -1508851.      -1518736.      -1528505.
      -1538156.      -1547691.      -1557081.      -1566332.      -1575451.
      -1584447.      -1593329.      -1602071.      -1610630.      -1619000.
      -1627198.      -1635231.      -1643072.      -1650704.      -1658147.
      -1665385.      -1672423.      -1679307.      -1686021.      -1692556.
      -1698944.      -1705172.      -1711224.      -1717099.      -1722779.
      -1728267.      -1733569.      -1738700.      -1743665.      -1748465.
      -1753106.      -1757557.      -1761824.      -1765926.      -1769847.
      -1773593.      -1777174.      -1780565.      -1783744.      -1786719.
      -1789523.      -1792145.      -1794540.      -1796733.      -1798759.
      -1800613.      -1802261.      -1803712.      -1804993.      -1806068.
      -1806920.      -1807540.      -1807909.      -1808030.      -1807911.
      -1807547.      -1806899.      -1805962.      -1804738.      -1803229.
      -1801450.      -1799388.      -1797026.      -1794381.      -1791462.
      -1788284.      -1784878.      -1781253.      -1777414.      -1773395.
      -1769206.      -1764847.      -1760341.      -1755708.      -1750937.
      -1746022.      -1740962.      -1735750.      -1730398.      -1724877.
      -1719163.      -1713273.      -1707227.      -1701043.      -1694694.
      -1688149.      -1681435.      -1674566.      -1667504.      -1660235.
      -1652756.      -1645055.      -1637156.      -1629070.      -1620788.
      -1612336.      -1603716.      -1594890.      -1585897.      -1576768.
      -1567478.      -1558008.      -1548388.      -1538640.      -1528759.
      -1518750.      -1508603.      -1498338.      -1487953.      -1477435.
      -1466799.      -1456051.      -1445220.      -1434282.      -1423193.
      -1411980.      -1400658.      -1389218.      -1377663.      -1365995.
      -1354211.      -1342326.      -1330348.      -1318267.      -1306086.
      -1293807.      -1281440.      -1268989.      -1256439.      -1243777.
      -1231004.      -1218138.      -1205189.      -1192160.      -1179029.
      -1165792.      -1152486.      -1139080.      -1125543.      -1111927.
      -1098217.      -1084386.      -1070473.      -1056474.      -1042421.
      -1028358.      -1014222.      -1000003.      -985763.0      -971486.0
      -957164.0      -942808.0      -928408.0      -913982.0      -899518.0
      -885021.0      -870541.0      -856043.0      -841507.0      -826974.0
      -812431.0      -797878.0      -783281.0      -768620.0      -753942.0
      -739214.0      -724399.0      -709521.0      -694579.0      -679552.0
      -664443.0      -649281.0      -634054.0      -618738.0      -603352.0
      -587887.0      -572330.0      -556691.0      -540973.0      -525171.0
      -509288.0      -493317.0      -477211.0      -460988.0      -444690.0
      -428285.0      -411752.0      -395115.0      -378374.0      -361566.0
      -344706.0      -327785.0      -310826.0      -293811.0      -276779.0
      -259773.0      -242785.0      -225857.0      -208976.0      -192108.0
      -175289.0      -158502.0      -141749.0      -125073.0      -108434.0
      -91837.00      -75306.00      -58790.00      -42283.00      -25812.00
      -9365.000       7047.000       23433.00       39813.00       56144.00
       72431.00       88698.00       104909.0       121076.0       137206.0
       153285.0       169341.0       185362.0       201332.0       217261.0
       233146.0       248991.0       264807.0       280583.0       296298.0
       311946.0       327540.0       343097.0       358584.0       373981.0
       389277.0       404447.0       419509.0       434470.0       449302.0
       464009.0       478599.0       493061.0       507388.0       521583.0
       535658.0       549593.0       563355.0       576958.0       590386.0
       603599.0       616636.0       629485.0       642095.0       654499.0
       666669.0       678592.0       690311.0       701836.0       713140.0
       724196.0       735036.0       745666.0       756104.0       766361.0
       776414.0       786304.0       796032.0       805568.0       814936.0
       824134.0       833166.0       842036.0       850715.0       859209.0
       867534.0       875717.0       883766.0       891665.0       899411.0
       907008.0       914460.0       921767.0       928934.0       935957.0
       942828.0       949535.0       956065.0       962445.0       968690.0
       974800.0       980758.0       986565.0       992221.0       997684.0
       1002985.       1008122.       1013057.       1017823.       1022405.
       1026797.       1031033.       1035084.       1038951.       1042626.
       1046068.       1049276.       1052251.       1054995.       1057464.
       1059633.       1061534.       1063138.       1064402.       1065353.
       1066021.       1066391.       1066476.       1066281.       1065753.
       1064900.       1063748.       1062270.       1060468.       1058344.
       1055887.       1053103.       1049998.       1046587.       1042869.
       1038818.       1034447.       1029765.       1024755.       1019424.
       1013792.       1007862.       1001632.       995106.0       988296.0
       981204.0       973845.0       966226.0       958334.0       950174.0
       941742.0       933057.0       924126.0       914946.0       905526.0
       895836.0       885922.0       875812.0       865500.0       854998.0
       844312.0       833456.0       822412.0       811193.0       799811.0
       788255.0       776515.0       764591.0       752489.0       740193.0
       727700.0       715033.0       702208.0       689186.0       675964.0
       662558.0       648970.0       635218.0       621262.0       607108.0
       592781.0       578302.0       563688.0       548910.0       533980.0
       518907.0       503696.0       488344.0       472848.0       457210.0
       441415.0       425489.0       409432.0       393263.0       376983.0
       360576.0       344100.0       327552.0       310950.0       294306.0
       277600.0       260851.0       244047.0       227167.0       210203.0
       193203.0       176172.0       159082.0       141939.0       124730.0
       107495.0       90220.00       72878.00       55479.00       38027.00
       20517.00       2914.000      -14769.00      -32506.00      -50318.00
      -68241.00      -86277.00      -104430.0      -122683.0      -141018.0
      -159481.0      -178074.0      -196814.0      -215695.0      -234694.0
      -253849.0      -273146.0      -292551.0      -312089.0      -331772.0
      -351569.0      -371470.0      -391458.0      -411533.0      -431695.0
      -451916.0      -472180.0      -492485.0      -512848.0      -533224.0
      -553587.0      -573965.0      -594342.0      -614711.0      -635072.0
      -655417.0      -675736.0      -696020.0      -716287.0      -736537.0
      -756745.0      -776915.0      -797075.0      -817199.0      -837272.0
      -857297.0      -877242.0      -897123.0      -916920.0      -936601.0
      -956191.0      -975686.0      -995097.0      -1014426.      -1033653.
      -1052781.      -1071802.      -1090725.      -1109580.      -1128334.
      -1146962.      -1165481.      -1183871.      -1202149.      -1220310.
      -1238334.      -1256216.      -1273954.      -1291555.      -1309021.
      -1326366.      -1343572.      -1360630.      -1377562.      -1394390.
      -1411092.      -1427651.      -1444104.      -1460451.      -1476676.
      -1492762.      -1508720.      -1524585.      -1540377.      -1556108.
      -1571745.      -1587262.      -1602659.      -1617946.      -1633110.
      -1648169.      -1663126.      -1677943.      -1692652.      -1707264.
      -1721783.      -1736227.      -1750564.      -1764821.      -1779000.
      -1793052.      -1806987.      -1820806.      -1834492.      -1848034.
      -1861399.      -1874617.      -1887735.      -1900712.      -1913545.
      -1926235.      -1938777.      -1951174.      -1963406.      -1975494.
      -1987430.      -1999206.      -2010820.      -2022264.      -2033569.
      -2044713.      -2055708.      -2066549.      -2077228.      -2087794.
      -2098183.      -2108369.      -2118382.      -2128223.      -2137901.
      -2147384.      -2156694.      -2165798.      -2174670.      -2183334.
      -2191751.      -2199934.      -2207874.      -2215544.      -2222949.
      -2230106.      -2237028.      -2243695.      -2250108.      -2256269.
      -2262142.      -2267737.      -2273054.      -2278085.      -2282834.
      -2287288.      -2291460.      -2295345.      -2298937.      -2302245.
      -2305276.      -2308026.      -2310476.      -2312639.      -2314522.
      -2316113.      -2317399.      -2318390.      -2319088.      -2319469.
      -2319542.      -2319307.      -2318755.      -2317894.      -2316754.
      -2315334.      -2313634.      -2311663.      -2309413.      -2306898.
      -2304092.      -2300979.      -2297558.      -2293791.      -2289719.
      -2285366.      -2280690.      -2275696.      -2270382.      -2264745.
      -2258824.      -2252627.      -2246117.      -2239273.      -2232115.
      -2224635.      -2216845.      -2208763.      -2200373.      -2191705.
      -2182756.      -2173527.      -2164053.      -2154313.      -2144314.
      -2134058.      -2123513.      -2112675.      -2101555.      -2090182.
      -2078578.      -2066732.      -2054645.      -2042321.      -2029747.
      -2016940.      -2003913.      -1990657.      -1977172.      -1963476.
      -1949583.      -1935472.      -1921159.      -1906655.      -1891945.
      -1877018.      -1861845.      -1846430.      -1830781.      -1814893.
      -1798769.      -1782407.      -1765804.      -1748953.      -1731870.
      -1714575.      -1697075.      -1679381.      -1661466.      -1643327.
      -1624968.      -1606427.      -1587719.      -1568797.      -1549700.
      -1530448.      -1511015.      -1491426.      -1471688.      -1451804.
      -1431781.      -1411635.      -1391368.      -1371007.      -1350592.
      -1330126.      -1309589.      -1288999.      -1268392.      -1247735.
      -1227026.      -1206254.      -1185421.      -1164549.      -1143625.
      -1122653.      -1101629.      -1080566.      -1059473.      -1038362.
      -1017256.      -996128.0      -974988.0      -953860.0      -932756.0
      -911698.0      -890679.0      -869706.0      -848802.0      -827947.0
      -807128.0      -786371.0      -765683.0      -745047.0      -724446.0
      -703884.0      -683390.0      -662977.0      -642620.0      -622330.0
      -602144.0      -582035.0      -562003.0      -542086.0      -522271.0
      -502555.0      -482947.0      -463431.0      -444000.0      -424669.0
      -405422.0      -386231.0      -367134.0      -348111.0      -329125.0
      -310225.0      -291402.0      -272635.0      -253941.0      -235291.0
      -216679.0      -198125.0      -179633.0      -161238.0      -142936.0
      -124710.0      -106605.0      -88617.00      -70706.00      -52868.00
      -35106.00      -17405.00       230.0000       17805.00       35336.00
       52782.00       70145.00       87423.00       104596.0       121679.0
       138651.0       155529.0       172326.0       189010.0       205599.0
       222100.0       238494.0       254789.0       270970.0       287025.0
       302979.0       318819.0       334547.0       350158.0       365624.0
       380944.0       396100.0       411111.0       425966.0       440638.0
       455143.0       469491.0       483691.0       497732.0       511629.0
       525376.0       538953.0       552385.0       565651.0       578736.0
       591658.0       604417.0       617011.0       629429.0       641668.0
       653744.0       665644.0       677392.0       689023.0       700483.0
       711758.0       722877.0       733813.0       744565.0       755143.0
       765509.0       775650.0       785585.0       795293.0       804734.0
       813909.0       822824.0       831489.0       839891.0       848048.0
       855954.0       863620.0       871083.0       878298.0       885283.0
       892050.0       898604.0       904925.0       911000.0       916883.0
       922518.0       927907.0       933058.0       937958.0       942629.0
       947056.0       951263.0       955235.0       958948.0       962377.0
       965498.0       968322.0       970828.0       973031.0       974922.0
       976480.0       977721.0       978663.0       979332.0       979708.0
       979780.0       979561.0       979057.0       978270.0       977217.0
       975911.0       974365.0       972587.0       970578.0       968362.0
       965957.0       963384.0       960637.0       957711.0       954631.0
       951398.0       948016.0       944506.0       940865.0       937097.0
       933222.0       929198.0       925039.0       920761.0       916368.0
       911891.0       907288.0       902547.0       897679.0       892645.0
       887442.0       882077.0       876517.0       870793.0       864898.0
       858817.0       852607.0       846253.0       839736.0       833050.0
       826183.0       819159.0       811970.0       804616.0       797104.0
       789428.0       781560.0       773504.0       765290.0       756919.0
       748403.0       739707.0       730809.0       721730.0       712449.0
       702999.0       693390.0       683579.0       673587.0       663410.0
       653066.0       642584.0       631924.0       621101.0       610113.0
       598942.0       587597.0       576066.0       564371.0       552505.0
       540468.0       528279.0       515905.0       503376.0       490715.0
       477894.0       464927.0       451819.0       438556.0       425130.0
       411569.0       397899.0       384113.0       370225.0       356239.0
       342153.0       327978.0       313750.0       299478.0       285153.0
       270786.0       256389.0       241993.0       227584.0       213143.0
       198698.0       184232.0       169699.0       155077.0       140367.0
       125576.0       110727.0       95831.00       80903.00       65951.00
       50981.00       35975.00       20918.00       5824.000      -9306.000
      -24440.00      -39585.00      -54774.00      -69980.00      -85215.00
      -100472.0      -115743.0      -131060.0      -146437.0      -161853.0
