     0.05000000      -12345.00      -12345.00   3.355440e+09      -12345.00
   0.0005380000       1859.951      -428.0196      -12345.00      -12345.00
      -12345.00      -12345.00      -12345.00      -12345.00      -12345.00
      -12345.00      -12345.00      -12345.00      -12345.00      -12345.00
      -12345.00      -12345.00      -12345.00      -12345.00      -12345.00
      -12345.00      -12345.00      -12345.00      -12345.00      -12345.00
      -12345.00      -32.92770       117.2390       275.1000       105.0000
      -42.72450       173.0647      -12345.00       22.00000      -12345.00
      -12345.00      -12345.00      -12345.00      -12345.00      -12345.00
      -12345.00      -12345.00      -12345.00      -12345.00      -12345.00
       4942.570       263.4972       119.4769       44.45157      -12345.00
      -12345.00      -12345.00       170.0000       90.00000      -12345.00
      -12345.00      -12345.00      -12345.00      -12345.00      -12345.00
      -12345.00      -12345.00      -12345.00      -12345.00      -12345.00
      2016       318        11        10         7
        19         6    -12345    -12345     37200
    -12345    -12345    -12345    -12345    -12345
         1    -12345    -12345    -12345    -12345
    -12345    -12345    -12345    -12345    -12345
    -12345    -12345    -12345    -12345    -12345
    -12345    -12345    -12345    -12345    -12345
         1    -12345    -12345    -12345    -12345
NWAO    South Island, Ne
00      -12345  -12345  
-12345  -12345  -12345  
-12345  -12345  -12345  
-12345  -12345  -12345  
-12345  -12345  -12345  
-12345  -12345  BH2     
IU      -12345  Geotech 
[...]
      -514054.0      -515962.0      -517830.0      -519659.0      -521459.0
      -523225.0      -524981.0      -526711.0      -528404.0      -530066.0
      -531686.0      -533271.0      -534805.0      -536287.0      -537726.0
      -539111.0      -540424.0      -541656.0      -542812.0      -543882.0
      -544853.0      -545720.0      -546485.0      -547139.0      -547653.0
      -548020.0      -548244.0      -548318.0      -548240.0      -548019.0
      -547639.0      -547063.0      -546316.0      -545424.0      -544377.0
      -543192.0      -541883.0      -540458.0      -538940.0      -537333.0
      -535644.0      -533915.0      -532161.0      -530345.0      -528459.0
      -526522.0      -524538.0      -522517.0      -520463.0      -518344.0
      -516153.0      -513919.0      -511625.0      -509292.0      -506932.0
      -504536.0      -502126.0      -499682.0      -497196.0      -494696.0
      -492212.0      -489738.0      -487259.0      -484775.0      -482304.0
      -479863.0      -477417.0      -474940.0      -472424.0      -469877.0
      -467316.0      -464743.0      -462169.0      -459618.0      -457118.0
      -454675.0      -452300.0      -450009.0      -447820.0      -445739.0
      -443758.0      -441897.0      -440136.0      -438460.0      -436884.0
      -435397.0      -433980.0      -432636.0      -431390.0      -430230.0
      -429151.0      -428170.0      -427276.0      -426481.0      -425775.0
      -425139.0      -424592.0      -424146.0      -423801.0      -423540.0
      -423361.0      -423259.0      -423201.0      -423205.0      -423282.0
      -423441.0      -423710.0      -424066.0      -424451.0      -424833.0
      -425239.0      -425694.0      -426172.0      -426661.0      -427164.0
      -427671.0      -428180.0      -428715.0      -429288.0      -429897.0
      -430531.0      -431186.0      -431857.0      -432536.0      -433242.0
      -433946.0      -434640.0      -435331.0      -435997.0      -436645.0
      -437271.0      -437870.0      -438441.0      -439010.0      -439580.0
      -440105.0      -440570.0      -441004.0      -441408.0      -441754.0
      -442044.0      -442279.0      -442457.0      -442571.0      -442630.0
      -442650.0      -442632.0      -442573.0      -442460.0      -442308.0
      -442116.0      -441905.0      -441703.0      -441481.0      -441251.0
      -441038.0      -440862.0      -440733.0      -440620.0      -440527.0
      -440457.0      -440430.0      -440450.0      -440510.0      -440648.0
      -440861.0      -441138.0      -441476.0      -441865.0      -442322.0
      -442889.0      -443586.0      -444418.0      -445407.0      -446556.0
      -447889.0      -449414.0      -451106.0      -452952.0      -454949.0
      -457106.0      -459404.0      -461835.0      -464405.0      -467113.0
      -469955.0      -472926.0      -475997.0      -479127.0      -482332.0
      -485609.0      -488936.0      -492363.0      -495914.0      -499613.0
      -503452.0      -507411.0      -511529.0      -515812.0      -520236.0
      -524811.0      -529562.0      -534463.0      -539513.0      -544712.0
      -550030.0      -555476.0      -561031.0      -566712.0      -572511.0
      -578377.0      -584326.0      -590355.0      -596437.0      -602583.0
      -608812.0      -615115.0      -621508.0      -627969.0      -634491.0
      -641092.0      -647747.0      -654470.0      -661228.0      -667988.0
      -674778.0      -681562.0      -688340.0      -695132.0      -701941.0
      -708789.0      -715657.0      -722526.0      -729422.0      -736357.0
      -743307.0      -750258.0      -757221.0      -764214.0      -771227.0
      -778252.0      -785301.0      -792351.0      -799385.0      -806416.0
      -813454.0      -820506.0      -827564.0      -834633.0      -841722.0
      -848788.0      -855789.0      -862734.0      -869623.0      -876463.0
      -883240.0      -889947.0      -896594.0      -903151.0      -909612.0
      -916001.0      -922315.0      -928569.0      -934767.0      -940908.0
      -946998.0      -953010.0      -958950.0      -964810.0      -970564.0
      -976217.0      -981780.0      -987261.0      -992645.0      -997912.0
      -1003062.      -1008108.      -1013065.      -1017882.      -1022536.
      -1027036.      -1031366.      -1035542.      -1039567.      -1043417.
      -1047091.      -1050595.      -1053931.      -1057122.      -1060165.
      -1063048.      -1065800.      -1068442.      -1070981.      -1073425.
      -1075789.      -1078065.      -1080259.      -1082395.      -1084486.
      -1086540.      -1088526.      -1090443.      -1092291.      -1094040.
      -1095687.      -1097258.      -1098773.      -1100196.      -1101508.
      -1102731.      -1103862.      -1104910.      -1105878.      -1106734.
      -1107485.      -1108154.      -1108778.      -1109385.      -1109951.
      -1110469.      -1110940.      -1111345.      -1111718.      -1112066.
      -1112382.      -1112680.      -1112959.      -1113217.      -1113426.
      -1113611.      -1113798.      -1113947.      -1114042.      -1114075.
      -1114056.      -1113978.      -1113824.      -1113607.      -1113317.
      -1112960.      -1112527.      -1111993.      -1111375.      -1110674.
      -1109868.      -1108978.      -1108017.      -1106962.      -1105794.
      -1104541.      -1103193.      -1101670.      -1100006.      -1098240.
      -1096333.      -1094266.      -1092019.      -1089583.      -1086929.
      -1084028.      -1080884.      -1077493.      -1073875.      -1070014.
      -1065871.      -1061467.      -1056812.      -1051903.      -1046733.
      -1041311.      -1035681.      -1029853.      -1023845.      -1017676.
      -1011396.      -1005037.      -998597.0      -992123.0      -985613.0
      -979058.0      -972494.0      -965953.0      -959467.0      -953043.0
      -946661.0      -940342.0      -934090.0      -927911.0      -921820.0
      -915804.0      -909853.0      -903931.0      -898022.0      -892144.0
      -886263.0      -880359.0      -874450.0      -868526.0      -862575.0
      -856615.0      -850658.0      -844728.0      -838862.0      -833057.0
      -827306.0      -821622.0      -815993.0      -810445.0      -804994.0
      -799605.0      -794273.0      -788979.0      -783717.0      -778477.0
      -773252.0      -768047.0      -762858.0      -757701.0      -752570.0
      -747448.0      -742322.0      -737181.0      -732018.0      -726825.0
      -721591.0      -716328.0      -711057.0      -705785.0      -700517.0
      -695246.0      -689997.0      -684786.0      -679608.0      -674479.0
      -669407.0      -664396.0      -659456.0      -654591.0      -649794.0
      -645098.0      -640535.0      -636088.0      -631745.0      -627484.0
      -623302.0      -619210.0      -615204.0      -611290.0      -607458.0
      -603693.0      -599988.0      -596362.0      -592808.0      -589305.0
      -585869.0      -582524.0      -579251.0      -576047.0      -572942.0
      -569924.0      -566979.0      -564128.0      -561374.0      -558696.0
      -556109.0      -553615.0      -551198.0      -548858.0      -546577.0
      -544342.0      -542182.0      -540115.0      -538154.0      -536293.0
      -534488.0      -532725.0      -531020.0      -529390.0      -527826.0
      -526311.0      -524847.0      -523415.0      -522022.0      -520679.0
      -519379.0      -518142.0      -517011.0      -515979.0      -515025.0
      -514150.0      -513347.0      -512610.0      -511904.0      -511211.0
      -510536.0      -509836.0      -509121.0      -508399.0      -507648.0
      -506887.0      -506111.0      -505333.0      -504580.0      -503852.0
      -503164.0      -502488.0      -501807.0      -501161.0      -500551.0
      -499976.0      -499446.0      -498942.0      -498472.0      -498043.0
      -497667.0      -497319.0      -496988.0      -496706.0      -496466.0
      -496263.0      -496087.0      -495940.0      -495838.0      -495768.0
      -495725.0      -495707.0      -495727.0      -495797.0      -495939.0
      -496176.0      -496522.0      -496998.0      -497595.0      -498318.0
      -499183.0      -500182.0      -501338.0      -502664.0      -504138.0
      -505740.0      -507467.0      -509311.0      -511260.0      -513293.0
      -515414.0      -517643.0      -519980.0      -522423.0      -524987.0
      -527655.0      -530438.0      -533346.0      -536353.0      -539479.0
      -542751.0      -546167.0      -549713.0      -553384.0      -557189.0
      -561099.0      -565085.0      -569145.0      -573286.0      -577514.0
      -581820.0      -586181.0      -590582.0      -595037.0      -599561.0
      -604138.0      -608723.0      -613298.0      -617850.0      -622348.0
      -626784.0      -631151.0      -635436.0      -639629.0      -643717.0
      -647713.0      -651643.0      -655515.0      -659309.0      -663027.0
      -666691.0      -670297.0      -673843.0      -677334.0      -680777.0
      -684185.0      -687568.0      -690918.0      -694219.0      -697465.0
      -700663.0      -703810.0      -706892.0      -709928.0      -712928.0
      -715878.0      -718784.0      -721658.0      -724473.0      -727216.0
      -729889.0      -732465.0      -734940.0      -737303.0      -739562.0
      -741726.0      -743754.0      -745646.0      -747415.0      -749057.0
      -750590.0      -752009.0      -753311.0      -754471.0      -755499.0
      -756429.0      -757236.0      -757934.0      -758522.0      -758981.0
      -759303.0      -759474.0      -759494.0      -759351.0      -759046.0
      -758598.0      -758014.0      -757308.0      -756503.0      -755628.0
      -754712.0      -753750.0      -752753.0      -751741.0      -750738.0
      -749754.0      -748781.0      -747844.0      -746937.0      -746051.0
      -745184.0      -744350.0      -743554.0      -742773.0      -741990.0
      -741181.0      -740330.0      -739436.0      -738465.0      -737418.0
      -736306.0      -735115.0      -733844.0      -732474.0      -731008.0
      -729453.0      -727758.0      -725910.0      -723942.0      -721807.0
      -719478.0      -716989.0      -714319.0      -711462.0      -708404.0
      -705130.0      -701631.0      -697896.0      -693941.0      -689776.0
      -685399.0      -680793.0      -675984.0      -670998.0      -665842.0
      -660536.0      -655093.0      -649515.0      -643795.0      -637945.0
      -631947.0      -625819.0      -619603.0      -613285.0      -606867.0
      -600341.0      -593698.0      -586962.0      -580141.0      -573241.0
      -566271.0      -559226.0      -552123.0      -544964.0      -537738.0
      -530461.0      -523107.0      -515673.0      -508181.0      -500616.0
      -492993.0      -485278.0      -477447.0      -469505.0      -461420.0
      -453221.0      -444935.0      -436554.0      -428098.0      -419574.0
      -410984.0      -402305.0      -393553.0      -384733.0      -375815.0
      -366821.0      -357730.0      -348541.0      -339277.0      -329913.0
      -320462.0      -310918.0      -301262.0      -291498.0      -281649.0
      -271721.0      -261678.0      -251508.0      -241193.0      -230718.0
      -220087.0      -209292.0      -198332.0      -187203.0      -175907.0
      -164431.0      -152777.0      -140988.0      -129068.0      -116991.0
      -104749.0      -92362.00      -79832.00      -67145.00      -54306.00
      -41311.00      -28160.00      -14879.00      -1443.000       12166.00
       25950.00       39879.00       53917.00       68089.00       82392.00
       96803.00       111323.0       125929.0       140560.0       155201.0
       169873.0       184548.0       199176.0       213741.0       228222.0
       242585.0       256864.0       271063.0       285147.0       299112.0
       312943.0       326619.0       340145.0       353522.0       366714.0
       379722.0       392549.0       405176.0       417600.0       429792.0
       441727.0       453393.0       464778.0       475878.0       486693.0
       497223.0       507482.0       517483.0       527214.0       536673.0
       545879.0       554835.0       563518.0       571920.0       580055.0
       587910.0       595453.0       602672.0       609614.0       616298.0
       622718.0       628902.0       634866.0       640618.0       646205.0
       651654.0       656966.0       662152.0       667195.0       672123.0
       676960.0       681697.0       686345.0       690884.0       695309.0
       699614.0       703783.0       707814.0       711705.0       715458.0
       719047.0       722460.0       725684.0       728716.0       731562.0
       734215.0       736699.0       739008.0       741111.0       743005.0
       744702.0       746215.0       747557.0       748752.0       749762.0
       750577.0       751210.0       751632.0       751895.0       751995.0
       751921.0       751679.0       751294.0       750790.0       750136.0
       749374.0       748532.0       747586.0       746519.0       745343.0
       744067.0       742692.0       741228.0       739650.0       737955.0
       736134.0       734193.0       732136.0       729933.0       727574.0
       725037.0       722319.0       719428.0       716372.0       713149.0
       709747.0       706173.0       702445.0       698536.0       694424.0
       690136.0       685674.0       681036.0       676233.0       671249.0
       666098.0       660792.0       655346.0       649777.0       644079.0
       638259.0       632333.0       626304.0       620162.0       613930.0
       607635.0       601277.0       594877.0       588451.0       582006.0
       575560.0       569139.0       562758.0       556419.0       550126.0
       543895.0       537755.0       531712.0       525773.0       519907.0
       514096.0       508362.0       502687.0       497082.0       491557.0
       486095.0       480700.0       475376.0       470120.0       464920.0
       459782.0       454703.0       449663.0       444651.0       439697.0
       434812.0       429970.0       425160.0       420401.0       415702.0
       411034.0       406418.0       401852.0       397301.0       392768.0
       388274.0       383823.0       379394.0       375026.0       370755.0
       366572.0       362501.0       358545.0       354704.0       350988.0
       347391.0       343910.0       340524.0       337195.0       333912.0
       330682.0       327485.0       324294.0       321098.0       317882.0
       314638.0       311363.0       308058.0       304726.0       301342.0
       297902.0       294401.0       290842.0       287260.0       283644.0
       279989.0       276311.0       272632.0       268972.0       265320.0
       261691.0       258121.0       254594.0       251079.0       247573.0
       244078.0       240587.0       237107.0       233641.0       230167.0
       226682.0       223198.0       219727.0       216294.0       212888.0
       209481.0       206055.0       202612.0       199149.0       195677.0
       192218.0       188767.0       185336.0       181943.0       178601.0
       175307.0       172064.0       168892.0       165798.0       162780.0
       159822.0       156920.0       154078.0       151313.0       148632.0
       146000.0       143406.0       140856.0       138343.0       135874.0
       133447.0       131033.0       128612.0       126156.0       123678.0
       121198.0       118703.0       116167.0       113589.0       110994.0
       108362.0       105690.0       102983.0       100209.0       97372.00
       94477.00       91510.00       88489.00       85423.00       82304.00
       79135.00       75907.00       72623.00       69277.00       65860.00
       62375.00       58831.00       55213.00       51512.00       47725.00
       43825.00       39834.00       35777.00       31652.00       27488.00
       23282.00       19029.00       14746.00       10453.00       6154.000
       1842.000      -2470.000      -6793.000      -11116.00      -15428.00
      -19739.00      -24017.00      -28282.00      -32533.00      -36717.00
      -40848.00      -44914.00      -48916.00      -52866.00      -56770.00
      -60652.00      -64471.00      -68222.00      -71943.00      -75617.00
      -79236.00      -82838.00      -86438.00      -90008.00      -93574.00
      -97163.00      -100776.0      -104409.0      -108039.0      -111663.0
      -115317.0      -119016.0      -122773.0      -126606.0      -130503.0
      -134483.0      -138544.0      -142690.0      -146932.0      -151248.0
      -155648.0      -160104.0      -164561.0      -169042.0      -173558.0
      -178087.0      -182636.0      -187191.0      -191744.0      -196298.0
      -200838.0      -205375.0      -209908.0      -214426.0      -218914.0
      -223349.0      -227737.0      -232100.0      -236437.0      -240750.0
      -245062.0      -249361.0      -253634.0      -257896.0      -262126.0
      -266339.0      -270537.0      -274702.0      -278859.0      -283008.0
      -287158.0      -291328.0      -295504.0      -299693.0      -303925.0
      -308203.0      -312513.0      -316882.0      -321341.0      -325911.0
      -330595.0      -335392.0      -340300.0      -345313.0      -350430.0
      -355652.0      -360987.0      -366428.0      -371977.0      -377649.0
      -383478.0      -389489.0      -395663.0      -401990.0      -408454.0
      -415039.0      -421751.0      -428607.0      -435614.0      -442757.0
      -450014.0      -457388.0      -464896.0      -472533.0      -480308.0
      -488226.0      -496279.0      -504470.0      -512804.0      -521295.0
      -529932.0      -538708.0      -547612.0      -556604.0      -565678.0
      -574842.0      -584076.0      -593359.0      -602685.0      -612056.0
      -621465.0      -630883.0      -640312.0      -649770.0      -659227.0
      -668668.0      -678103.0      -687545.0      -696968.0      -706357.0
      -715732.0      -725088.0      -734421.0      -743716.0      -752966.0
      -762163.0      -771276.0      -780309.0      -789246.0      -798044.0
      -806714.0      -815266.0      -823682.0      -831953.0      -840073.0
      -848020.0      -855782.0      -863351.0      -870718.0      -877885.0
      -884846.0      -891623.0      -898218.0      -904593.0      -910779.0
      -916801.0      -922649.0      -928350.0      -933901.0      -939298.0
