     0.02500000      -12345.00      -12345.00   2.447790e+09      -12345.00
   0.0005380000       1859.976      -428.0196      -12345.00      -12345.00
      -12345.00      -12345.00      -12345.00      -12345.00      -12345.00
      -12345.00      -12345.00      -12345.00      -12345.00      -12345.00
      -12345.00      -12345.00      -12345.00      -12345.00      -12345.00
      -12345.00      -12345.00      -12345.00      -12345.00      -12345.00
      -12345.00      -32.92770       117.2390       380.1000       0.000000
      -42.72450       173.0647      -12345.00       22.00000      -12345.00
      -12345.00      -12345.00      -12345.00      -12345.00      -12345.00
      -12345.00      -12345.00      -12345.00      -12345.00      -12345.00
       4942.570       263.4972       119.4769       44.45157      -12345.00
      -12345.00      -12345.00       359.0000       90.00000      -12345.00
      -12345.00      -12345.00      -12345.00      -12345.00      -12345.00
      -12345.00      -12345.00      -12345.00      -12345.00      -12345.00
      2016       318        11        10         7
        19         6    -12345    -12345     74400
    -12345    -12345    -12345    -12345    -12345
         1    -12345    -12345    -12345    -12345
    -12345    -12345    -12345    -12345    -12345
    -12345    -12345    -12345    -12345    -12345
    -12345    -12345    -12345    -12345    -12345
         1    -12345    -12345    -12345    -12345
NWAO    South Island, Ne
10      -12345  -12345  
-12345  -12345  -12345  
-12345  -12345  -12345  
-12345  -12345  -12345  
-12345  -12345  -12345  
-12345  -12345  BH1     
IU      -12345  Streckei
[...]
       211254.0       209527.0       207740.0       205961.0       204092.0
       202345.0       200628.0       198811.0       197014.0       195150.0
       193290.0       191553.0       189759.0       187879.0       186129.0
       184296.0       182401.0       180704.0       178867.0       176984.0
       175221.0       173414.0       171634.0       169832.0       168024.0
       166228.0       164486.0       162757.0       160941.0       159232.0
       157459.0       155681.0       154068.0       152306.0       150593.0
       148951.0       147221.0       145562.0       143948.0       142359.0
       140732.0       139125.0       137609.0       136093.0       134568.0
       133002.0       131471.0       130048.0       128605.0       127105.0
       125602.0       124219.0       122889.0       121433.0       119985.0
       118653.0       117387.0       116079.0       114669.0       113321.0
       112078.0       110825.0       109605.0       108329.0       107077.0
       105888.0       104654.0       103510.0       102294.0       101108.0
       100026.0       98901.00       97858.00       96699.00       95535.00
       94594.00       93583.00       92534.00       91525.00       90474.00
       89544.00       88646.00       87671.00       86753.00       85789.00
       84857.00       84090.00       83258.00       82314.00       81461.00
       80641.00       79835.00       79154.00       78336.00       77484.00
       76722.00       75958.00       75368.00       74625.00       73741.00
       73112.00       72492.00       71808.00       71138.00       70431.00
       69927.00       69449.00       68697.00       68077.00       67661.00
       67118.00       66487.00       65946.00       65465.00       64972.00
       64467.00       63974.00       63536.00       63079.00       62563.00
       62147.00       61815.00       61335.00       60815.00       60469.00
       60122.00       59680.00       59305.00       58927.00       58520.00
       58205.00       57881.00       57607.00       57297.00       56975.00
       56806.00       56470.00       56213.00       56145.00       55835.00
       55592.00       55495.00       55327.00       55166.00       54982.00
       54793.00       54640.00       54545.00       54377.00       54232.00
       54130.00       53880.00       53785.00       53701.00       53466.00
       53333.00       53217.00       53084.00       52868.00       52734.00
       52657.00       52400.00       52226.00       52129.00       52032.00
       51867.00       51647.00       51551.00       51476.00       51370.00
       51194.00       51063.00       50960.00       50751.00       50665.00
       50650.00       50470.00       50333.00       50273.00       50139.00
       50120.00       50052.00       49885.00       49847.00       49792.00
       49707.00       49667.00       49628.00       49570.00       49556.00
       49518.00       49457.00       49487.00       49436.00       49378.00
       49415.00       49429.00       49437.00       49422.00       49417.00
       49453.00       49499.00       49515.00       49540.00       49587.00
       49623.00       49733.00       49721.00       49746.00       49958.00
       49964.00       49940.00       50019.00       50134.00       50332.00
       50385.00       50406.00       50586.00       50761.00       50937.00
       51068.00       51230.00       51516.00       51730.00       51997.00
       52285.00       52506.00       52838.00       53257.00       53610.00
       53903.00       54289.00       54739.00       55211.00       55710.00
       56222.00       56689.00       57174.00       57750.00       58350.00
       58978.00       59560.00       60137.00       60758.00       61399.00
       62082.00       62749.00       63455.00       64144.00       64778.00
       65504.00       66250.00       66962.00       67777.00       68597.00
       69318.00       70100.00       70956.00       71789.00       72601.00
       73492.00       74372.00       75203.00       76193.00       77139.00
       77957.00       78941.00       79974.00       80881.00       81907.00
       83008.00       84006.00       85051.00       86148.00       87253.00
       88333.00       89487.00       90684.00       91768.00       92926.00
       94127.00       95304.00       96481.00       97607.00       98853.00
       100110.0       101257.0       102515.0       103815.0       105038.0
       106232.0       107472.0       108810.0       110063.0       111237.0
       112519.0       113858.0       115148.0       116413.0       117695.0
       118965.0       120293.0       121555.0       122772.0       124110.0
       125376.0       126527.0       127760.0       129087.0       130287.0
       131395.0       132559.0       133810.0       135006.0       136045.0
       137164.0       138330.0       139419.0       140467.0       141503.0
       142581.0       143651.0       144688.0       145682.0       146685.0
       147691.0       148610.0       149602.0       150582.0       151485.0
       152435.0       153386.0       154274.0       155103.0       156005.0
       156881.0       157759.0       158598.0       159356.0       160253.0
       161085.0       161872.0       162685.0       163478.0       164244.0
       164969.0       165818.0       166529.0       167160.0       167954.0
       168668.0       169342.0       170024.0       170663.0       171330.0
       172033.0       172662.0       173201.0       173866.0       174550.0
       175083.0       175608.0       176182.0       176855.0       177451.0
       177871.0       178410.0       178985.0       179494.0       179983.0
       180405.0       180883.0       181325.0       181673.0       182112.0
       182494.0       182785.0       183167.0       183505.0       183701.0
       183962.0       184289.0       184490.0       184636.0       184787.0
       184942.0       185081.0       185210.0       185327.0       185325.0
       185360.0       185400.0       185395.0       185443.0       185363.0
       185220.0       185140.0       185060.0       184910.0       184747.0
       184576.0       184325.0       184125.0       183905.0       183637.0
       183313.0       182993.0       182742.0       182323.0       181906.0
       181480.0       181015.0       180639.0       180094.0       179513.0
       178934.0       178343.0       177801.0       177141.0       176445.0
       175734.0       175035.0       174301.0       173544.0       172802.0
       171997.0       171204.0       170398.0       169558.0       168738.0
       167986.0       167145.0       166249.0       165421.0       164496.0
       163649.0       162912.0       162042.0       161160.0       160316.0
       159340.0       158517.0       157856.0       156969.0       156049.0
       155176.0       154338.0       153552.0       152694.0       151868.0
       151103.0       150242.0       149299.0       148546.0       147773.0
       146910.0       146166.0       145285.0       144364.0       143519.0
       142715.0       141899.0       140945.0       140056.0       139181.0
       138224.0       137313.0       136384.0       135418.0       134419.0
       133443.0       132502.0       131436.0       130379.0       129394.0
       128341.0       127239.0       126152.0       125089.0       123933.0
       122749.0       121608.0       120424.0       119164.0       117912.0
       116718.0       115428.0       114065.0       112746.0       111354.0
       109890.0       108543.0       107162.0       105545.0       103992.0
       102565.0       100999.0       99346.00       97643.00       95961.00
       94321.00       92542.00       90712.00       88896.00       87047.00
       85174.00       83206.00       81219.00       79245.00       77216.00
       75160.00       73016.00       70873.00       68726.00       66511.00
       64327.00       62055.00       59715.00       57457.00       55172.00
       52820.00       50438.00       47975.00       45594.00       43217.00
       40706.00       38254.00       35739.00       33170.00       30658.00
       28083.00       25469.00       22888.00       20280.00       17606.00
       15012.00       12340.00       9602.000       7023.000       4279.000
       1426.000      -1254.000      -4001.000      -6799.000      -9514.000
      -12342.00      -15223.00      -17960.00      -20735.00      -23637.00
      -26483.00      -29303.00      -32141.00      -35041.00      -37970.00
      -40737.00      -43583.00      -46515.00      -49428.00      -52355.00
      -55196.00      -58114.00      -61044.00      -63991.00      -66942.00
      -69843.00      -72812.00      -75721.00      -78674.00      -81661.00
      -84613.00      -87643.00      -90632.00      -93622.00      -96710.00
      -99780.00      -102806.0      -105869.0      -109012.0      -112186.0
      -115303.0      -118357.0      -121478.0      -124674.0      -127906.0
      -131081.0      -134115.0      -137336.0      -140657.0      -143783.0
      -146932.0      -150170.0      -153484.0      -156714.0      -159891.0
      -163227.0      -166489.0      -169773.0      -173119.0      -176391.0
      -179748.0      -183148.0      -186516.0      -189869.0      -193227.0
      -196665.0      -200125.0      -203520.0      -206955.0      -210432.0
      -213941.0      -217422.0      -220879.0      -224470.0      -228065.0
      -231618.0      -235076.0      -238599.0      -242369.0      -245988.0
      -249498.0      -253145.0      -256837.0      -260593.0      -264293.0
      -267980.0      -271814.0      -275525.0      -279320.0      -283263.0
      -287028.0      -290961.0      -294958.0      -298805.0      -302779.0
      -306816.0      -310847.0      -314893.0      -318952.0      -323044.0
      -327164.0      -331386.0      -335574.0      -339672.0      -343858.0
      -348159.0      -352446.0      -356658.0      -360979.0      -365328.0
      -369672.0      -374064.0      -378383.0      -382800.0      -387279.0
      -391740.0      -396196.0      -400658.0      -405249.0      -409761.0
      -414253.0      -418944.0      -423565.0      -428111.0      -432763.0
      -437456.0      -442150.0      -446839.0      -451643.0      -456451.0
      -461235.0      -466053.0      -470793.0      -475652.0      -480587.0
      -485472.0      -490366.0      -495249.0      -500230.0      -505220.0
      -510132.0      -515119.0      -520144.0      -525147.0      -530156.0
      -535146.0      -540152.0      -545119.0      -550093.0      -555178.0
      -560223.0      -565207.0      -570193.0      -575160.0      -580117.0
      -585109.0      -590083.0      -594962.0      -599881.0      -604786.0
      -609639.0      -614522.0      -619384.0      -624291.0      -629095.0
      -633792.0      -638615.0      -643422.0      -648153.0      -652831.0
      -657500.0      -662207.0      -666815.0      -671375.0      -676000.0
      -680603.0      -685094.0      -689544.0      -694010.0      -698478.0
      -702902.0      -707220.0      -711529.0      -715842.0      -720110.0
      -724407.0      -728558.0      -732619.0      -736774.0      -740818.0
      -744829.0      -748813.0      -752666.0      -756535.0      -760364.0
      -764152.0      -767841.0      -771454.0      -775129.0      -778698.0
      -782218.0      -785734.0      -789107.0      -792460.0      -795912.0
      -799229.0      -802352.0      -805580.0      -808806.0      -811913.0
      -814990.0      -817991.0      -820966.0      -823960.0      -826832.0
      -829612.0      -832461.0      -835188.0      -837849.0      -840549.0
      -843123.0      -845605.0      -848008.0      -850472.0      -852917.0
      -855185.0      -857463.0      -859689.0      -861869.0      -864065.0
      -866205.0      -868230.0      -870189.0      -872214.0      -874216.0
      -876135.0      -878002.0      -879822.0      -881665.0      -883571.0
      -885396.0      -887098.0      -888859.0      -890598.0      -892221.0
      -893911.0      -895607.0      -897217.0      -898840.0      -900415.0
      -901962.0      -903526.0      -905102.0      -906682.0      -908119.0
      -909503.0      -910996.0      -912447.0      -913819.0      -915179.0
      -916534.0      -917893.0      -919196.0      -920394.0      -921593.0
      -922880.0      -924086.0      -925202.0      -926320.0      -927402.0
      -928456.0      -929513.0      -930551.0      -931452.0      -932326.0
      -933274.0      -934140.0      -934957.0      -935716.0      -936426.0
      -937207.0      -937885.0      -938557.0      -939238.0      -939745.0
      -940260.0      -940752.0      -941281.0      -941759.0      -942076.0
      -942489.0      -942820.0      -943077.0      -943393.0      -943689.0
      -943964.0      -944126.0      -944241.0      -944336.0      -944440.0
      -944572.0      -944640.0      -944578.0      -944449.0      -944416.0
      -944412.0      -944315.0      -944067.0      -943861.0      -943727.0
      -943479.0      -943202.0      -942838.0      -942538.0      -942321.0
      -941961.0      -941511.0      -941017.0      -940648.0      -940283.0
      -939786.0      -939313.0      -938817.0      -938321.0      -937802.0
      -937181.0      -936620.0      -936100.0      -935474.0      -934845.0
      -934227.0      -933507.0      -932809.0      -932171.0      -931491.0
      -930722.0      -929873.0      -929146.0      -928354.0      -927402.0
      -926605.0      -925735.0      -924777.0      -923876.0      -922885.0
      -921856.0      -920839.0      -919822.0      -918692.0      -917502.0
      -916362.0      -915198.0      -913957.0      -912635.0      -911368.0
      -910128.0      -908766.0      -907324.0      -905849.0      -904441.0
      -903052.0      -901518.0      -899941.0      -898357.0      -896794.0
      -895231.0      -893529.0      -891798.0      -890029.0      -888306.0
      -886609.0      -884691.0      -882815.0      -880996.0      -879055.0
      -877107.0      -875145.0      -873147.0      -871119.0      -869032.0
      -866904.0      -864819.0      -862714.0      -860555.0      -858369.0
      -856147.0      -853929.0      -851686.0      -849419.0      -847123.0
      -844765.0      -842501.0      -840257.0      -837790.0      -835369.0
      -833042.0      -830621.0      -828223.0      -825784.0      -823342.0
      -820905.0      -818382.0      -815939.0      -813543.0      -811041.0
      -808466.0      -806032.0      -803650.0      -801113.0      -798645.0
      -796136.0      -793631.0      -791289.0      -788795.0      -786338.0
      -783972.0      -781467.0      -779090.0      -776757.0      -774298.0
      -771950.0      -769646.0      -767322.0      -765039.0      -762706.0
      -760416.0      -758222.0      -755936.0      -753720.0      -751555.0
      -749197.0      -747010.0      -744907.0      -742660.0      -740511.0
      -738364.0      -736221.0      -734127.0      -731951.0      -729812.0
      -727775.0      -725687.0      -723622.0      -721534.0      -719419.0
      -717449.0      -715441.0      -713365.0      -711334.0      -709313.0
      -707362.0      -705378.0      -703287.0      -701323.0      -699374.0
      -697353.0      -695423.0      -693452.0      -691447.0      -689525.0
      -687630.0      -685656.0      -683691.0      -681809.0      -679823.0
      -677894.0      -676096.0      -674183.0      -672200.0      -670244.0
      -668453.0      -666651.0      -664660.0      -662774.0      -660968.0
      -659095.0      -657183.0      -655292.0      -653531.0      -651655.0
      -649700.0      -647935.0      -646121.0      -644211.0      -642396.0
      -640628.0      -638803.0      -637013.0      -635238.0      -633458.0
      -631809.0      -630081.0      -628269.0      -626629.0      -625015.0
      -623321.0      -621691.0      -620088.0      -618452.0      -616856.0
      -615308.0      -613838.0      -612299.0      -610679.0      -609195.0
      -607683.0      -606195.0      -604691.0      -603123.0      -601715.0
      -600230.0      -598713.0      -597250.0      -595747.0      -594267.0
      -592733.0      -591234.0      -589810.0      -588275.0      -586673.0
      -585232.0      -583772.0      -582152.0      -580633.0      -579156.0
      -577569.0      -575949.0      -574414.0      -572892.0      -571243.0
      -569623.0      -568043.0      -566457.0      -564799.0      -563084.0
      -561545.0      -559936.0      -558222.0      -556577.0      -554930.0
      -553298.0      -551605.0      -549968.0      -548366.0      -546654.0
      -545061.0      -543484.0      -541759.0      -540127.0      -538544.0
      -536981.0      -535410.0      -533778.0      -532232.0      -530672.0
      -529106.0      -527537.0      -525918.0      -524418.0      -522894.0
      -521249.0      -519754.0      -518280.0      -516663.0      -515128.0
      -513600.0      -512034.0      -510583.0      -509014.0      -507404.0
      -505914.0      -504354.0      -502865.0      -501388.0      -499781.0
      -498279.0      -496851.0      -495330.0      -493848.0      -492321.0
      -490728.0      -489310.0      -487822.0      -486218.0      -484746.0
      -483215.0      -481675.0      -480196.0      -478639.0      -477126.0
      -475638.0      -474158.0      -472622.0      -471055.0      -469630.0
      -468173.0      -466675.0      -465220.0      -463758.0      -462305.0
      -460860.0      -459441.0      -458054.0      -456676.0      -455244.0
      -453872.0      -452575.0      -451193.0      -449830.0      -448501.0
      -447143.0      -445851.0      -444652.0      -443316.0      -441885.0
      -440637.0      -439418.0      -438241.0      -437027.0      -435640.0
      -434365.0      -433227.0      -432052.0      -430726.0      -429476.0
      -428358.0      -427129.0      -425939.0      -424725.0      -423502.0
      -422378.0      -421191.0      -419984.0      -418755.0      -417602.0
      -416409.0      -415066.0      -413920.0      -412786.0      -411528.0
      -410276.0      -409013.0      -407871.0      -406647.0      -405339.0
      -404137.0      -402882.0      -401599.0      -400359.0      -399125.0
      -397800.0      -396518.0      -395298.0      -393957.0      -392646.0
      -391349.0      -389995.0      -388641.0      -387288.0      -385923.0
      -384548.0      -383173.0      -381733.0      -380305.0      -378904.0
