     0.02500000      -12345.00      -12345.00   2.447790e+09      -12345.00
   0.0005380000       1859.976      -428.0196      -12345.00      -12345.00
      -12345.00      -12345.00      -12345.00      -12345.00      -12345.00
      -12345.00      -12345.00      -12345.00      -12345.00      -12345.00
      -12345.00      -12345.00      -12345.00      -12345.00      -12345.00
      -12345.00      -12345.00      -12345.00      -12345.00      -12345.00
      -12345.00      -32.92770       117.2390       380.1000       0.000000
      -42.72450       173.0647      -12345.00       22.00000      -12345.00
      -12345.00      -12345.00      -12345.00      -12345.00      -12345.00
      -12345.00      -12345.00      -12345.00      -12345.00      -12345.00
       4942.570       263.4972       119.4769       44.45157      -12345.00
      -12345.00      -12345.00       89.00000       90.00000      -12345.00
      -12345.00      -12345.00      -12345.00      -12345.00      -12345.00
      -12345.00      -12345.00      -12345.00      -12345.00      -12345.00
      2016       318        11        10         7
        19         6    -12345    -12345     74400
    -12345    -12345    -12345    -12345    -12345
         1    -12345    -12345    -12345    -12345
    -12345    -12345    -12345    -12345    -12345
    -12345    -12345    -12345    -12345    -12345
    -12345    -12345    -12345    -12345    -12345
         1    -12345    -12345    -12345    -12345
NWAO    South Island, Ne
10      -12345  -12345  
-12345  -12345  -12345  
-12345  -12345  -12345  
-12345  -12345  -12345  
-12345  -12345  -12345  
-12345  -12345  BH2     
IU      -12345  Streckei
[...]
       756054.0       754480.0       752762.0       751273.0       749662.0
       747992.0       746366.0       744623.0       742962.0       741176.0
       739483.0       737730.0       735749.0       734045.0       732217.0
       730236.0       728354.0       726447.0       724593.0       722559.0
       720492.0       718536.0       716484.0       714494.0       712356.0
       710146.0       708044.0       705907.0       703799.0       701490.0
       699221.0       697057.0       694777.0       692458.0       690114.0
       687811.0       685392.0       683045.0       680711.0       678217.0
       675805.0       673345.0       670826.0       668354.0       665869.0
       663269.0       660614.0       658092.0       655575.0       652927.0
       650156.0       647488.0       644922.0       642111.0       639336.0
       636618.0       633869.0       631128.0       628230.0       625493.0
       622715.0       619754.0       616865.0       613948.0       611090.0
       608168.0       605031.0       601955.0       599016.0       596016.0
       592800.0       589650.0       586686.0       583460.0       580226.0
       577104.0       573720.0       570458.0       567273.0       563898.0
       560565.0       557100.0       553717.0       550419.0       546826.0
       543310.0       539789.0       536221.0       532703.0       528920.0
       525266.0       521722.0       517868.0       514068.0       510395.0
       506615.0       502687.0       498724.0       494877.0       490935.0
       486879.0       482849.0       478890.0       474877.0       470698.0
       466595.0       462435.0       458271.0       454130.0       449843.0
       445598.0       441269.0       436945.0       432665.0       428278.0
       423879.0       419467.0       415037.0       410594.0       406112.0
       401652.0       397125.0       392465.0       387964.0       383501.0
       378873.0       374161.0       369456.0       364881.0       360289.0
       355542.0       350732.0       345998.0       341256.0       336472.0
       331701.0       326863.0       322070.0       317202.0       312329.0
       307556.0       302518.0       297575.0       292701.0       287678.0
       282806.0       277705.0       272632.0       267795.0       262627.0
       257516.0       252548.0       247389.0       242391.0       237306.0
       232101.0       226969.0       221789.0       216747.0       211544.0
       206294.0       201154.0       195929.0       190795.0       185563.0
       180352.0       175159.0       169825.0       164788.0       159575.0
       154070.0       149006.0       143871.0       138452.0       133142.0
       127932.0       122828.0       117503.0       112184.0       106968.0
       101617.0       96495.00       91272.00       85857.00       80694.00
       75454.00       70069.00       64919.00       59650.00       54329.00
       49166.00       43876.00       38699.00       33476.00       28240.00
       23126.00       17838.00       12623.00       7549.000       2369.000
      -2820.000      -7906.000      -13024.00      -18142.00      -23160.00
      -28288.00      -33409.00      -38219.00      -43234.00      -48408.00
      -53299.00      -58226.00      -63148.00      -68074.00      -72964.00
      -77859.00      -82827.00      -87498.00      -92313.00      -97257.00
      -101946.0      -106728.0      -111478.0      -116158.0      -120848.0
      -125490.0      -130254.0      -134906.0      -139374.0      -143948.0
      -148596.0      -153148.0      -157621.0      -162124.0      -166600.0
      -171012.0      -175464.0      -179919.0      -184252.0      -188606.0
      -192899.0      -197267.0      -201695.0      -205809.0      -210054.0
      -214414.0      -218598.0      -222731.0      -226991.0      -231145.0
      -235126.0      -239354.0      -243479.0      -247495.0      -251554.0
      -255512.0      -259605.0      -263634.0      -267402.0      -271361.0
      -275376.0      -279161.0      -283036.0      -286853.0      -290655.0
      -294360.0      -298045.0      -301876.0      -305425.0      -309137.0
      -312945.0      -316451.0      -319998.0      -323639.0      -327249.0
      -330759.0      -334313.0      -337761.0      -341173.0      -344751.0
      -348081.0      -351473.0      -354924.0      -358125.0      -361549.0
      -364889.0      -368096.0      -371398.0      -374549.0      -377836.0
      -381112.0      -384174.0      -387367.0      -390522.0      -393567.0
      -396699.0      -399750.0      -402786.0      -405831.0      -408716.0
      -411703.0      -414775.0      -417613.0      -420472.0      -423396.0
      -426160.0      -428992.0      -431794.0      -434541.0      -437311.0
      -439808.0      -442535.0      -445466.0      -447960.0      -450438.0
      -453112.0      -455850.0      -458351.0      -460630.0      -463190.0
      -465860.0      -468318.0      -470512.0      -472849.0      -475437.0
      -477806.0      -480005.0      -482295.0      -484661.0      -486847.0
      -488999.0      -491280.0      -493445.0      -495598.0      -497721.0
      -499746.0      -501835.0      -503936.0      -505994.0      -507944.0
      -509886.0      -511940.0      -513901.0      -515763.0      -517637.0
      -519506.0      -521408.0      -523219.0      -524948.0      -526794.0
      -528621.0      -530340.0      -532069.0      -533783.0      -535463.0
      -537111.0      -538694.0      -540358.0      -542059.0      -543553.0
      -544999.0      -546625.0      -548265.0      -549727.0      -551131.0
      -552652.0      -554185.0      -555599.0      -556978.0      -558426.0
      -559793.0      -561152.0      -562633.0      -563939.0      -565265.0
      -566644.0      -567885.0      -569193.0      -570496.0      -571731.0
      -572967.0      -574261.0      -575455.0      -576509.0      -577718.0
      -578923.0      -579987.0      -581126.0      -582155.0      -583164.0
      -584275.0      -585178.0      -586183.0      -587223.0      -588090.0
      -589031.0      -589897.0      -590822.0      -591720.0      -592471.0
      -593282.0      -594024.0      -594854.0      -595650.0      -596261.0
      -596981.0      -597664.0      -598317.0      -599000.0      -599546.0
      -600082.0      -600626.0      -601135.0      -601743.0      -602218.0
      -602495.0      -602951.0      -603398.0      -603717.0      -604070.0
      -604332.0      -604534.0      -604801.0      -605103.0      -605263.0
      -605444.0      -605617.0      -605592.0      -605762.0      -605926.0
      -605872.0      -605934.0      -605948.0      -605818.0      -605821.0
      -605794.0      -605582.0      -605529.0      -605472.0      -605204.0
      -604912.0      -604727.0      -604600.0      -604260.0      -603939.0
      -603718.0      -603297.0      -602908.0      -602629.0      -602121.0
      -601638.0      -601267.0      -600729.0      -600242.0      -599710.0
      -599104.0      -598510.0      -597924.0      -597328.0      -596559.0
      -595929.0      -595316.0      -594490.0      -593727.0      -593018.0
      -592212.0      -591306.0      -590442.0      -589596.0      -588673.0
      -587719.0      -586830.0      -585747.0      -584617.0      -583730.0
      -582597.0      -581436.0      -580312.0      -579096.0      -577984.0
      -576662.0      -575415.0      -574171.0      -572664.0      -571415.0
      -570177.0      -568610.0      -567185.0      -565688.0      -564134.0
      -562851.0      -561204.0      -559460.0      -557892.0      -556296.0
      -554740.0      -552935.0      -551108.0      -549376.0      -547559.0
      -545741.0      -543962.0      -542047.0      -539962.0      -538010.0
      -536157.0      -534108.0      -531951.0      -529861.0      -527733.0
      -525575.0      -523394.0      -521163.0      -518921.0      -516624.0
      -514309.0      -512001.0      -509602.0      -507197.0      -504816.0
      -502313.0      -499762.0      -497220.0      -494656.0      -492051.0
      -489375.0      -486694.0      -484025.0      -481258.0      -478495.0
      -475724.0      -472804.0      -469978.0      -467153.0      -464204.0
      -461232.0      -458215.0      -455211.0      -452097.0      -449007.0
      -445928.0      -442666.0      -439521.0      -436396.0      -433091.0
      -429741.0      -426464.0      -423188.0      -419725.0      -416259.0
      -412890.0      -409358.0      -405701.0      -402183.0      -398694.0
      -395052.0      -391290.0      -387581.0      -383962.0      -380269.0
      -376504.0      -372619.0      -368718.0      -364901.0      -361088.0
      -357149.0      -353053.0      -349106.0      -345174.0      -341018.0
      -336903.0      -332837.0      -328644.0      -324492.0      -320388.0
      -315992.0      -311614.0      -307487.0      -303157.0      -298648.0
      -294227.0      -289873.0      -285429.0      -280869.0      -276354.0
      -271815.0      -267147.0      -262495.0      -257922.0      -253291.0
      -248502.0      -243687.0      -238942.0      -234180.0      -229307.0
      -224368.0      -219519.0      -214598.0      -209599.0      -204687.0
      -199665.0      -194497.0      -189399.0      -184398.0      -179277.0
      -174041.0      -168893.0      -163782.0      -158494.0      -153211.0
      -148117.0      -142812.0      -137382.0      -132181.0      -126913.0
      -121542.0      -116073.0      -110663.0      -105444.0      -99929.00
      -94493.00      -89110.00      -83541.00      -78172.00      -72659.00
      -67138.00      -61639.00      -55997.00      -50537.00      -45013.00
      -39384.00      -33793.00      -28177.00      -22682.00      -17149.00
      -11485.00      -5781.000      -162.0000       5349.000       11037.00
       16754.00       22394.00       28078.00       33772.00       39423.00
       45135.00       50928.00       56607.00       62315.00       68030.00
       73773.00       79582.00       85328.00       91135.00       96878.00
       102608.0       108547.0       114389.0       120061.0       125881.0
       131733.0       137589.0       143425.0       149160.0       155013.0
       160967.0       166822.0       172554.0       178381.0       184314.0
       190265.0       196060.0       201823.0       207784.0       213594.0
       219439.0       225424.0       231179.0       236935.0       242800.0
       248634.0       254529.0       260280.0       266019.0       271929.0
       277684.0       283420.0       289248.0       295088.0       300772.0
       306476.0       312387.0       318112.0       323812.0       329567.0
       335309.0       341034.0       346718.0       352464.0       358090.0
       363762.0       369556.0       375249.0       380894.0       386503.0
       392052.0       397701.0       403434.0       408916.0       414439.0
       420167.0       425600.0       431121.0       436802.0       442286.0
       447866.0       453365.0       458867.0       464442.0       469877.0
       475414.0       480896.0       486313.0       491849.0       497274.0
       502707.0       508117.0       513442.0       518921.0       524304.0
       529612.0       534893.0       540184.0       545628.0       550879.0
       556070.0       561296.0       566506.0       571816.0       576948.0
       582076.0       587267.0       592287.0       597434.0       602617.0
       607611.0       612631.0       617645.0       622670.0       627683.0
       632529.0       637415.0       642324.0       647176.0       651977.0
       656709.0       661496.0       666270.0       670982.0       675678.0
       680277.0       684842.0       689488.0       693994.0       698512.0
       703029.0       707380.0       711804.0       716145.0       720470.0
       724766.0       728930.0       733196.0       737385.0       741447.0
       745541.0       749487.0       753417.0       757434.0       761208.0
       764956.0       768768.0       772431.0       776098.0       779717.0
       783195.0       786605.0       790071.0       793504.0       796747.0
       799951.0       803106.0       806270.0       809396.0       812357.0
       815266.0       818181.0       821125.0       823830.0       826464.0
       829189.0       831701.0       834194.0       836738.0       839166.0
       841383.0       843601.0       845876.0       848010.0       850080.0
       852085.0       854095.0       855929.0       857644.0       859508.0
       861311.0       862897.0       864298.0       865895.0       867509.0
       868755.0       870033.0       871374.0       872564.0       873644.0
       874701.0       875754.0       876634.0       877445.0       878324.0
       879052.0       879671.0       880333.0       880894.0       881370.0
       881825.0       882189.0       882513.0       882771.0       882993.0
       883109.0       883098.0       883192.0       883152.0       882992.0
       882800.0       882492.0       882241.0       881900.0       881420.0
       880873.0       880362.0       879804.0       879001.0       878252.0
       877510.0       876532.0       875679.0       874764.0       873581.0
       872502.0       871309.0       870089.0       868849.0       867464.0
       866152.0       864614.0       863057.0       861543.0       859783.0
       858105.0       856378.0       854494.0       852660.0       850675.0
       848600.0       846618.0       844502.0       842310.0       840108.0
       837775.0       835485.0       833114.0       830584.0       828131.0
       825622.0       822982.0       820385.0       817666.0       814847.0
       812184.0       809350.0       806311.0       803420.0       800510.0
       797382.0       794206.0       791103.0       787905.0       784632.0
       781342.0       777922.0       774530.0       771125.0       767600.0
       764070.0       760406.0       756735.0       753156.0       749408.0
       745566.0       741641.0       737700.0       733899.0       729855.0
       725727.0       721730.0       717525.0       713354.0       709158.0
       704821.0       700529.0       696072.0       691655.0       687257.0
       682640.0       678073.0       673511.0       668852.0       664149.0
       659433.0       654707.0       649797.0       644875.0       640082.0
       635160.0       630188.0       625162.0       620033.0       615020.0
       609903.0       604647.0       599411.0       594183.0       588915.0
       583496.0       578128.0       572735.0       567183.0       561723.0
       556157.0       550513.0       545022.0       539283.0       533478.0
       527842.0       522039.0       516212.0       510321.0       504363.0
       498521.0       492491.0       486395.0       480410.0       474306.0
       468218.0       462094.0       455837.0       449713.0       443486.0
       437138.0       430920.0       424611.0       418249.0       411888.0
       405516.0       399156.0       392708.0       386323.0       379845.0
       373259.0       366870.0       360354.0       353694.0       347159.0
       340579.0       334017.0       327423.0       320680.0       314073.0
       307455.0       300675.0       293938.0       287259.0       280578.0
       273809.0       266959.0       260162.0       253483.0       246684.0
       239830.0       233015.0       226124.0       219336.0       212475.0
       205584.0       198714.0       191832.0       184986.0       178018.0
       171173.0       164293.0       157289.0       150373.0       143477.0
       136594.0       129665.0       122650.0       115715.0       108889.0
       101929.0       94956.00       87980.00       81026.00       74224.00
       67199.00       60195.00       53398.00       46459.00       39534.00
       32642.00       25673.00       18822.00       12072.00       5159.000
      -1760.000      -8547.000      -15405.00      -22166.00      -28875.00
      -35719.00      -42553.00      -49281.00      -55965.00      -62692.00
      -69355.00      -76067.00      -82808.00      -89345.00      -95875.00
      -102502.0      -109146.0      -115698.0      -122149.0      -128668.0
      -135101.0      -141523.0      -148049.0      -154343.0      -160614.0
      -167048.0      -173447.0      -179652.0      -185778.0      -192107.0
      -198360.0      -204492.0      -210637.0      -216767.0      -222828.0
      -228802.0      -234911.0      -240953.0      -246919.0      -252853.0
      -258657.0      -264563.0      -270492.0      -276292.0      -282021.0
      -287739.0      -293411.0      -299116.0      -304844.0      -310414.0
      -315902.0      -321468.0      -327075.0      -332478.0      -337866.0
      -343342.0      -348655.0      -353982.0      -359267.0      -364483.0
      -369714.0      -374835.0      -379982.0      -385058.0      -390119.0
      -395141.0      -400014.0      -405044.0      -409984.0      -414725.0
      -419541.0      -424330.0      -429089.0      -433815.0      -438395.0
      -443027.0      -447703.0      -452228.0      -456669.0      -461125.0
      -465612.0      -469989.0      -474264.0      -478610.0      -482862.0
      -486997.0      -491243.0      -495400.0      -499446.0      -503474.0
      -507460.0      -511499.0      -515386.0      -519232.0      -523055.0
      -526756.0      -530602.0      -534247.0      -537762.0      -541479.0
      -544972.0      -548414.0      -551934.0      -555284.0      -558593.0
      -561824.0      -565089.0      -568307.0      -571339.0      -574379.0
      -577349.0      -580268.0      -583186.0      -586037.0      -588775.0
      -591469.0      -594092.0      -596662.0      -599336.0      -601780.0
      -604067.0      -606524.0      -608928.0      -611164.0      -613241.0
      -615333.0      -617578.0      -619610.0      -621482.0      -623424.0
      -625170.0      -627012.0      -628877.0      -630417.0      -632014.0
      -633581.0      -635047.0      -636519.0      -637809.0      -639092.0
      -640371.0      -641496.0      -642699.0      -643870.0      -644783.0
      -645681.0      -646683.0      -647580.0      -648312.0      -649024.0
      -649695.0      -650271.0      -650923.0      -651499.0      -651836.0
      -652231.0      -652631.0      -652921.0      -653199.0      -653385.0
      -653473.0      -653570.0      -653687.0      -653660.0      -653536.0
      -653435.0      -653285.0      -653069.0      -652806.0      -652483.0
