     0.05000000      -12345.00      -12345.00   3.340340e+09      -12345.00
   0.0005380000       1859.951      -428.0196      -12345.00      -12345.00
      -12345.00      -12345.00      -12345.00      -12345.00      -12345.00
      -12345.00      -12345.00      -12345.00      -12345.00      -12345.00
      -12345.00      -12345.00      -12345.00      -12345.00      -12345.00
      -12345.00      -12345.00      -12345.00      -12345.00      -12345.00
      -12345.00      -32.92770       117.2390       275.1000       105.0000
      -42.72450       173.0647      -12345.00       22.00000      -12345.00
      -12345.00      -12345.00      -12345.00      -12345.00      -12345.00
      -12345.00      -12345.00      -12345.00      -12345.00      -12345.00
       4942.570       263.4972       119.4769       44.45157      -12345.00
      -12345.00      -12345.00       80.00000       90.00000      -12345.00
      -12345.00      -12345.00      -12345.00      -12345.00      -12345.00
      -12345.00      -12345.00      -12345.00      -12345.00      -12345.00
      2016       318        11        10         7
        19         6    -12345    -12345     37200
    -12345    -12345    -12345    -12345    -12345
         1    -12345    -12345    -12345    -12345
    -12345    -12345    -12345    -12345    -12345
    -12345    -12345    -12345    -12345    -12345
    -12345    -12345    -12345    -12345    -12345
         1    -12345    -12345    -12345    -12345
NWAO    South Island, Ne
00      -12345  -12345  
-12345  -12345  -12345  
-12345  -12345  -12345  
-12345  -12345  -12345  
-12345  -12345  -12345  
-12345  -12345  BH1     
IU      -12345  Geotech 
[...]
       24348.00       19196.00       14038.00       8867.000       3700.000
      -1466.000      -6633.000      -11787.00      -16935.00      -22071.00
      -27195.00      -32316.00      -37423.00      -42514.00      -47596.00
      -52661.00      -57704.00      -62738.00      -67783.00      -72837.00
      -77896.00      -82979.00      -88089.00      -93226.00      -98378.00
      -103522.0      -108698.0      -113920.0      -119160.0      -124417.0
      -129669.0      -134920.0      -140193.0      -145476.0      -150762.0
      -156072.0      -161423.0      -166804.0      -172220.0      -177686.0
      -183219.0      -188813.0      -194439.0      -200105.0      -205811.0
      -211543.0      -217307.0      -223092.0      -228884.0      -234693.0
      -240525.0      -246381.0      -252253.0      -258135.0      -264038.0
      -269971.0      -275906.0      -281821.0      -287725.0      -293614.0
      -299489.0      -305346.0      -311169.0      -316968.0      -322734.0
      -328466.0      -334178.0      -339843.0      -345476.0      -351102.0
      -356713.0      -362315.0      -367915.0      -373524.0      -379149.0
      -384802.0      -390494.0      -396243.0      -402073.0      -407981.0
      -413968.0      -420055.0      -426227.0      -432480.0      -438829.0
      -445277.0      -451834.0      -458482.0      -465216.0      -472060.0
      -479028.0      -486110.0      -493312.0      -500644.0      -508098.0
      -515680.0      -523391.0      -531216.0      -539147.0      -547198.0
      -555352.0      -563601.0      -571955.0      -580387.0      -588903.0
      -597521.0      -606212.0      -614944.0      -623736.0      -632593.0
      -641514.0      -650501.0      -659525.0      -668570.0      -677647.0
      -686775.0      -695972.0      -705222.0      -714529.0      -723893.0
      -733291.0      -742741.0      -752243.0      -761772.0      -771311.0
      -780854.0      -790396.0      -799925.0      -809446.0      -818965.0
      -828485.0      -838012.0      -847546.0      -857055.0      -866529.0
      -876001.0      -885453.0      -894863.0      -904230.0      -913539.0
      -922796.0      -932018.0      -941188.0      -950286.0      -959313.0
      -968270.0      -977164.0      -985995.0      -994712.0      -1003310.
      -1011804.      -1020187.      -1028469.      -1036614.      -1044620.
      -1052511.      -1060283.      -1067942.      -1075480.      -1082896.
      -1090196.      -1097379.      -1104430.      -1111354.      -1118160.
      -1124802.      -1131257.      -1137551.      -1143671.      -1149592.
      -1155334.      -1160901.      -1166272.      -1171452.      -1176431.
      -1181203.      -1185775.      -1190131.      -1194279.      -1198226.
      -1201972.      -1205529.      -1208897.      -1212061.      -1215016.
      -1217762.      -1220306.      -1222647.      -1224772.      -1226664.
      -1228341.      -1229803.      -1231011.      -1231975.      -1232701.
      -1233181.      -1233426.      -1233413.      -1233132.      -1232585.
      -1231790.      -1230747.      -1229433.      -1227843.      -1225981.
      -1223863.      -1221464.      -1218774.      -1215802.      -1212544.
      -1208989.      -1205132.      -1200967.      -1196478.      -1191684.
      -1186583.      -1181194.      -1175542.      -1169611.      -1163404.
      -1156915.      -1150149.      -1143131.      -1135838.      -1128251.
      -1120396.      -1112263.      -1103842.      -1095155.      -1086193.
      -1076968.      -1067489.      -1057739.      -1047724.      -1037445.
      -1026910.      -1016144.      -1005147.      -993912.0      -982471.0
      -970843.0      -959007.0      -946973.0      -934747.0      -922330.0
      -909760.0      -897022.0      -884095.0      -870973.0      -857667.0
      -844225.0      -830625.0      -816846.0      -802921.0      -788869.0
      -774687.0      -760365.0      -745901.0      -731319.0      -716663.0
      -701936.0      -687126.0      -672229.0      -657249.0      -642229.0
      -627164.0      -612032.0      -596836.0      -581577.0      -566280.0
      -550948.0      -535565.0      -520141.0      -504671.0      -489130.0
      -473539.0      -457895.0      -442186.0      -426436.0      -410616.0
      -394713.0      -378763.0      -362771.0      -346742.0      -330681.0
      -314580.0      -298440.0      -282264.0      -266054.0      -249816.0
      -233553.0      -217255.0      -200940.0      -184595.0      -168199.0
      -151780.0      -135328.0      -118861.0      -102383.0      -85869.00
      -69329.00      -52759.00      -36175.00      -19582.00      -2970.000
       13605.00       30121.00       46586.00       62996.00       79360.00
       95656.00       111855.0       127955.0       143953.0       159849.0
       175622.0       191266.0       206802.0       222229.0       237530.0
       252707.0       267770.0       282716.0       297524.0       312199.0
       326739.0       341151.0       355430.0       369552.0       383516.0
       397340.0       411029.0       424576.0       437984.0       451226.0
       464287.0       477177.0       489887.0       502416.0       514769.0
       526936.0       538913.0       550672.0       562185.0       573474.0
       584542.0       595376.0       605962.0       616297.0       626395.0
       636249.0       645859.0       655232.0       664352.0       673230.0
       681876.0       690286.0       698457.0       706394.0       714097.0
       721541.0       728737.0       735697.0       742434.0       748970.0
       755289.0       761390.0       767274.0       772942.0       778404.0
       783662.0       788721.0       793578.0       798229.0       802659.0
       806845.0       810795.0       814522.0       817998.0       821220.0
       824198.0       826934.0       829446.0       831724.0       833762.0
       835562.0       837115.0       838423.0       839483.0       840298.0
       840859.0       841156.0       841218.0       841050.0       840652.0
       840018.0       839137.0       838033.0       836695.0       835090.0
       833243.0       831175.0       828864.0       826297.0       823500.0
       820498.0       817266.0       813803.0       810112.0       806199.0
       802106.0       797827.0       793345.0       788664.0       783807.0
       778781.0       773596.0       768281.0       762832.0       757269.0
       751614.0       745861.0       740014.0       734069.0       727993.0
       721810.0       715547.0       709183.0       702729.0       696170.0
       689497.0       682707.0       675808.0       668825.0       661738.0
       654543.0       647256.0       639887.0       632432.0       624880.0
       617223.0       609463.0       601623.0       593680.0       585645.0
       577528.0       569318.0       561039.0       552689.0       544243.0
       535684.0       527000.0       518196.0       509294.0       500294.0
       491173.0       481917.0       472532.0       463041.0       453428.0
       443675.0       433782.0       423744.0       413550.0       403207.0
       392734.0       382114.0       371322.0       360375.0       349301.0
       338104.0       326766.0       315300.0       303723.0       292008.0
       280178.0       268238.0       256186.0       244049.0       231811.0
       219477.0       207063.0       194557.0       181960.0       169271.0
       156491.0       143638.0       130722.0       117728.0       104634.0
       91461.00       78223.00       64910.00       51531.00       38111.00
       24657.00       11146.00      -2427.000      -16033.00      -29664.00
      -43309.00      -56950.00      -70609.00      -84293.00      -98000.00
      -111708.0      -125394.0      -139063.0      -152734.0      -166400.0
      -180035.0      -193660.0      -207261.0      -220805.0      -234290.0
      -247719.0      -261101.0      -274411.0      -287623.0      -300734.0
      -313738.0      -326624.0      -339379.0      -352016.0      -364533.0
      -376934.0      -389214.0      -401357.0      -413361.0      -425226.0
      -436970.0      -448582.0      -460035.0      -471328.0      -482494.0
      -493526.0      -504403.0      -515151.0      -525757.0      -536226.0
      -546575.0      -556797.0      -566884.0      -576816.0      -586623.0
      -596305.0      -605831.0      -615211.0      -624446.0      -633538.0
      -642486.0      -651264.0      -659887.0      -668397.0      -676793.0
      -685069.0      -693217.0      -701225.0      -709107.0      -716862.0
      -724498.0      -732026.0      -739437.0      -746743.0      -753955.0
      -761062.0      -768056.0      -774943.0      -781728.0      -788408.0
      -794969.0      -801412.0      -807727.0      -813934.0      -820062.0
      -826099.0      -832041.0      -837867.0      -843594.0      -849230.0
      -854761.0      -860194.0      -865507.0      -870708.0      -875817.0
      -880818.0      -885709.0      -890506.0      -895207.0      -899813.0
      -904328.0      -908748.0      -913087.0      -917356.0      -921543.0
      -925644.0      -929634.0      -933521.0      -937336.0      -941079.0
      -944771.0      -948390.0      -951916.0      -955387.0      -958823.0
      -962206.0      -965520.0      -968770.0      -971958.0      -975070.0
      -978100.0      -981052.0      -983909.0      -986666.0      -989336.0
      -991919.0      -994417.0      -996823.0      -999135.0      -1001352.
      -1003464.      -1005471.      -1007375.      -1009174.      -1010848.
      -1012397.      -1013824.      -1015111.      -1016254.      -1017278.
      -1018183.      -1018972.      -1019651.      -1020203.      -1020620.
      -1020912.      -1021099.      -1021183.      -1021145.      -1020976.
      -1020702.      -1020323.      -1019814.      -1019181.      -1018444.
      -1017604.      -1016627.      -1015517.      -1014310.      -1012998.
      -1011544.      -1009950.      -1008219.      -1006344.      -1004321.
      -1002131.      -999783.0      -997283.0      -994623.0      -991804.0
      -988816.0      -985666.0      -982349.0      -978864.0      -975221.0
      -971416.0      -967434.0      -963262.0      -958918.0      -954409.0
      -949719.0      -944844.0      -939791.0      -934564.0      -929175.0
      -923618.0      -917893.0      -912004.0      -905936.0      -899682.0
      -893234.0      -886605.0      -879808.0      -872837.0      -865688.0
      -858362.0      -850854.0      -843151.0      -835255.0      -827188.0
      -818961.0      -810531.0      -801895.0      -793057.0      -783996.0
      -774739.0      -765302.0      -755689.0      -745910.0      -735945.0
      -725785.0      -715436.0      -704902.0      -694182.0      -683275.0
      -672171.0      -660878.0      -649405.0      -637758.0      -625944.0
      -613937.0      -601723.0      -589332.0      -576767.0      -564011.0
      -551077.0      -537977.0      -524707.0      -511261.0      -497633.0
      -483847.0      -469934.0      -455905.0      -441759.0      -427487.0
      -413094.0      -398583.0      -383962.0      -369257.0      -354465.0
      -339571.0      -324572.0      -309476.0      -294313.0      -279103.0
      -263838.0      -248496.0      -233085.0      -217618.0      -202088.0
      -186499.0      -170858.0      -155153.0      -139378.0      -123551.0
      -107649.0      -91669.00      -75645.00      -59580.00      -43479.00
      -27326.00      -11125.00       5123.000       21411.00       37715.00
       54044.00       70397.00       86749.00       103084.0       119410.0
       135717.0       152008.0       168286.0       184540.0       200785.0
       217005.0       233195.0       249360.0       265506.0       281650.0
       297751.0       313775.0       329742.0       345672.0       361571.0
       377443.0       393305.0       409134.0       424926.0       440698.0
       456439.0       472123.0       487733.0       503278.0       518748.0
       534139.0       549448.0       564661.0       579781.0       594805.0
       609740.0       624579.0       639301.0       653902.0       668374.0
       682694.0       696867.0       710907.0       724798.0       738513.0
       752056.0       765415.0       778572.0       791532.0       804282.0
       816800.0       829047.0       841020.0       852723.0       864125.0
       875229.0       886020.0       896479.0       906604.0       916390.0
       925868.0       935026.0       943820.0       952251.0       960322.0
       968040.0       975399.0       982387.0       989008.0       995250.0
       1001122.       1006638.       1011783.       1016555.       1020948.
       1024951.       1028564.       1031791.       1034639.       1037108.
       1039208.       1040949.       1042317.       1043315.       1043944.
       1044195.       1044064.       1043552.       1042677.       1041432.
       1039801.       1037799.       1035434.       1032706.       1029617.
       1026185.       1022404.       1018243.       1013728.       1008877.
       1003670.       998106.0       992207.0       985983.0       979427.0
       972548.0       965355.0       957857.0       950057.0       941934.0
       933498.0       924750.0       915694.0       906342.0       896695.0
       886753.0       876508.0       865976.0       855147.0       844007.0
       832572.0       820851.0       808850.0       796568.0       784001.0
       771153.0       758033.0       744649.0       731020.0       717130.0
       702990.0       688631.0       674024.0       659158.0       644041.0
       628667.0       613049.0       597176.0       581049.0       564677.0
       548054.0       531196.0       514098.0       496742.0       479137.0
       461310.0       443276.0       425038.0       406610.0       387997.0
       369212.0       350278.0       331197.0       311950.0       292540.0
       272976.0       253273.0       233445.0       213478.0       193384.0
       173188.0       152885.0       132489.0       112019.0       91453.00
       70790.00       50056.00       29261.00       8416.000      -12480.00
      -33413.00      -54369.00      -75344.00      -96341.00      -117368.0
      -138405.0      -159426.0      -180431.0      -201402.0      -222326.0
      -243200.0      -263997.0      -284707.0      -305332.0      -325858.0
      -346286.0      -366601.0      -386783.0      -406825.0      -426715.0
      -446443.0      -466001.0      -485393.0      -504624.0      -523688.0
      -542570.0      -561282.0      -579804.0      -598117.0      -616247.0
      -634186.0      -651917.0      -669426.0      -686709.0      -703771.0
      -720613.0      -737228.0      -753597.0      -769720.0      -785600.0
      -801223.0      -816574.0      -831661.0      -846487.0      -861045.0
      -875335.0      -889350.0      -903102.0      -916592.0      -929817.0
      -942768.0      -955427.0      -967804.0      -979899.0      -991702.0
      -1003220.      -1014447.      -1025375.      -1035992.      -1046298.
      -1056295.      -1065982.      -1075343.      -1084365.      -1093038.
      -1101340.      -1109286.      -1116894.      -1124136.      -1131007.
      -1137529.      -1143697.      -1149496.      -1154925.      -1159980.
      -1164651.      -1168937.      -1172847.      -1176365.      -1179483.
      -1182205.      -1184557.      -1186558.      -1188193.      -1189452.
      -1190336.      -1190853.      -1191007.      -1190811.      -1190267.
      -1189362.      -1188117.      -1186540.      -1184623.      -1182376.
      -1179818.      -1176966.      -1173800.      -1170311.      -1166519.
      -1162438.      -1158085.      -1153452.      -1148525.      -1143322.
      -1137871.      -1132198.      -1126295.      -1120152.      -1113768.
      -1107138.      -1100268.      -1093171.      -1085860.      -1078332.
      -1070576.      -1062598.      -1054398.      -1045993.      -1037360.
      -1028483.      -1019392.      -1010068.      -1000513.      -990735.0
      -980718.0      -970452.0      -959928.0      -949170.0      -938175.0
      -926954.0      -915537.0      -903907.0      -892058.0      -879984.0
      -867697.0      -855202.0      -842504.0      -829626.0      -816571.0
      -803359.0      -789993.0      -776475.0      -762827.0      -749066.0
      -735206.0      -721240.0      -707177.0      -693032.0      -678809.0
      -664527.0      -650181.0      -635778.0      -621347.0      -606875.0
      -592355.0      -577806.0      -563234.0      -548640.0      -534036.0
      -519441.0      -504849.0      -490257.0      -475684.0      -461141.0
      -446620.0      -432120.0      -417659.0      -403253.0      -388909.0
      -374629.0      -360424.0      -346324.0      -332310.0      -318369.0
      -304525.0      -290786.0      -277179.0      -263681.0      -250272.0
      -236974.0      -223786.0      -210732.0      -197812.0      -185014.0
      -172348.0      -159824.0      -147455.0      -135260.0      -123253.0
      -111456.0      -99860.00      -88438.00      -77196.00      -66146.00
      -55314.00      -44702.00      -34293.00      -24109.00      -14145.00
      -4405.000       5099.000       14372.00       23408.00       32238.00
       40858.00       49238.00       57411.00       65375.00       73120.00
       80655.00       87963.00       95049.00       101915.0       108562.0
       114981.0       121137.0       127042.0       132709.0       138138.0
       143347.0       148327.0       153060.0       157562.0       161853.0
       165937.0       169814.0       173478.0       176945.0       180238.0
       183373.0       186340.0       189149.0       191827.0       194353.0
       196731.0       198959.0       201023.0       202955.0       204768.0
       206457.0       208021.0       209473.0       210848.0       212138.0
       213333.0       214435.0       215444.0       216375.0       217219.0
       217987.0       218676.0       219289.0       219835.0       220307.0
       220709.0       221041.0       221335.0       221591.0       221812.0
       221998.0       222119.0       222212.0       222285.0       222325.0
       222323.0       222266.0       222175.0       222034.0       221848.0
       221655.0       221429.0       221133.0       220779.0       220386.0
       219937.0       219442.0       218905.0       218316.0       217687.0
