     0.02500000      -12345.00      -12345.00   2.447790e+09      -12345.00
   0.0005380000       1859.976      -428.0196      -12345.00      -12345.00
      -12345.00      -12345.00      -12345.00      -12345.00      -12345.00
      -12345.00      -12345.00      -12345.00      -12345.00      -12345.00
      -12345.00      -12345.00      -12345.00      -12345.00      -12345.00
      -12345.00      -12345.00      -12345.00      -12345.00      -12345.00
      -12345.00      -32.92770       117.2390       380.1000       0.000000
      -42.72450       173.0647      -12345.00       22.00000      -12345.00
      -12345.00      -12345.00      -12345.00      -12345.00      -12345.00
      -12345.00      -12345.00      -12345.00      -12345.00      -12345.00
       4942.570       263.4972       119.4769       44.45157      -12345.00
      -12345.00      -12345.00       0.000000       0.000000      -12345.00
      -12345.00      -12345.00      -12345.00      -12345.00      -12345.00
      -12345.00      -12345.00      -12345.00      -12345.00      -12345.00
      2016       318        11        10         7
        19         6    -12345    -12345     74400
    -12345    -12345    -12345    -12345    -12345
         1    -12345    -12345    -12345    -12345
    -12345    -12345    -12345    -12345    -12345
    -12345    -12345    -12345    -12345    -12345
    -12345    -12345    -12345    -12345    -12345
         1    -12345    -12345    -12345    -12345
NWAO    South Island, Ne
10      -12345  -12345  
-12345  -12345  -12345  
-12345  -12345  -12345  
-12345  -12345  -12345  
-12345  -12345  -12345  
-12345  -12345  BHZ     
IU      -12345  Streckei
[...]
      -388832.0      -383707.0      -378536.0      -373424.0      -368359.0
      -363216.0      -358025.0      -352904.0      -347764.0      -342608.0
      -337499.0      -332324.0      -327165.0      -322057.0      -316850.0
      -311671.0      -306577.0      -301393.0      -296202.0      -291067.0
      -285912.0      -280747.0      -275537.0      -270335.0      -265156.0
      -259898.0      -254715.0      -249557.0      -244267.0      -239049.0
      -233788.0      -228487.0      -223256.0      -217905.0      -212640.0
      -207393.0      -201952.0      -196603.0      -191340.0      -185936.0
      -180505.0      -175182.0      -169789.0      -164328.0      -158947.0
      -153489.0      -148025.0      -142617.0      -137101.0      -131630.0
      -126128.0      -120538.0      -115080.0      -109546.0      -103920.0
      -98376.00      -92807.00      -87188.00      -81559.00      -75983.00
      -70337.00      -64615.00      -58976.00      -53234.00      -47477.00
      -41806.00      -36029.00      -30258.00      -24500.00      -18646.00
      -12812.00      -7006.000      -1119.000       4757.000       10653.00
       16627.00       22471.00       28388.00       34376.00       40247.00
       46254.00       52236.00       58117.00       64112.00       70137.00
       76124.00       82074.00       88058.00       94018.00       99994.00
       106041.0       111889.0       117808.0       123856.0       129711.0
       135603.0       141552.0       147494.0       153418.0       159243.0
       165135.0       171082.0       176943.0       182823.0       188658.0
       194463.0       200348.0       206197.0       212041.0       217791.0
       223576.0       229463.0       235190.0       240984.0       246857.0
       252595.0       258361.0       264179.0       269917.0       275667.0
       281479.0       287188.0       292910.0       298719.0       304442.0
       310163.0       315934.0       321624.0       327285.0       333052.0
       338780.0       344419.0       350092.0       355768.0       361456.0
       367093.0       372741.0       378420.0       384003.0       389622.0
       395262.0       400888.0       406521.0       412082.0       417650.0
       423238.0       428843.0       434420.0       439889.0       445488.0
       451083.0       456519.0       462120.0       467645.0       473069.0
       478690.0       484133.0       489543.0       495109.0       500512.0
       505939.0       511414.0       516801.0       522269.0       527704.0
       532987.0       538370.0       543802.0       549083.0       554378.0
       559669.0       564915.0       570212.0       575432.0       580580.0
       585807.0       591014.0       596108.0       601194.0       606344.0
       611432.0       616461.0       621475.0       626443.0       631523.0
       636490.0       641293.0       646255.0       651210.0       656030.0
       660849.0       665678.0       670447.0       675188.0       679903.0
       684600.0       689289.0       693872.0       698455.0       703008.0
       707491.0       712027.0       716521.0       720907.0       725191.0
       729536.0       733937.0       738160.0       742344.0       746528.0
       750612.0       754739.0       758833.0       762795.0       766789.0
       770801.0       774718.0       778519.0       782333.0       786182.0
       789896.0       793606.0       797327.0       800945.0       804535.0
       808126.0       811721.0       815203.0       818649.0       822123.0
       825522.0       828964.0       832327.0       835586.0       838949.0
       842200.0       845393.0       848667.0       851763.0       854945.0
       858126.0       861091.0       864241.0       867258.0       870164.0
       873226.0       876126.0       878987.0       881862.0       884687.0
       887537.0       890321.0       893068.0       895848.0       898549.0
       901221.0       903902.0       906500.0       909134.0       911727.0
       914235.0       916779.0       919282.0       921781.0       924223.0
       926614.0       929052.0       931430.0       933739.0       936088.0
       938382.0       940587.0       942854.0       945028.0       947178.0
       949364.0       951437.0       953558.0       955633.0       957691.0
       959711.0       961656.0       963667.0       965549.0       967496.0
       969427.0       971153.0       972993.0       974795.0       976523.0
       978282.0       979937.0       981576.0       983203.0       984783.0
       986378.0       987893.0       989329.0       990816.0       992270.0
       993640.0       994992.0       996356.0       997684.0       998911.0
       1000140.       1001344.       1002521.       1003667.       1004669.
       1005715.       1006762.       1007665.       1008588.       1009461.
       1010263.       1011087.       1011774.       1012396.       1013061.
       1013612.       1014152.       1014639.       1014996.       1015367.
       1015664.       1015884.       1016067.       1016243.       1016345.
       1016321.       1016360.       1016328.       1016153.       1016036.
       1015855.       1015526.       1015193.       1014831.       1014361.
       1013862.       1013364.       1012740.       1012051.       1011361.
       1010573.       1009732.       1008861.       1007915.       1006902.
       1005857.       1004725.       1003545.       1002373.       1001047.
       999714.0       998386.0       996877.0       995410.0       993866.0
       992200.0       990624.0       988878.0       987043.0       985288.0
       983367.0       981402.0       979461.0       977390.0       975281.0
       973142.0       970962.0       968719.0       966383.0       964046.0
       961650.0       959183.0       956700.0       954128.0       951529.0
       948942.0       946210.0       943460.0       940733.0       937876.0
       934997.0       932094.0       929103.0       926076.0       923044.0
       919916.0       916783.0       913631.0       910318.0       907083.0
       903803.0       900375.0       897029.0       893587.0       890016.0
       886511.0       882992.0       879372.0       875712.0       872048.0
       868383.0       864661.0       860831.0       857041.0       853264.0
       849365.0       845503.0       841579.0       837573.0       833635.0
       829610.0       825552.0       821514.0       817392.0       813267.0
       809098.0       804867.0       800663.0       796401.0       792128.0
       787790.0       783360.0       779022.0       774608.0       770104.0
       765650.0       761111.0       756536.0       752034.0       747390.0
       742696.0       738053.0       733292.0       728599.0       723814.0
       718927.0       714137.0       709280.0       704391.0       699429.0
       694439.0       689416.0       684384.0       679401.0       674199.0
       669094.0       664051.0       658763.0       653648.0       648443.0
       643098.0       637909.0       632556.0       627248.0       621959.0
       616483.0       611151.0       605747.0       600228.0       594815.0
       589309.0       583788.0       578235.0       572647.0       567083.0
       561433.0       555822.0       550165.0       544446.0       538749.0
       533032.0       527332.0       521568.0       515735.0       509956.0
       504203.0       498337.0       492495.0       486717.0       480815.0
       474993.0       469182.0       463221.0       457389.0       451515.0
       445569.0       439722.0       433787.0       427826.0       421914.0
       415976.0       409944.0       403971.0       398032.0       392004.0
       386064.0       380032.0       373983.0       368022.0       361932.0
       355900.0       349885.0       343764.0       337711.0       331690.0
       325559.0       319461.0       313418.0       307247.0       301107.0
       295018.0       288873.0       282694.0       276518.0       270414.0
       264177.0       257894.0       251757.0       245486.0       239224.0
       233074.0       226727.0       220397.0       214199.0       207818.0
       201420.0       195145.0       188713.0       182281.0       175896.0
       169407.0       163053.0       156586.0       149987.0       143551.0
       136992.0       130451.0       123903.0       117151.0       110588.0
       104014.0       97246.00       90584.00       83891.00       77082.00
       70312.00       63574.00       56746.00       49892.00       43077.00
       36179.00       29253.00       22348.00       15384.00       8469.000
       1526.000      -5565.000      -12503.00      -19461.00      -26579.00
      -33587.00      -40630.00      -47698.00      -54780.00      -61864.00
      -68917.00      -76064.00      -83102.00      -90182.00      -97413.00
      -104469.0      -111564.0      -118707.0      -125765.0      -132928.0
      -140027.0      -147127.0      -154275.0      -161332.0      -168451.0
      -175582.0      -182683.0      -189782.0      -196855.0      -203930.0
      -211044.0      -218158.0      -225151.0      -232233.0      -239378.0
      -246363.0      -253434.0      -260525.0      -267514.0      -274559.0
      -281595.0      -288605.0      -295651.0      -302665.0      -309665.0
      -316686.0      -323627.0      -330612.0      -337612.0      -344527.0
      -351504.0      -358402.0      -365277.0      -372258.0      -379132.0
      -385946.0      -392800.0      -399613.0      -406442.0      -413250.0
      -419995.0      -426745.0      -433495.0      -440267.0      -446945.0
      -453613.0      -460350.0      -466986.0      -473614.0      -480264.0
      -486827.0      -493420.0      -500037.0      -506539.0      -513078.0
      -519650.0      -526143.0      -532625.0      -539076.0      -545504.0
      -551934.0      -558363.0      -564697.0      -571041.0      -577407.0
      -583683.0      -590020.0      -596269.0      -602488.0      -608759.0
      -614902.0      -621082.0      -627215.0      -633318.0      -639468.0
      -645483.0      -651522.0      -657568.0      -663546.0      -669557.0
      -675506.0      -681409.0      -687303.0      -693196.0      -699040.0
      -704859.0      -710731.0      -716507.0      -722262.0      -728004.0
      -733710.0      -739443.0      -745111.0      -750799.0      -756408.0
      -761990.0      -767699.0      -773230.0      -778734.0      -784314.0
      -789755.0      -795271.0      -800778.0      -806177.0      -811650.0
      -817071.0      -822483.0      -827936.0      -833296.0      -838661.0
      -843993.0      -849297.0      -854614.0      -859863.0      -865155.0
      -870367.0      -875528.0      -880801.0      -885942.0      -891065.0
      -896271.0      -901366.0      -906390.0      -911434.0      -916556.0
      -921586.0      -926526.0      -931546.0      -936527.0      -941472.0
      -946449.0      -951370.0      -956238.0      -961141.0      -966034.0
      -970882.0      -975746.0      -980559.0      -985342.0      -990134.0
      -994865.0      -999607.0      -1004342.      -1009017.      -1013673.
      -1018284.      -1022940.      -1027520.      -1032000.      -1036561.
      -1041032.      -1045530.      -1050024.      -1054383.      -1058835.
      -1063225.      -1067505.      -1071899.      -1076251.      -1080400.
      -1084686.      -1088987.      -1093089.      -1097298.      -1101431.
      -1105494.      -1109642.      -1113665.      -1117685.      -1121742.
      -1125650.      -1129587.      -1133560.      -1137400.      -1141229.
      -1145055.      -1148899.      -1152698.      -1156375.      -1160097.
      -1163820.      -1167473.      -1171125.      -1174716.      -1178268.
      -1181850.      -1185386.      -1188897.      -1192377.      -1195789.
      -1199183.      -1202540.      -1205896.      -1209223.      -1212445.
      -1215699.      -1218974.      -1222126.      -1225239.      -1228358.
      -1231448.      -1234541.      -1237547.      -1240447.      -1243382.
      -1246316.      -1249162.      -1251961.      -1254704.      -1257424.
      -1260144.      -1262753.      -1265347.      -1267920.      -1270363.
      -1272846.      -1275291.      -1277616.      -1279896.      -1282205.
      -1284488.      -1286615.      -1288778.      -1290910.      -1292911.
      -1294937.      -1296955.      -1298832.      -1300655.      -1302510.
      -1304253.      -1305994.      -1307678.      -1309222.      -1310826.
      -1312392.      -1313807.      -1315190.      -1316617.      -1317906.
      -1319133.      -1320409.      -1321546.      -1322647.      -1323680.
      -1324703.      -1325784.      -1326564.      -1327370.      -1328320.
      -1329056.      -1329739.      -1330384.      -1330992.      -1331573.
      -1332051.      -1332526.      -1332946.      -1333281.      -1333579.
      -1333847.      -1334049.      -1334136.      -1334261.      -1334358.
      -1334285.      -1334208.      -1334078.      -1333900.      -1333715.
      -1333392.      -1333030.      -1332640.      -1332200.      -1331705.
      -1331106.      -1330508.      -1329911.      -1329170.      -1328368.
      -1327654.      -1326809.      -1325819.      -1324920.      -1323985.
      -1322878.      -1321778.      -1320699.      -1319504.      -1318236.
      -1316903.      -1315580.      -1314198.      -1312679.      -1311185.
      -1309581.      -1307923.      -1306289.      -1304520.      -1302776.
      -1300943.      -1298935.      -1297049.      -1295069.      -1292917.
      -1290874.      -1288678.      -1286362.      -1284171.      -1281832.
      -1279428.      -1277086.      -1274559.      -1271964.      -1269403.
      -1266750.      -1264020.      -1261267.      -1258448.      -1255544.
      -1252624.      -1249673.      -1246644.      -1243534.      -1240417.
      -1237227.      -1233968.      -1230750.      -1227378.      -1223999.
      -1220629.      -1217074.      -1213602.      -1210070.      -1206426.
      -1202841.      -1199099.      -1195350.      -1191640.      -1187746.
      -1183845.      -1179965.      -1175942.      -1171898.      -1167863.
      -1163672.      -1159500.      -1155387.      -1151063.      -1146771.
      -1142488.      -1138044.      -1133660.      -1129222.      -1124707.
      -1120175.      -1115558.      -1110953.      -1106308.      -1101545.
      -1096833.      -1092104.      -1087223.      -1082351.      -1077477.
      -1072525.      -1067553.      -1062540.      -1057505.      -1052446.
      -1047276.      -1042140.      -1036969.      -1031720.      -1026521.
      -1021199.      -1015831.      -1010515.      -1005110.      -999642.0
      -994182.0      -988629.0      -983025.0      -977451.0      -971792.0
      -966077.0      -960343.0      -954581.0      -948752.0      -942855.0
      -936993.0      -931071.0      -925034.0      -919003.0      -912996.0
      -906872.0      -900658.0      -894513.0      -888328.0      -882036.0
      -875720.0      -869445.0      -863101.0      -856647.0      -850264.0
      -843794.0      -837219.0      -830734.0      -824145.0      -817468.0
      -810877.0      -804206.0      -797484.0      -790786.0      -783960.0
      -777129.0      -770361.0      -763477.0      -756562.0      -749682.0
      -742699.0      -735712.0      -728748.0      -721691.0      -714640.0
      -707566.0      -700462.0      -693358.0      -686176.0      -679013.0
      -671844.0      -664597.0      -657396.0      -650150.0      -642829.0
      -635613.0      -628343.0      -621017.0      -613753.0      -606431.0
      -599107.0      -591809.0      -584429.0      -577059.0      -569785.0
      -562419.0      -555031.0      -547684.0      -540260.0      -532900.0
      -525520.0      -518059.0      -510610.0      -503211.0      -495851.0
      -488322.0      -480821.0      -473471.0      -465978.0      -458454.0
      -451008.0      -443520.0      -435945.0      -428464.0      -421076.0
      -413472.0      -405872.0      -398477.0      -390971.0      -383385.0
      -375935.0      -368390.0      -360796.0      -353362.0      -345850.0
      -338282.0      -330797.0      -323309.0      -315800.0      -308348.0
      -300894.0      -293366.0      -285927.0      -278515.0      -271027.0
      -263625.0      -256255.0      -248791.0      -241369.0      -234029.0
      -226626.0      -219235.0      -211896.0      -204560.0      -197231.0
      -189841.0      -182525.0      -175251.0      -167874.0      -160587.0
      -153320.0      -146012.0      -138783.0      -131533.0      -124277.0
      -117031.0      -109787.0      -102646.0      -95462.00      -88229.00
      -81141.00      -74000.00      -66808.00      -59738.00      -52655.00
      -45583.00      -38547.00      -31471.00      -24480.00      -17490.00
      -10468.00      -3581.000       3422.000       10397.00       17202.00
       24187.00       31091.00       37859.00       44764.00       51644.00
       58427.00       65274.00       72067.00       78796.00       85647.00
       92368.00       99097.00       105977.0       112629.0       119264.0
       126046.0       132709.0       139409.0       146105.0       152684.0
       159347.0       165994.0       172640.0       179264.0       185829.0
       192467.0       199040.0       205614.0       212224.0       218706.0
       225193.0       231756.0       238245.0       244702.0       251173.0
       257589.0       263990.0       270385.0       276768.0       283128.0
       289475.0       295831.0       302158.0       308447.0       314719.0
       321033.0       327334.0       333576.0       339828.0       346022.0
       352295.0       358564.0       364663.0       370930.0       377101.0
       383185.0       389433.0       395485.0       401589.0       407747.0
       413700.0       419802.0       425926.0       431829.0       437819.0
       443854.0       449782.0       455765.0       461719.0       467537.0
       473432.0       479390.0       485214.0       491015.0       496875.0
       502687.0       508437.0       514230.0       519974.0       525650.0
       531430.0       537075.0       542662.0       548390.0       553996.0
       559576.0       565155.0       570698.0       576296.0       581785.0
       587231.0       592722.0       598194.0       603567.0       608906.0
       614332.0       619618.0       624897.0       630223.0       635412.0
