     0.02500000      -12345.00      -12345.00   1.983070e+09      -12345.00
   0.0005380000       1859.976      -467.0196      -12345.00      -12345.00
      -12345.00      -12345.00      -12345.00      -12345.00      -12345.00
      -12345.00      -12345.00      -12345.00      -12345.00      -12345.00
      -12345.00      -12345.00      -12345.00      -12345.00      -12345.00
      -12345.00      -12345.00      -12345.00      -12345.00      -12345.00
      -12345.00      -25.07130      -130.0953       218.0000       2.000000
      -42.72450       173.0647      -12345.00       22.00000      -12345.00
      -12345.00      -12345.00      -12345.00      -12345.00      -12345.00
      -12345.00      -12345.00      -12345.00      -12345.00      -12345.00
       5495.869       88.12969       234.3050       49.42772      -12345.00
      -12345.00      -12345.00       90.00000       90.00000      -12345.00
      -12345.00      -12345.00      -12345.00      -12345.00      -12345.00
      -12345.00      -12345.00      -12345.00      -12345.00      -12345.00
      2016       318        11        10        46
        19         6    -12345    -12345     74400
    -12345    -12345    -12345    -12345    -12345
         1    -12345    -12345    -12345    -12345
    -12345    -12345    -12345    -12345    -12345
    -12345    -12345    -12345    -12345    -12345
    -12345    -12345    -12345    -12345    -12345
         1    -12345    -12345    -12345    -12345
PTCN    South Island, Ne
10      -12345  -12345  
-12345  -12345  -12345  
-12345  -12345  -12345  
-12345  -12345  -12345  
-12345  -12345  -12345  
-12345  -12345  BH2     
IU      -12345  Trillium
[...]
      -561652.0      -565299.0      -569499.0      -575003.0      -582367.0
      -591181.0      -598466.0      -601314.0      -605885.0      -614654.0
      -623850.0      -630771.0      -632851.0      -635577.0      -641568.0
      -648106.0      -653075.0      -654910.0      -657016.0      -660175.0
      -664252.0      -670623.0      -676268.0      -679722.0      -681419.0
      -684710.0      -691177.0      -693843.0      -696130.0      -702096.0
      -703325.0      -704026.0      -708675.0      -711665.0      -714110.0
      -717088.0      -721574.0      -726181.0      -727053.0      -726243.0
      -727181.0      -731249.0      -734573.0      -735005.0      -735691.0
      -737213.0      -738155.0      -739834.0      -743093.0      -744365.0
      -744144.0      -743987.0      -742672.0      -741848.0      -743196.0
      -745172.0      -745127.0      -744199.0      -743442.0      -744448.0
      -746301.0      -747260.0      -750090.0      -749457.0      -746320.0
      -747426.0      -747750.0      -748015.0      -747824.0      -742881.0
      -740896.0      -740471.0      -738183.0      -739850.0      -738772.0
      -734437.0      -733483.0      -731312.0      -730315.0      -731000.0
      -728458.0      -726180.0      -723817.0      -722396.0      -722900.0
      -724611.0      -726003.0      -721313.0      -717527.0      -716888.0
      -714476.0      -711276.0      -708149.0      -706101.0      -703780.0
      -705222.0      -706314.0      -700790.0      -697187.0      -696569.0
      -696453.0      -696683.0      -692916.0      -688965.0      -686854.0
      -683428.0      -682167.0      -680187.0      -675669.0      -672436.0
      -668663.0      -664724.0      -660984.0      -658219.0      -657277.0
      -655286.0      -650993.0      -644202.0      -638625.0      -635358.0
      -632181.0      -629948.0      -626619.0      -621470.0      -614227.0
      -606798.0      -602369.0      -598349.0      -595210.0      -589551.0
      -581571.0      -577441.0      -574655.0      -569501.0      -559246.0
      -551241.0      -547883.0      -540245.0      -533084.0      -529769.0
      -522958.0      -514794.0      -511656.0      -507366.0      -497833.0
      -488129.0      -482480.0      -479285.0      -472432.0      -464080.0
      -457532.0      -452860.0      -448117.0      -438897.0      -429457.0
      -422786.0      -417798.0      -413645.0      -407632.0      -400595.0
      -392369.0      -382759.0      -375683.0      -372618.0      -368788.0
      -361152.0      -352206.0      -343657.0      -340247.0      -341012.0
      -336233.0      -328132.0      -321705.0      -315068.0      -311986.0
      -307635.0      -296205.0      -288410.0      -283963.0      -279014.0
      -274026.0      -267695.0      -263624.0      -257171.0      -249201.0
      -242475.0      -234434.0      -228324.0      -221754.0      -214710.0
      -209935.0      -205255.0      -197661.0      -187135.0      -177776.0
      -172931.0      -173045.0      -170543.0      -163340.0      -157495.0
      -150305.0      -141420.0      -133525.0      -125970.0      -120513.0
      -115546.0      -110005.0      -104093.0      -95183.00      -87357.00
      -82871.00      -78345.00      -73430.00      -66360.00      -58799.00
      -52908.00      -44704.00      -36344.00      -29370.00      -21683.00
      -16478.00      -8485.000       3153.000       8241.000       12403.00
       22716.00       31320.00       33417.00       35145.00       43196.00
       55891.00       62924.00       63999.00       75779.00       90337.00
       89673.00       89584.00       98909.00       107290.0       112452.0
       115202.0       120432.0       133024.0       144991.0       144902.0
       143846.0       154184.0       162307.0       165391.0       173190.0
       184627.0       191768.0       191693.0       195299.0       204017.0
       208493.0       208415.0       212242.0       223523.0       231940.0
       232777.0       232196.0       237195.0       245153.0       246642.0
       246940.0       253917.0       259882.0       261050.0       265783.0
       272509.0       275546.0       276426.0       277384.0       284267.0
       294378.0       297618.0       298050.0       301649.0       304292.0
       307144.0       311526.0       317521.0       326235.0       326806.0
       321704.0       325802.0       331642.0       331878.0       332364.0
       333993.0       338573.0       345125.0       346499.0       346700.0
       349340.0       349408.0       351432.0       355493.0       358306.0
       361686.0       359725.0       359886.0       365808.0       366592.0
       365838.0       364619.0       364724.0       369243.0       373215.0
       376278.0       377797.0       377670.0       376097.0       377675.0
       382104.0       381889.0       382979.0       385942.0       386513.0
       388051.0       389399.0       389648.0       387229.0       384052.0
       385486.0       386444.0       386498.0       387509.0       385319.0
       385695.0       387620.0       384984.0       384298.0       386943.0
       388698.0       388403.0       386845.0       387228.0       389002.0
       389794.0       391405.0       393276.0       393389.0       394976.0
       396648.0       393876.0       391586.0       394207.0       396022.0
       395148.0       396179.0       396981.0       393970.0       389254.0
       388853.0       391878.0       390571.0       387647.0       389078.0
       390039.0       386079.0       383684.0       384287.0       382260.0
       380959.0       383113.0       385072.0       383393.0       380835.0
       382712.0       382804.0       381767.0       385779.0       386820.0
       383446.0       383182.0       384200.0       382689.0       383045.0
       383302.0       379353.0       377549.0       378746.0       378375.0
       377409.0       376198.0       374084.0       372139.0       368651.0
       365256.0       364684.0       365663.0       368198.0       369421.0
       367436.0       365381.0       362938.0       359489.0       358348.0
       359592.0       360642.0       360547.0       359391.0       357503.0
       355938.0       355049.0       354206.0       355130.0       356597.0
       356544.0       357686.0       358342.0       356944.0       356177.0
       354881.0       352737.0       351301.0       349050.0       345164.0
       344330.0       346675.0       347722.0       348256.0       347389.0
       346581.0       347701.0       347948.0       349019.0       352173.0
       353850.0       351893.0       347545.0       345504.0       348954.0
       351598.0       353026.0       356653.0       356268.0       355928.0
       358641.0       360492.0       363696.0       364220.0       363332.0
       365023.0       366402.0       369354.0       373855.0       377733.0
       380457.0       381456.0       382058.0       384482.0       388049.0
       391141.0       393667.0       393509.0       394809.0       402308.0
       407580.0       407475.0       405961.0       404742.0       409369.0
       416278.0       418195.0       419578.0       422491.0       425137.0
       429154.0       432342.0       434024.0       435754.0       435644.0
       436328.0       438935.0       443915.0       450298.0       453120.0
       457162.0       464803.0       470864.0       475751.0       479601.0
       479213.0       478452.0       482267.0       485196.0       487794.0
       492325.0       494214.0       498770.0       505050.0       507589.0
       511761.0       515245.0       514486.0       513789.0       516360.0
       524371.0       531956.0       532615.0       533545.0       539431.0
       546456.0       551289.0       553448.0       554662.0       553685.0
       553125.0       556923.0       560668.0       562950.0       566880.0
       570368.0       573620.0       578531.0       583795.0       590753.0
       599055.0       605608.0       607083.0       605981.0       606865.0
       609249.0       612763.0       615585.0       619420.0       625685.0
       629614.0       631607.0       636298.0       640932.0       642371.0
       643199.0       643436.0       645260.0       649896.0       654072.0
       658706.0       664046.0       669552.0       674506.0       676766.0
       677354.0       676872.0       677819.0       680137.0       679782.0
       680027.0       681976.0       686169.0       692982.0       696916.0
       699302.0       702056.0       705148.0       707021.0       705932.0
       706127.0       707254.0       708371.0       711022.0       713928.0
       716166.0       718224.0       721404.0       725463.0       727311.0
       725711.0       722917.0       719992.0       720195.0       724115.0
       727188.0       730374.0       733597.0       735356.0       734609.0
       732168.0       734942.0       738589.0       738953.0       739644.0
       735959.0       731665.0       731831.0       733558.0       739874.0
       746748.0       748235.0       747906.0       747636.0       747516.0
       747349.0       747169.0       747112.0       747914.0       750475.0
       752443.0       753171.0       751425.0       748082.0       747616.0
       747924.0       746363.0       743484.0       741443.0       741651.0
       740657.0       736876.0       732635.0       730843.0       730365.0
       730008.0       729253.0       726528.0       725034.0       723020.0
       718154.0       712953.0       706651.0       702929.0       703276.0
       702522.0       701024.0       699095.0       695179.0       688071.0
       680203.0       677071.0       672775.0       665323.0       662315.0
       660123.0       656248.0       651615.0       643029.0       635895.0
       631600.0       625083.0       617352.0       610206.0       605520.0
       597946.0       587230.0       580955.0       574630.0       567277.0
       560461.0       551995.0       543658.0       534902.0       525818.0
       514209.0       500704.0       491767.0       484515.0       475949.0
       468176.0       458257.0       444012.0       430323.0       421055.0
       412912.0       403066.0       394451.0       386424.0       374544.0
       361813.0       349613.0       337005.0       326422.0       315103.0
       301011.0       287631.0       277295.0       266186.0       250363.0
       235133.0       222779.0       208876.0       196791.0       184788.0
       168848.0       155789.0       143998.0       129831.0       114759.0
       98038.00       82636.00       68182.00       51684.00       36397.00
       23737.00       11104.00      -1984.000      -16079.00      -32173.00
      -47673.00      -61389.00      -76672.00      -93283.00      -109403.0
      -126241.0      -142166.0      -156578.0      -171849.0      -187491.0
      -203220.0      -218478.0      -233153.0      -249846.0      -267334.0
      -283703.0      -298409.0      -312172.0      -329146.0      -345001.0
      -356487.0      -372333.0      -389920.0      -405349.0      -422746.0
      -436472.0      -451838.0      -471902.0      -485446.0      -498518.0
      -514367.0      -529192.0      -546558.0      -563449.0      -576108.0
      -586936.0      -599290.0      -615017.0      -631090.0      -645314.0
      -660459.0      -674963.0      -686912.0      -698478.0      -711100.0
      -723997.0      -736157.0      -745999.0      -756995.0      -774282.0
      -787568.0      -797611.0      -814939.0      -828389.0      -835279.0
      -848299.0      -864235.0      -876967.0      -887638.0      -892724.0
      -900294.0      -916002.0      -931366.0      -943697.0      -950777.0
      -959080.0      -974145.0      -986299.0      -995492.0      -1008588.
      -1018941.      -1025196.      -1036180.      -1049122.      -1058491.
      -1068539.      -1080633.      -1090420.      -1101173.      -1113328.
      -1122089.      -1129064.      -1135522.      -1145157.      -1158778.
      -1168406.      -1177159.      -1187131.      -1192673.      -1197313.
      -1203485.      -1215236.      -1226278.      -1229197.      -1236767.
      -1244750.      -1249429.      -1258572.      -1263280.      -1269510.
      -1283255.      -1290118.      -1293461.      -1300715.      -1308631.
      -1315179.      -1316684.      -1320949.      -1333283.      -1340366.
      -1340412.      -1342946.      -1349263.      -1354869.      -1357278.
      -1363205.      -1372189.      -1373613.      -1371385.      -1375495.
      -1381471.      -1379945.      -1376708.      -1379985.      -1386059.
      -1390782.      -1393160.      -1397258.      -1402027.      -1403026.
      -1405521.      -1408122.      -1407020.      -1407149.      -1405858.
      -1403966.      -1407067.      -1409150.      -1410891.      -1414408.
      -1414905.      -1412192.      -1408521.      -1408161.      -1406898.
      -1401040.      -1401340.      -1405898.      -1403441.      -1398304.
      -1398131.      -1399759.      -1396030.      -1392529.      -1392263.
      -1387878.      -1383355.      -1382622.      -1383049.      -1379928.
      -1374588.      -1372693.      -1369623.      -1365231.      -1363522.
      -1362620.      -1360234.      -1354847.      -1348013.      -1343050.
      -1337834.      -1331005.      -1325491.      -1320099.      -1313648.
      -1307350.      -1302059.      -1297896.      -1293146.      -1284399.
      -1274214.      -1265559.      -1257815.      -1254561.      -1250164.
      -1242290.      -1235284.      -1225943.      -1217739.      -1213248.
      -1208395.      -1199737.      -1188981.      -1180348.      -1172866.
      -1166211.      -1156456.      -1142149.      -1132265.      -1126972.
      -1120094.      -1111493.      -1101608.      -1092039.      -1082281.
      -1071616.      -1060990.      -1047719.      -1033990.      -1023298.
      -1013709.      -1003644.      -991929.0      -979332.0      -969272.0
      -956804.0      -939343.0      -926968.0      -918263.0      -905604.0
      -890718.0      -876579.0      -865300.0      -854394.0      -842434.0
      -832733.0      -820580.0      -804105.0      -789894.0      -776278.0
      -763842.0      -754288.0      -739578.0      -721510.0      -706410.0
      -693196.0      -682106.0      -670408.0      -656229.0      -641382.0
      -626375.0      -613022.0      -599009.0      -584269.0      -571788.0
      -557406.0      -541103.0      -526510.0      -515354.0      -503485.0
      -486537.0      -472060.0      -459956.0      -447441.0      -436048.0
      -419882.0      -401225.0      -385402.0      -372176.0      -359941.0
      -344062.0      -327778.0      -316069.0      -306239.0      -293227.0
      -276908.0      -261597.0      -244372.0      -227127.0      -214864.0
      -203183.0      -190160.0      -174315.0      -156490.0      -141516.0
      -129718.0      -116161.0      -98687.00      -83848.00      -72558.00
      -60100.00      -45741.00      -31156.00      -17555.00      -5089.000
       7375.000       22317.00       38185.00       52163.00       65110.00
       78819.00       91346.00       102759.0       114457.0       127378.0
       143600.0       158104.0       171180.0       185673.0       198647.0
       210781.0       222555.0       236946.0       251179.0       261837.0
       273947.0       285549.0       297942.0       312329.0       323812.0
       334747.0       346026.0       358724.0       370973.0       379654.0
       392652.0       406184.0       415896.0       429887.0       444931.0
       457097.0       467673.0       478002.0       492390.0       506961.0
       517517.0       526809.0       534569.0       544376.0       557912.0
       569899.0       580151.0       590058.0       600178.0       611982.0
       626164.0       640086.0       649945.0       657923.0       667552.0
       677340.0       685710.0       696091.0       705272.0       710279.0
       720950.0       734611.0       745114.0       755082.0       762279.0
       770499.0       778832.0       785316.0       793876.0       800239.0
       807368.0       816541.0       824650.0       835693.0       843392.0
       848031.0       855248.0       859706.0       867503.0       877332.0
       882128.0       888967.0       894651.0       897421.0       903592.0
       912173.0       921037.0       928399.0       933266.0       934396.0
       933857.0       940040.0       950250.0       954711.0       954765.0
       955566.0       958365.0       961356.0       965098.0       970978.0
       974284.0       972980.0       971840.0       973365.0       975903.0
       977952.0       978813.0       978897.0       979287.0       982347.0
       986907.0       988278.0       988928.0       988684.0       985995.0
       987237.0       991472.0       993290.0       991899.0       990635.0
       992447.0       992489.0       990114.0       989453.0       989753.0
       990069.0       989386.0       988778.0       989135.0       987074.0
       983914.0       983064.0       983012.0       981115.0       977664.0
       974802.0       974413.0       974907.0       973317.0       970934.0
       966648.0       962719.0       963091.0       963080.0       960429.0
       955374.0       949980.0       949210.0       949112.0       944540.0
       942530.0       941577.0       936667.0       934877.0       934326.0
       932468.0       929938.0       927066.0       926012.0       922723.0
       919082.0       916842.0       913276.0       908411.0       904485.0
       903332.0       900757.0       897482.0       894603.0       887675.0
       882638.0       882004.0       879856.0       878987.0       876432.0
       868933.0       864773.0       864261.0       862973.0       862645.0
       860846.0       855169.0       850243.0       847371.0       844197.0
       840615.0       837632.0       833674.0       827573.0       824061.0
       823478.0       818622.0       812060.0       806611.0       801187.0
       799483.0       798494.0       795876.0       792464.0       785929.0
       779648.0       776674.0       772119.0       767871.0       765596.0
       759196.0       752499.0       749129.0       744122.0       739207.0
       737491.0       732781.0       724414.0       720590.0       717365.0
       710508.0       709411.0       706154.0       696305.0       693781.0
