     0.05000000      -12345.00      -12345.00   3.402420e+09      -12345.00
   0.0005380000       1859.951      -602.0195      -12345.00      -12345.00
      -12345.00      -12345.00      -12345.00      -12345.00      -12345.00
      -12345.00      -12345.00      -12345.00      -12345.00      -12345.00
      -12345.00      -12345.00      -12345.00      -12345.00      -12345.00
      -12345.00      -12345.00      -12345.00      -12345.00      -12345.00
      -12345.00       19.75730      -155.5326       1910.000       80.00000
      -42.72450       173.0647      -12345.00       22.00000      -12345.00
      -12345.00      -12345.00      -12345.00      -12345.00      -12345.00
      -12345.00      -12345.00      -12345.00      -12345.00      -12345.00
       7625.265       31.81433       204.3588       68.57870      -12345.00
      -12345.00      -12345.00       228.0000       90.00000      -12345.00
      -12345.00      -12345.00      -12345.00      -12345.00      -12345.00
      -12345.00      -12345.00      -12345.00      -12345.00      -12345.00
      2016       318        11        13         1
        19         6    -12345    -12345     37200
    -12345    -12345    -12345    -12345    -12345
         1    -12345    -12345    -12345    -12345
    -12345    -12345    -12345    -12345    -12345
    -12345    -12345    -12345    -12345    -12345
    -12345    -12345    -12345    -12345    -12345
         1    -12345    -12345    -12345    -12345
POHA    South Island, Ne
00      -12345  -12345  
-12345  -12345  -12345  
-12345  -12345  -12345  
-12345  -12345  -12345  
-12345  -12345  -12345  
-12345  -12345  BH2     
IU      -12345  Geotech 
[...]
       119516.0       123644.0       127645.0       131465.0       135115.0
       138666.0       142023.0       145202.0       148356.0       151500.0
       154636.0       157724.0       160680.0       163492.0       166191.0
       168846.0       171532.0       174251.0       176914.0       179478.0
       182020.0       184537.0       187025.0       189556.0       192132.0
       194788.0       197553.0       200425.0       203432.0       206466.0
       209378.0       212192.0       214985.0       217864.0       220872.0
       223861.0       226786.0       229756.0       232818.0       235946.0
       239045.0       242124.0       245280.0       248479.0       251598.0
       254518.0       257291.0       260024.0       262684.0       265291.0
       267829.0       270221.0       272444.0       274427.0       276223.0
       277981.0       279695.0       281267.0       282572.0       283571.0
       284369.0       285010.0       285495.0       285799.0       285846.0
       285654.0       285264.0       284755.0       284222.0       283628.0
       282924.0       282092.0       281119.0       280014.0       278812.0
       277562.0       276224.0       274738.0       273080.0       271329.0
       269558.0       267740.0       265842.0       263852.0       261730.0
       259443.0       257107.0       254798.0       252445.0       250017.0
       247527.0       245003.0       242476.0       239935.0       237342.0
       234811.0       232435.0       230123.0       227827.0       225544.0
       223276.0       221062.0       218865.0       216623.0       214352.0
       212052.0       209752.0       207469.0       205162.0       202851.0
       200649.0       198556.0       196453.0       194355.0       192269.0
       190165.0       188060.0       185958.0       183911.0       181940.0
       179998.0       178017.0       175944.0       173828.0       171705.0
       169553.0       167339.0       165004.0       162585.0       160148.0
       157675.0       155128.0       152498.0       149756.0       146891.0
       143962.0       141008.0       138045.0       135015.0       131836.0
       128565.0       125239.0       121789.0       118142.0       114279.0
       110215.0       105977.0       101609.0       97135.00       92525.00
       87747.00       82823.00       77798.00       72699.00       67505.00
       62251.00       57004.00       51747.00       46478.00       41215.00
       35988.00       30815.00       25633.00       20405.00       15130.00
       9804.000       4472.000      -885.0000      -6315.000      -11786.00
      -17273.00      -22691.00      -28047.00      -33434.00      -38773.00
      -44051.00      -49308.00      -54521.00      -59604.00      -64476.00
      -69237.00      -73990.00      -78705.00      -83332.00      -87862.00
      -92356.00      -96848.00      -101328.0      -105784.0      -110155.0
      -114418.0      -118574.0      -122654.0      -126719.0      -130716.0
      -134608.0      -138454.0      -142259.0      -145983.0      -149646.0
      -153245.0      -156812.0      -160381.0      -163864.0      -167265.0
      -170670.0      -174151.0      -177679.0      -181150.0      -184556.0
      -188001.0      -191545.0      -195140.0      -198765.0      -202396.0
      -206035.0      -209723.0      -213433.0      -217139.0      -220860.0
      -224578.0      -228261.0      -231952.0      -235687.0      -239484.0
      -243270.0      -246966.0      -250672.0      -254461.0      -258322.0
      -262206.0      -266057.0      -269870.0      -273687.0      -277537.0
      -281330.0      -285004.0      -288565.0      -292036.0      -295421.0
      -298707.0      -301919.0      -305030.0      -308035.0      -310986.0
      -313930.0      -316879.0      -319775.0      -322547.0      -325172.0
      -327677.0      -330096.0      -332432.0      -334672.0      -336793.0
      -338780.0      -340632.0      -342430.0      -344214.0      -345917.0
      -347522.0      -349028.0      -350489.0      -351995.0      -353475.0
      -354900.0      -356325.0      -357706.0      -359032.0      -360330.0
      -361553.0      -362690.0      -363743.0      -364656.0      -365389.0
      -365918.0      -366260.0      -366432.0      -366466.0      -366384.0
      -366156.0      -365743.0      -365093.0      -364285.0      -363411.0
      -362422.0      -361332.0      -360161.0      -358864.0      -357409.0
      -355799.0      -354054.0      -352177.0      -350219.0      -348228.0
      -346181.0      -344040.0      -341780.0      -339432.0      -337085.0
      -334746.0      -332347.0      -329859.0      -327249.0      -324517.0
      -321708.0      -318837.0      -315898.0      -312891.0      -309880.0
      -306903.0      -303883.0      -300779.0      -297640.0      -294524.0
      -291392.0      -288162.0      -284844.0      -281517.0      -278220.0
      -274914.0      -271556.0      -268140.0      -264737.0      -261405.0
      -258016.0      -254479.0      -250845.0      -247119.0      -243303.0
      -239356.0      -235265.0      -231076.0      -226820.0      -222535.0
      -218184.0      -213751.0      -209287.0      -204733.0      -200037.0
      -195202.0      -190249.0      -185231.0      -180097.0      -174774.0
      -169248.0      -163557.0      -157720.0      -151727.0      -145599.0
      -139344.0      -132946.0      -126430.0      -119842.0      -113225.0
      -106574.0      -99862.00      -93137.00      -86436.00      -79719.00
      -72990.00      -66268.00      -59482.00      -52621.00      -45713.00
      -38700.00      -31565.00      -24304.00      -16925.00      -9466.000
      -1917.000       5705.000       13347.00       21002.00       28689.00
       36412.00       44183.00       51933.00       59580.00       67162.00
       74699.00       82163.00       89542.00       96831.00       104045.0
       111186.0       118238.0       125220.0       132169.0       139088.0
       145998.0       152886.0       159743.0       166602.0       173446.0
       180305.0       187228.0       194166.0       201083.0       207987.0
       214864.0       221688.0       228425.0       235040.0       241546.0
       247992.0       254412.0       260810.0       267118.0       273291.0
       279367.0       285389.0       291375.0       297322.0       303257.0
       309133.0       314895.0       320575.0       326174.0       331739.0
       337330.0       342973.0       348652.0       354304.0       359918.0
       365536.0       371184.0       376775.0       382303.0       387837.0
       393285.0       398638.0       403993.0       409295.0       414459.0
       419539.0       424601.0       429609.0       434501.0       439266.0
       443895.0       448391.0       452817.0       457175.0       461440.0
       465570.0       469576.0       473535.0       477457.0       481307.0
       485075.0       488804.0       492509.0       496154.0       499741.0
       503269.0       506738.0       510148.0       513478.0       516750.0
       519979.0       523145.0       526231.0       529179.0       531981.0
       534634.0       537103.0       539408.0       541543.0       543514.0
       545330.0       546952.0       548380.0       549698.0       550947.0
       552030.0       552918.0       553649.0       554260.0       554792.0
       555232.0       555556.0       555803.0       556005.0       556113.0
       556111.0       556024.0       555812.0       555492.0       555076.0
       554536.0       553874.0       553027.0       551974.0       550768.0
       549398.0       547857.0       546179.0       544376.0       542445.0
       540383.0       538226.0       536017.0       533711.0       531263.0
       528692.0       525985.0       523119.0       520075.0       516818.0
       513338.0       509635.0       505709.0       501570.0       497196.0
       492554.0       487655.0       482526.0       477176.0       471634.0
       465918.0       460025.0       453935.0       447661.0       441245.0
       434713.0       428038.0       421182.0       414170.0       406994.0
       399623.0       392067.0       384306.0       376351.0       368210.0
       359843.0       351240.0       342403.0       333341.0       324084.0
       314618.0       304951.0       295129.0       285179.0       275133.0
       264975.0       254728.0       244447.0       234112.0       223707.0
       213256.0       202764.0       192227.0       181669.0       171094.0
       160499.0       149900.0       139287.0       128655.0       118017.0
       107383.0       96729.00       86009.00       75253.00       64482.00
       53661.00       42787.00       31867.00       20914.00       9964.000
      -971.0000      -11894.00      -22830.00      -33770.00      -44667.00
      -55508.00      -66276.00      -76993.00      -87679.00      -98302.00
      -108868.0      -119389.0      -129900.0      -140441.0      -151007.0
      -161614.0      -172279.0      -182980.0      -193689.0      -204406.0
      -215167.0      -226004.0      -236935.0      -247944.0      -258978.0
      -270033.0      -281142.0      -292278.0      -303426.0      -314616.0
      -325824.0      -337023.0      -348193.0      -359347.0      -370529.0
      -381697.0      -392809.0      -403842.0      -414810.0      -425717.0
      -436509.0      -447211.0      -457824.0      -468330.0      -478738.0
      -489018.0      -499182.0      -509252.0      -519201.0      -529038.0
      -538769.0      -548395.0      -557913.0      -567271.0      -576454.0
      -585517.0      -594465.0      -603275.0      -611930.0      -620412.0
      -628760.0      -636980.0      -645049.0      -652967.0      -660704.0
      -668239.0      -675585.0      -682755.0      -689719.0      -696449.0
      -702986.0      -709297.0      -715383.0      -721287.0      -726949.0
      -732364.0      -737572.0      -742557.0      -747303.0      -751833.0
      -756153.0      -760283.0      -764242.0      -767985.0      -771519.0
      -774867.0      -778006.0      -780940.0      -783705.0      -786301.0
      -788684.0      -790830.0      -792731.0      -794385.0      -795799.0
      -796975.0      -797924.0      -798658.0      -799180.0      -799482.0
      -799580.0      -799487.0      -799203.0      -798710.0      -797989.0
      -797068.0      -795963.0      -794683.0      -793230.0      -791609.0
      -789839.0      -787925.0      -785851.0      -783579.0      -781091.0
      -778397.0      -775479.0      -772286.0      -768807.0      -765075.0
      -761105.0      -756854.0      -752280.0      -747402.0      -742270.0
      -736878.0      -731187.0      -725250.0      -719161.0      -712926.0
      -706502.0      -699860.0      -693006.0      -685952.0      -678662.0
      -671084.0      -663209.0      -655039.0      -646582.0      -637811.0
      -628687.0      -619225.0      -609435.0      -599298.0      -588804.0
      -577958.0      -566779.0      -555289.0      -543512.0      -531443.0
      -519073.0      -506404.0      -493412.0      -480109.0      -466530.0
      -452686.0      -438546.0      -424117.0      -409477.0      -394657.0
      -379684.0      -364559.0      -349296.0      -333949.0      -318519.0
      -303025.0      -287508.0      -272025.0      -256604.0      -241212.0
      -225830.0      -210464.0      -195144.0      -179913.0      -164776.0
      -149689.0      -134644.0      -119651.0      -104691.0      -89773.00
      -74920.00      -60101.00      -45281.00      -30470.00      -15690.00
      -986.0000       13671.00       28307.00       42855.00       57300.00
       71686.00       86042.00       100331.0       114562.0       128799.0
       143063.0       157352.0       171643.0       185940.0       200270.0
       214649.0       229074.0       243535.0       258020.0       272506.0
       286987.0       301466.0       315946.0       330399.0       344813.0
       359188.0       373489.0       387758.0       402022.0       416237.0
       430393.0       444476.0       458493.0       472483.0       486414.0
       500224.0       513888.0       527398.0       540753.0       553941.0
       566957.0       579800.0       592447.0       604871.0       617061.0
       629028.0       640747.0       652193.0       663384.0       674324.0
       685030.0       695492.0       705688.0       715690.0       725467.0
       734958.0       744184.0       753136.0       761803.0       770175.0
       778245.0       785996.0       793432.0       800570.0       807406.0
       813936.0       820144.0       826057.0       831662.0       836924.0
       841826.0       846330.0       850440.0       854143.0       857441.0
       860379.0       862978.0       865241.0       867174.0       868828.0
       870261.0       871489.0       872533.0       873386.0       874031.0
       874487.0       874730.0       874759.0       874599.0       874225.0
       873640.0       872833.0       871792.0       870570.0       869158.0
       867536.0       865714.0       863664.0       861400.0       858943.0
       856270.0       853339.0       850120.0       846658.0       843030.0
       839242.0       835242.0       831017.0       826602.0       821989.0
       817151.0       812078.0       806773.0       801264.0       795549.0
       789581.0       783329.0       776800.0       770008.0       762955.0
       755580.0       747845.0       739768.0       731331.0       722539.0
       713434.0       704056.0       694403.0       684439.0       674198.0
       663743.0       653056.0       642163.0       631153.0       620023.0
       608743.0       597326.0       585794.0       574170.0       562451.0
       550600.0       538596.0       526440.0       514147.0       501694.0
       489070.0       476300.0       463378.0       450291.0       437048.0
       423664.0       410161.0       396578.0       382959.0       369309.0
       355621.0       341885.0       328113.0       314344.0       300572.0
       286778.0       272961.0       259128.0       245316.0       231513.0
       217671.0       203806.0       189904.0       175921.0       161923.0
       147942.0       133925.0       119898.0       105904.0       91935.00
       78022.00       64154.00       50304.00       36502.00       22733.00
       9020.000      -4600.000      -18163.00      -31626.00      -44919.00
      -58067.00      -71087.00      -83954.00      -96679.00      -109306.0
      -121882.0      -134430.0      -146939.0      -159413.0      -171873.0
      -184332.0      -196778.0      -209173.0      -221524.0      -233851.0
      -246102.0      -258259.0      -270325.0      -282258.0      -294006.0
      -305567.0      -316976.0      -328203.0      -339198.0      -349961.0
      -360505.0      -370844.0      -380943.0      -390814.0      -400488.0
      -409993.0      -419357.0      -428553.0      -437607.0      -446525.0
      -455293.0      -463917.0      -472419.0      -480828.0      -489133.0
      -497317.0      -505365.0      -513278.0      -521107.0      -528850.0
      -536424.0      -543830.0      -551103.0      -558232.0      -565185.0
      -571905.0      -578418.0      -584774.0      -590940.0      -596879.0
      -602595.0      -608118.0      -613492.0      -618686.0      -623678.0
      -628556.0      -633327.0      -637926.0      -642341.0      -646605.0
      -650727.0      -654643.0      -658336.0      -661839.0      -665185.0
      -668391.0      -671414.0      -674259.0      -676971.0      -679539.0
      -681948.0      -684170.0      -686188.0      -688058.0      -689817.0
      -691428.0      -692856.0      -694129.0      -695274.0      -696256.0
      -697030.0      -697600.0      -698013.0      -698266.0      -698329.0
      -698230.0      -697992.0      -697603.0      -697039.0      -696242.0
      -695191.0      -693909.0      -692363.0      -690531.0      -688416.0
      -686040.0      -683444.0      -680619.0      -677583.0      -674380.0
      -671022.0      -667510.0      -663877.0      -660179.0      -656408.0
      -652541.0      -648598.0      -644595.0      -640524.0      -636317.0
      -631943.0      -627447.0      -622826.0      -618052.0      -613121.0
      -608046.0      -602868.0      -597592.0      -592217.0      -586749.0
      -581200.0      -575571.0      -569812.0      -563910.0      -557896.0
      -551787.0      -545580.0      -539274.0      -532862.0      -526326.0
      -519688.0      -512988.0      -506219.0      -499422.0      -492639.0
      -485808.0      -478910.0      -472021.0      -465129.0      -458180.0
      -451180.0      -444145.0      -437076.0      -429947.0      -422743.0
      -415466.0      -408118.0      -400725.0      -393291.0      -385794.0
      -378286.0      -370825.0      -363407.0      -356060.0      -348788.0
      -341559.0      -334387.0      -327306.0      -320301.0      -313361.0
      -306457.0      -299553.0      -292676.0      -285820.0      -278944.0
      -272035.0      -265064.0      -257999.0      -250872.0      -243719.0
      -236509.0      -229246.0      -221950.0      -214601.0      -207166.0
      -199621.0      -191989.0      -184292.0      -176500.0      -168644.0
      -160759.0      -152848.0      -144915.0      -136965.0      -129025.0
      -121058.0      -113038.0      -104996.0      -96921.00      -88794.00
      -80601.00      -72361.00      -64074.00      -55726.00      -47351.00
      -38937.00      -30461.00      -21938.00      -13359.00      -4714.000
       3984.000       12717.00       21464.00       30231.00       38989.00
       47712.00       56393.00       64991.00       73516.00       81987.00
       90404.00       98757.00       107069.0       115361.0       123648.0
       131924.0       140187.0       148490.0       156801.0       165062.0
       173339.0       181674.0       190026.0       198386.0       206761.0
       215165.0       223579.0       231957.0       240296.0       248577.0
       256758.0       264831.0       272788.0       280621.0       288301.0
       295832.0       303255.0       310580.0       317865.0       325141.0
       332425.0       339792.0       347225.0       354727.0       362310.0
       369906.0       377525.0       385162.0       392745.0       400288.0
       407796.0       415222.0       422556.0       429815.0       437027.0
       444178.0       451261.0       458330.0       465362.0       472309.0
