     0.02500000      -12345.00      -12345.00   3.355440e+10      -12345.00
   0.0005380000       1859.976      -602.0195      -12345.00      -12345.00
      -12345.00      -12345.00      -12345.00      -12345.00      -12345.00
      -12345.00      -12345.00      -12345.00      -12345.00      -12345.00
      -12345.00      -12345.00      -12345.00      -12345.00      -12345.00
      -12345.00      -12345.00      -12345.00      -12345.00      -12345.00
      -12345.00       19.75730      -155.5326       1990.000       0.000000
      -42.72450       173.0647      -12345.00       22.00000      -12345.00
      -12345.00      -12345.00      -12345.00      -12345.00      -12345.00
      -12345.00      -12345.00      -12345.00      -12345.00      -12345.00
       7625.265       31.81433       204.3588       68.57870      -12345.00
      -12345.00      -12345.00       90.00000       90.00000      -12345.00
      -12345.00      -12345.00      -12345.00      -12345.00      -12345.00
      -12345.00      -12345.00      -12345.00      -12345.00      -12345.00
      2016       318        11        13         1
        19         6    -12345    -12345     74400
    -12345    -12345    -12345    -12345    -12345
         1    -12345    -12345    -12345    -12345
    -12345    -12345    -12345    -12345    -12345
    -12345    -12345    -12345    -12345    -12345
    -12345    -12345    -12345    -12345    -12345
         1    -12345    -12345    -12345    -12345
POHA    South Island, Ne
10      -12345  -12345  
-12345  -12345  -12345  
-12345  -12345  -12345  
-12345  -12345  -12345  
-12345  -12345  -12345  
-12345  -12345  BH2     
IU      -12345  Streckei
[...]
       1429598.       1425413.       1428046.       1438792.       1430721.
       1439695.       1431191.       1436548.       1444877.       1429455.
       1443802.       1442652.       1443222.       1448109.       1441915.
       1450812.       1443373.       1447943.       1448455.       1452103.
       1455717.       1436980.       1447557.       1440100.       1440796.
       1449365.       1440819.       1453751.       1439207.       1438280.
       1444602.       1437061.       1441531.       1434265.       1442128.
       1429169.       1424798.       1427978.       1413527.       1422180.
       1406609.       1407207.       1407506.       1391778.       1393308.
       1369709.       1372882.       1365008.       1342839.       1349484.
       1325646.       1322141.       1310853.       1289945.       1291546.
       1270953.       1262681.       1237760.       1224721.       1223324.
       1198648.       1194896.       1171078.       1158327.       1141047.
       1116326.       1118837.       1092955.       1079777.       1056516.
       1031269.       1020865.       995845.0       987579.0       962415.0
       945329.0       920592.0       890211.0       878766.0       848149.0
       838058.0       808416.0       781580.0       767183.0       731631.0
       725795.0       696509.0       674158.0       659394.0       624486.0
       610664.0       576991.0       560995.0       539393.0       507977.0
       494062.0       455953.0       442713.0       412083.0       382453.0
       367368.0       329149.0       317420.0       278537.0       252858.0
       237545.0       204431.0       188812.0       146351.0       128732.0
       105903.0       72008.00       56797.00       25144.00       10585.00
      -19536.00      -44386.00      -60564.00      -88297.00      -105568.0
      -141879.0      -156402.0      -178742.0      -209222.0      -222069.0
      -255158.0      -263918.0      -290089.0      -317530.0      -332162.0
      -364219.0      -372890.0      -403860.0      -419629.0      -437695.0
      -470785.0      -477718.0      -514194.0      -526674.0      -548439.0
      -575874.0      -582668.0      -625062.0      -634369.0      -658035.0
      -687365.0      -696053.0      -729151.0      -740037.0      -768437.0
      -788124.0      -807450.0      -836445.0      -842037.0      -876520.0
      -890838.0      -911977.0      -934623.0      -942226.0      -978423.0
      -988714.0      -1010788.      -1034258.      -1053901.      -1080350.
      -1087157.      -1120975.      -1138206.      -1158363.      -1179848.
      -1187262.      -1225090.      -1233900.      -1256346.      -1284460.
      -1294200.      -1324037.      -1331621.      -1363239.      -1387171.
      -1398703.      -1429487.      -1438117.      -1470410.      -1486128.
      -1502459.      -1534231.      -1547716.      -1579705.      -1592226.
      -1613382.      -1639469.      -1654248.      -1684131.      -1697131.
      -1724800.      -1743415.      -1759289.      -1789572.      -1802532.
      -1830415.      -1849313.      -1871373.      -1895365.      -1909437.
      -1935696.      -1955626.      -1983132.      -1999907.      -2023035.
      -2049319.      -2059595.      -2091515.      -2105128.      -2129571.
      -2154654.      -2162859.      -2198600.      -2212785.      -2237220.
      -2261221.      -2272693.      -2309187.      -2321719.      -2341622.
      -2368065.      -2387419.      -2411239.      -2428072.      -2454328.
      -2469725.      -2495271.      -2510907.      -2526822.      -2560009.
      -2571530.      -2594134.      -2609716.      -2630498.      -2656719.
      -2666465.      -2693623.      -2709278.      -2728158.      -2745365.
      -2761141.      -2788207.      -2797168.      -2819318.      -2829141.
      -2844445.      -2867162.      -2872869.      -2898359.      -2907742.
      -2923049.      -2943346.      -2949824.      -2973099.      -2977811.
      -2995694.      -3014254.      -3023072.      -3045748.      -3049917.
      -3074566.      -3085197.      -3090926.      -3114561.      -3117775.
      -3140085.      -3147977.      -3158804.      -3180460.      -3183194.
      -3203898.      -3212836.      -3230655.      -3243179.      -3248731.
      -3272548.      -3279750.      -3296418.      -3304474.      -3319088.
      -3339108.      -3344734.      -3364728.      -3368007.      -3390081.
      -3401307.      -3402123.      -3430777.      -3430631.      -3452281.
      -3460627.      -3462466.      -3488119.      -3484511.      -3502254.
      -3508211.      -3518053.      -3535342.      -3529402.      -3548299.
      -3545395.      -3560688.      -3573200.      -3567099.      -3589539.
      -3586193.      -3601219.      -3605356.      -3603633.      -3622487.
      -3615716.      -3631904.      -3635394.      -3636375.      -3647169.
      -3643878.      -3656250.      -3651348.      -3662363.      -3667505.
      -3665296.      -3675801.      -3668325.      -3684801.      -3684301.
      -3682385.      -3693479.      -3690710.      -3705845.      -3695488.
      -3699595.      -3714528.      -3709824.      -3723322.      -3717477.
      -3733072.      -3739247.      -3733399.      -3746911.      -3740209.
      -3760611.      -3753539.      -3751407.      -3771270.      -3757241.
      -3774425.      -3765310.      -3767517.      -3781885.      -3767289.
      -3782317.      -3773396.      -3777367.      -3780238.      -3769682.
      -3779694.      -3770885.      -3777356.      -3771643.      -3766049.
      -3767256.      -3756284.      -3767520.      -3754359.      -3758507.
      -3761065.      -3747808.      -3759333.      -3748472.      -3752891.
      -3751112.      -3745279.      -3749945.      -3739505.      -3746042.
      -3735757.      -3737869.      -3739663.      -3730066.      -3743948.
      -3726711.      -3733012.      -3736050.      -3723231.      -3732844.
      -3718584.      -3728769.      -3728288.      -3719035.      -3722842.
      -3713179.      -3725149.      -3712024.      -3708435.      -3713605.
      -3704975.      -3711762.      -3696518.      -3702755.      -3701508.
      -3690055.      -3695780.      -3687553.      -3693948.      -3685260.
      -3681210.      -3685873.      -3675739.      -3682529.      -3673993.
      -3675839.      -3678007.      -3668635.      -3674613.      -3667331.
      -3673442.      -3667851.      -3665392.      -3672772.      -3659612.
      -3670633.      -3660954.      -3659157.      -3666174.      -3653265.
      -3664691.      -3654446.      -3656210.      -3657921.      -3653923.
      -3661621.      -3648565.      -3658389.      -3652421.      -3650528.
      -3654804.      -3640620.      -3653506.      -3644510.      -3641424.
      -3642742.      -3636281.      -3646398.      -3633215.      -3635791.
      -3635222.      -3630304.      -3629704.      -3618175.      -3626208.
      -3616361.      -3614854.      -3609110.      -3600303.      -3606036.
      -3581714.      -3584848.      -3577797.      -3568316.      -3572349.
      -3546098.      -3554486.      -3547283.      -3532087.      -3529665.
      -3514332.      -3515771.      -3496367.      -3489752.      -3480503.
      -3466220.      -3464990.      -3437153.      -3439539.      -3426466.
      -3406358.      -3409460.      -3385768.      -3382620.      -3370677.
      -3358767.      -3353155.      -3332227.      -3328301.      -3312135.
      -3305641.      -3291418.      -3273004.      -3267479.      -3247390.
      -3239934.      -3218603.      -3210207.      -3199334.      -3173671.
      -3171833.      -3145638.      -3141584.      -3127130.      -3100498.
      -3103989.      -3072280.      -3063366.      -3044845.      -3022181.
      -3019302.      -2982382.      -2975592.      -2954715.      -2935067.
      -2920436.      -2888396.      -2885729.      -2855472.      -2843908.
      -2822167.      -2787618.      -2787339.      -2752745.      -2735913.
      -2717155.      -2692236.      -2679012.      -2644486.      -2631230.
      -2607080.      -2584788.      -2561850.      -2535884.      -2526192.
      -2492013.      -2476137.      -2450237.      -2425367.      -2413485.
      -2375380.      -2362819.      -2334580.      -2310018.      -2295906.
      -2260614.      -2246589.      -2217622.      -2197402.      -2174759.
      -2145614.      -2129986.      -2096151.      -2081511.      -2050549.
      -2020614.      -2008954.      -1972221.      -1950734.      -1923823.
      -1900252.      -1877321.      -1843714.      -1828592.      -1794053.
      -1772814.      -1748956.      -1709901.      -1688948.      -1663295.
      -1638581.      -1604022.      -1581964.      -1558908.      -1524684.
      -1504476.      -1471829.      -1451645.      -1425582.      -1393163.
      -1372025.      -1340050.      -1319300.      -1282234.      -1256287.
      -1233613.      -1196175.      -1176211.      -1135686.      -1114852.
      -1085215.      -1042757.      -1027795.      -981788.0      -956659.0
      -924302.0      -884801.0      -869371.0      -822789.0      -796675.0
      -767024.0      -730719.0      -700752.0      -663538.0      -637916.0
      -596204.0      -565732.0      -530132.0      -490541.0      -462283.0
      -416414.0      -385963.0      -348074.0      -311496.0      -276090.0
      -232151.0      -202701.0      -158964.0      -124026.0      -78799.00
      -37809.00      -6982.000       50644.00       78192.00       121405.0
       165778.0       195229.0       249444.0       275841.0       323472.0
       364957.0       403164.0       455380.0       481835.0       542145.0
       580590.0       615312.0       670734.0       702158.0       758339.0
       795580.0       834060.0       885794.0       926176.0       975395.0
       1006323.       1059710.       1102708.       1143075.       1194037.
       1224440.       1283439.       1318882.       1359802.       1414168.
       1443441.       1497780.       1537824.       1585004.       1628967.
       1667458.       1720737.       1752341.       1804265.       1840803.
       1884303.       1938460.       1965132.       2020752.       2056099.
       2100279.       2146450.       2172170.       2233549.       2261744.
       2307266.       2351401.       2381405.       2438156.       2461260.
       2512816.       2552664.       2585638.       2636593.       2660373.
       2715281.       2749347.       2782582.       2827079.       2857947.
       2911631.       2938870.       2976561.       3014703.       3048428.
       3094080.       3116971.       3161816.       3198257.       3231005.
       3270181.       3299000.       3344603.       3369908.       3410225.
       3446760.       3476684.       3522206.       3541579.       3588998.
       3618714.       3645062.       3691511.       3710373.       3752287.
       3777212.       3807364.       3843761.       3862269.       3907355.
       3924346.       3961948.       3994705.       4010257.       4059344.
       4076484.       4111116.       4141957.       4167329.       4211791.
       4227828.       4264226.       4294370.       4327040.       4362101.
       4380494.       4425224.       4451367.       4480482.       4509443.
       4536867.       4578646.       4600303.       4630695.       4657050.
       4691314.       4724484.       4742559.       4784262.       4809675.
       4842598.       4872848.       4892937.       4938684.       4959250.
       4992959.       5024774.       5051306.       5091581.       5110612.
       5153102.       5181673.       5208269.       5242523.       5263391.
       5309610.       5332500.       5365388.       5400794.       5419130.
       5461322.       5482599.       5513207.       5544951.       5569308.
       5605425.       5626303.       5656408.       5680678.       5712494.
       5744026.       5763494.       5798047.       5817686.       5849791.
       5875202.       5890060.       5923228.       5943528.       5967320.
       5984049.       6008064.       6034149.       6045602.       6071607.
       6085186.       6109492.       6128784.       6138979.       6165561.
       6179000.       6205395.       6214806.       6231995.       6260776.
       6263952.       6288371.       6299300.       6316230.       6336155.
       6339606.       6362065.       6371533.       6387455.       6397580.
       6406469.       6425259.       6429272.       6445648.       6446526.
       6458623.       6472617.       6469164.       6485313.       6482547.
       6490925.       6496479.       6493464.       6506758.       6502231.
       6510055.       6509103.       6513376.       6519185.       6509310.
       6526093.       6515764.       6520602.       6528252.       6515582.
       6532821.       6516238.       6522679.       6527852.       6515515.
       6530072.       6513512.       6524075.       6519972.       6507865.
       6520388.       6505556.       6515459.       6507632.       6502813.
       6511295.       6500377.       6508748.       6494501.       6501814.
       6505738.       6489124.       6501724.       6489880.       6496170.
       6490740.       6479314.       6491717.       6480100.       6481792.
       6468427.       6470907.       6470946.       6450309.       6460974.
       6443811.       6441728.       6438251.       6422841.       6427333.
       6408155.       6414881.       6402365.       6391717.       6397553.
       6373946.       6381031.       6367775.       6362310.       6361342.
       6346172.       6356124.       6336559.       6339860.       6337032.
       6323548.       6332062.       6311016.       6319176.       6315123.
       6299905.       6305901.       6293821.       6296766.       6287768.
       6280944.       6280974.       6271944.       6271875.       6257286.
       6260353.       6253856.       6242989.       6244042.       6230921.
       6239061.       6224457.       6217261.       6219872.       6206967.
       6208469.       6191116.       6193096.       6186060.       6170703.
       6170204.       6148292.       6151336.       6133973.       6118931.
       6117898.       6095088.       6093193.       6070510.       6061980.
       6054226.       6030037.       6025203.       5998888.       5990080.
       5975359.       5949175.       5941074.       5916536.       5904708.
       5883651.       5863018.       5841759.       5813228.       5805084.
       5773764.       5751419.       5729861.       5703081.       5687867.
       5652801.       5632155.       5606093.       5581893.       5558033.
       5519979.       5505270.       5472098.       5443714.       5415471.
       5382885.       5364901.       5323820.       5298080.       5267160.
       5234196.       5208780.       5165116.       5142892.       5107764.
       5070959.       5039806.       5002108.       4978326.       4937102.
       4903920.       4871844.       4836859.       4806556.       4766870.
       4733389.       4695468.       4665268.       4625644.       4583055.
       4554524.       4512063.       4479827.       4436092.       4399308.
       4367404.       4315415.       4288288.       4242728.       4200953.
       4166870.       4120101.       4088970.       4041148.       4009654.
       3968148.       3924146.       3893902.       3838502.       3815027.
       3767831.       3720855.       3693373.       3641022.       3610284.
       3561196.       3525266.       3492244.       3440281.       3410934.
       3367458.       3335038.       3293754.       3252428.       3223835.
       3181966.       3155570.       3106853.       3074355.       3044288.
       2998520.       2970463.       2921352.       2895873.       2859361.
       2812716.       2785834.       2741192.       2717348.       2670445.
       2635284.       2610317.       2559257.       2537711.       2490207.
       2458341.       2428554.       2379815.       2358648.       2306824.
       2278513.       2243696.       2191339.       2169427.       2116808.
       2086297.       2046721.       2000561.       1974715.       1924306.
       1894293.       1851042.       1814527.       1783514.       1733317.
       1706875.       1661744.       1625803.       1594464.       1548623.
       1517639.       1477935.       1445970.       1404202.       1366317.
       1330749.       1284561.       1257921.       1213150.       1175024.
       1140924.       1099577.       1064329.       1015652.       989052.0
       943812.0       903702.0       873577.0       820186.0       796247.0
       744212.0       697897.0       668464.0       615802.0       580246.0
       531224.0       490546.0       453037.0       402862.0       364534.0
       316794.0       283244.0       240735.0       189696.0       156357.0
       110485.0       66856.00       21930.00      -22820.00      -63240.00
      -108665.0      -153595.0      -198049.0      -239478.0      -286191.0
      -326477.0      -372404.0      -419659.0      -456931.0      -507257.0
      -549194.0      -596078.0      -638581.0      -676536.0      -728625.0
      -763786.0      -812357.0      -852288.0      -887771.0      -945039.0
      -975940.0      -1019118.      -1061510.      -1096124.      -1143429.
      -1174759.      -1215649.      -1251839.      -1291965.      -1328326.
      -1358093.      -1404776.      -1433439.      -1471105.      -1507379.
      -1537651.      -1578639.      -1607853.      -1640732.      -1672039.
      -1710994.      -1741065.      -1769764.      -1809615.      -1832876.
      -1869805.      -1895096.      -1924346.      -1961704.      -1977872.
      -2015323.      -2034940.      -2065562.      -2095253.      -2101972.
      -2146198.      -2157496.      -2178771.      -2208508.      -2218487.
      -2253288.      -2257303.      -2285133.      -2307230.      -2315057.
      -2348599.      -2350884.      -2377548.      -2392748.      -2403012.
      -2430726.      -2434447.      -2458505.      -2465901.      -2484111.
      -2501645.      -2500714.      -2527395.      -2534084.      -2548904.
      -2556276.      -2563944.      -2585694.      -2583922.      -2601886.
      -2608034.      -2621208.      -2636592.      -2635602.      -2656175.
      -2658827.      -2677081.      -2681123.      -2683384.      -2709450.
