     0.02500000      -12345.00      -12345.00   1.015860e+09      -12345.00
   0.0005380000       1859.976      -395.0196      -12345.00      -12345.00
      -12345.00      -12345.00      -12345.00      -12345.00      -12345.00
      -12345.00      -12345.00      -12345.00      -12345.00      -12345.00
      -12345.00      -12345.00      -12345.00      -12345.00      -12345.00
      -12345.00      -12345.00      -12345.00      -12345.00      -12345.00
      -12345.00      -9.404700       147.1597       90.00000       0.000000
      -42.72450       173.0647      -12345.00       22.00000      -12345.00
      -12345.00      -12345.00      -12345.00      -12345.00      -12345.00
      -12345.00      -12345.00      -12345.00      -12345.00      -12345.00
       4469.797       318.0964       150.0813       40.19963      -12345.00
      -12345.00      -12345.00       0.000000       0.000000      -12345.00
      -12345.00      -12345.00      -12345.00      -12345.00      -12345.00
      -12345.00      -12345.00      -12345.00      -12345.00      -12345.00
      2016       318        11         9        34
        19         6    -12345    -12345     74400
    -12345    -12345    -12345    -12345    -12345
         1    -12345    -12345    -12345    -12345
    -12345    -12345    -12345    -12345    -12345
    -12345    -12345    -12345    -12345    -12345
    -12345    -12345    -12345    -12345    -12345
         1    -12345    -12345    -12345    -12345
PMG     South Island, Ne
60      -12345  -12345  
-12345  -12345  -12345  
-12345  -12345  -12345  
-12345  -12345  -12345  
-12345  -12345  -12345  
-12345  -12345  BHZ     
IU      -12345  Metrozet
[...]
      -687908.0      -675783.0      -663521.0      -651283.0      -638976.0
      -626509.0      -614089.0      -601603.0      -589008.0      -576408.0
      -563754.0      -551061.0      -538265.0      -525458.0      -512673.0
      -499744.0      -486808.0      -473828.0      -460772.0      -447743.0
      -434633.0      -421513.0      -408312.0      -395063.0      -381862.0
      -368536.0      -355206.0      -341877.0      -328469.0      -315074.0
      -301637.0      -288173.0      -274676.0      -261124.0      -247595.0
      -234050.0      -220466.0      -206879.0      -193262.0      -179577.0
      -165908.0      -152299.0      -138623.0      -124907.0      -111225.0
      -97512.00      -83765.00      -70040.00      -56300.00      -42613.00
      -28978.00      -15197.00      -1431.000       12217.00       25976.00
       39672.00       53293.00       67039.00       80729.00       94400.00
       108068.0       121690.0       135312.0       148916.0       162520.0
       176079.0       189659.0       203245.0       216780.0       230277.0
       243788.0       257279.0       270717.0       284188.0       297592.0
       310942.0       324355.0       337697.0       350933.0       364193.0
       377419.0       390630.0       403814.0       416866.0       429919.0
       442965.0       455939.0       468876.0       481750.0       494565.0
       507339.0       520095.0       532779.0       545382.0       557967.0
       570476.0       582945.0       595369.0       607720.0       620007.0
       632241.0       644432.0       656541.0       668650.0       680676.0
       692595.0       704473.0       716240.0       728004.0       739696.0
       751292.0       762883.0       774295.0       785702.0       797125.0
       808331.0       819488.0       830613.0       841676.0       852659.0
       863519.0       874339.0       885041.0       895642.0       906216.0
       916693.0       927066.0       937375.0       947583.0       957669.0
       967695.0       977672.0       987510.0       997205.0       1006878.
       1016468.       1025923.       1035273.       1044461.       1053627.
       1062743.       1071682.       1080566.       1089328.       1097966.
       1106548.       1115020.       1123349.       1131571.       1139732.
       1147770.       1155708.       1163529.       1171244.       1178847.
       1186283.       1193679.       1200974.       1208109.       1215136.
       1222052.       1228861.       1235528.       1242062.       1248508.
       1254844.       1260993.       1267015.       1273014.       1278873.
       1284530.       1290095.       1295581.       1300936.       1306113.
       1311158.       1316107.       1320984.       1325713.       1330228.
       1334654.       1338991.       1343199.       1347287.       1351215.
       1355049.       1358778.       1362311.       1365718.       1369046.
       1372245.       1375285.       1378181.       1380979.       1383681.
       1386182.       1388548.       1390873.       1392983.       1394942.
       1396830.       1398563.       1400126.       1401559.       1402917.
       1404093.       1405081.       1405984.       1406781.       1407385.
       1407838.       1408212.       1408423.       1408477.       1408380.
       1408143.       1407826.       1407327.       1406682.       1405947.
       1405037.       1404003.       1402836.       1401516.       1400053.
       1398460.       1396753.       1394896.       1392939.       1390837.
       1388539.       1386153.       1383663.       1380969.       1378145.
       1375230.       1372162.       1368971.       1365668.       1362220.
       1358620.       1354901.       1351033.       1347024.       1342911.
       1338649.       1334232.       1329706.       1325055.       1320254.
       1315323.       1310249.       1305072.       1299781.       1294322.
       1288733.       1283021.       1277183.       1271210.       1265123.
       1258915.       1252548.       1246071.       1239465.       1232710.
       1225861.       1218865.       1211745.       1204548.       1197211.
       1189744.       1182162.       1174436.       1166610.       1158674.
       1150600.       1142425.       1134128.       1125711.       1117171.
       1108510.       1099760.       1090888.       1081883.       1072729.
       1063513.       1054210.       1044714.       1035186.       1025555.
       1015730.       1005828.       995843.0       985727.0       975481.0
       965197.0       954816.0       944276.0       933655.0       922929.0
       912092.0       901150.0       890135.0       879054.0       867820.0
       856498.0       845141.0       833629.0       822025.0       810376.0
       798577.0       786718.0       774787.0       762724.0       750597.0
       738411.0       726147.0       713729.0       701205.0       688684.0
       676102.0       663394.0       650618.0       637761.0       624819.0
       611840.0       598755.0       585610.0       572394.0       559085.0
       545725.0       532291.0       518820.0       505278.0       491637.0
       477935.0       464205.0       450416.0       436544.0       422660.0
       408700.0       394663.0       380587.0       366436.0       352246.0
       338027.0       323738.0       309403.0       295062.0       280634.0
       266174.0       251673.0       237112.0       222574.0       207953.0
       193291.0       178610.0       163904.0       149170.0       134332.0
       119518.0       104713.0       89826.00       74940.00       60045.00
       45072.00       30130.00       15206.00       184.0000      -14810.00
      -29789.00      -44836.00      -59872.00      -74924.00      -89964.00
      -104981.0      -120064.0      -135146.0      -150176.0      -165228.0
      -180337.0      -195387.0      -210411.0      -225490.0      -240552.0
      -255614.0      -270614.0      -285591.0      -300641.0      -315630.0
      -330575.0      -345514.0      -360427.0      -375384.0      -390294.0
      -405127.0      -419962.0      -434769.0      -449507.0      -464230.0
      -478950.0      -493634.0      -508320.0      -522908.0      -537430.0
      -551978.0      -566479.0      -580904.0      -595303.0      -609682.0
      -623973.0      -638254.0      -652461.0      -666594.0      -680723.0
      -694735.0      -708711.0      -722668.0      -736513.0      -750287.0
      -764014.0      -777662.0      -791292.0      -804863.0      -818306.0
      -831711.0      -845032.0      -858293.0      -871491.0      -884558.0
      -897584.0      -910551.0      -923421.0      -936190.0      -948870.0
      -961489.0      -974013.0      -986439.0      -998795.0      -1011065.
      -1023218.      -1035283.      -1047248.      -1059131.      -1070917.
      -1082571.      -1094148.      -1105627.      -1117018.      -1128298.
      -1139438.      -1150516.      -1161478.      -1172281.      -1182983.
      -1193604.      -1204109.      -1214486.      -1224748.      -1234883.
      -1244918.      -1254863.      -1264668.      -1274323.      -1283862.
      -1293303.      -1302605.      -1311747.      -1320806.      -1329769.
      -1338544.      -1347158.      -1355653.      -1364072.      -1372373.
      -1380493.      -1388455.      -1396286.      -1404005.      -1411565.
      -1418988.      -1426269.      -1433402.      -1440440.      -1447322.
      -1454022.      -1460563.      -1466967.      -1473231.      -1479341.
      -1485302.      -1491135.      -1496832.      -1502353.      -1507714.
      -1512914.      -1517964.      -1522858.      -1527602.      -1532222.
      -1536676.      -1540940.      -1545057.      -1549059.      -1552863.
      -1556515.      -1560036.      -1563316.      -1566488.      -1569548.
      -1572395.      -1575106.      -1577659.      -1580023.      -1582200.
      -1584234.      -1586163.      -1587899.      -1589451.      -1590863.
      -1592108.      -1593169.      -1594045.      -1594791.      -1595397.
      -1595799.      -1596041.      -1596143.      -1596049.      -1595812.
      -1595410.      -1594792.      -1594039.      -1593126.      -1592037.
      -1590792.      -1589418.      -1587851.      -1586048.      -1584152.
      -1582084.      -1579797.      -1577419.      -1574875.      -1572133.
      -1569246.      -1566178.      -1562929.      -1559553.      -1556070.
      -1552384.      -1548469.      -1544428.      -1540312.      -1536006.
      -1531453.      -1526809.      -1522008.      -1517024.      -1511912.
      -1506577.      -1501131.      -1495526.      -1489707.      -1483800.
      -1477728.      -1471497.      -1465098.      -1458475.      -1451758.
      -1444940.      -1437891.      -1430697.      -1423387.      -1415906.
      -1408298.      -1400482.      -1392532.      -1384506.      -1376270.
      -1367887.      -1359363.      -1350747.      -1342023.      -1333047.
      -1323942.      -1314761.      -1305415.      -1295878.      -1286244.
      -1276538.      -1266620.      -1256589.      -1246452.      -1236087.
      -1225661.      -1215151.      -1204430.      -1193603.      -1182700.
      -1171643.      -1160424.      -1149071.      -1137644.      -1126153.
      -1114461.      -1102614.      -1090704.      -1078644.      -1066482.
      -1054231.      -1041848.      -1029401.      -1016816.      -1004075.
      -991270.0      -978366.0      -965338.0      -952211.0      -939018.0
      -925704.0      -912274.0      -898782.0      -885168.0      -871484.0
      -857742.0      -843842.0      -829852.0      -815837.0      -801698.0
      -787449.0      -773165.0      -758812.0      -744352.0      -729767.0
      -715114.0      -700424.0      -685670.0      -670807.0      -655837.0
      -640850.0      -625771.0      -610618.0      -595427.0      -580135.0
      -564835.0      -549447.0      -533943.0      -518435.0      -502873.0
      -487261.0      -471571.0      -455828.0      -440063.0      -424181.0
      -408294.0      -392408.0      -376430.0      -360419.0      -344349.0
      -328243.0      -312123.0      -295942.0      -279757.0      -263524.0
      -247219.0      -230940.0      -214657.0      -198293.0      -181862.0
      -165491.0      -149104.0      -132625.0      -116161.0      -99680.00
      -83219.00      -66724.00      -50141.00      -33640.00      -17134.00
      -550.0000       15979.00       32498.00       49048.00       65611.00
       82165.00       98677.00       115212.0       131780.0       148298.0
       164794.0       181313.0       197791.0       214246.0       230725.0
       247180.0       263588.0       279994.0       296397.0       312761.0
       329077.0       345335.0       361591.0       377846.0       394047.0
       410201.0       426309.0       442397.0       458451.0       474443.0
       490409.0       506354.0       522242.0       538036.0       553794.0
       569566.0       585226.0       600836.0       616461.0       631976.0
       647385.0       662760.0       678154.0       693431.0       708587.0
       723742.0       738770.0       753752.0       768738.0       783597.0
       798339.0       813053.0       827704.0       842227.0       856703.0
       871088.0       885399.0       899644.0       913754.0       927819.0
       941817.0       955671.0       969454.0       983160.0       996727.0
       1010234.       1023646.       1036909.       1050174.       1063314.
       1076264.       1089214.       1102026.       1114718.       1127344.
       1139787.       1152174.       1164490.       1176642.       1188671.
       1200602.       1212455.       1224177.       1235736.       1247188.
       1258542.       1269771.       1280889.       1291871.       1302732.
       1313453.       1323998.       1334511.       1344914.       1355097.
       1365214.       1375193.       1384996.       1394670.       1404224.
       1413671.       1422934.       1432090.       1441119.       1449985.
       1458720.       1467329.       1475823.       1484109.       1492274.
       1500347.       1508234.       1515999.       1523613.       1531069.
       1538406.       1545592.       1552625.       1559480.       1566201.
       1572787.       1579206.       1585496.       1591623.       1597579.
       1603398.       1609067.       1614603.       1619974.       1625157.
       1630221.       1635113.       1639830.       1644425.       1648850.
       1653111.       1657224.       1661196.       1664990.       1668600.
       1672102.       1675402.       1678542.       1681585.       1684413.
       1687091.       1689621.       1691961.       1694171.       1696217.
       1698090.       1699821.       1701361.       1702747.       1704003.
       1705064.       1705957.       1706703.       1707295.       1707719.
       1707977.       1708084.       1708013.       1707761.       1707356.
       1706819.       1706083.       1705173.       1704145.       1702927.
       1701523.       1699962.       1698252.       1696375.       1694337.
       1692153.       1689771.       1687239.       1684564.       1681719.
       1678691.       1675497.       1672180.       1668695.       1665020.
       1661206.       1657291.       1653161.       1648836.       1644421.
       1639831.       1635080.       1630188.       1625109.       1619896.
       1614556.       1609022.       1603344.       1597522.       1591544.
       1585409.       1579105.       1572692.       1566078.       1559307.
       1552405.       1545317.       1538159.       1530815.       1523271.
       1515643.       1507845.       1499896.       1491835.       1483553.
       1475145.       1466685.       1458003.       1449138.       1440184.
       1431107.       1421880.       1412501.       1402990.       1393354.
       1383554.       1373577.       1363541.       1353374.       1343051.
       1332617.       1322015.       1311302.       1300457.       1289492.
       1278400.       1267158.       1255805.       1244312.       1232714.
       1221043.       1209184.       1197188.       1185153.       1172937.
       1160602.       1148184.       1135614.       1122954.       1110172.
       1097291.       1084307.       1071181.       1057975.       1044680.
       1031245.       1017720.       1004101.       990365.0       976541.0
       962623.0       948627.0       934504.0       920292.0       906028.0
       891618.0       877131.0       862571.0       847912.0       833212.0
       818387.0       803491.0       788521.0       773420.0       758320.0
       743151.0       727823.0       712483.0       697105.0       681596.0
       666064.0       650445.0       634685.0       618961.0       603182.0
       587243.0       571303.0       555293.0       539227.0       523140.0
       506951.0       490762.0       474498.0       458150.0       441805.0
       425421.0       408966.0       392416.0       375860.0       359325.0
       342737.0       326097.0       309416.0       292696.0       275962.0
       259193.0       242389.0       225588.0       208779.0       191913.0
       175044.0       158193.0       141301.0       124382.0       107452.0
       90533.00       73580.00       56620.00       39683.00       22722.00
       5799.000      -11182.00      -28171.00      -45074.00      -62047.00
      -79025.00      -95927.00      -112862.0      -129787.0      -146672.0
      -163565.0      -180425.0      -197265.0      -214090.0      -230904.0
      -247686.0      -264405.0      -281135.0      -297843.0      -314491.0
      -331125.0      -347709.0      -364254.0      -380775.0      -397233.0
      -413668.0      -430068.0      -446372.0      -462669.0      -478939.0
      -495109.0      -511264.0      -527379.0      -543440.0      -559416.0
      -575303.0      -591174.0      -606984.0      -622721.0      -638418.0
      -654032.0      -669550.0      -685001.0      -700383.0      -715722.0
      -730977.0      -746140.0      -761240.0      -776240.0      -791180.0
      -806031.0      -820778.0      -835439.0      -850034.0      -864540.0
      -878922.0      -893273.0      -907486.0      -921565.0      -935623.0
      -949539.0      -963350.0      -977109.0      -990727.0      -1004208.
      -1017655.      -1030999.      -1044144.      -1057242.      -1070245.
      -1083078.      -1095834.      -1108486.      -1121045.      -1133474.
      -1145700.      -1157858.      -1169924.      -1181821.      -1193625.
      -1205293.      -1216861.      -1228296.      -1239547.      -1250714.
      -1261758.      -1272681.      -1283472.      -1294109.      -1304617.
      -1315010.      -1325280.      -1335330.      -1345277.      -1355137.
      -1364821.      -1374393.      -1383776.      -1393009.      -1402140.
      -1411089.      -1419923.      -1428623.      -1437149.      -1445544.
      -1453765.      -1461838.      -1469781.      -1477564.      -1485211.
      -1492661.      -1499960.      -1507214.      -1514259.      -1521083.
      -1527802.      -1534345.      -1540751.      -1547016.      -1553101.
      -1559072.      -1564885.      -1570469.      -1575898.      -1581239.
      -1586415.      -1591379.      -1596167.      -1600859.      -1605389.
      -1609693.      -1613910.      -1617960.      -1621799.      -1625527.
      -1629025.      -1632372.      -1635636.      -1638653.      -1641523.
      -1644294.      -1646866.      -1649213.      -1651414.      -1653537.
      -1655423.      -1657109.      -1658717.      -1660143.      -1661376.
      -1662461.      -1663375.      -1664110.      -1664688.      -1665124.
      -1665391.      -1665462.      -1665405.      -1665212.      -1664825.
      -1664261.      -1663548.      -1662702.      -1661698.      -1660525.
      -1659153.      -1657634.      -1655986.      -1654136.      -1652148.
      -1650008.      -1647682.      -1645226.      -1642624.      -1639843.
      -1636893.      -1633773.      -1630509.      -1627102.      -1623484.
      -1619730.      -1615867.      -1611830.      -1607661.      -1603306.
      -1598784.      -1594153.      -1589339.      -1584332.      -1579256.
      -1574071.      -1568663.      -1563103.      -1557396.      -1551565.
      -1545586.      -1539429.      -1533174.      -1526795.      -1520249.
      -1513549.      -1506706.      -1499719.      -1492594.      -1485356.
