     0.05000000      -12345.00      -12345.00   4.808350e+09      -12345.00
   0.0005380000       1859.951      -569.0195      -12345.00      -12345.00
      -12345.00      -12345.00      -12345.00      -12345.00      -12345.00
      -12345.00      -12345.00      -12345.00      -12345.00      -12345.00
      -12345.00      -12345.00      -12345.00      -12345.00      -12345.00
      -12345.00      -12345.00      -12345.00      -12345.00      -12345.00
      -12345.00      -64.77440      -64.04890       40.00000       0.000000
      -42.72450       173.0647      -12345.00       22.00000      -12345.00
      -12345.00      -12345.00      -12345.00      -12345.00      -12345.00
      -12345.00      -12345.00      -12345.00      -12345.00      -12345.00
       7109.332       156.3851       223.5385       63.93859      -12345.00
      -12345.00      -12345.00       90.00000       90.00000      -12345.00
      -12345.00      -12345.00      -12345.00      -12345.00      -12345.00
      -12345.00      -12345.00      -12345.00      -12345.00      -12345.00
      2016       318        11        12        28
        19         6    -12345    -12345     37200
    -12345    -12345    -12345    -12345    -12345
         1    -12345    -12345    -12345    -12345
    -12345    -12345    -12345    -12345    -12345
    -12345    -12345    -12345    -12345    -12345
    -12345    -12345    -12345    -12345    -12345
         1    -12345    -12345    -12345    -12345
PMSA    South Island, Ne
00      -12345  -12345  
-12345  -12345  -12345  
-12345  -12345  -12345  
-12345  -12345  -12345  
-12345  -12345  -12345  
-12345  -12345  BH2     
IU      -12345  Streckei
[...]
       103623.0       103161.0       102661.0       102137.0       101486.0
       100779.0       100077.0       99286.00       98450.00       97585.00
       96729.00       95827.00       94805.00       93789.00       92700.00
       91550.00       90410.00       89158.00       87900.00       86701.00
       85486.00       84178.00       82746.00       81260.00       79733.00
       78175.00       76577.00       74859.00       73074.00       71312.00
       69511.00       67679.00       65801.00       63856.00       61893.00
       59926.00       57950.00       55915.00       53856.00       51759.00
       49546.00       47335.00       45149.00       42897.00       40599.00
       38290.00       35966.00       33622.00       31255.00       28858.00
       26530.00       24137.00       21712.00       19330.00       16847.00
       14329.00       11713.00       9139.000       6556.000       3896.000
       1298.000      -1315.000      -3896.000      -6538.000      -9199.000
      -11776.00      -14325.00      -16912.00      -19558.00      -22290.00
      -25104.00      -27901.00      -30764.00      -33630.00      -36555.00
      -39642.00      -42735.00      -45858.00      -49082.00      -52378.00
      -55611.00      -58855.00      -62225.00      -65630.00      -69105.00
      -72598.00      -76141.00      -79795.00      -83483.00      -87239.00
      -91063.00      -94923.00      -98755.00      -102587.0      -106440.0
      -110374.0      -114382.0      -118438.0      -122498.0      -126552.0
      -130673.0      -134771.0      -138937.0      -142964.0      -146855.0
      -150744.0      -154558.0      -158453.0      -162406.0      -166426.0
      -170511.0      -174587.0      -178627.0      -182659.0      -186703.0
      -190776.0      -194806.0      -198905.0      -203064.0      -207153.0
      -211270.0      -215334.0      -219484.0      -223673.0      -227710.0
      -231769.0      -235824.0      -239761.0      -243681.0      -247571.0
      -251391.0      -255145.0      -258805.0      -262478.0      -266054.0
      -269586.0      -273173.0      -276697.0      -280121.0      -283513.0
      -286940.0      -290303.0      -293649.0      -297025.0      -300380.0
      -303696.0      -307081.0      -310425.0      -313695.0      -317074.0
      -320350.0      -323657.0      -326999.0      -330211.0      -333433.0
      -336631.0      -339845.0      -342940.0      -345966.0      -349008.0
      -351990.0      -355000.0      -357952.0      -360864.0      -363751.0
      -366568.0      -369318.0      -372092.0      -374857.0      -377578.0
      -380295.0      -382913.0      -385566.0      -388179.0      -390788.0
      -393429.0      -395943.0      -398445.0      -400879.0      -403257.0
      -405663.0      -407952.0      -410093.0      -412272.0      -414444.0
      -416591.0      -418727.0      -420785.0      -422864.0      -424900.0
      -426931.0      -428953.0      -430953.0      -432971.0      -434895.0
      -436854.0      -438792.0      -440653.0      -442556.0      -444459.0
      -446369.0      -448245.0      -450165.0      -452085.0      -453944.0
      -455888.0      -457759.0      -459549.0      -461376.0      -463203.0
      -465054.0      -466888.0      -468683.0      -470473.0      -472240.0
      -473985.0      -475753.0      -477490.0      -479220.0      -480927.0
      -482593.0      -484259.0      -485889.0      -487513.0      -489112.0
      -490700.0      -492287.0      -493896.0      -495539.0      -497193.0
      -498881.0      -500627.0      -502339.0      -504022.0      -505815.0
      -507610.0      -509386.0      -511171.0      -512947.0      -514737.0
      -516504.0      -518263.0      -519948.0      -521586.0      -523256.0
      -524815.0      -526262.0      -527660.0      -529021.0      -530342.0
      -531567.0      -532730.0      -533801.0      -534899.0      -536008.0
      -536979.0      -537899.0      -538764.0      -539568.0      -540345.0
      -541089.0      -541729.0      -542343.0      -542954.0      -543488.0
      -543999.0      -544463.0      -544898.0      -545281.0      -545606.0
      -545899.0      -546178.0      -546406.0      -546664.0      -546828.0
      -546861.0      -547012.0      -547046.0      -547035.0      -547020.0
      -546951.0      -546875.0      -546682.0      -546479.0      -546206.0
      -545961.0      -545677.0      -545283.0      -544897.0      -544407.0
      -543901.0      -543396.0      -542860.0      -542321.0      -541738.0
      -541129.0      -540525.0      -539965.0      -539332.0      -538667.0
      -538102.0      -537468.0      -536820.0      -536278.0      -535690.0
      -535058.0      -534501.0      -533913.0      -533366.0      -532831.0
      -532211.0      -531657.0      -531035.0      -530447.0      -529923.0
      -529374.0      -528843.0      -528298.0      -527796.0      -527300.0
      -526889.0      -526505.0      -526058.0      -525621.0      -525152.0
      -524680.0      -524188.0      -523662.0      -523172.0      -522628.0
      -522099.0      -521565.0      -520903.0      -520233.0      -519481.0
      -518635.0      -517783.0      -516911.0      -515967.0      -514965.0
      -513959.0      -512989.0      -511987.0      -510807.0      -509595.0
      -508377.0      -507093.0      -505810.0      -504579.0      -503372.0
      -502043.0      -500668.0      -499248.0      -497697.0      -496197.0
      -494790.0      -493409.0      -492011.0      -490435.0      -488762.0
      -487068.0      -485220.0      -483360.0      -481562.0      -479789.0
      -478044.0      -476188.0      -474247.0      -472278.0      -470161.0
      -467959.0      -465791.0      -463605.0      -461374.0      -459055.0
      -456716.0      -454293.0      -451752.0      -449259.0      -446758.0
      -444217.0      -441708.0      -439200.0      -436546.0      -433862.0
      -431188.0      -428383.0      -425518.0      -422576.0      -419662.0
      -416630.0      -413349.0      -410028.0      -406659.0      -403285.0
      -399930.0      -396539.0      -392994.0      -389430.0      -385936.0
      -382319.0      -378667.0      -374929.0      -371172.0      -367430.0
      -363573.0      -359662.0      -355627.0      -351490.0      -347294.0
      -343067.0      -338838.0      -334551.0      -330224.0      -325806.0
      -321378.0      -316871.0      -312173.0      -307495.0      -302751.0
      -297955.0      -293097.0      -288066.0      -282970.0      -277782.0
      -272541.0      -267235.0      -261822.0      -256349.0      -250791.0
      -245183.0      -239517.0      -233855.0      -228202.0      -222431.0
      -216596.0      -210684.0      -204689.0      -198641.0      -192574.0
      -186468.0      -180278.0      -174071.0      -167821.0      -161479.0
      -155096.0      -148730.0      -142351.0      -135968.0      -129526.0
      -123100.0      -116596.0      -109977.0      -103415.0      -96753.00
      -90182.00      -83675.00      -77116.00      -70639.00      -64090.00
      -57545.00      -50959.00      -44298.00      -37711.00      -31068.00
      -24358.00      -17602.00      -10766.00      -3914.000       3042.000
       10005.00       16952.00       24015.00       31086.00       38205.00
       45320.00       52424.00       59578.00       66707.00       73867.00
       81001.00       88146.00       95370.00       102524.0       109647.0
       116824.0       123984.0       131099.0       138243.0       145448.0
       152579.0       159656.0       166735.0       173767.0       180808.0
       187846.0       194817.0       201803.0       208714.0       215602.0
       222485.0       229193.0       235943.0       242643.0       249242.0
       255927.0       262603.0       269210.0       275784.0       282388.0
       288965.0       295526.0       302112.0       308668.0       315211.0
       321746.0       328248.0       334695.0       341094.0       347453.0
       353802.0       360162.0       366446.0       372708.0       378979.0
       385224.0       391448.0       397679.0       403901.0       410043.0
       416170.0       422212.0       428221.0       434168.0       440003.0
       445860.0       451660.0       457454.0       463250.0       469010.0
       474690.0       480340.0       486075.0       491758.0       497390.0
       503009.0       508640.0       514238.0       519760.0       525229.0
       530583.0       535956.0       541279.0       546489.0       551673.0
       556803.0       561926.0       566983.0       572024.0       577048.0
       581997.0       586984.0       591982.0       596916.0       601850.0
       606740.0       611566.0       616336.0       621064.0       625743.0
       630299.0       634858.0       639379.0       643793.0       648194.0
       652539.0       656780.0       660941.0       664935.0       668861.0
       672804.0       676679.0       680493.0       684225.0       688005.0
       691661.0       695215.0       698795.0       702272.0       705702.0
       708986.0       712171.0       715283.0       718323.0       721235.0
       724020.0       726694.0       729207.0       731694.0       734019.0
       736216.0       738409.0       740527.0       742577.0       744542.0
       746398.0       748290.0       750166.0       751967.0       753781.0
       755551.0       757334.0       759014.0       760722.0       762447.0
       764079.0       765808.0       767443.0       769062.0       770716.0
       772318.0       773943.0       775521.0       777091.0       778601.0
       780052.0       781507.0       782972.0       784416.0       785712.0
       787029.0       788425.0       789753.0       791088.0       792399.0
       793621.0       794813.0       795976.0       797085.0       798167.0
       799171.0       800125.0       801068.0       801941.0       802806.0
       803674.0       804522.0       805336.0       806118.0       806821.0
       807422.0       808091.0       808870.0       809589.0       810239.0
       810978.0       811738.0       812407.0       813129.0       813924.0
       814599.0       815232.0       815965.0       816750.0       817539.0
       818329.0       819071.0       819674.0       820262.0       820948.0
       821708.0       822453.0       823134.0       823879.0       824622.0
       825295.0       826065.0       826865.0       827605.0       828347.0
       829002.0       829563.0       830101.0       830652.0       831190.0
       831606.0       831964.0       832305.0       832598.0       832864.0
       833054.0       833171.0       833257.0       833308.0       833342.0
       833348.0       833324.0       833288.0       833206.0       833105.0
       832980.0       832829.0       832676.0       832548.0       832406.0
       832237.0       832211.0       832181.0       832060.0       831925.0
       831760.0       831609.0       831415.0       831309.0       831269.0
       831204.0       831172.0       831156.0       831214.0       831263.0
       831424.0       831731.0       831990.0       832320.0       832597.0
       832833.0       833233.0       833547.0       833798.0       834119.0
       834493.0       834860.0       835145.0       835430.0       835609.0
       835880.0       836171.0       836379.0       836798.0       837151.0
       837501.0       837853.0       838103.0       838489.0       838875.0
       839234.0       839607.0       839911.0       840090.0       840154.0
       840230.0       840393.0       840579.0       840696.0       840804.0
       840906.0       841034.0       841208.0       841376.0       841638.0
       841923.0       842180.0       842458.0       842772.0       843123.0
       843433.0       843779.0       844154.0       844472.0       844857.0
       845276.0       845546.0       845729.0       845824.0       845922.0
       846158.0       846396.0       846648.0       846967.0       847365.0
       847655.0       847838.0       848198.0       848547.0       848841.0
       849177.0       849396.0       849537.0       849678.0       849857.0
       850075.0       850296.0       850528.0       850702.0       850834.0
       850856.0       850811.0       850727.0       850558.0       850444.0
       850403.0       850385.0       850324.0       850295.0       850365.0
       850478.0       850567.0       850652.0       850785.0       850918.0
       851152.0       851264.0       851250.0       851386.0       851526.0
       851698.0       851893.0       852151.0       852536.0       852892.0
       853221.0       853622.0       854093.0       854519.0       855064.0
       855650.0       856153.0       856778.0       857358.0       857906.0
       858445.0       858885.0       859387.0       859886.0       860291.0
       860616.0       860838.0       861094.0       861360.0       861491.0
       861582.0       861610.0       861524.0       861333.0       861046.0
       860717.0       860278.0       859729.0       859094.0       858366.0
       857575.0       856710.0       855741.0       854707.0       853552.0
       852249.0       850855.0       849367.0       847828.0       846239.0
       844586.0       842800.0       840965.0       839124.0       837177.0
       835134.0       832942.0       830710.0       828410.0       825998.0
       823589.0       821160.0       818584.0       815859.0       813278.0
       810620.0       807696.0       804795.0       801816.0       798695.0
       795479.0       792194.0       788933.0       785534.0       782033.0
       778578.0       775028.0       771346.0       767567.0       763726.0
       759811.0       755868.0       751953.0       747960.0       743928.0
       739928.0       735827.0       731714.0       727708.0       723577.0
       719458.0       715366.0       711175.0       707167.0       703108.0
       698906.0       694783.0       690682.0       686623.0       682522.0
       678466.0       674534.0       670614.0       666663.0       662805.0
       659076.0       655174.0       651367.0       647689.0       643805.0
       639950.0       636200.0       632440.0       628560.0       624701.0
       620911.0       617040.0       613198.0       609269.0       605314.0
       601548.0       597717.0       593815.0       590031.0       586208.0
       582441.0       578783.0       574957.0       571161.0       567401.0
       563479.0       559669.0       555810.0       551768.0       547726.0
       543629.0       539572.0       535582.0       531521.0       527297.0
       523080.0       518968.0       514825.0       510646.0       506442.0
       502283.0       498126.0       493989.0       489916.0       485882.0
       481902.0       477913.0       473945.0       469991.0       466181.0
       462441.0       458616.0       454936.0       451169.0       447386.0
       443825.0       440215.0       436690.0       433261.0       429830.0
       426474.0       423083.0       419761.0       416582.0       413353.0
       410176.0       407105.0       403951.0       400790.0       397778.0
       394747.0       391628.0       388617.0       385618.0       382649.0
       379630.0       376462.0       373457.0       370452.0       367261.0
       364082.0       361008.0       358036.0       355146.0       352239.0
       349380.0       346690.0       343932.0       341181.0       338525.0
       335842.0       333281.0       330721.0       327998.0       325283.0
       322605.0       319855.0       317067.0       314351.0       311632.0
       308764.0       305895.0       303024.0       300021.0       296974.0
       294003.0       290980.0       287891.0       284873.0       281743.0
       278546.0       275412.0       272362.0       269298.0       266115.0
       262937.0       259706.0       256469.0       253203.0       249836.0
       246472.0       243102.0       239729.0       236153.0       232444.0
       228768.0       225020.0       221182.0       217261.0       213332.0
       209271.0       205214.0       201179.0       196961.0       192767.0
       188571.0       184296.0       179919.0       175487.0       171122.0
       166802.0       162441.0       157962.0       153438.0       148862.0
       144358.0       139848.0       135091.0       130279.0       125447.0
       120621.0       115737.0       110680.0       105666.0       100666.0
       95599.00       90469.00       85322.00       80182.00       74944.00
       69732.00       64574.00       59306.00       54053.00       48748.00
       43341.00       38069.00       32744.00       27345.00       21961.00
       16553.00       11271.00       5956.000       608.0000      -4665.000
      -10033.00      -15485.00      -20913.00      -26378.00      -31816.00
      -37141.00      -42686.00      -48327.00      -53835.00      -59449.00
      -65080.00      -70682.00      -76359.00      -81936.00      -87383.00
      -92980.00      -98619.00      -104289.0      -110013.0      -115632.0
      -121247.0      -126869.0      -132482.0      -138126.0      -143887.0
      -149471.0      -154859.0      -160382.0      -165832.0      -171349.0
      -176725.0      -181931.0      -187522.0      -192958.0      -198192.0
      -203549.0      -208833.0      -214088.0      -219335.0      -224709.0
      -229996.0      -235260.0      -240633.0      -245831.0      -251062.0
      -256246.0      -261447.0      -266814.0      -272064.0      -277256.0
      -282359.0      -287470.0      -292597.0      -297692.0      -302845.0
      -307859.0      -312935.0      -318022.0      -322958.0      -327901.0
      -332849.0      -337794.0      -342591.0      -347335.0      -352226.0
      -357217.0      -362114.0      -366987.0      -371888.0      -376769.0
      -381744.0      -386682.0      -391563.0      -396537.0      -401487.0
      -406211.0      -411027.0      -415817.0      -420466.0      -425203.0
      -429769.0      -434221.0      -438557.0      -442887.0      -447141.0
      -451171.0      -455388.0      -459608.0      -463627.0      -467696.0
      -471829.0      -475842.0      -479834.0      -483939.0      -487904.0
      -491769.0      -495793.0      -499861.0      -503857.0      -507742.0
      -511575.0      -515316.0      -518954.0      -522700.0      -526329.0
      -529900.0      -533502.0      -536922.0      -540337.0      -543762.0
      -547167.0      -550474.0      -553804.0      -557247.0      -560415.0
