     0.05000000      -12345.00      -12345.00   4.122590e+09      -12345.00
   0.0005380000       1859.951      -395.0196      -12345.00      -12345.00
      -12345.00      -12345.00      -12345.00      -12345.00      -12345.00
      -12345.00      -12345.00      -12345.00      -12345.00      -12345.00
      -12345.00      -12345.00      -12345.00      -12345.00      -12345.00
      -12345.00      -12345.00      -12345.00      -12345.00      -12345.00
      -12345.00      -9.404700       147.1597       90.00000       0.000000
      -42.72450       173.0647      -12345.00       22.00000      -12345.00
      -12345.00      -12345.00      -12345.00      -12345.00      -12345.00
      -12345.00      -12345.00      -12345.00      -12345.00      -12345.00
       4469.797       318.0964       150.0813       40.19963      -12345.00
      -12345.00      -12345.00       0.000000       0.000000      -12345.00
      -12345.00      -12345.00      -12345.00      -12345.00      -12345.00
      -12345.00      -12345.00      -12345.00      -12345.00      -12345.00
      2016       318        11         9        34
        19         6    -12345    -12345     37200
    -12345    -12345    -12345    -12345    -12345
         1    -12345    -12345    -12345    -12345
    -12345    -12345    -12345    -12345    -12345
    -12345    -12345    -12345    -12345    -12345
    -12345    -12345    -12345    -12345    -12345
         1    -12345    -12345    -12345    -12345
PMG     South Island, Ne
00      -12345  -12345  
-12345  -12345  -12345  
-12345  -12345  -12345  
-12345  -12345  -12345  
-12345  -12345  -12345  
-12345  -12345  BHZ     
IU      -12345  Streckei
[...]
      -4847802.      -4908207.      -4966861.      -5024079.      -5079485.
      -5133239.      -5185145.      -5235475.      -5284022.      -5330530.
      -5375517.      -5418493.      -5459797.      -5499360.      -5536724.
      -5572324.      -5606175.      -5637942.      -5667772.      -5695614.
      -5721434.      -5745256.      -5767114.      -5786875.      -5804515.
      -5820369.      -5833915.      -5845426.      -5855066.      -5862526.
      -5868048.      -5871480.      -5872901.      -5872208.      -5869516.
      -5864826.      -5858012.      -5849076.      -5838127.      -5825280.
      -5810279.      -5793132.      -5773853.      -5752605.      -5729413.
      -5704011.      -5676570.      -5647412.      -5616031.      -5582765.
      -5547577.      -5510295.      -5471275.      -5430191.      -5387220.
      -5342353.      -5295665.      -5247058.      -5196618.      -5144430.
      -5090424.      -5034587.      -4976954.      -4917543.      -4856356.
      -4793655.      -4729138.      -4662828.      -4595148.      -4525912.
      -4454816.      -4382225.      -4308330.      -4232982.      -4156150.
      -4077736.      -3998002.      -3916995.      -3834518.      -3750687.
      -3665562.      -3579275.      -3491831.      -3403136.      -3313167.
      -3222119.      -3130104.      -3036827.      -2942539.      -2847319.
      -2751085.      -2654111.      -2555973.      -2457049.      -2357466.
      -2256824.      -2155833.      -2053941.      -1951148.      -1847996.
      -1744331.      -1639986.      -1534821.      -1429552.      -1323742.
      -1217439.      -1110775.      -1003575.      -896380.0      -788669.0
      -680661.0      -572685.0      -464478.0      -356080.0      -247654.0
      -139263.0      -30886.00       77514.00       185827.0       293927.0
       402135.0       510049.0       617496.0       725090.0       832362.0
       939144.0       1045763.       1151897.       1257594.       1362823.
       1467663.       1571890.       1675508.       1778672.       1881108.
       1982995.       2084084.       2184285.       2283952.       2382897.
       2480736.       2577833.       2674001.       2769302.       2863712.
       2956908.       3049201.       3140375.       3230638.       3319450.
       3407273.       3494176.       3579502.       3663975.       3746845.
       3828590.       3909021.       3987895.       4065841.       4141875.
       4216690.       4290187.       4362031.       4432581.       4501378.
       4568695.       4634721.       4698981.       4761608.       4822871.
       4882423.       4940453.       4996685.       5051169.       5104162.
       5155293.       5204665.       5252277.       5298145.       5342334.
       5384607.       5425117.       5463855.       5500629.       5535730.
       5568917.       5600278.       5629804.       5657517.       5683421.
       5707245.       5729553.       5749863.       5768236.       5784931.
       5799348.       5812128.       5823028.       5831907.       5839019.
       5843957.       5847229.       5848494.       5847746.       5845265.
       5840672.       5834059.       5825486.       5815089.       5802598.
       5788242.       5771985.       5753598.       5733393.       5711467.
       5687540.       5661511.       5633850.       5604131.       5572588.
       5539178.       5503680.       5466640.       5427437.       5386339.
       5343640.       5299021.       5252439.       5204064.       5153903.
       5101817.       5048151.       4992696.       4935484.       4876448.
       4815760.       4753490.       4689495.       4623755.       4556089.
       4487029.       4416327.       4343839.       4270031.       4194648.
       4117554.       4039060.       3959121.       3877658.       3794868.
       3710701.       3625065.       3538134.       3449945.       3360350.
       3269492.       3177534.       3084288.       2989792.       2894208.
       2797513.       2699764.       2601011.       2501029.       2400138.
       2298454.       2195618.       2092048.       1987707.       1882583.
       1776597.       1669818.       1562522.       1454464.       1345841.
       1236709.       1126966.       1016877.       906455.0       795288.0
       683859.0       572245.0       460090.0       347980.0       235595.0
       122923.0       10277.00      -102499.0      -215310.0      -328165.0
      -440886.0      -553670.0      -666094.0      -778297.0      -890440.0
      -1002127.      -1113645.      -1224648.      -1335232.      -1445440.
      -1555262.      -1664480.      -1773019.      -1881192.      -1988466.
      -2095100.      -2201087.      -2306167.      -2410622.      -2514155.
      -2616568.      -2718081.      -2818872.      -2918529.      -3017077.
      -3114529.      -3210783.      -3306009.      -3399853.      -3492554.
      -3583878.      -3673853.      -3762510.      -3849477.      -3935439.
      -4019667.      -4102229.      -4183631.      -4262939.      -4340905.
      -4417632.      -4492087.      -4564960.      -4636194.      -4705421.
      -4773141.      -4838862.      -4902748.      -4964818.      -5024777.
      -5083138.      -5139476.      -5193652.      -5246015.      -5296329.
      -5344523.      -5390499.      -5434614.      -5476488.      -5516055.
      -5553779.      -5589098.      -5622340.      -5653400.      -5682050.
      -5708714.      -5733138.      -5755205.      -5774990.      -5792493.
      -5808015.      -5821101.      -5831702.      -5840125.      -5846323.
      -5850185.      -5851635.      -5850872.      -5847614.      -5842302.
      -5834503.      -5824160.      -5811943.      -5797389.      -5780497.
      -5761414.      -5740158.      -5716599.      -5690851.      -5663091.
      -5632827.      -5600351.      -5565956.      -5529185.      -5490327.
      -5449420.      -5406445.      -5361267.      -5313913.      -5264726.
      -5213306.      -5159970.      -5104720.      -5047238.      -4987959.
      -4926651.      -4863433.      -4798494.      -4731517.      -4662700.
      -4592264.      -4520076.      -4446075.      -4370387.      -4293094.
      -4214178.      -4133596.      -4051553.      -3968000.      -3882929.
      -3796523.      -3708752.      -3619558.      -3529059.      -3437430.
      -3344395.      -3249940.      -3154540.      -3058039.      -2960208.
      -2861378.      -2761546.      -2660636.      -2558682.      -2455942.
      -2352317.      -2247767.      -2142680.      -2036600.      -1929880.
      -1822574.      -1714437.      -1605832.      -1496502.      -1386773.
      -1276607.      -1165667.      -1054600.      -943250.0      -831149.0
      -719120.0      -606836.0      -494241.0      -381564.0      -268612.0
      -156140.0      -43246.00       69637.00       182028.0       294771.0
       407178.0       519281.0       631105.0       742906.0       854432.0
       965558.0       1076518.       1186992.       1297166.       1406627.
       1515728.       1624130.       1731855.       1839032.       1945217.
       2050752.       2155396.       2259284.       2362247.       2464381.
       2565423.       2665636.       2765148.       2863147.       2960344.
       3056403.       3151320.       3245340.       3337863.       3429346.
       3519636.       3608344.       3695803.       3782050.       3866592.
       3949910.       4031597.       4111718.       4190530.       4267094.
       4342630.       4416532.       4488440.       4559053.       4627677.
       4694665.       4760022.       4823415.       4884955.       4944867.
       5002667.       5058613.       5112521.       5164272.       5214399.
       5262275.       5308345.       5352069.       5393869.       5433849.
       5471177.       5506913.       5540638.       5572117.       5601493.
       5628661.       5653824.       5676896.       5697745.       5716450.
       5732873.       5747039.       5759058.       5768737.       5776196.
       5781326.       5784185.       5784724.       5782947.       5779078.
       5772828.       5764364.       5753685.       5740650.       5725585.
       5708231.       5688599.       5666681.       5642597.       5616554.
       5588259.       5557696.       5524801.       5489796.       5452678.
       5413192.       5371738.       5328132.       5282125.       5234245.
       5184241.       5131989.       5077681.       5021291.       4962993.
       4902690.       4840326.       4776005.       4709824.       4641562.
       4571430.       4499446.       4425336.       4349557.       4271993.
       4192473.       4111100.       4027995.       3943369.       3856884.
       3768642.       3678886.       3587524.       3494644.       3400099.
       3304101.       3206561.       3107620.       3007302.       2905322.
       2802321.       2697952.       2592184.       2485414.       2377210.
       2267907.       2157588.       2046097.       1933573.       1820153.
       1705864.       1590432.       1474221.       1357175.       1239404.
       1120924.       1001585.       881833.0       761389.0       640252.0
       518607.0       396611.0       274223.0       151406.0       28352.00
      -95005.00      -218481.0      -342146.0      -465975.0      -589788.0
      -713642.0      -837586.0      -961441.0      -1085070.      -1208634.
      -1331722.      -1454686.      -1577453.      -1699542.      -1821220.
      -1942428.      -2063295.      -2183325.      -2302709.      -2421619.
      -2539686.      -2657061.      -2773352.      -2888828.      -3003298.
      -3116680.      -3229242.      -3340609.      -3450832.      -3559699.
      -3667583.      -3774131.      -3879080.      -3982894.      -4085162.
      -4185933.      -4285238.      -4382803.      -4478963.      -4573436.
      -4666030.      -4757038.      -4845988.      -4933330.      -5018812.
      -5102155.      -5183930.      -5263502.      -5340848.      -5416478.
      -5489768.      -5560902.      -5630122.      -5696753.      -5761340.
      -5823552.      -5883485.      -5941346.      -5996329.      -6049043.
      -6099471.      -6147405.      -6192799.      -6235596.      -6276002.
      -6313896.      -6349173.      -6381841.      -6411928.      -6439313.
      -6464307.      -6486566.      -6505972.      -6523007.      -6537300.
      -6548788.      -6557582.      -6563792.      -6567279.      -6567930.
      -6565976.      -6561104.      -6553700.      -6543574.      -6530527.
      -6514834.      -6496410.      -6475512.      -6451531.      -6425228.
      -6396317.      -6364470.      -6330432.      -6293355.      -6253891.
      -6211765.      -6166720.      -6119451.      -6069412.      -6016717.
      -5961515.      -5903868.      -5843651.      -5780910.      -5715797.
      -5648212.      -5578505.      -5506284.      -5431692.      -5354808.
      -5275725.      -5194512.      -5110825.      -5025124.      -4937384.
      -4847456.      -4755392.      -4661556.      -4565533.      -4467341.
      -4367575.      -4265960.      -4162454.      -4057093.      -3950176.
      -3841583.      -3731337.      -3619662.      -3506405.      -3391601.
      -3275418.      -3157985.      -3038953.      -2918706.      -2797247.
      -2674358.      -2550545.      -2425556.      -2299492.      -2172406.
      -2044484.      -1915619.      -1785627.      -1655278.      -1523928.
      -1391791.      -1259265.      -1126062.      -992426.0      -858168.0
      -723659.0      -588562.0      -453202.0      -317751.0      -181814.0
      -45960.00       90055.00       226123.0       361999.0       498095.0
       633954.0       769538.0       905048.0       1040193.       1175243.
       1309593.       1443350.       1577071.       1709898.       1841995.
       1973810.       2104665.       2234689.       2364190.       2492723.
       2620193.       2746917.       2872372.       2996598.       3120159.
       3242396.       3363234.       3482800.       3601205.       3718237.
       3833774.       3947956.       4060509.       4171534.       4281037.
       4388885.       4495140.       4599674.       4702318.       4803389.
       4902518.       4999751.       5095169.       5188361.       5279747.
       5368996.       5456314.       5541680.       5624533.       5705406.
       5784168.       5860513.       5934616.       6006683.       6076359.
       6143629.       6208717.       6271393.       6331727.       6389537.
       6444905.       6497841.       6548223.       6596328.       6641778.
       6684520.       6724967.       6762680.       6797804.       6830507.
       6860371.       6887891.       6912707.       6934712.       6954418.
       6971260.       6985387.       6996995.       7005900.       7012170.
       7015735.       7016576.       7014755.       7010227.       7003050.
       6993031.       6980285.       6965152.       6947049.       6926350.
       6903095.       6876940.       6848563.       6817278.       6783398.
       6747185.       6708055.       6666610.       6622686.       6576171.
       6527027.       6475455.       6421245.       6364506.       6305469.
       6243786.       6179805.       6113323.       6044498.       5973259.
       5899647.       5823953.       5745783.       5665229.       5582746.
       5498058.       5411018.       5322016.       5230777.       5137480.
       5042292.       4944992.       4845745.       4744498.       4641333.
       4536401.       4429604.       4321073.       4210776.       4098783.
       3985242.       3870083.       3753411.       3635055.       3515450.
       3394444.       3271870.       3148272.       3023252.       2897217.
       2769993.       2641410.       2511965.       2381255.       2249745.
       2117429.       1983991.       1850027.       1715048.       1579185.
       1443250.       1306494.       1168897.       1031199.       893125.0
       754578.0       615849.0       476854.0       337582.0       198279.0
       58941.00      -80534.00      -219952.0      -359274.0      -498463.0
      -637471.0      -776116.0      -914389.0      -1052426.      -1189796.
      -1326786.      -1463350.      -1599039.      -1734146.      -1868498.
      -2002039.      -2134949.      -2266969.      -2397747.      -2527812.
      -2656889.      -2784377.      -2911142.      -3036546.      -3160620.
      -3283563.      -3404826.      -3524933.      -3643386.      -3760336.
      -3875793.      -3989457.      -4101545.      -4212036.      -4320671.
      -4427246.      -4532393.      -4635520.      -4736488.      -4835519.
      -4932670.      -5027798.      -5120619.      -5211631.      -5300306.
      -5386979.      -5471273.      -5553150.      -5633100.      -5710349.
      -5785368.      -5858319.      -5928488.      -5996260.      -6061664.
      -6124392.      -6185087.      -6242976.      -6298098.      -6351073.
      -6401456.      -6449017.      -6494084.      -6536720.      -6576415.
      -6613670.      -6648349.      -6680267.      -6709401.      -6736007.
      -6759946.      -6780899.      -6799586.      -6815342.      -6828373.
      -6838880.      -6846516.      -6851506.      -6853714.      -6853526.
      -6850518.      -6844889.      -6836777.      -6825778.      -6812259.
      -6796042.      -6777248.      -6755861.      -6731788.      -6705117.
      -6675784.      -6643886.      -6609765.      -6572898.      -6533315.
      -6491868.      -6447692.      -6400944.      -6351897.      -6300647.
      -6247040.      -6190799.      -6132557.      -6071940.      -6009035.
      -5943998.      -5876727.      -5807400.      -5736068.      -5662386.
      -5586810.      -5509329.      -5429517.      -5348020.      -5264514.
      -5179169.      -5092014.      -5002985.      -4912390.      -4819912.
      -4725984.      -4630287.      -4532767.      -4433887.      -4333477.
      -4231617.      -4128335.      -4023595.      -3917482.      -3810392.
      -3701922.      -3592059.      -3481131.      -3369126.      -3256173.
      -3142088.      -3027086.      -2911219.      -2794336.      -2676547.
      -2558016.      -2438832.      -2318800.      -2198074.      -2077124.
      -1955182.      -1832843.      -1710438.      -1587051.      -1463644.
      -1339911.      -1216037.      -1091859.      -967328.0      -843202.0
      -718616.0      -594069.0      -469745.0      -345515.0      -221239.0
      -97159.00       26512.00       150091.0       273437.0       396215.0
       518417.0       640597.0       762055.0       882764.0       1002849.
       1122339.       1241200.       1359046.       1476320.       1592886.
       1708420.       1823136.       1936951.       2049522.       2161126.
       2271804.       2381199.       2489249.       2596422.       2702381.
       2806721.       2910096.       3011953.       3112321.       3211663.
       3309140.       3405090.       3499707.       3592633.       3683910.
       3773367.       3861370.       3947566.       4032106.       4114981.
       4195900.       4275279.       4352245.       4427653.       4501364.
       4572714.       4642481.       4709795.       4775450.       4839177.
       4900452.       4960074.       5017247.       5072525.       5125736.
       5176505.       5225338.       5271905.       5316533.       5358712.
       5398586.       5436460.       5472032.       5505522.       5536408.
       5565129.       5591837.       5616014.       5637879.       5657512.
       5674779.       5689969.       5702792.       5713066.       5721476.
       5727188.       5730615.       5732125.       5730961.       5727659.
       5722089.       5714339.       5704223.       5691896.       5677342.
       5660416.       5641648.       5620442.       5597013.       5571590.
       5543719.       5513689.       5481622.       5447380.       5411248.
       5372799.       5332093.       5289744.       5245119.       5198423.
       5149802.       5099011.       5046521.       4992109.       4935717.
       4877281.       4817132.       4755334.       4691404.       4625962.
       4558784.       4489851.       4419262.       4347066.       4273466.
       4197981.       4121185.       4043023.       3963194.       3882249.
       3799876.       3715935.       3630946.       3544762.       3457135.
