     0.05000000      -12345.00      -12345.00   3.225220e+09      -12345.00
   0.0005390000       1859.951      -395.0196      -12345.00      -12345.00
      -12345.00      -12345.00      -12345.00      -12345.00      -12345.00
      -12345.00      -12345.00      -12345.00      -12345.00      -12345.00
      -12345.00      -12345.00      -12345.00      -12345.00      -12345.00
      -12345.00      -12345.00      -12345.00      -12345.00      -12345.00
      -12345.00      -9.404700       147.1597       90.00000       0.000000
      -42.72450       173.0647      -12345.00       22.00000      -12345.00
      -12345.00      -12345.00      -12345.00      -12345.00      -12345.00
      -12345.00      -12345.00      -12345.00      -12345.00      -12345.00
       4469.797       318.0964       150.0813       40.19963      -12345.00
      -12345.00      -12345.00       358.0000       90.00000      -12345.00
      -12345.00      -12345.00      -12345.00      -12345.00      -12345.00
      -12345.00      -12345.00      -12345.00      -12345.00      -12345.00
      2016       318        11         9        34
        19         6    -12345    -12345     37200
    -12345    -12345    -12345    -12345    -12345
         1    -12345    -12345    -12345    -12345
    -12345    -12345    -12345    -12345    -12345
    -12345    -12345    -12345    -12345    -12345
    -12345    -12345    -12345    -12345    -12345
         1    -12345    -12345    -12345    -12345
PMG     South Island, Ne
00      -12345  -12345  
-12345  -12345  -12345  
-12345  -12345  -12345  
-12345  -12345  -12345  
-12345  -12345  -12345  
-12345  -12345  BH1     
IU      -12345  Streckei
[...]
      -3586832.      -3551513.      -3515307.      -3477813.      -3438863.
      -3398595.      -3356758.      -3313794.      -3270726.      -3227233.
      -3182329.      -3136199.      -3088336.      -3039262.      -2989579.
      -2938684.      -2886882.      -2834255.      -2780451.      -2725727.
      -2670085.      -2613466.      -2556143.      -2497594.      -2438370.
      -2378356.      -2317257.      -2255619.      -2192939.      -2129530.
      -2065461.      -2000608.      -1935142.      -1869011.      -1802093.
      -1734764.      -1667001.      -1598353.      -1528989.      -1458709.
      -1387555.      -1316207.      -1245351.      -1174444.      -1102694.
      -1030437.      -957741.0      -884723.0      -811340.0      -737538.0
      -663670.0      -589515.0      -515048.0      -440462.0      -365879.0
      -291251.0      -216332.0      -141304.0      -66389.00       8646.000
       83571.00       158533.0       233535.0       308227.0       383103.0
       457855.0       532331.0       606759.0       680958.0       755009.0
       828767.0       902204.0       975508.0       1048375.       1120838.
       1193199.       1265040.       1336347.       1407470.       1478121.
       1548271.       1618042.       1687351.       1756106.       1824240.
       1891873.       1959009.       2025556.       2091434.       2156737.
       2221154.       2284889.       2348128.       2410463.       2472189.
       2533103.       2593207.       2652575.       2711009.       2768668.
       2825471.       2881408.       2936340.       2990421.       3043654.
       3095770.       3146988.       3197197.       3246305.       3294488.
       3341712.       3387809.       3432785.       3476786.       3519703.
       3561480.       3602208.       3641710.       3679989.       3717229.
       3753303.       3788034.       3821495.       3854056.       3885218.
       3914969.       3943712.       3970938.       3997030.       4021895.
       4045338.       4067474.       4088354.       4108006.       4125989.
       4142841.       4158327.       4172252.       4185000.       4196359.
       4206289.       4214798.       4221901.       4227677.       4232140.
       4234973.       4236580.       4236763.       4235369.       4232804.
       4228733.       4223365.       4216498.       4208145.       4198572.
       4187474.       4174961.       4161164.       4145779.       4129091.
       4110963.       4090841.       4069636.       4047733.       4025236.
       4001385.       3975560.       3948349.       3919571.       3889385.
       3858178.       3825876.       3792190.       3757239.       3721124.
       3683797.       3645082.       3605293.       3564434.       3522177.
       3478858.       3434322.       3388789.       3342078.       3294089.
       3245217.       3195190.       3144057.       3091998.       3038895.
       2984819.       2929760.       2873165.       2815266.       2756412.
       2697223.       2638332.       2578696.       2517480.       2454953.
       2391730.       2327770.       2262946.       2197398.       2131035.
       2063873.       1996203.       1927748.       1858380.       1788530.
       1717982.       1646925.       1575245.       1502855.       1430076.
       1356707.       1282968.       1208581.       1133837.       1058801.
       982986.0       907132.0       830923.0       754215.0       677129.0
       599895.0       522475.0       444559.0       366730.0       288546.0
       210196.0       131749.0       53119.00      -25498.00      -104328.0
      -183097.0      -261972.0      -340794.0      -419515.0      -498346.0
      -577113.0      -655713.0      -734250.0      -812717.0      -890933.0
      -969092.0      -1047104.      -1124857.      -1202219.      -1279277.
      -1356313.      -1432957.      -1509067.      -1584716.      -1660027.
      -1735032.      -1809466.      -1883339.      -1956769.      -2029688.
      -2102026.      -2173799.      -2244835.      -2315376.      -2385225.
      -2454115.      -2522591.      -2590091.      -2656901.      -2722973.
      -2787954.      -2852422.      -2915792.      -2978346.      -3040039.
      -3100647.      -3160500.      -3219278.      -3276950.      -3333633.
      -3389363.      -3443939.      -3497422.      -3549780.      -3600867.
      -3650940.      -3699913.      -3747474.      -3793769.      -3838982.
      -3882842.      -3925452.      -3966759.      -4006528.      -4044936.
      -4082007.      -4117796.      -4152011.      -4184717.      -4216230.
      -4245989.      -4274064.      -4301110.      -4326553.      -4350242.
      -4372510.      -4393117.      -4412331.      -4429858.      -4445713.
      -4460147.      -4472889.      -4484062.      -4493630.      -4501442.
      -4507840.      -4512673.      -4515601.      -4517232.      -4516972.
      -4515088.      -4511851.      -4506617.      -4500048.      -4491767.
      -4481907.      -4470530.      -4457282.      -4442721.      -4426591.
      -4408691.      -4389364.      -4368458.      -4345900.      -4321911.
      -4296297.      -4269206.      -4240580.      -4210345.      -4178754.
      -4145561.      -4110995.      -4074925.      -4037355.      -3998587.
      -3958136.      -3916452.      -3873496.      -3828946.      -3783260.
      -3736032.      -3687651.      -3638015.      -3586272.      -3532725.
      -3478649.      -3424910.      -3370069.      -3313414.      -3255035.
      -3195207.      -3134546.      -3072720.      -3009905.      -2946021.
      -2881115.      -2815411.      -2748452.      -2680622.      -2612062.
      -2542348.      -2471933.      -2400595.      -2328401.      -2255691.
      -2181658.      -2107141.      -2032143.      -1956124.      -1879784.
      -1802585.      -1724663.      -1645501.      -1565183.      -1485475.
      -1406249.      -1326426.      -1245622.      -1164317.      -1082510.
      -1000241.      -917823.0      -834891.0      -751584.0      -668272.0
      -584636.0      -500740.0      -416740.0      -332482.0      -248152.0
      -163677.0      -79257.00       5168.000       89781.00       174129.0
       258673.0       343113.0       427430.0       511654.0       595395.0
       679274.0       762635.0       846018.0       929114.0       1011622.
       1094222.       1176193.       1257897.       1339215.       1420052.
       1500363.       1580051.       1659437.       1738285.       1816481.
       1894108.       1970999.       2047273.       2123030.       2198006.
       2272155.       2345658.       2418392.       2490149.       2561387.
       2631682.       2700950.       2769511.       2837114.       2903827.
       2969526.       3034393.       3098185.       3160957.       3222626.
       3283253.       3343029.       3401515.       3458874.       3515146.
       3570304.       3624251.       3677120.       3728567.       3778995.
       3828242.       3875942.       3922847.       3968179.       4012219.
       4055205.       4096763.       4137158.       4176029.       4213639.
       4249961.       4284773.       4318426.       4350684.       4381330.
       4410537.       4438747.       4465307.       4490295.       4514350.
       4536394.       4557280.       4576932.       4594694.       4611398.
       4626394.       4640007.       4652243.       4662863.       4672189.
       4679966.       4686252.       4691193.       4694563.       4696355.
       4696938.       4695877.       4693431.       4689538.       4684064.
       4677267.       4668958.       4659091.       4647743.       4635145.
       4620929.       4605405.       4588350.       4569631.       4549717.
       4528027.       4504785.       4479737.       4453131.       4426602.
       4399095.       4369579.       4338320.       4305296.       4270965.
       4235303.       4198426.       4160242.       4120661.       4079720.
       4037518.       3994131.       3949199.       3903155.       3855929.
       3807281.       3757503.       3706430.       3654170.       3600811.
       3546215.       3490502.       3433639.       3375872.       3317046.
       3256592.       3194489.       3131070.       3067641.       3004446.
       2940314.       2874461.       2807208.       2739276.       2670380.
       2600513.       2529904.       2458360.       2385937.       2312850.
       2238903.       2164241.       2088921.       2012686.       1936003.
       1858591.       1780510.       1701923.       1622306.       1542503.
       1462185.       1380881.       1299473.       1217483.       1134839.
       1051978.       968639.0       884810.0       800718.0       716345.0
       631502.0       546371.0       461054.0       375449.0       289623.0
       203512.0       117264.0       30975.00      -55598.00      -142228.0
      -228989.0      -315814.0      -402604.0      -489563.0      -576252.0
      -663080.0      -749935.0      -836596.0      -923225.0      -1009530.
      -1096015.      -1182102.      -1268040.      -1353770.      -1439002.
      -1524236.      -1608982.      -1693494.      -1777476.      -1861334.
      -1944728.      -2027398.      -2109924.      -2191946.      -2273474.
      -2354135.      -2434573.      -2514376.      -2593382.      -2671953.
      -2749659.      -2826831.      -2903215.      -2978848.      -3053661.
      -3127748.      -3200948.      -3273308.      -3344846.      -3415291.
      -3484915.      -3553616.      -3621236.      -3687677.      -3753238.
      -3817787.      -3880963.      -3943034.      -4004144.      -4063764.
      -4122316.      -4179715.      -4235618.      -4290320.      -4343619.
      -4395788.      -4446233.      -4495412.      -4543423.      -4589680.
      -4634703.      -4678027.      -4719945.      -4760448.      -4799198.
      -4836599.      -4872396.      -4906427.      -4938939.      -4969804.
      -4999048.      -5026598.      -5052405.      -5076736.      -5099270.
      -5120206.      -5139464.      -5157038.      -5172895.      -5186927.
      -5199378.      -5209940.      -5218915.      -5226334.      -5231678.
      -5235201.      -5237091.      -5237222.      -5235681.      -5232176.
      -5227022.      -5220116.      -5211510.      -5201247.      -5188853.
      -5175062.      -5159572.      -5142222.      -5123147.      -5102414.
      -5080096.      -5055795.      -5029956.      -5002317.      -4972979.
      -4942013.      -4909145.      -4874802.      -4838782.      -4801252.
      -4761944.      -4721106.      -4678874.      -4634843.      -4589624.
      -4542671.      -4494356.      -4444629.      -4393244.      -4340821.
      -4286820.      -4231030.      -4172693.      -4113490.      -4055039.
      -3995736.      -3934520.      -3871103.      -3806377.      -3740864.
      -3674009.      -3605938.      -3537018.      -3466872.      -3395537.
      -3323222.      -3249755.      -3175482.      -3100118.      -3023782.
      -2946515.      -2868154.      -2789204.      -2709094.      -2628285.
      -2547039.      -2464601.      -2381146.      -2296056.      -2210063.
      -2125290.      -2040471.      -1954064.      -1866819.      -1778919.
      -1690402.      -1601318.      -1511591.      -1421456.      -1331027.
      -1240061.      -1148715.      -1056990.      -964852.0      -872575.0
      -780006.0      -687050.0      -593846.0      -500518.0      -406932.0
      -313204.0      -219398.0      -125312.0      -31109.00       62958.00
       157115.0       251373.0       345570.0       439691.0       533564.0
       627546.0       721485.0       815000.0       908360.0       1001583.
       1094547.       1187292.       1279740.       1371657.       1463541.
       1554928.       1645767.       1736431.       1826521.       1916321.
       2005480.       2094241.       2182408.       2269931.       2357061.
       2443248.       2528873.       2613978.       2698176.       2781626.
       2864488.       2946292.       3027330.       3107784.       3186983.
       3265382.       3343053.       3419430.       3495050.       3569640.
       3643179.       3715673.       3786793.       3857180.       3926098.
       3993815.       4060532.       4125993.       4190226.       4252915.
       4314742.       4375053.       4433988.       4491682.       4547832.
       4602913.       4656214.       4708133.       4758732.       4807650.
       4855366.       4901346.       4945885.       4988881.       5030133.
       5070154.       5108242.       5144777.       5179792.       5213040.
       5244766.       5274629.       5303007.       5329643.       5354599.
       5377831.       5399316.       5419262.       5437225.       5453681.
       5468170.       5481014.       5492342.       5501390.       5508931.
       5514864.       5518684.       5520869.       5521401.       5519920.
       5516690.       5511675.       5504873.       5496230.       5485800.
       5473559.       5459455.       5443602.       5425980.       5406646.
       5385322.       5362415.       5337792.       5311156.       5282964.
       5252990.       5221261.       5187551.       5151204.       5113249.
       5075471.       5036628.       4995107.       4951394.       4905774.
       4858708.       4810295.       4760354.       4708673.       4655504.
       4600818.       4544482.       4486930.       4427771.       4367100.
       4305157.       4241605.       4176684.       4110635.       4042905.
       3974237.       3904321.       3831941.       3757692.       3682826.
       3608867.       3533964.       3456446.       3377530.       3297808.
       3216909.       3134766.       3051787.       2967675.       2882744.
       2796765.       2709719.       2621978.       2533457.       2443937.
       2353453.       2262575.       2170716.       2078057.       1984893.
       1890920.       1796380.       1701310.       1605664.       1509566.
       1412938.       1315972.       1218445.       1120462.       1022498.
       923880.0       824908.0       725850.0       626615.0       527079.0
       427367.0       327683.0       227813.0       128043.0       28163.00
      -71799.00      -171672.0      -271391.0      -370993.0      -470496.0
      -569801.0      -668983.0      -767867.0      -866408.0      -964598.0
      -1062620.      -1160186.      -1257359.      -1353935.      -1450091.
      -1545918.      -1640947.      -1735632.      -1829443.      -1922818.
      -2015433.      -2107233.      -2198630.      -2288884.      -2378474.
      -2467369.      -2555359.      -2642311.      -2728373.      -2813727.
      -2897931.      -2981075.      -3063444.      -3144585.      -3224416.
      -3303529.      -3381401.      -3457947.      -3533483.      -3607593.
      -3680632.      -3752251.      -3822620.      -3891789.      -3959328.
      -4025765.      -4090789.      -4154320.      -4216404.      -4277081.
      -4336309.      -4394184.      -4450392.      -4505007.      -4558387.
      -4609832.      -4659905.      -4708376.      -4755184.      -4800492.
      -4843884.      -4886003.      -4926121.      -4964429.      -5001307.
      -5036345.      -5069785.      -5101341.      -5131250.      -5159460.
      -5185688.      -5210328.      -5233138.      -5254076.      -5273379.
      -5290704.      -5306369.      -5320128.      -5332026.      -5342240.
      -5350416.      -5357073.      -5361607.      -5364225.      -5365389.
      -5364397.      -5361790.      -5357256.      -5350734.      -5342627.
      -5332461.      -5320713.      -5307167.      -5291603.      -5274363.
      -5255438.      -5234632.      -5212068.      -5187876.      -5161936.
      -5134318.      -5104851.      -5073870.      -5041150.      -5006705.
      -4970638.      -4932855.      -4893630.      -4852575.      -4809978.
      -4765994.      -4720382.      -4673318.      -4624684.      -4574494.
      -4523031.      -4470200.      -4415696.      -4359843.      -4302852.
      -4244282.      -4183677.      -4120794.      -4057823.      -3995820.
      -3932080.      -3865969.      -3798464.      -3729940.      -3660391.
      -3589642.      -3518080.      -3445426.      -3371563.      -3297013.
      -3221391.      -3144733.      -3067324.      -2989070.      -2910084.
      -2830240.      -2749667.      -2668304.      -2586514.      -2504222.
      -2421204.      -2337073.      -2251175.      -2165526.      -2081108.
      -1996364.      -1910380.      -1823828.      -1737029.      -1649549.
      -1561984.      -1474162.      -1386017.      -1297668.      -1209132.
      -1120691.      -1031880.      -943202.0      -854558.0      -765483.0
      -676861.0      -588241.0      -499338.0      -410858.0      -322522.0
      -234335.0      -146275.0      -58571.00       28766.00       116132.0
       203018.0       289441.0       375678.0       461427.0       546688.0
       631492.0       715894.0       799923.0       883147.0       966007.0
       1048384.       1129890.       1210985.       1291427.       1371156.
       1450342.       1528701.       1606336.       1683241.       1759241.
       1834735.       1909223.       1982765.       2055670.       2127518.
       2198473.       2268486.       2337628.       2405632.       2472893.
       2539114.       2604105.       2668388.       2731326.       2793266.
       2854062.       2913822.       2972454.       3029926.       3086192.
       3141152.       3195289.       3247889.       3299390.       3349725.
       3398621.       3446203.       3492641.       3537838.       3581538.
       3624050.       3664989.       3704871.       3743276.       3780112.
       3815943.       3850102.       3883064.       3914628.       3944603.
       3973372.       4000712.       4026453.       4050960.       4074073.
       4095491.       4115698.       4134149.       4151505.       4167324.
       4181352.       4194437.       4205790.       4215730.       4224208.
       4231347.       4237089.       4241239.       4244182.       4245611.
       4245508.       4244143.       4241366.       4236964.       4231422.
       4224442.       4215744.       4205976.       4194857.       4182201.
       4168173.       4152905.       4136377.       4118222.       4098982.
       4078354.       4056228.       4033109.       4008147.       3981520.
