     0.05000000      -12345.00      -12345.00   3.266710e+09      -12345.00
   0.0005390000       1859.951      -395.0196      -12345.00      -12345.00
      -12345.00      -12345.00      -12345.00      -12345.00      -12345.00
      -12345.00      -12345.00      -12345.00      -12345.00      -12345.00
      -12345.00      -12345.00      -12345.00      -12345.00      -12345.00
      -12345.00      -12345.00      -12345.00      -12345.00      -12345.00
      -12345.00      -9.404700       147.1597       90.00000       0.000000
      -42.72450       173.0647      -12345.00       22.00000      -12345.00
      -12345.00      -12345.00      -12345.00      -12345.00      -12345.00
      -12345.00      -12345.00      -12345.00      -12345.00      -12345.00
       4469.797       318.0964       150.0813       40.19963      -12345.00
      -12345.00      -12345.00       88.00000       90.00000      -12345.00
      -12345.00      -12345.00      -12345.00      -12345.00      -12345.00
      -12345.00      -12345.00      -12345.00      -12345.00      -12345.00
      2016       318        11         9        34
        19         6    -12345    -12345     37200
    -12345    -12345    -12345    -12345    -12345
         1    -12345    -12345    -12345    -12345
    -12345    -12345    -12345    -12345    -12345
    -12345    -12345    -12345    -12345    -12345
    -12345    -12345    -12345    -12345    -12345
         1    -12345    -12345    -12345    -12345
PMG     South Island, Ne
00      -12345  -12345  
-12345  -12345  -12345  
-12345  -12345  -12345  
-12345  -12345  -12345  
-12345  -12345  -12345  
-12345  -12345  BH2     
IU      -12345  Streckei
[...]
       107677.0       114831.0       121735.0       128652.0       135255.0
       141666.0       147998.0       153915.0       159524.0       165132.0
       170351.0       175501.0       180140.0       184671.0       189168.0
       193209.0       197456.0       201075.0       204749.0       208426.0
       211627.0       215664.0       218739.0       221706.0       225355.0
       228048.0       231066.0       233849.0       236240.0       238841.0
       241307.0       243426.0       245608.0       247886.0       249800.0
       251779.0       253773.0       255745.0       257629.0       259520.0
       261494.0       263360.0       265253.0       267346.0       269346.0
       271479.0       273513.0       275660.0       278028.0       280063.0
       282450.0       284414.0       286355.0       288682.0       290625.0
       292672.0       294362.0       296483.0       298787.0       300636.0
       302695.0       304622.0       306838.0       308854.0       310721.0
       312862.0       314919.0       316960.0       318596.0       320417.0
       322310.0       323927.0       325816.0       327137.0       328630.0
       330401.0       331717.0       333532.0       335106.0       336667.0
       338360.0       339968.0       341764.0       343328.0       344938.0
       346616.0       348356.0       349786.0       351102.0       352483.0
       353792.0       354829.0       355592.0       356354.0       356844.0
       357303.0       357658.0       357681.0       357631.0       357523.0
       357109.0       356886.0       356169.0       355292.0       354529.0
       352964.0       351798.0       350294.0       348366.0       346597.0
       344509.0       342398.0       340075.0       337742.0       335270.0
       332561.0       329807.0       326887.0       324015.0       320972.0
       317589.0       314131.0       310595.0       306698.0       302686.0
       298627.0       294067.0       289442.0       284701.0       279683.0
       274526.0       269229.0       263951.0       258556.0       253101.0
       247420.0       241913.0       236449.0       230407.0       224657.0
       218777.0       212470.0       206494.0       200125.0       193459.0
       186875.0       179969.0       172916.0       165703.0       158180.0
       150301.0       142330.0       134120.0       125697.0       117200.0
       108079.0       99109.00       90055.00       80533.00       71119.00
       61487.00       51690.00       41740.00       31551.00       21062.00
       10698.00       142.0000      -10901.00      -21758.00      -32913.00
      -44300.00      -55691.00      -67318.00      -78959.00      -90867.00
      -103053.0      -115221.0      -127793.0      -140750.0      -153723.0
      -167243.0      -181153.0      -195259.0      -209959.0      -224875.0
      -240114.0      -256038.0      -272403.0      -289119.0      -306246.0
      -323845.0      -341836.0      -360344.0      -379170.0      -398372.0
      -418073.0      -437911.0      -458321.0      -478846.0      -499545.0
      -520526.0      -541664.0      -563216.0      -584634.0      -606350.0
      -628094.0      -649861.0      -671936.0      -693977.0      -716066.0
      -738235.0      -760424.0      -782657.0      -805190.0      -827640.0
      -850030.0      -872324.0      -894638.0      -916939.0      -938948.0
      -961030.0      -983044.0      -1004915.      -1026474.      -1047846.
      -1069147.      -1090126.      -1110841.      -1131205.      -1151227.
      -1170951.      -1190192.      -1209033.      -1227523.      -1245632.
      -1263202.      -1280515.      -1297551.      -1313962.      -1330206.
      -1345869.      -1361221.      -1376332.      -1390931.      -1405468.
      -1419403.      -1433237.      -1447001.      -1460163.      -1473192.
      -1485993.      -1498715.      -1511203.      -1523202.      -1535074.
      -1546787.      -1558248.      -1569435.      -1580243.      -1590776.
      -1601222.      -1611408.      -1621276.      -1631029.      -1640543.
      -1649888.      -1659106.      -1668010.      -1676737.      -1685281.
      -1693435.      -1701532.      -1709479.      -1716921.      -1724146.
      -1731222.      -1738265.      -1744960.      -1751450.      -1757874.
      -1764140.      -1770461.      -1776476.      -1782508.      -1788337.
      -1793988.      -1799815.      -1805464.      -1810852.      -1816291.
      -1821919.      -1827160.      -1832434.      -1837790.      -1842900.
      -1847943.      -1852948.      -1858028.      -1862920.      -1867813.
      -1872611.      -1877410.      -1882340.      -1887067.      -1891727.
      -1896602.      -1901489.      -1906158.      -1911098.      -1915806.
      -1920316.      -1925199.      -1929819.      -1934513.      -1939430.
      -1944028.      -1948925.      -1953899.      -1958411.      -1963140.
      -1968087.      -1972793.      -1977454.      -1982183.      -1987028.
      -1991739.      -1996313.      -2001220.      -2006036.      -2010717.
      -2015488.      -2020425.      -2025326.      -2030215.      -2035098.
      -2040098.      -2045559.      -2050523.      -2055582.      -2060976.
      -2066171.      -2071562.      -2076720.      -2081980.      -2087366.
      -2092456.      -2097825.      -2103179.      -2108167.      -2113384.
      -2118545.      -2123691.      -2128852.      -2133685.      -2138632.
      -2143450.      -2147969.      -2152696.      -2157384.      -2161721.
      -2166066.      -2170363.      -2174756.      -2178968.      -2183060.
      -2187210.      -2191400.      -2195570.      -2199433.      -2203643.
      -2207474.      -2211203.      -2215224.      -2218928.      -2222756.
      -2226531.      -2230016.      -2233457.      -2237037.      -2240307.
      -2243278.      -2246186.      -2248959.      -2251538.      -2253887.
      -2255932.      -2257659.      -2259375.      -2260626.      -2261636.
      -2262515.      -2262795.      -2263105.      -2262804.      -2262047.
      -2261549.      -2260415.      -2258911.      -2257461.      -2255698.
      -2253668.      -2251439.      -2249028.      -2246551.      -2243661.
      -2240811.      -2237885.      -2234454.      -2231224.      -2227660.
      -2223772.      -2219911.      -2215719.      -2211284.      -2206733.
      -2201823.      -2196683.      -2191270.      -2185454.      -2179835.
      -2173638.      -2167132.      -2160744.      -2153871.      -2146838.
      -2139719.      -2132496.      -2124985.      -2117180.      -2109407.
      -2101652.      -2093466.      -2085278.      -2077195.      -2068900.
      -2060550.      -2051878.      -2043266.      -2034582.      -2025651.
      -2016852.      -2007655.      -1998232.      -1988892.      -1979325.
      -1969420.      -1959329.      -1949262.      -1938948.      -1928560.
      -1917908.      -1907269.      -1896772.      -1885657.      -1874746.
      -1863854.      -1852707.      -1841572.      -1829976.      -1818548.
      -1807018.      -1795179.      -1783538.      -1771442.      -1759340.
      -1747428.      -1735256.      -1723239.      -1711057.      -1699000.
      -1687082.      -1674947.      -1662944.      -1650960.      -1638986.
      -1626903.      -1614937.      -1603018.      -1590835.      -1578769.
      -1566697.      -1554744.      -1542955.      -1531109.      -1519370.
      -1507798.      -1496415.      -1485109.      -1474057.      -1463084.
      -1452337.      -1441919.      -1431581.      -1421440.      -1411450.
      -1401939.      -1392518.      -1383273.      -1374585.      -1365866.
      -1357513.      -1349434.      -1341639.      -1334185.      -1326572.
      -1319614.      -1312860.      -1306049.      -1299525.      -1293248.
      -1287277.      -1281450.      -1275816.      -1270231.      -1265077.
      -1260048.      -1255173.      -1250606.      -1246078.      -1241940.
      -1237883.      -1234107.      -1230728.      -1227177.      -1224024.
      -1221122.      -1218265.      -1215767.      -1213213.      -1210850.
      -1208734.      -1206672.      -1204602.      -1202703.      -1200775.
      -1198832.      -1197191.      -1195280.      -1193598.      -1191874.
      -1190147.      -1188615.      -1186671.      -1185290.      -1183572.
      -1181587.      -1180042.      -1178044.      -1176152.      -1174273.
      -1172161.      -1170039.      -1167699.      -1165287.      -1162984.
      -1160371.      -1157673.      -1155003.      -1152095.      -1149078.
      -1145847.      -1142662.      -1139279.      -1135514.      -1131643.
      -1127737.      -1123531.      -1119128.      -1114550.      -1109481.
      -1104363.      -1099123.      -1093418.      -1087408.      -1081203.
      -1074530.      -1067576.      -1060349.      -1052815.      -1045004.
      -1036446.      -1027828.      -1018974.      -1009486.      -999750.0
      -989360.0      -978836.0      -967902.0      -956407.0      -944678.0
      -932111.0      -919318.0      -906164.0      -892479.0      -878278.0
      -863450.0      -848411.0      -832523.0      -816400.0      -800044.0
      -782668.0      -765311.0      -747308.0      -728516.0      -709782.0
      -690369.0      -670372.0      -649934.0      -629072.0      -607828.0
      -586081.0      -563904.0      -541027.0      -517964.0      -494659.0
      -470623.0      -446411.0      -421885.0      -396870.0      -371634.0
      -346101.0      -320193.0      -294132.0      -267839.0      -241320.0
      -214587.0      -187551.0      -160513.0      -133054.0      -105400.0
      -77737.00      -49732.00      -21666.00       6501.000       34943.00
       63395.00       91951.00       120755.0       149536.0       178551.0
       207616.0       236696.0       265773.0       294916.0       324307.0
       353649.0       382896.0       412176.0       441814.0       471262.0
       500580.0       530212.0       559823.0       589417.0       619152.0
       648875.0       678467.0       708428.0       738333.0       768116.0
       798217.0       828224.0       858361.0       888454.0       918572.0
       948782.0       978849.0       1009069.       1039139.       1069262.
       1099343.       1129426.       1159507.       1189504.       1219592.
       1249499.       1279420.       1309172.       1338959.       1368726.
       1398374.       1427986.       1457401.       1486669.       1516149.
       1545407.       1574236.       1603401.       1632165.       1660811.
       1689581.       1718082.       1746605.       1774991.       1803353.
       1831679.       1859786.       1887967.       1916202.       1944196.
       1972277.       2000230.       2028073.       2055952.       2083716.
       2111501.       2139131.       2166623.       2194184.       2221603.
       2248652.       2275974.       2303074.       2329617.       2356542.
       2383116.       2409395.       2435856.       2461893.       2487827.
       2513557.       2539237.       2564800.       2589926.       2615179.
       2640187.       2665026.       2689890.       2714626.       2739169.
       2763732.       2788294.       2812587.       2836913.       2861084.
       2885413.       2909579.       2933513.       2957452.       2981265.
       3005165.       3028902.       3052452.       3075876.       3099253.
       3122408.       3145549.       3168504.       3191291.       3214055.
       3236638.       3259075.       3281179.       3303432.       3325323.
       3347039.       3368808.       3390169.       3411504.       3432650.
       3453815.       3474679.       3495483.       3516474.       3537002.
       3557578.       3578069.       3598311.       3618688.       3638977.
       3659039.       3679014.       3698966.       3718876.       3738885.
       3758503.       3778059.       3797872.       3817264.       3836767.
       3856223.       3875454.       3894716.       3913831.       3932980.
       3951914.       3970414.       3988917.       4007485.       4025543.
       4043329.       4060974.       4078241.       4095433.       4112323.
       4128742.       4144957.       4160871.       4176563.       4191808.
       4206727.       4221519.       4235643.       4249662.       4263344.
       4276566.       4289666.       4302251.       4314514.       4326437.
       4338118.       4349430.       4360549.       4371231.       4381615.
       4391824.       4401479.       4411088.       4420378.       4429238.
       4437681.       4445827.       4453755.       4461235.       4468434.
       4475370.       4481692.       4487697.       4493668.       4498936.
       4503992.       4508773.       4512974.       4517106.       4520808.
       4524202.       4527101.       4529715.       4532116.       4533890.
       4535446.       4536475.       4536944.       4537070.       4536940.
       4536142.       4534908.       4533436.       4531188.       4528748.
       4525860.       4522420.       4518533.       4514026.       4509050.
       4503681.       4497917.       4491385.       4484318.       4476629.
       4468483.       4459749.       4450385.       4440430.       4429505.
       4418347.       4406514.       4393884.       4380464.       4366296.
       4351884.       4336614.       4320728.       4304290.       4287103.
       4269567.       4251460.       4232668.       4213457.       4193521.
       4173134.       4152327.       4130709.       4109027.       4086678.
       4063401.       4040192.       4016420.       3991953.       3967240.
       3942140.       3916461.       3890416.       3864089.       3837266.
       3810039.       3782440.       3754609.       3726347.       3697765.
       3668931.       3639537.       3609755.       3579897.       3549718.
       3519111.       3488307.       3457292.       3426271.       3394781.
       3363087.       3331473.       3299424.       3267356.       3235185.
       3202888.       3170393.       3137765.       3105021.       3072123.
       3039520.       3006596.       2973339.       2940243.       2907026.
       2873644.       2840297.       2806616.       2773000.       2739231.
       2705198.       2671436.       2637182.       2603048.       2568816.
       2534252.       2499786.       2465126.       2430498.       2395693.
       2360811.       2325812.       2290863.       2255693.       2220469.
       2185322.       2149730.       2114215.       2078677.       2042831.
       2006955.       1971255.       1935073.       1898945.       1862898.
       1826571.       1790341.       1753777.       1717463.       1680917.
       1644230.       1607602.       1570572.       1533686.       1496727.
       1459476.       1422006.       1384652.       1347122.       1309342.
       1271596.       1233435.       1195349.       1157375.       1118971.
       1080840.       1042497.       1003887.       965529.0       926828.0
       888488.0       849814.0       810945.0       772655.0       733828.0
       695115.0       656371.0       617402.0       578638.0       539648.0
       500503.0       461257.0       422116.0       382669.0       343327.0
       303889.0       263998.0       224415.0       184456.0       144364.0
       104233.0       63967.00       23554.00      -16941.00      -57371.00
      -98183.00      -138754.0      -179377.0      -220197.0      -260597.0
      -301262.0      -342005.0      -382512.0      -423091.0      -463472.0
      -504009.0      -544380.0      -584759.0      -625213.0      -665332.0
      -705604.0      -745750.0      -785888.0      -825785.0      -865533.0
      -905477.0      -945065.0      -984645.0      -1024215.      -1063400.
      -1102631.      -1141711.      -1180665.      -1219441.      -1257641.
      -1295973.      -1334165.      -1371826.      -1409345.      -1446598.
      -1483431.      -1520131.      -1556666.      -1592504.      -1628102.
      -1663490.      -1698391.      -1732930.      -1767003.      -1800896.
      -1834275.      -1866978.      -1899564.      -1931773.      -1963174.
      -1994393.      -2025247.      -2055533.      -2085611.      -2115003.
      -2144041.      -2172689.      -2200799.      -2228512.      -2255784.
      -2282698.      -2308946.      -2334966.      -2360543.      -2385414.
      -2409864.      -2433974.      -2457670.      -2480418.      -2502787.
      -2524811.      -2546216.      -2567013.      -2587139.      -2606876.
      -2625941.      -2644612.      -2662636.      -2679961.      -2697033.
      -2713377.      -2729108.      -2744422.      -2759341.      -2773688.
      -2787458.      -2800725.      -2813389.      -2825876.      -2837737.
      -2849080.      -2860230.      -2870699.      -2880874.      -2890703.
      -2900071.      -2908935.      -2917380.      -2925750.      -2933520.
      -2940836.      -2947804.      -2954394.      -2960687.      -2966393.
      -2971959.      -2977057.      -2981629.      -2985987.      -2989768.
      -2993246.      -2996224.      -2998660.      -3000899.      -3002660.
      -3003904.      -3004846.      -3005293.      -3005222.      -3004935.
      -3004168.      -3003042.      -3001656.      -2999751.      -2997505.
      -2995066.      -2992249.      -2988986.      -2985614.      -2981785.
      -2977736.      -2973514.      -2968740.      -2963997.      -2958896.
      -2953472.      -2947930.      -2941854.      -2935709.      -2929344.
      -2922687.      -2915804.      -2908455.      -2901128.      -2893368.
      -2885323.      -2877125.      -2868469.      -2859749.      -2850610.
      -2841325.      -2831746.      -2821979.      -2812159.      -2801821.
      -2791472.      -2780936.      -2770139.      -2759167.      -2748038.
      -2736758.      -2725184.      -2713516.      -2701546.      -2689422.
      -2677162.      -2664644.      -2652205.      -2639409.      -2626562.
      -2613843.      -2600570.      -2587326.      -2573982.      -2560452.
      -2546750.      -2532853.      -2519135.      -2504797.      -2490388.
      -2476104.      -2461233.      -2446440.      -2431507.      -2416243.
      -2400970.      -2385330.      -2369555.      -2353650.      -2337734.
      -2321685.      -2305127.      -2288637.      -2272011.      -2255083.
      -2238162.      -2221039.      -2203617.      -2186254.      -2168870.
