     0.02500000      -12345.00      -12345.00   2.543420e+09      -12345.00
   0.0005360000       1859.976      -569.0195      -12345.00      -12345.00
      -12345.00      -12345.00      -12345.00      -12345.00      -12345.00
      -12345.00      -12345.00      -12345.00      -12345.00      -12345.00
      -12345.00      -12345.00      -12345.00      -12345.00      -12345.00
      -12345.00      -12345.00      -12345.00      -12345.00      -12345.00
      -12345.00      -64.77440      -64.04890       40.00000       0.000000
      -42.72450       173.0647      -12345.00       22.00000      -12345.00
      -12345.00      -12345.00      -12345.00      -12345.00      -12345.00
      -12345.00      -12345.00      -12345.00      -12345.00      -12345.00
       7109.332       156.3851       223.5385       63.93859      -12345.00
      -12345.00      -12345.00       90.00000       90.00000      -12345.00
      -12345.00      -12345.00      -12345.00      -12345.00      -12345.00
      -12345.00      -12345.00      -12345.00      -12345.00      -12345.00
      2016       318        11        12        28
        19         6    -12345    -12345     74400
    -12345    -12345    -12345    -12345    -12345
         1    -12345    -12345    -12345    -12345
    -12345    -12345    -12345    -12345    -12345
    -12345    -12345    -12345    -12345    -12345
    -12345    -12345    -12345    -12345    -12345
         1    -12345    -12345    -12345    -12345
PMSA    South Island, Ne
10      -12345  -12345  
-12345  -12345  -12345  
-12345  -12345  -12345  
-12345  -12345  -12345  
-12345  -12345  -12345  
-12345  -12345  BH2     
IU      -12345  Streckei
[...]
       295025.0       294485.0       293964.0       293445.0       292932.0
       292441.0       291956.0       291454.0       290940.0       290439.0
       289936.0       289447.0       288990.0       288528.0       288050.0
       287590.0       287148.0       286672.0       286201.0       285758.0
       285308.0       284851.0       284396.0       283962.0       283550.0
       283126.0       282668.0       282194.0       281708.0       281236.0
       280792.0       280343.0       279905.0       279470.0       279027.0
       278599.0       278175.0       277750.0       277343.0       276946.0
       276582.0       276211.0       275817.0       275438.0       275046.0
       274678.0       274312.0       273940.0       273605.0       273253.0
       272892.0       272542.0       272215.0       271903.0       271582.0
       271261.0       270930.0       270617.0       270311.0       269997.0
       269690.0       269371.0       269059.0       268734.0       268401.0
       268081.0       267739.0       267386.0       267045.0       266725.0
       266399.0       266063.0       265718.0       265340.0       264967.0
       264586.0       264181.0       263783.0       263391.0       262998.0
       262607.0       262209.0       261792.0       261359.0       260908.0
       260475.0       260042.0       259556.0       259079.0       258597.0
       258082.0       257563.0       257021.0       256487.0       255955.0
       255387.0       254815.0       254237.0       253630.0       253019.0
       252404.0       251760.0       251114.0       250467.0       249800.0
       249128.0       248452.0       247766.0       247056.0       246339.0
       245627.0       244886.0       244129.0       243364.0       242577.0
       241781.0       240965.0       240134.0       239302.0       238446.0
       237601.0       236749.0       235871.0       235018.0       234135.0
       233231.0       232340.0       231409.0       230474.0       229561.0
       228630.0       227699.0       226760.0       225789.0       224831.0
       223842.0       222809.0       221804.0       220783.0       219762.0
       218734.0       217659.0       216601.0       215553.0       214479.0
       213414.0       212362.0       211279.0       210180.0       209065.0
       207929.0       206789.0       205677.0       204603.0       203493.0
       202338.0       201152.0       199965.0       198799.0       197617.0
       196415.0       195198.0       193979.0       192744.0       191479.0
       190209.0       188949.0       187692.0       186429.0       185156.0
       183862.0       182545.0       181232.0       179928.0       178619.0
       177306.0       175972.0       174631.0       173301.0       171931.0
       170537.0       169146.0       167754.0       166367.0       164958.0
       163535.0       162116.0       160713.0       159314.0       157888.0
       156474.0       155052.0       153614.0       152202.0       150783.0
       149352.0       147909.0       146467.0       145031.0       143603.0
       142204.0       140792.0       139348.0       137900.0       136477.0
       135053.0       133626.0       132201.0       130761.0       129338.0
       127939.0       126560.0       125169.0       123743.0       122302.0
       120876.0       119472.0       118063.0       116653.0       115262.0
       113877.0       112483.0       111099.0       109714.0       108321.0
       106964.0       105621.0       104278.0       102944.0       101610.0
       100272.0       98941.00       97620.00       96322.00       95057.00
       93764.00       92446.00       91146.00       89847.00       88580.00
       87334.00       86056.00       84754.00       83464.00       82166.00
       80872.00       79623.00       78361.00       77095.00       75830.00
       74536.00       73244.00       71957.00       70688.00       69428.00
       68158.00       66887.00       65612.00       64335.00       63053.00
       61764.00       60467.00       59184.00       57904.00       56644.00
       55421.00       54176.00       52902.00       51628.00       50380.00
       49147.00       47895.00       46655.00       45425.00       44182.00
       42975.00       41801.00       40589.00       39349.00       38102.00
       36882.00       35686.00       34467.00       33238.00       31988.00
       30744.00       29531.00       28317.00       27083.00       25834.00
       24573.00       23293.00       22020.00       20741.00       19459.00
       18188.00       16906.00       15634.00       14375.00       13138.00
       11874.00       10590.00       9302.000       7966.000       6661.000
       5377.000       4109.000       2853.000       1559.000       283.0000
      -1002.000      -2292.000      -3560.000      -4855.000      -6127.000
      -7381.000      -8669.000      -9938.000      -11189.00      -12442.00
      -13682.00      -14915.00      -16137.00      -17363.00      -18575.00
      -19775.00      -20992.00      -22194.00      -23390.00      -24599.00
      -25782.00      -26954.00      -28112.00      -29246.00      -30383.00
      -31511.00      -32657.00      -33804.00      -34915.00      -36005.00
      -37131.00      -38281.00      -39404.00      -40511.00      -41579.00
      -42633.00      -43715.00      -44789.00      -45843.00      -46874.00
      -47890.00      -48910.00      -49940.00      -50953.00      -51939.00
      -52941.00      -53961.00      -54947.00      -55918.00      -56898.00
      -57835.00      -58763.00      -59719.00      -60679.00      -61614.00
      -62521.00      -63437.00      -64352.00      -65277.00      -66215.00
      -67127.00      -68032.00      -68930.00      -69801.00      -70677.00
      -71575.00      -72488.00      -73384.00      -74242.00      -75120.00
      -75999.00      -76852.00      -77716.00      -78566.00      -79427.00
      -80324.00      -81226.00      -82118.00      -82983.00      -83837.00
      -84675.00      -85547.00      -86460.00      -87358.00      -88269.00
      -89153.00      -90013.00      -90884.00      -91712.00      -92530.00
      -93356.00      -94166.00      -94982.00      -95798.00      -96594.00
      -97365.00      -98131.00      -98892.00      -99637.00      -100423.0
      -101206.0      -101934.0      -102671.0      -103414.0      -104172.0
      -104909.0      -105615.0      -106332.0      -107019.0      -107736.0
      -108493.0      -109251.0      -110008.0      -110728.0      -111455.0
      -112197.0      -112945.0      -113704.0      -114466.0      -115216.0
      -115954.0      -116687.0      -117405.0      -118160.0      -118943.0
      -119717.0      -120487.0      -121252.0      -122024.0      -122797.0
      -123595.0      -124412.0      -125227.0      -126041.0      -126822.0
      -127594.0      -128407.0      -129226.0      -130034.0      -130850.0
      -131631.0      -132425.0      -133272.0      -134099.0      -134923.0
      -135763.0      -136584.0      -137401.0      -138196.0      -138976.0
      -139782.0      -140584.0      -141400.0      -142238.0      -143063.0
      -143890.0      -144714.0      -145548.0      -146390.0      -147224.0
      -148051.0      -148899.0      -149774.0      -150629.0      -151481.0
      -152357.0      -153221.0      -154064.0      -154921.0      -155807.0
      -156700.0      -157619.0      -158578.0      -159517.0      -160446.0
      -161383.0      -162322.0      -163296.0      -164260.0      -165233.0
      -166253.0      -167235.0      -168199.0      -169218.0      -170239.0
      -171257.0      -172293.0      -173304.0      -174299.0      -175337.0
      -176403.0      -177441.0      -178495.0      -179562.0      -180593.0
      -181635.0      -182710.0      -183782.0      -184856.0      -185961.0
      -187067.0      -188160.0      -189245.0      -190309.0      -191373.0
      -192433.0      -193500.0      -194590.0      -195691.0      -196793.0
      -197896.0      -199019.0      -200132.0      -201241.0      -202357.0
      -203432.0      -204514.0      -205653.0      -206801.0      -207952.0
      -209138.0      -210315.0      -211486.0      -212666.0      -213819.0
      -214982.0      -216172.0      -217368.0      -218593.0      -219819.0
      -221025.0      -222228.0      -223422.0      -224622.0      -225851.0
      -227076.0      -228286.0      -229534.0      -230770.0      -231969.0
      -233199.0      -234450.0      -235690.0      -236929.0      -238165.0
      -239393.0      -240619.0      -241838.0      -243070.0      -244320.0
      -245566.0      -246795.0      -248020.0      -249297.0      -250574.0
      -251806.0      -253049.0      -254274.0      -255507.0      -256780.0
      -258008.0      -259244.0      -260518.0      -261758.0      -262998.0
      -264243.0      -265457.0      -266664.0      -267883.0      -269096.0
      -270321.0      -271545.0      -272724.0      -273926.0      -275152.0
      -276369.0      -277629.0      -278859.0      -280071.0      -281315.0
      -282547.0      -283792.0      -285004.0      -286190.0      -287399.0
      -288600.0      -289829.0      -291099.0      -292366.0      -293622.0
      -294843.0      -296059.0      -297331.0      -298589.0      -299825.0
      -301080.0      -302321.0      -303563.0      -304817.0      -306069.0
      -307292.0      -308503.0      -309688.0      -310872.0      -312109.0
      -313334.0      -314570.0      -315808.0      -317027.0      -318278.0
      -319532.0      -320747.0      -321961.0      -323189.0      -324377.0
      -325591.0      -326830.0      -328002.0      -329204.0      -330421.0
      -331606.0      -332836.0      -334071.0      -335293.0      -336487.0
      -337626.0      -338749.0      -339894.0      -341060.0      -342202.0
      -343333.0      -344477.0      -345617.0      -346759.0      -347885.0
      -348945.0      -349996.0      -351106.0      -352246.0      -353399.0
      -354538.0      -355607.0      -356644.0      -357724.0      -358809.0
      -359887.0      -360966.0      -362009.0      -363055.0      -364113.0
      -365148.0      -366204.0      -367293.0      -368353.0      -369395.0
      -370442.0      -371479.0      -372537.0      -373610.0      -374644.0
      -375667.0      -376689.0      -377699.0      -378736.0      -379736.0
      -380705.0      -381725.0      -382766.0      -383798.0      -384832.0
      -385862.0      -386864.0      -387856.0      -388843.0      -389800.0
      -390754.0      -391739.0      -392715.0      -393668.0      -394637.0
      -395589.0      -396551.0      -397536.0      -398473.0      -399412.0
      -400344.0      -401257.0      -402232.0      -403193.0      -404090.0
      -405000.0      -405902.0      -406794.0      -407710.0      -408600.0
      -409479.0      -410386.0      -411275.0      -412118.0      -412949.0
      -413789.0      -414635.0      -415506.0      -416386.0      -417275.0
      -418186.0      -419043.0      -419879.0      -420751.0      -421623.0
      -422492.0      -423340.0      -424190.0      -425056.0      -425932.0
      -426807.0      -427652.0      -428512.0      -429377.0      -430217.0
      -431078.0      -431958.0      -432809.0      -433634.0      -434429.0
      -435223.0      -436042.0      -436862.0      -437671.0      -438456.0
      -439216.0      -439975.0      -440758.0      -441542.0      -442289.0
      -443005.0      -443707.0      -444400.0      -445065.0      -445722.0
      -446384.0      -447060.0      -447723.0      -448302.0      -448879.0
      -449486.0      -450094.0      -450736.0      -451363.0      -451962.0
      -452549.0      -453105.0      -453658.0      -454258.0      -454868.0
      -455440.0      -456004.0      -456548.0      -457092.0      -457678.0
      -458254.0      -458809.0      -459357.0      -459882.0      -460395.0
      -460923.0      -461465.0      -462025.0      -462592.0      -463149.0
      -463689.0      -464200.0      -464725.0      -465226.0      -465701.0
      -466198.0      -466654.0      -467106.0      -467555.0      -467981.0
      -468442.0      -468900.0      -469329.0      -469747.0      -470150.0
      -470564.0      -470988.0      -471375.0      -471742.0      -472100.0
      -472462.0      -472841.0      -473191.0      -473542.0      -473907.0
      -474253.0      -474576.0      -474887.0      -475223.0      -475575.0
      -475920.0      -476252.0      -476563.0      -476828.0      -477072.0
      -477351.0      -477636.0      -477916.0      -478174.0      -478408.0
      -478662.0      -478918.0      -479164.0      -479417.0      -479638.0
      -479819.0      -480007.0      -480186.0      -480374.0      -480563.0
      -480720.0      -480872.0      -480998.0      -481115.0      -481220.0
      -481323.0      -481435.0      -481507.0      -481576.0      -481619.0
      -481635.0      -481694.0      -481735.0      -481744.0      -481774.0
      -481784.0      -481769.0      -481771.0      -481761.0      -481723.0
      -481655.0      -481567.0      -481503.0      -481419.0      -481303.0
      -481183.0      -481024.0      -480861.0      -480697.0      -480488.0
      -480269.0      -480045.0      -479800.0      -479544.0      -479272.0
      -478972.0      -478658.0      -478322.0      -477989.0      -477687.0
      -477364.0      -477057.0      -476787.0      -476485.0      -476153.0
      -475782.0      -475395.0      -475004.0      -474574.0      -474167.0
      -473756.0      -473302.0      -472876.0      -472467.0      -472062.0
      -471648.0      -471198.0      -470738.0      -470283.0      -469840.0
      -469399.0      -468964.0      -468531.0      -468087.0      -467646.0
      -467211.0      -466781.0      -466316.0      -465804.0      -465299.0
      -464789.0      -464280.0      -463760.0      -463203.0      -462678.0
      -462157.0      -461596.0      -461054.0      -460490.0      -459908.0
      -459352.0      -458773.0      -458175.0      -457574.0      -456968.0
      -456368.0      -455735.0      -455091.0      -454485.0      -453872.0
      -453241.0      -452614.0      -451973.0      -451342.0      -450684.0
      -450001.0      -449337.0      -448653.0      -447967.0      -447281.0
      -446597.0      -445933.0      -445245.0      -444553.0      -443866.0
      -443138.0      -442399.0      -441659.0      -440941.0      -440263.0
      -439545.0      -438817.0      -438113.0      -437359.0      -436602.0
      -435856.0      -435077.0      -434311.0      -433564.0      -432811.0
      -432058.0      -431290.0      -430530.0      -429758.0      -428935.0
      -428120.0      -427309.0      -426502.0      -425732.0      -424957.0
      -424189.0      -423424.0      -422623.0      -421850.0      -421048.0
      -420167.0      -419331.0      -418520.0      -417695.0      -416908.0
      -416109.0      -415266.0      -414435.0      -413603.0      -412758.0
      -411929.0      -411086.0      -410247.0      -409429.0      -408582.0
      -407729.0      -406877.0      -406031.0      -405202.0      -404338.0
      -403449.0      -402555.0      -401658.0      -400800.0      -399939.0
      -399052.0      -398173.0      -397275.0      -396394.0      -395504.0
      -394537.0      -393589.0      -392676.0      -391741.0      -390810.0
      -389886.0      -388955.0      -388036.0      -387133.0      -386187.0
      -385228.0      -384279.0      -383299.0      -382342.0      -381402.0
      -380449.0      -379509.0      -378539.0      -377566.0      -376611.0
      -375630.0      -374663.0      -373692.0      -372701.0      -371762.0
      -370817.0      -369831.0      -368894.0      -367979.0      -367017.0
      -366054.0      -365108.0      -364168.0      -363244.0      -362323.0
      -361408.0      -360502.0      -359593.0      -358686.0      -357762.0
      -356845.0      -355957.0      -355049.0      -354154.0      -353307.0
      -352421.0      -351497.0      -350625.0      -349780.0      -348940.0
      -348122.0      -347290.0      -346444.0      -345589.0      -344736.0
      -343935.0      -343159.0      -342384.0      -341608.0      -340812.0
      -340036.0      -339275.0      -338485.0      -337697.0      -336937.0
      -336166.0      -335397.0      -334658.0      -333934.0      -333238.0
      -332536.0      -331805.0      -331097.0      -330398.0      -329705.0
      -329014.0      -328301.0      -327577.0      -326849.0      -326119.0
      -325401.0      -324722.0      -324060.0      -323394.0      -322733.0
      -322056.0      -321372.0      -320690.0      -320012.0      -319340.0
      -318660.0      -317992.0      -317357.0      -316715.0      -316075.0
      -315440.0      -314779.0      -314135.0      -313493.0      -312838.0
      -312194.0      -311538.0      -310887.0      -310220.0      -309537.0
      -308867.0      -308170.0      -307445.0      -306723.0      -306025.0
      -305320.0      -304614.0      -303941.0      -303252.0      -302560.0
      -301870.0      -301136.0      -300385.0      -299634.0      -298866.0
      -298096.0      -297346.0      -296615.0      -295881.0      -295102.0
      -294286.0      -293481.0      -292680.0      -291839.0      -290992.0
      -290173.0      -289308.0      -288439.0      -287609.0      -286757.0
      -285904.0      -285056.0      -284173.0      -283240.0      -282309.0
      -281410.0      -280487.0      -279560.0      -278635.0      -277675.0
      -276719.0      -275772.0      -274789.0      -273832.0      -272906.0
      -271944.0      -270954.0      -269930.0      -268903.0      -267896.0
      -266881.0      -265879.0      -264875.0      -263849.0      -262837.0
      -261825.0      -260782.0      -259724.0      -258652.0      -257579.0
      -256489.0      -255416.0      -254380.0      -253319.0      -252261.0
      -251172.0      -250040.0      -248932.0      -247796.0      -246668.0
      -245571.0      -244437.0      -243325.0      -242214.0      -241058.0
      -239918.0      -238761.0      -237575.0      -236406.0      -235223.0
      -234039.0      -232875.0      -231691.0      -230491.0      -229310.0
      -228142.0      -226947.0      -225758.0      -224601.0      -223421.0
      -222236.0      -221046.0      -219837.0      -218653.0      -217489.0
      -216317.0      -215160.0      -213997.0      -212794.0      -211603.0
      -210444.0      -209296.0      -208144.0      -206983.0      -205835.0
