     0.02500000      -12345.00      -12345.00   1.983070e+09      -12345.00
   0.0005390000       1859.976      -467.0196      -12345.00      -12345.00
      -12345.00      -12345.00      -12345.00      -12345.00      -12345.00
      -12345.00      -12345.00      -12345.00      -12345.00      -12345.00
      -12345.00      -12345.00      -12345.00      -12345.00      -12345.00
      -12345.00      -12345.00      -12345.00      -12345.00      -12345.00
      -12345.00      -25.07130      -130.0953       218.0000       2.000000
      -42.72450       173.0647      -12345.00       22.00000      -12345.00
      -12345.00      -12345.00      -12345.00      -12345.00      -12345.00
      -12345.00      -12345.00      -12345.00      -12345.00      -12345.00
       5495.869       88.12969       234.3050       49.42772      -12345.00
      -12345.00      -12345.00       0.000000       0.000000      -12345.00
      -12345.00      -12345.00      -12345.00      -12345.00      -12345.00
      -12345.00      -12345.00      -12345.00      -12345.00      -12345.00
      2016       318        11        10        46
        19         6    -12345    -12345     74400
    -12345    -12345    -12345    -12345    -12345
         1    -12345    -12345    -12345    -12345
    -12345    -12345    -12345    -12345    -12345
    -12345    -12345    -12345    -12345    -12345
    -12345    -12345    -12345    -12345    -12345
         1    -12345    -12345    -12345    -12345
PTCN    South Island, Ne
10      -12345  -12345  
-12345  -12345  -12345  
-12345  -12345  -12345  
-12345  -12345  -12345  
-12345  -12345  -12345  
-12345  -12345  BHZ     
IU      -12345  Trillium
[...]
      -41515.00      -48107.00      -55352.00      -58971.00      -67050.00
      -76227.00      -83470.00      -90320.00      -94696.00      -100683.0
      -109129.0      -116046.0      -121038.0      -128776.0      -137364.0
      -143177.0      -150182.0      -157304.0      -162230.0      -168662.0
      -176185.0      -182771.0      -190367.0      -197706.0      -203908.0
      -209465.0      -214995.0      -220688.0      -228279.0      -238891.0
      -244596.0      -248499.0      -256628.0      -263438.0      -269866.0
      -276332.0      -282906.0      -289748.0      -296290.0      -303555.0
      -308919.0      -315117.0      -322508.0      -329664.0      -336297.0
      -341638.0      -349256.0      -356567.0      -362695.0      -370210.0
      -377539.0      -383106.0      -387839.0      -395036.0      -401112.0
      -406519.0      -415242.0      -422189.0      -426989.0      -433129.0
      -442661.0      -446213.0      -443626.0      -456817.0      -468673.0
      -465764.0      -474070.0      -483532.0      -484471.0      -492226.0
      -500080.0      -503708.0      -511979.0      -519399.0      -520652.0
      -525577.0      -536230.0      -542902.0      -544437.0      -551599.0
      -558121.0      -556366.0      -565500.0      -575414.0      -571824.0
      -578357.0      -590654.0      -592442.0      -593709.0      -603004.0
      -609691.0      -610857.0      -619631.0      -624063.0      -623406.0
      -633510.0      -640557.0      -641618.0      -647914.0      -652675.0
      -657551.0      -664111.0      -665364.0      -670157.0      -676526.0
      -680616.0      -686708.0      -687869.0      -690087.0      -698265.0
      -702053.0      -702850.0      -711779.0      -716976.0      -711849.0
      -718147.0      -725499.0      -726810.0      -734575.0      -735006.0
      -733811.0      -740513.0      -744468.0      -747037.0      -752155.0
      -755016.0      -754324.0      -758083.0      -762001.0      -763112.0
      -765832.0      -766532.0      -769324.0      -772493.0      -775190.0
      -780246.0      -781098.0      -782262.0      -783811.0      -785569.0
      -789086.0      -787827.0      -791317.0      -795076.0      -792895.0
      -795218.0      -796732.0      -798924.0      -801993.0      -802174.0
      -805367.0      -807215.0      -806039.0      -804919.0      -807034.0
      -813169.0      -812995.0      -810365.0      -814110.0      -815595.0
      -814239.0      -815860.0      -816143.0      -817278.0      -819530.0
      -816564.0      -817065.0      -820606.0      -819856.0      -819068.0
      -818826.0      -821109.0      -821887.0      -818437.0      -818712.0
      -821463.0      -821735.0      -821387.0      -822254.0      -820880.0
      -818870.0      -818110.0      -817079.0      -819091.0      -819668.0
      -817888.0      -817583.0      -814905.0      -813547.0      -814562.0
      -813580.0      -810893.0      -808146.0      -808640.0      -807678.0
      -803647.0      -801902.0      -800736.0      -798791.0      -795481.0
      -791848.0      -790181.0      -788865.0      -786205.0      -782393.0
      -778426.0      -775952.0      -774313.0      -772519.0      -772128.0
      -768993.0      -763599.0      -760772.0      -758172.0      -755106.0
      -751939.0      -749052.0      -746373.0      -742739.0      -736906.0
      -731433.0      -727829.0      -723432.0      -720218.0      -715746.0
      -710640.0      -707951.0      -702887.0      -697421.0      -693557.0
      -688598.0      -683376.0      -678851.0      -674672.0      -670187.0
      -665650.0      -661335.0      -656733.0      -650610.0      -644696.0
      -639088.0      -632234.0      -628531.0      -624718.0      -620233.0
      -615513.0      -605592.0      -599133.0      -594779.0      -590136.0
      -587254.0      -579802.0      -574101.0      -568837.0      -560975.0
      -556285.0      -551231.0      -544638.0      -538278.0      -532733.0
      -527237.0      -520916.0      -514385.0      -507313.0      -501265.0
      -495120.0      -487304.0      -481497.0      -476613.0      -469834.0
      -463070.0      -456141.0      -447540.0      -438182.0      -432938.0
      -429066.0      -420958.0      -413035.0      -405580.0      -399068.0
      -393198.0      -384502.0      -377616.0      -371509.0      -363488.0
      -356160.0      -347371.0      -338666.0      -333165.0      -326574.0
      -317982.0      -312025.0      -305689.0      -296426.0      -288253.0
      -280715.0      -274166.0      -268051.0      -259966.0      -251262.0
      -244348.0      -238827.0      -230648.0      -222318.0      -216421.0
      -209904.0      -202921.0      -193509.0      -183302.0      -179037.0
      -174602.0      -163981.0      -154947.0      -147646.0      -139563.0
      -134621.0      -124600.0      -110680.0      -105830.0      -102089.0
      -92661.00      -83535.00      -74429.00      -65484.00      -59726.00
      -52409.00      -42538.00      -35614.00      -28702.00      -18850.00
      -7584.000       556.0000       5646.000       13270.00       21378.00
       30635.00       40953.00       47061.00       52771.00       62314.00
       68476.00       72619.00       84061.00       93234.00       98603.00
       108205.0       115749.0       124113.0       132740.0       138726.0
       148701.0       156404.0       160919.0       168088.0       176576.0
       184916.0       191291.0       197983.0       206225.0       213143.0
       219592.0       225409.0       231023.0       240897.0       248666.0
       253054.0       260784.0       268293.0       276852.0       284751.0
       289526.0       296618.0       304967.0       312914.0       318521.0
       322730.0       331777.0       340309.0       346481.0       354632.0
       360445.0       368580.0       378124.0       381955.0       386527.0
       392890.0       397682.0       404261.0       413405.0       420144.0
       424369.0       429476.0       436945.0       445226.0       450045.0
       453769.0       459092.0       467003.0       475655.0       478742.0
       482244.0       489185.0       495381.0       502208.0       505859.0
       509504.0       516340.0       521362.0       526083.0       530652.0
       536831.0       543202.0       547234.0       553220.0       557819.0
       560806.0       566580.0       574314.0       580205.0       580908.0
       583744.0       591136.0       598568.0       608290.0       610802.0
       607529.0       615407.0       626271.0       630824.0       631598.0
       633581.0       639846.0       646078.0       652692.0       656742.0
       659446.0       664718.0       668287.0       670766.0       675149.0
       683570.0       690317.0       690197.0       691023.0       695245.0
       700755.0       708059.0       713894.0       715240.0       714785.0
       720120.0       729180.0       733436.0       732745.0       731905.0
       736976.0       743750.0       748223.0       753406.0       751978.0
       748823.0       754748.0       762049.0       770977.0       777043.0
       771004.0       769501.0       778424.0       784111.0       786245.0
       786984.0       784200.0       789063.0       800882.0       805304.0
       803412.0       796677.0       796787.0       806958.0       813113.0
       816093.0       812142.0       806693.0       812638.0       822939.0
       827120.0       823810.0       821043.0       821378.0       825304.0
       831569.0       834362.0       832204.0       825366.0       826511.0
       835206.0       837333.0       837667.0       837933.0       836934.0
       837395.0       837727.0       836238.0       838351.0       845242.0
       844689.0       840303.0       840517.0       843831.0       846339.0
       844897.0       844330.0       841998.0       839520.0       842674.0
       844058.0       841790.0       837337.0       836782.0       840992.0
       840001.0       840948.0       839713.0       833565.0       837053.0
       839659.0       835642.0       831938.0       831185.0       835188.0
       833906.0       826481.0       822089.0       823341.0       827591.0
       827495.0       819542.0       810226.0       810314.0       814902.0
       814342.0       810310.0       804507.0       799653.0       800010.0
       802704.0       798350.0       791582.0       790337.0       788805.0
       786093.0       785246.0       781509.0       775162.0       773317.0
       773993.0       772719.0       767298.0       761152.0       761853.0
       760318.0       751395.0       748923.0       750406.0       747594.0
       743545.0       737414.0       730506.0       727515.0       727485.0
       724970.0       718790.0       711930.0       705604.0       700469.0
       700327.0       702229.0       698594.0       689275.0       682476.0
       682623.0       677321.0       671705.0       671309.0       663460.0
       655144.0       648409.0       639920.0       634880.0       633099.0
       630484.0       625742.0       621056.0       609392.0       599247.0
       599301.0       595524.0       586343.0       577438.0       572985.0
       567495.0       561903.0       557045.0       544133.0       537470.0
       534008.0       526833.0       523371.0       514451.0       503704.0
       498343.0       492376.0       485770.0       481391.0       475769.0
       465974.0       457023.0       448934.0       442985.0       439884.0
       429290.0       418687.0       414760.0       407945.0       399591.0
       393477.0       387431.0       379596.0       370150.0       361283.0
       357758.0       354822.0       344117.0       331951.0       325079.0
       320597.0       313623.0       302496.0       293617.0       288633.0
       280339.0       273237.0       264922.0       252972.0       246806.0
       240815.0       231631.0       223048.0       217384.0       211276.0
       202843.0       194672.0       183499.0       176128.0       171795.0
       165248.0       156869.0       142827.0       129716.0       124418.0
       122991.0       115715.0       102219.0       90236.00       82434.00
       75748.00       68863.00       60327.00       47041.00       39703.00
       33431.00       21030.00       14298.00       8138.000       913.0000
      -6716.000      -17800.00      -28506.00      -40311.00      -44973.00
      -48060.00      -62004.00      -74073.00      -82456.00      -91546.00
      -99529.00      -106173.0      -113416.0      -125222.0      -135741.0
      -143085.0      -148141.0      -153649.0      -165783.0      -179031.0
      -187886.0      -194512.0      -200471.0      -208156.0      -219463.0
      -228059.0      -235785.0      -245487.0      -254521.0      -265508.0
      -273769.0      -280630.0      -287470.0      -295158.0      -305525.0
      -312013.0      -319135.0      -329187.0      -337242.0      -343254.0
      -348964.0      -354807.0      -365352.0      -377405.0      -382813.0
      -389902.0      -397641.0      -403051.0      -413319.0      -425442.0
      -431933.0      -434004.0      -441014.0      -448446.0      -456535.0
      -468463.0      -472008.0      -474257.0      -481534.0      -490490.0
      -498156.0      -502445.0      -512236.0      -520980.0      -525101.0
      -531643.0      -537184.0      -542574.0      -551141.0      -559757.0
      -565569.0      -569011.0      -573269.0      -581492.0      -588710.0
      -596970.0      -604051.0      -606080.0      -616693.0      -626169.0
      -627477.0      -633745.0      -640046.0      -644304.0      -654329.0
      -664130.0      -667299.0      -672742.0      -680294.0      -686347.0
      -690109.0      -693223.0      -702179.0      -712811.0      -720176.0
      -721544.0      -724731.0      -737316.0      -748706.0      -749264.0
      -747303.0      -760875.0      -774372.0      -770953.0      -773305.0
      -783171.0      -788839.0      -791095.0      -795329.0      -806093.0
      -809744.0      -811443.0      -818902.0      -826786.0      -834639.0
      -831878.0      -833090.0      -848303.0      -854679.0      -850762.0
      -855393.0      -869082.0      -873213.0      -871210.0      -870076.0
      -873351.0      -884756.0      -884845.0      -881435.0      -889532.0
      -897824.0      -896916.0      -894416.0      -903994.0      -912038.0
      -910083.0      -907291.0      -910264.0      -919509.0      -924313.0
      -918803.0      -916545.0      -926457.0      -929987.0      -926305.0
      -928242.0      -930203.0      -933371.0      -935240.0      -930194.0
      -931626.0      -935869.0      -934829.0      -938919.0      -940955.0
      -936896.0      -932211.0      -934954.0      -941445.0      -939481.0
      -940087.0      -936439.0      -934925.0      -939510.0      -930198.0
      -935094.0      -943544.0      -928614.0      -926560.0      -934901.0
      -930989.0      -924454.0      -924399.0      -928103.0      -925428.0
      -922139.0      -920606.0      -916937.0      -919834.0      -919910.0
      -913015.0      -912008.0      -914137.0      -913456.0      -908816.0
      -904050.0      -902422.0      -902902.0      -901088.0      -896591.0
      -893542.0      -889638.0      -890490.0      -891847.0      -886165.0
      -879530.0      -877113.0      -878761.0      -873370.0      -867733.0
      -866916.0      -862154.0      -861415.0      -858291.0      -850087.0
      -848876.0      -847678.0      -844017.0      -839768.0      -833492.0
      -827133.0      -821592.0      -818255.0      -814189.0      -810793.0
      -807165.0      -799223.0      -792787.0      -787064.0      -783501.0
      -782943.0      -775703.0      -768271.0      -761916.0      -754978.0
      -751786.0      -742762.0      -734624.0      -732234.0      -725704.0
      -719309.0      -713654.0      -704937.0      -698467.0      -694330.0
      -686902.0      -678112.0      -671643.0      -667526.0      -662055.0
      -651588.0      -640780.0      -634070.0      -630297.0      -624680.0
      -618111.0      -612324.0      -601498.0      -593296.0      -588716.0
      -579921.0      -574288.0      -567772.0      -558691.0      -553174.0
      -547060.0      -540004.0      -530658.0      -521623.0      -515982.0
      -509905.0      -502663.0      -493405.0      -485155.0      -479031.0
      -469944.0      -460363.0      -453605.0      -449360.0      -444944.0
      -435530.0      -425097.0      -414881.0      -405727.0      -401441.0
      -395079.0      -384753.0      -374661.0      -366088.0      -359131.0
      -352695.0      -345815.0      -336348.0      -326225.0      -317702.0
      -310816.0      -303812.0      -294875.0      -286668.0      -278937.0
      -271977.0      -261963.0      -248381.0      -241157.0      -236866.0
      -229261.0      -220368.0      -211308.0      -202589.0      -193531.0
      -185447.0      -178352.0      -170032.0      -161725.0      -153064.0
      -142641.0      -133858.0      -127315.0      -119138.0      -108649.0
      -99426.00      -93918.00      -88983.00      -80746.00      -69140.00
      -57344.00      -49324.00      -44755.00      -36158.00      -24692.00
      -17421.00      -10439.00      -3822.000       4192.000       15768.00
       21966.00       25503.00       34313.00       43279.00       50198.00
       60205.00       68945.00       74494.00       82100.00       87745.00
       93090.00       105173.0       114690.0       116622.0       123367.0
       133414.0       139283.0       144315.0       151512.0       161741.0
       168622.0       173811.0       181153.0       187876.0       197232.0
       206087.0       211418.0       216100.0       223440.0       233739.0
       241758.0       247349.0       252696.0       257468.0       265164.0
       277153.0       286034.0       287796.0       289863.0       298143.0
       306379.0       313413.0       320413.0       324607.0       331030.0
       337130.0       341607.0       347470.0       354459.0       363296.0
       368959.0       374735.0       381326.0       385309.0       392527.0
       399047.0       403949.0       412742.0       418046.0       420882.0
       429592.0       437174.0       441304.0       446810.0       452192.0
       458087.0       464726.0       469747.0       471734.0       477047.0
       490619.0       497784.0       494887.0       496588.0       502186.0
       511674.0       521981.0       522784.0       522911.0       527458.0
       535076.0       540530.0       539754.0       544593.0       553469.0
       559578.0       563359.0       564505.0       568764.0       573991.0
       576027.0       581711.0       588796.0       593033.0       596414.0
       596727.0       599752.0       607968.0       614592.0       618951.0
       622817.0       625438.0       626618.0       630554.0       636195.0
       640735.0       646219.0       648139.0       648638.0       654452.0
       660319.0       663680.0       665632.0       668749.0       671264.0
       673820.0       677890.0       677423.0       678817.0       682626.0
       687303.0       690775.0       689438.0       693254.0       697932.0
       698014.0       697954.0       701026.0       703806.0       701767.0
       704715.0       709562.0       711431.0       713179.0       713503.0
       715550.0       717081.0       720789.0       721828.0       718637.0
       722857.0       726331.0       725655.0       729409.0       735144.0
       732191.0       727593.0       730100.0       732865.0       737905.0
       738898.0       734427.0       734414.0       738435.0       739963.0
       738197.0       741275.0       741381.0       736598.0       736595.0
       740491.0       745179.0       742888.0       736821.0       738260.0
       743885.0       745959.0       741495.0       738209.0       743483.0
       744893.0       742192.0       741205.0       737314.0       737862.0
       739241.0       737360.0       736940.0       735464.0       734424.0
       732740.0       730821.0       729151.0       728042.0       729465.0
       728627.0       726604.0       725181.0       724383.0       725149.0
       726385.0       725718.0       720242.0       716653.0       717867.0
       719748.0       719838.0       716016.0       713013.0       710770.0
       708527.0       709774.0       709125.0       706946.0       707939.0
