     0.02500000      -12345.00      -12345.00   2.447790e+09      -12345.00
   0.0005380000       1859.976      -467.0196      -12345.00      -12345.00
      -12345.00      -12345.00      -12345.00      -12345.00      -12345.00
      -12345.00      -12345.00      -12345.00      -12345.00      -12345.00
      -12345.00      -12345.00      -12345.00      -12345.00      -12345.00
      -12345.00      -12345.00      -12345.00      -12345.00      -12345.00
      -12345.00      -25.07130      -130.0953       218.0000       2.000000
      -42.72450       173.0647      -12345.00       22.00000      -12345.00
      -12345.00      -12345.00      -12345.00      -12345.00      -12345.00
      -12345.00      -12345.00      -12345.00      -12345.00      -12345.00
       5495.869       88.12969       234.3050       49.42772      -12345.00
      -12345.00      -12345.00       0.000000       0.000000      -12345.00
      -12345.00      -12345.00      -12345.00      -12345.00      -12345.00
      -12345.00      -12345.00      -12345.00      -12345.00      -12345.00
      2016       318        11        10        46
        19         6    -12345    -12345     74400
    -12345    -12345    -12345    -12345    -12345
         1    -12345    -12345    -12345    -12345
    -12345    -12345    -12345    -12345    -12345
    -12345    -12345    -12345    -12345    -12345
    -12345    -12345    -12345    -12345    -12345
         1    -12345    -12345    -12345    -12345
PTCN    South Island, Ne
00      -12345  -12345  
-12345  -12345  -12345  
-12345  -12345  -12345  
-12345  -12345  -12345  
-12345  -12345  -12345  
-12345  -12345  BHZ     
IU      -12345  Streckei
[...]
      -9054.000      -18080.00      -26599.00      -32798.00      -41998.00
      -50623.00      -59721.00      -70161.00      -79943.00      -91098.00
      -97459.00      -104093.0      -114057.0      -122583.0      -133476.0
      -141400.0      -148754.0      -158270.0      -163299.0      -171902.0
      -183009.0      -191997.0      -200981.0      -207302.0      -214273.0
      -223454.0      -232419.0      -239485.0      -247617.0      -257964.0
      -265821.0      -274134.0      -283361.0      -289537.0      -296604.0
      -305613.0      -313722.0      -322656.0      -332007.0      -339946.0
      -346443.0      -353096.0      -360192.0      -368243.0      -380294.0
      -389100.0      -393593.0      -402448.0      -411494.0      -418866.0
      -426490.0      -434301.0      -442443.0      -450090.0      -459084.0
      -466100.0      -472399.0      -481330.0      -489894.0      -497633.0
      -504465.0      -512877.0      -521733.0      -529048.0      -537707.0
      -546620.0      -553682.0      -559132.0      -566627.0      -574539.0
      -580624.0      -589781.0      -599289.0      -605332.0      -611238.0
      -621681.0      -628520.0      -625890.0      -635819.0      -652121.0
      -652006.0      -657368.0      -670148.0      -672043.0      -678248.0
      -689433.0      -693342.0      -700644.0      -711416.0      -714811.0
      -717274.0      -727615.0      -738693.0      -740947.0      -746147.0
      -755615.0      -754711.0      -760803.0      -773908.0      -772424.0
      -775597.0      -789773.0      -794575.0      -794602.0      -803539.0
      -812319.0      -814107.0      -822385.0      -828728.0      -827820.0
      -836865.0      -846294.0      -847731.0      -853498.0      -859713.0
      -864485.0      -871584.0      -873811.0      -878012.0      -884561.0
      -888772.0      -896379.0      -898521.0      -899056.0      -906736.0
      -912074.0      -913372.0      -920858.0      -928815.0      -924040.0
      -925972.0      -935800.0      -937846.0      -944312.0      -947418.0
      -944601.0      -949579.0      -954655.0      -957393.0      -962105.0
      -965778.0      -965290.0      -966569.0      -971206.0      -972695.0
      -974302.0      -975652.0      -976569.0      -979806.0      -982588.0
      -986523.0      -988895.0      -989088.0      -989908.0      -991041.0
      -993893.0      -993224.0      -994390.0      -998471.0      -996725.0
      -997312.0      -998829.0      -999476.0      -1002255.      -1002726.
      -1004595.      -1006524.      -1005562.      -1003055.      -1002507.
      -1008578.      -1010070.      -1005897.      -1007851.      -1009470.
      -1007555.      -1007766.      -1007722.      -1007546.      -1008923.
      -1006624.      -1004613.      -1006884.      -1006776.      -1004941.
      -1003328.      -1003868.      -1004809.      -1001045.      -999138.0
      -1000895.      -1000635.      -999376.0      -999301.0      -997768.0
      -994442.0      -991836.0      -989359.0      -989669.0      -990752.0
      -988448.0      -985975.0      -982405.0      -979513.0      -979366.0
      -977786.0      -973772.0      -969110.0      -967689.0      -966517.0
      -961612.0      -957476.0      -954847.0      -951834.0      -947166.0
      -941871.0      -938326.0      -935320.0      -931464.0      -926409.0
      -920650.0      -915917.0      -912669.0      -909626.0      -907499.0
      -903751.0      -897110.0      -892015.0      -887659.0      -882791.0
      -878194.0      -873542.0      -869125.0      -864383.0      -856959.0
      -848600.0      -842988.0      -837065.0      -831194.0      -825683.0
      -818602.0      -813343.0      -807519.0      -799597.0      -793316.0
      -787159.0      -779682.0      -772795.0      -766824.0      -760626.0
      -754101.0      -747523.0      -741454.0      -733908.0      -725175.0
      -717575.0      -708655.0      -701958.0      -696715.0      -690164.0
      -684188.0      -673083.0      -662764.0      -656011.0      -648973.0
      -644617.0      -636281.0      -627492.0      -620652.0      -610670.0
      -603299.0      -596589.0      -587823.0      -579167.0      -571384.0
      -564393.0      -555950.0      -546890.0      -537836.0      -529426.0
      -521299.0      -511258.0      -502750.0      -496160.0      -487497.0
      -478393.0      -469611.0      -459047.0      -446915.0      -438153.0
      -432530.0      -423420.0      -413000.0      -403132.0      -394167.0
      -386403.0      -375665.0      -365749.0      -357958.0      -348267.0
      -338370.0      -327335.0      -315914.0      -307787.0      -299638.0
      -288873.0      -279977.0      -272550.0      -261673.0      -250198.0
      -240404.0      -231523.0      -223537.0      -214081.0      -202971.0
      -193170.0      -185653.0      -176402.0      -165652.0      -157159.0
      -148824.0      -140000.0      -129464.0      -116384.0      -108489.0
      -103566.0      -91723.00      -79469.00      -70588.00      -60064.00
      -52253.00      -42161.00      -25524.00      -15985.00      -11455.00
      -1151.000       10582.00       21758.00       33146.00       41161.00
       49949.00       62078.00       71444.00       79487.00       90821.00
       104989.0       116334.0       123046.0       131929.0       142500.0
       153039.0       165339.0       174525.0       181259.0       192475.0
       201493.0       206253.0       218103.0       230661.0       238397.0
       248733.0       258448.0       268347.0       279554.0       287797.0
       297939.0       308259.0       315012.0       322964.0       333091.0
       342820.0       351086.0       359366.0       368831.0       377717.0
       385526.0       392872.0       399587.0       409718.0       420108.0
       426602.0       434883.0       443812.0       453556.0       463319.0
       470088.0       478212.0       487327.0       496830.0       504822.0
       509686.0       518861.0       529588.0       537190.0       546584.0
       554718.0       563171.0       573942.0       580353.0       585362.0
       592389.0       598515.0       605005.0       614779.0       624106.0
       629848.0       635373.0       643018.0       652232.0       659534.0
       663904.0       669235.0       677723.0       687148.0       692789.0
       696719.0       703131.0       710716.0       718523.0       723547.0
       727210.0       733868.0       740205.0       745763.0       751189.0
       756990.0       764398.0       769890.0       775582.0       781388.0
       784679.0       790332.0       798721.0       806035.0       808390.0
       809716.0       816701.0       825372.0       835879.0       841562.0
       837835.0       842728.0       855312.0       862111.0       863810.0
       865088.0       870473.0       877081.0       884350.0       890635.0
       893258.0       897594.0       902302.0       904645.0       908410.0
       916793.0       925246.0       926866.0       926273.0       929529.0
       935178.0       942727.0       949804.0       952065.0       951366.0
       954936.0       964019.0       970522.0       970537.0       968382.0
       971706.0       978415.0       983431.0       990056.0       989939.0
       984147.0       987799.0       995715.0       1005146.       1013856.
       1009051.       1003432.       1010873.       1018734.       1021338.
       1022173.       1018543.       1019412.       1031386.       1040436.
       1039863.       1030737.       1025753.       1034739.       1043788.
       1048001.       1044855.       1036372.       1038233.       1049083.
       1055958.       1054108.       1049080.       1046487.       1049116.
       1055640.       1059672.       1058086.       1049303.       1045926.
       1054437.       1058742.       1058303.       1057692.       1055176.
       1054629.       1054988.       1052261.       1051898.       1058064.
       1058880.       1053823.       1052536.       1054098.       1055441.
       1054320.       1052630.       1049460.       1045549.       1046206.
       1047248.       1044847.       1039085.       1036005.       1039262.
       1037797.       1036433.       1036142.       1029431.       1029550.
       1031485.       1026570.       1021804.       1019451.       1022084.
       1020723.       1011281.       1004874.       1004103.       1007213.
       1007951.       998440.0       985826.0       982809.0       986549.0
       986705.0       981206.0       973166.0       965800.0       963544.0
       966418.0       962271.0       952564.0       948481.0       945618.0
       941852.0       939624.0       935105.0       926602.0       921390.0
       921394.0       919508.0       912902.0       904506.0       901514.0
       900416.0       891188.0       884031.0       883927.0       881178.0
       875847.0       868191.0       858479.0       852187.0       850621.0
       847763.0       840189.0       831127.0       822383.0       814396.0
       811187.0       811791.0       809244.0       799708.0       788382.0
       785173.0       780099.0       771665.0       769126.0       761248.0
       749990.0       740599.0       729806.0       721210.0       716672.0
       713432.0       707316.0       701173.0       689067.0       673713.0
       669834.0       665994.0       655253.0       643825.0       635873.0
       629018.0       620936.0       614469.0       600280.0       587821.0
       583424.0       575124.0       568382.0       558999.0       544677.0
       536045.0       528220.0       519375.0       513413.0       505768.0
       493990.0       482280.0       471859.0       462797.0       457135.0
       446244.0       432151.0       424743.0       417249.0       406716.0
       397182.0       389563.0       380166.0       367932.0       356774.0
       349642.0       345516.0       335168.0       319333.0       308854.0
       301746.0       293213.0       281652.0       268836.0       260515.0
       251315.0       241399.0       231705.0       217615.0       207275.0
       199500.0       188781.0       177990.0       169795.0       161807.0
       151548.0       141611.0       128591.0       117387.0       111001.0
       103146.0       93096.00       77942.00       61102.00       51099.00
       47893.00       40802.00       25927.00       10876.00      -530.0000
      -9694.000      -18441.00      -28107.00      -43290.00      -55575.00
      -62300.00      -75180.00      -86738.00      -94893.00      -103840.0
      -111985.0      -123981.0      -138179.0      -153418.0      -161995.0
      -164463.0      -178439.0      -194805.0      -205690.0      -217576.0
      -227484.0      -235698.0      -244505.0      -257264.0      -271065.0
      -281344.0      -288488.0      -294377.0      -306415.0      -323034.0
      -335657.0      -344631.0      -351813.0      -359626.0      -372870.0
      -384841.0      -393894.0      -405052.0      -415975.0      -428920.0
      -440081.0      -448573.0      -456933.0      -465559.0      -477790.0
      -486842.0      -494267.0      -505275.0      -516058.0      -524627.0
      -531385.0      -537375.0      -547878.0      -562482.0      -571303.0
      -578908.0      -588542.0      -595428.0      -604955.0      -619316.0
      -629583.0      -632733.0      -639528.0      -648094.0      -656486.0
      -670302.0      -677158.0      -679134.0      -686329.0      -696556.0
      -706014.0      -711012.0      -720913.0      -732365.0      -737816.0
      -744778.0      -751648.0      -757253.0      -765997.0      -776427.0
      -784322.0      -788352.0      -792407.0      -800881.0      -809443.0
      -818403.0      -827714.0      -830771.0      -839392.0      -852309.0
      -855826.0      -860514.0      -868520.0      -872652.0      -882003.0
      -895070.0      -899717.0      -904716.0      -913525.0      -920241.0
      -924675.0      -927395.0      -935998.0      -948736.0      -957871.0
      -960229.0      -962805.0      -974970.0      -988399.0      -991801.0
      -989168.0      -999845.0      -1016689.      -1016299.      -1016208.
      -1026364.      -1033209.      -1035643.      -1039274.      -1050414.
      -1056339.      -1056899.      -1064396.      -1072965.      -1081643.
      -1081629.      -1079144.      -1092812.      -1104353.      -1100532.
      -1101744.      -1116036.      -1123208.      -1121216.      -1119332.
      -1120452.      -1130924.      -1133709.      -1128642.      -1134615.
      -1144296.      -1145173.      -1140258.      -1147142.      -1158396.
      -1157414.      -1152371.      -1153650.      -1162262.      -1168219.
      -1163616.      -1158812.      -1166074.      -1171324.      -1167941.
      -1167840.      -1168896.      -1171263.      -1172911.      -1167660.
      -1166858.      -1169616.      -1168017.      -1171251.      -1173769.
      -1169247.      -1162083.      -1162055.      -1168963.      -1166498.
      -1165497.      -1162768.      -1156902.      -1161333.      -1153418.
      -1150749.      -1161403.      -1149839.      -1140308.      -1146947.
      -1145338.      -1136396.      -1132617.      -1135878.      -1133438.
      -1127572.      -1124869.      -1119642.      -1119127.      -1120109.
      -1113282.      -1107507.      -1107988.      -1108442.      -1102370.
      -1095028.      -1091045.      -1089451.      -1087526.      -1081480.
      -1076007.      -1070475.      -1068402.      -1069751.      -1063959.
      -1054071.      -1048366.      -1049163.      -1044143.      -1034701.
      -1031461.      -1026029.      -1022839.      -1019203.      -1008283.
      -1004198.      -1002055.      -996153.0      -991067.0      -983385.0
      -974063.0      -964939.0      -959333.0      -954622.0      -948301.0
      -942988.0      -933895.0      -924213.0      -916340.0      -909118.0
      -906582.0      -899841.0      -889471.0      -880519.0      -870515.0
      -864479.0      -854605.0      -842643.0      -837489.0      -830110.0
      -820344.0      -812315.0      -802307.0      -792315.0      -785643.0
      -776770.0      -764768.0      -755089.0      -748968.0      -742064.0
      -729524.0      -715434.0      -704726.0      -698230.0      -691376.0
      -682076.0      -674740.0      -662465.0      -649529.0      -642655.0
      -632063.0      -623155.0      -615177.0      -603471.0      -595322.0
      -587082.0      -577733.0      -566399.0      -554047.0      -545930.0
      -537542.0      -527975.0      -516848.0      -505250.0      -496931.0
      -486096.0      -473225.0      -463455.0      -456428.0      -450907.0
      -440584.0      -426929.0      -414121.0      -401581.0      -393648.0
      -386327.0      -374381.0      -361255.0      -349612.0      -339927.0
      -331223.0      -322621.0      -311584.0      -298341.0      -286405.0
      -276962.0      -268431.0      -257665.0      -246482.0      -236151.0
      -226835.0      -215791.0      -199918.0      -187901.0      -180957.0
      -172541.0      -161875.0      -150132.0      -139268.0      -127900.0
      -116575.0      -107450.0      -97830.00      -86850.00      -75906.00
      -63701.00      -51826.00      -42695.00      -32909.00      -20492.00
      -8419.000      -108.0000       6012.000       15321.00       28731.00
       43168.00       55029.00       61961.00       70971.00       84760.00
       94772.00       103716.0       112818.0       121474.0       134754.0
       144453.0       149314.0       159073.0       170472.0       178790.0
       190019.0       202131.0       209278.0       218079.0       226687.0
       232316.0       244568.0       258037.0       262802.0       269176.0
       280606.0       288835.0       295286.0       303235.0       314587.0
       324676.0       331321.0       339372.0       347675.0       357971.0
       369401.0       377161.0       382486.0       390516.0       402184.0
       412590.0       420142.0       426289.0       432303.0       440825.0
       453583.0       465403.0       470198.0       471835.0       479428.0
       489945.0       498523.0       507047.0       512036.0       518564.0
       527165.0       532582.0       538878.0       546451.0       556006.0
       564132.0       571129.0       579106.0       583740.0       590669.0
       599145.0       605048.0       614369.0       622092.0       625043.0
       633578.0       643825.0       648627.0       654282.0       661265.0
       667551.0       674948.0       681594.0       684053.0       688268.0
       702566.0       713773.0       712230.0       712099.0       717247.0
       726665.0       739383.0       743049.0       741968.0       745782.0
       753866.0       761081.0       760992.0       763844.0       773470.0
       781210.0       786379.0       787964.0       791197.0       797609.0
       799473.0       804049.0       812676.0       817981.0       822175.0
       822623.0       824271.0       832436.0       840346.0       845786.0
       849866.0       853067.0       854420.0       857343.0       862912.0
       867784.0       874086.0       877417.0       877056.0       881393.0
       888187.0       892965.0       894445.0       896782.0       900091.0
       901852.0       906101.0       906478.0       905757.0       909173.0
       913974.0       918063.0       917020.0       918976.0       924002.0
       924628.0       923651.0       925765.0       928823.0       926416.0
       927397.0       932534.0       934403.0       935756.0       936240.0
       937805.0       938515.0       940550.0       942576.0       939495.0
       941149.0       944864.0       944442.0       946446.0       952641.0
       951095.0       943860.0       944910.0       947711.0       950888.0
       952850.0       949026.0       946622.0       948430.0       950734.0
       948969.0       949896.0       950579.0       945013.0       942775.0
       945066.0       949365.0       948814.0       941472.0       939646.0
       944050.0       947119.0       943608.0       937130.0       940025.0
       942850.0       939322.0       937411.0       932231.0       929995.0
       931091.0       928627.0       927289.0       924502.0       921632.0
       919538.0       916386.0       913438.0       910269.0       910122.0
       909739.0       906824.0       903568.0       901096.0       901097.0
