     0.02500000      -12345.00      -12345.00   1.001180e+09      -12345.00
   0.0005380000       1859.976      -395.0196      -12345.00      -12345.00
      -12345.00      -12345.00      -12345.00      -12345.00      -12345.00
      -12345.00      -12345.00      -12345.00      -12345.00      -12345.00
      -12345.00      -12345.00      -12345.00      -12345.00      -12345.00
      -12345.00      -12345.00      -12345.00      -12345.00      -12345.00
      -12345.00      -9.404700       147.1597       90.00000       0.000000
      -42.72450       173.0647      -12345.00       22.00000      -12345.00
      -12345.00      -12345.00      -12345.00      -12345.00      -12345.00
      -12345.00      -12345.00      -12345.00      -12345.00      -12345.00
       4469.797       318.0964       150.0813       40.19963      -12345.00
      -12345.00      -12345.00       90.00000       90.00000      -12345.00
      -12345.00      -12345.00      -12345.00      -12345.00      -12345.00
      -12345.00      -12345.00      -12345.00      -12345.00      -12345.00
      2016       318        11         9        34
        19         6    -12345    -12345     74400
    -12345    -12345    -12345    -12345    -12345
         1    -12345    -12345    -12345    -12345
    -12345    -12345    -12345    -12345    -12345
    -12345    -12345    -12345    -12345    -12345
    -12345    -12345    -12345    -12345    -12345
         1    -12345    -12345    -12345    -12345
PMG     South Island, Ne
60      -12345  -12345  
-12345  -12345  -12345  
-12345  -12345  -12345  
-12345  -12345  -12345  
-12345  -12345  -12345  
-12345  -12345  BH2     
IU      -12345  Metrozet
[...]
      -644449.0      -643416.0      -642492.0      -641483.0      -640330.0
      -639297.0      -638380.0      -637249.0      -636120.0      -635015.0
      -633937.0      -632845.0      -631583.0      -630468.0      -629423.0
      -628295.0      -627044.0      -625818.0      -624695.0      -623500.0
      -622282.0      -621104.0      -619962.0      -618689.0      -617466.0
      -616281.0      -614961.0      -613774.0      -612449.0      -611184.0
      -610080.0      -608634.0      -607408.0      -606105.0      -604714.0
      -603588.0      -602185.0      -600821.0      -599419.0      -598091.0
      -596707.0      -595264.0      -594043.0      -592479.0      -591035.0
      -589706.0      -588154.0      -586641.0      -585218.0      -583770.0
      -582179.0      -580699.0      -579234.0      -577677.0      -576072.0
      -574536.0      -573078.0      -571353.0      -569900.0      -568470.0
      -566624.0      -565112.0      -563560.0      -561801.0      -560305.0
      -558864.0      -557003.0      -555350.0      -554006.0      -552101.0
      -550433.0      -548865.0      -547041.0      -545468.0      -543780.0
      -542043.0      -540325.0      -538611.0      -536899.0      -535146.0
      -533466.0      -531656.0      -529820.0      -528089.0      -526380.0
      -524590.0      -522806.0      -521078.0      -519219.0      -517518.0
      -515774.0      -513874.0      -512177.0      -510448.0      -508760.0
      -506901.0      -505105.0      -503483.0      -501558.0      -499913.0
      -498126.0      -496316.0      -494722.0      -492780.0      -491121.0
      -489426.0      -487558.0      -485808.0      -484158.0      -482387.0
      -480501.0      -478889.0      -477011.0      -475300.0      -473537.0
      -471706.0      -470079.0      -468182.0      -466561.0      -464863.0
      -463109.0      -461382.0      -459624.0      -457982.0      -456237.0
      -454609.0      -452915.0      -451252.0      -449688.0      -447938.0
      -446357.0      -444759.0      -443127.0      -441671.0      -439903.0
      -438442.0      -437052.0      -435342.0      -433905.0      -432488.0
      -430992.0      -429456.0      -428086.0      -426634.0      -425201.0
      -423921.0      -422471.0      -421149.0      -419801.0      -418487.0
      -417152.0      -416023.0      -414780.0      -413322.0      -412413.0
      -411059.0      -409837.0      -408848.0      -407611.0      -406571.0
      -405319.0      -404502.0      -403392.0      -402102.0      -401287.0
      -400247.0      -399328.0      -398289.0      -397345.0      -396447.0
      -395437.0      -394637.0      -393559.0      -392762.0      -392020.0
      -391006.0      -390289.0      -389424.0      -388644.0      -387962.0
      -387031.0      -386274.0      -385593.0      -384911.0      -384153.0
      -383348.0      -382816.0      -382170.0      -381366.0      -380837.0
      -380284.0      -379498.0      -379004.0      -378497.0      -377831.0
      -377362.0      -376800.0      -376270.0      -375815.0      -375388.0
      -374905.0      -374402.0      -374010.0      -373548.0      -373219.0
      -372757.0      -372367.0      -372127.0      -371613.0      -371442.0
      -371087.0      -370640.0      -370503.0      -370008.0      -369863.0
      -369601.0      -369162.0      -369101.0      -368741.0      -368558.0
      -368262.0      -367973.0      -367914.0      -367477.0      -367271.0
      -367102.0      -366807.0      -366663.0      -366430.0      -366141.0
      -365934.0      -365762.0      -365514.0      -365293.0      -365087.0
      -364863.0      -364699.0      -364489.0      -364244.0      -363974.0
      -363805.0      -363679.0      -363482.0      -363255.0      -362882.0
      -362716.0      -362577.0      -362286.0      -362078.0      -361761.0
      -361547.0      -361379.0      -361030.0      -360769.0      -360580.0
      -360293.0      -359926.0      -359700.0      -359394.0      -359041.0
      -358777.0      -358359.0      -358137.0      -357788.0      -357438.0
      -357122.0      -356592.0      -356409.0      -356003.0      -355528.0
      -355249.0      -354813.0      -354363.0      -353900.0      -353590.0
      -353068.0      -352540.0      -352203.0      -351711.0      -351207.0
      -350672.0      -350165.0      -349588.0      -349069.0      -348548.0
      -347857.0      -347396.0      -346804.0      -346039.0      -345471.0
      -344868.0      -344261.0      -343386.0      -342629.0      -342093.0
      -341218.0      -340431.0      -339751.0      -338900.0      -338027.0
      -337268.0      -336281.0      -335378.0      -334586.0      -333500.0
      -332587.0      -331572.0      -330498.0      -329577.0      -328359.0
      -327303.0      -326260.0      -325045.0      -323949.0      -322627.0
      -321432.0      -320130.0      -318855.0      -317651.0      -316180.0
      -314947.0      -313459.0      -312024.0      -310605.0      -309051.0
      -307618.0      -305903.0      -304436.0      -302844.0      -301163.0
      -299536.0      -297661.0      -296183.0      -294350.0      -292359.0
      -290699.0      -288668.0      -286814.0      -284873.0      -282862.0
      -280948.0      -278790.0      -276795.0      -274602.0      -272422.0
      -270289.0      -267992.0      -265737.0      -263412.0      -261067.0
      -258539.0      -256253.0      -253957.0      -251273.0      -248813.0
      -246255.0      -243608.0      -241049.0      -238422.0      -235711.0
      -232865.0      -230102.0      -227323.0      -224549.0      -221674.0
      -218723.0      -215769.0      -212804.0      -209753.0      -206699.0
      -203640.0      -200450.0      -197406.0      -194137.0      -190953.0
      -187715.0      -184335.0      -181141.0      -177659.0      -174309.0
      -170888.0      -167343.0      -164001.0      -160425.0      -156935.0
      -153318.0      -149664.0      -146197.0      -142403.0      -138814.0
      -135132.0      -131322.0      -127631.0      -123818.0      -120092.0
      -116221.0      -112417.0      -108517.0      -104651.0      -100839.0
      -96770.00      -93025.00      -89056.00      -84956.00      -81184.00
      -77102.00      -73062.00      -69096.00      -65014.00      -61011.00
      -56998.00      -52885.00      -48691.00      -44678.00      -40527.00
      -36364.00      -32283.00      -28037.00      -23905.00      -19751.00
      -15504.00      -11336.00      -7193.000      -2880.000       1347.000
       5559.000       9836.000       13997.00       18316.00       22642.00
       26891.00       31154.00       35437.00       39817.00       44144.00
       48408.00       52757.00       57091.00       61404.00       65680.00
       70033.00       74410.00       78702.00       83105.00       87466.00
       91877.00       96158.00       100450.0       104943.0       109133.0
       113565.0       118118.0       122348.0       126733.0       131119.0
       135484.0       139858.0       144281.0       148687.0       153003.0
       157469.0       161857.0       166295.0       170645.0       175054.0
       179615.0       183827.0       188315.0       192768.0       197136.0
       201719.0       206011.0       210523.0       214924.0       219318.0
       223917.0       228257.0       232795.0       237253.0       241728.0
       246182.0       250606.0       255226.0       259491.0       264124.0
       268626.0       272953.0       277560.0       281922.0       286567.0
       290892.0       295373.0       299962.0       304225.0       308882.0
       313289.0       317678.0       322227.0       326732.0       331196.0
       335522.0       340046.0       344516.0       349008.0       353434.0
       357763.0       362402.0       366740.0       371129.0       375604.0
       379927.0       384446.0       388847.0       393251.0       397612.0
       402082.0       406464.0       410785.0       415270.0       419502.0
       423927.0       428308.0       432564.0       437054.0       441340.0
       445666.0       449992.0       454189.0       458587.0       462940.0
       467167.0       471397.0       475698.0       479944.0       484183.0
       488475.0       492640.0       496995.0       501164.0       505313.0
       509642.0       513785.0       518065.0       522159.0       526420.0
       530707.0       534763.0       538973.0       543165.0       547373.0
       551467.0       555736.0       559932.0       563947.0       568198.0
       572347.0       576535.0       580650.0       584756.0       588962.0
       593021.0       597255.0       601286.0       605412.0       609619.0
       613631.0       617814.0       621833.0       625995.0       630110.0
       634078.0       638261.0       642335.0       646331.0       650371.0
       654462.0       658471.0       662473.0       666599.0       670565.0
       674475.0       678470.0       682408.0       686376.0       690447.0
       694348.0       698174.0       702174.0       706095.0       709947.0
       713825.0       717743.0       721632.0       725345.0       729186.0
       733148.0       736864.0       740626.0       744510.0       748266.0
       752006.0       755744.0       759472.0       763250.0       766997.0
       770632.0       774319.0       778109.0       781705.0       785396.0
       789118.0       792729.0       796465.0       800002.0       803726.0
       807388.0       811004.0       814672.0       818259.0       821954.0
       825385.0       829144.0       832790.0       836256.0       839872.0
       843507.0       847216.0       850648.0       854214.0       857876.0
       861423.0       864921.0       868485.0       872048.0       875588.0
       879190.0       882657.0       886180.0       889763.0       893233.0
       896686.0       900173.0       903700.0       907175.0       910542.0
       914043.0       917528.0       920862.0       924349.0       927804.0
       931137.0       934525.0       937974.0       941314.0       944663.0
       948067.0       951400.0       954740.0       957989.0       961384.0
       964627.0       967867.0       971314.0       974384.0       977709.0
       980990.0       984049.0       987516.0       990643.0       993674.0
       997031.0       1000173.       1003240.       1006392.       1009674.
       1012752.       1015842.       1019026.       1021974.       1025251.
       1028337.       1031404.       1034539.       1037525.       1040698.
       1043624.       1046792.       1049888.       1052736.       1055894.
       1058963.       1061886.       1064954.       1068093.       1070961.
       1073946.       1077006.       1079903.       1082949.       1085964.
       1088894.       1091822.       1094919.       1097877.       1100728.
       1103805.       1106621.       1109497.       1112597.       1115520.
       1118411.       1121281.       1124221.       1127139.       1130070.
       1132965.       1135769.       1138803.       1141570.       1144442.
       1147417.       1150143.       1153157.       1155979.       1158773.
       1161613.       1164368.       1167230.       1169896.       1172715.
       1175498.       1178256.       1181019.       1183641.       1186399.
       1188987.       1191728.       1194253.       1196806.       1199599.
       1202007.       1204630.       1207215.       1209700.       1212178.
       1214572.       1217090.       1219539.       1221870.       1224227.
       1226648.       1228970.       1231267.       1233544.       1235806.
       1238053.       1240229.       1242477.       1244672.       1246677.
       1248798.       1250951.       1252964.       1255069.       1257002.
       1258961.       1261046.       1262960.       1264841.       1266727.
       1268655.       1270404.       1272242.       1274060.       1275742.
       1277538.       1279234.       1280998.       1282614.       1284292.
       1286044.       1287480.       1289050.       1290684.       1292304.
       1293784.       1295154.       1296696.       1298169.       1299639.
       1300956.       1302363.       1303862.       1305089.       1306385.
       1307664.       1308912.       1310166.       1311369.       1312558.
       1313776.       1314877.       1315891.       1317111.       1318168.
       1319156.       1320181.       1321077.       1322132.       1322935.
       1323840.       1324903.       1325587.       1326448.       1327199.
       1328000.       1328825.       1329420.       1330165.       1330807.
       1331502.       1332058.       1332692.       1333334.       1333724.
       1334351.       1334795.       1335287.       1335666.       1335989.
       1336576.       1336775.       1337143.       1337438.       1337619.
       1337965.       1338078.       1338321.       1338358.       1338462.
       1338616.       1338500.       1338636.       1338604.       1338540.
       1338440.       1338211.       1338181.       1337988.       1337744.
       1337448.       1337150.       1336836.       1336424.       1336180.
       1335674.       1335163.       1334775.       1334199.       1333639.
       1332966.       1332396.       1331698.       1330954.       1330234.
       1329399.       1328680.       1327712.       1326881.       1325954.
       1324806.       1323905.       1322805.       1321631.       1320490.
       1319312.       1318066.       1316769.       1315432.       1313994.
       1312629.       1311140.       1309642.       1307926.       1306276.
       1304849.       1302959.       1301225.       1299481.       1297537.
       1295692.       1293593.       1291588.       1289559.       1287378.
       1285309.       1283053.       1280808.       1278494.       1276071.
       1273789.       1271326.       1268790.       1266288.       1263736.
       1261117.       1258466.       1255816.       1253101.       1250280.
       1247466.       1244670.       1241723.       1238794.       1235769.
       1232756.       1229828.       1226655.       1223517.       1220335.
       1217110.       1213950.       1210701.       1207377.       1203962.
       1200524.       1197058.       1193709.       1190312.       1186719.
       1183089.       1179524.       1175938.       1172263.       1168552.
       1164866.       1161191.       1157272.       1153459.       1149720.
       1145807.       1141918.       1137997.       1134057.       1130046.
       1126010.       1121907.       1117900.       1113875.       1109661.
       1105619.       1101412.       1097209.       1092983.       1088730.
       1084613.       1080120.       1075853.       1071568.       1067092.
       1062767.       1058275.       1054042.       1049470.       1044862.
       1040562.       1035904.       1031478.       1026836.       1022244.
       1017849.       1013096.       1008590.       1003942.       999231.0
       994637.0       989967.0       985381.0       980630.0       975940.0
       971165.0       966514.0       961844.0       956881.0       952353.0
       947584.0       942757.0       938071.0       933138.0       928490.0
       923682.0       918798.0       914083.0       909118.0       904358.0
       899719.0       894737.0       889924.0       885081.0       880163.0
       875436.0       870406.0       865554.0       860838.0       855798.0
       850971.0       846088.0       841142.0       836259.0       831248.0
       826387.0       821454.0       816464.0       811549.0       806547.0
       801560.0       796609.0       791674.0       786603.0       781628.0
       776598.0       771507.0       766739.0       761519.0       756432.0
       751520.0       746327.0       741406.0       736190.0       731162.0
       726209.0       720908.0       715939.0       710806.0       705661.0
       700635.0       695386.0       690360.0       685223.0       680079.0
       674912.0       669712.0       664718.0       659300.0       654340.0
       649294.0       643758.0       638774.0       633473.0       628291.0
       623213.0       617778.0       612663.0       607446.0       602062.0
       596863.0       591630.0       586371.0       581115.0       575737.0
       570496.0       565217.0       559877.0       554688.0       549321.0
       543958.0       538736.0       533351.0       527989.0       522616.0
       517261.0       512033.0       506612.0       501292.0       495962.0
       490456.0       485193.0       479810.0       474297.0       468939.0
       463469.0       458086.0       452718.0       447271.0       441822.0
       436329.0       430845.0       425366.0       419885.0       414317.0
       408926.0       403417.0       397826.0       392337.0       386708.0
       381231.0       375639.0       369978.0       364481.0       358860.0
       353305.0       347718.0       342059.0       336461.0       330850.0
       325289.0       319577.0       314013.0       308393.0       302610.0
       297076.0       291377.0       285746.0       280115.0       274367.0
       268806.0       263229.0       257489.0       251648.0       246013.0
       240503.0       234871.0       228994.0       223436.0       217885.0
       211942.0       206297.0       200766.0       195043.0       189101.0
       183555.0       177986.0       172036.0       166411.0       160722.0
       154900.0       149144.0       143433.0       137677.0       131864.0
       126148.0       120308.0       114566.0       108750.0       102909.0
       97328.00       91282.00       85399.00       79676.00       73783.00
       68065.00       61972.00       56151.00       50442.00       44372.00
       38458.00       32603.00       26780.00       20731.00       14711.00
       8901.000       2861.000      -3053.000      -8981.000      -15022.00
      -20960.00      -27002.00      -32889.00      -38904.00      -44919.00
      -50839.00      -56886.00      -62824.00      -68758.00      -74696.00
      -80745.00      -86686.00      -92697.00      -98641.00      -104571.0
      -110669.0      -116448.0      -122491.0      -128467.0      -134277.0
      -140342.0      -146318.0      -152206.0      -158080.0      -164115.0
      -170014.0      -175949.0      -181923.0      -187727.0      -193729.0
      -199566.0      -205554.0      -211492.0      -217220.0      -223317.0
      -229093.0      -234883.0      -240790.0      -246733.0      -252593.0
