     0.05000000      -12345.00      -12345.00   4.167460e+09      -12345.00
   0.0005380000       1859.951      -569.0195      -12345.00      -12345.00
      -12345.00      -12345.00      -12345.00      -12345.00      -12345.00
      -12345.00      -12345.00      -12345.00      -12345.00      -12345.00
      -12345.00      -12345.00      -12345.00      -12345.00      -12345.00
      -12345.00      -12345.00      -12345.00      -12345.00      -12345.00
      -12345.00      -64.77440      -64.04890       40.00000       0.000000
      -42.72450       173.0647      -12345.00       22.00000      -12345.00
      -12345.00      -12345.00      -12345.00      -12345.00      -12345.00
      -12345.00      -12345.00      -12345.00      -12345.00      -12345.00
       7109.332       156.3851       223.5385       63.93859      -12345.00
      -12345.00      -12345.00       0.000000       0.000000      -12345.00
      -12345.00      -12345.00      -12345.00      -12345.00      -12345.00
      -12345.00      -12345.00      -12345.00      -12345.00      -12345.00
      2016       318        11        12        28
        19         6    -12345    -12345     37200
    -12345    -12345    -12345    -12345    -12345
         1    -12345    -12345    -12345    -12345
    -12345    -12345    -12345    -12345    -12345
    -12345    -12345    -12345    -12345    -12345
    -12345    -12345    -12345    -12345    -12345
         1    -12345    -12345    -12345    -12345
PMSA    South Island, Ne
00      -12345  -12345  
-12345  -12345  -12345  
-12345  -12345  -12345  
-12345  -12345  -12345  
-12345  -12345  -12345  
-12345  -12345  BHZ     
IU      -12345  Streckei
[...]
      -321961.0      -326801.0      -331474.0      -336006.0      -340335.0
      -344486.0      -348504.0      -352424.0      -356168.0      -359784.0
      -363320.0      -366643.0      -369841.0      -372934.0      -375848.0
      -378623.0      -381236.0      -383669.0      -385941.0      -388037.0
      -389964.0      -391646.0      -393168.0      -394608.0      -395781.0
      -396818.0      -397668.0      -398336.0      -398805.0      -398962.0
      -399030.0      -398840.0      -398492.0      -397992.0      -397269.0
      -396486.0      -395497.0      -394409.0      -393153.0      -391780.0
      -390395.0      -388792.0      -387055.0      -385207.0      -383197.0
      -381038.0      -378644.0      -376090.0      -373412.0      -370571.0
      -367624.0      -364447.0      -361119.0      -357697.0      -354118.0
      -350446.0      -346565.0      -342602.0      -338552.0      -334273.0
      -329865.0      -325317.0      -320694.0      -315944.0      -311018.0
      -305977.0      -300792.0      -295502.0      -290048.0      -284421.0
      -278677.0      -272817.0      -266844.0      -260707.0      -254501.0
      -248223.0      -241760.0      -235213.0      -228567.0      -221794.0
      -214978.0      -208067.0      -201042.0      -193986.0      -186819.0
      -179552.0      -172272.0      -164915.0      -157493.0      -150025.0
      -142563.0      -135070.0      -127517.0      -120021.0      -112433.0
      -104751.0      -97073.00      -89311.00      -81520.00      -73638.00
      -65659.00      -57651.00      -49610.00      -41522.00      -33378.00
      -25237.00      -17090.00      -8946.000      -757.0000       7444.000
       15621.00       23816.00       32028.00       40248.00       48420.00
       56560.00       64663.00       72779.00       80891.00       88948.00
       97006.00       105047.0       113010.0       120885.0       128766.0
       136601.0       144384.0       152139.0       159759.0       167293.0
       174752.0       182102.0       189389.0       196605.0       203727.0
       210734.0       217579.0       224323.0       231020.0       237557.0
       244007.0       250419.0       256654.0       262818.0       268947.0
       274944.0       280822.0       286595.0       292276.0       297783.0
       303204.0       308564.0       313753.0       318817.0       323744.0
       328542.0       333245.0       337817.0       342268.0       346636.0
       350869.0       354955.0       358929.0       362761.0       366467.0
       370073.0       373498.0       376777.0       379962.0       382986.0
       385903.0       388732.0       391418.0       393989.0       396415.0
       398733.0       400936.0       402942.0       404867.0       406692.0
       408324.0       409840.0       411251.0       412496.0       413665.0
       414669.0       415406.0       416050.0       416545.0       416853.0
       417039.0       417045.0       416844.0       416456.0       415911.0
       415169.0       414235.0       413161.0       411918.0       410503.0
       408978.0       407311.0       405450.0       403462.0       401311.0
       399016.0       396602.0       394011.0       391372.0       388620.0
       385709.0       382766.0       379658.0       376393.0       373125.0
       369716.0       366133.0       362468.0       358697.0       354803.0
       350755.0       346592.0       342291.0       337839.0       333317.0
       328679.0       323925.0       319129.0       314213.0       309175.0
       304165.0       299016.0       293697.0       288363.0       282943.0
       277372.0       271682.0       266000.0       260243.0       254329.0
       248359.0       242285.0       236128.0       229894.0       223555.0
       217171.0       210661.0       204102.0       197523.0       190823.0
       184134.0       177401.0       170603.0       163758.0       156866.0
       149917.0       142892.0       135900.0       128799.0       121613.0
       114394.0       107064.0       99743.00       92381.00       84920.00
       77467.00       69995.00       62477.00       55016.00       47552.00
       40046.00       32586.00       25209.00       17862.00       10517.00
       3219.000      -4064.000      -11296.00      -18445.00      -25560.00
      -32627.00      -39623.00      -46580.00      -53518.00      -60388.00
      -67197.00      -73992.00      -80726.00      -87428.00      -94101.00
      -100618.0      -107035.0      -113388.0      -119690.0      -125887.0
      -132006.0      -138098.0      -144044.0      -149971.0      -155789.0
      -161440.0      -167024.0      -172464.0      -177853.0      -183107.0
      -188216.0      -193264.0      -198164.0      -202951.0      -207616.0
      -212185.0      -216688.0      -221118.0      -225454.0      -229631.0
      -233738.0      -237773.0      -241645.0      -245430.0      -249147.0
      -252716.0      -256177.0      -259517.0      -262693.0      -265739.0
      -268652.0      -271444.0      -274130.0      -276671.0      -279082.0
      -281351.0      -283462.0      -285453.0      -287282.0      -288947.0
      -290444.0      -291860.0      -293084.0      -294084.0      -295085.0
      -295934.0      -296655.0      -297321.0      -297881.0      -298325.0
      -298653.0      -298879.0      -298930.0      -298847.0      -298556.0
      -298104.0      -297549.0      -296758.0      -295834.0      -294755.0
      -293503.0      -292095.0      -290461.0      -288701.0      -286742.0
      -284632.0      -282378.0      -279940.0      -277460.0      -274661.0
      -271830.0      -268858.0      -265578.0      -262369.0      -258768.0
      -255183.0      -251532.0      -247630.0      -243650.0      -239384.0
      -235180.0      -230695.0      -226158.0      -221499.0      -216526.0
      -211587.0      -206429.0      -201178.0      -195661.0      -190066.0
      -184541.0      -178694.0      -172800.0      -166838.0      -160680.0
      -154340.0      -147703.0      -141080.0      -134419.0      -127769.0
      -121135.0      -114016.0      -106877.0      -99665.00      -92282.00
      -84910.00      -77270.00      -69832.00      -62134.00      -54204.00
      -46481.00      -38464.00      -30459.00      -22383.00      -14255.00
      -6161.000       2133.000       10308.00       18551.00       26882.00
       35151.00       43500.00       51784.00       60085.00       68449.00
       76848.00       85319.00       93761.00       102261.0       110832.0
       119456.0       128074.0       136642.0       145303.0       153985.0
       162641.0       171322.0       180029.0       188685.0       197341.0
       206119.0       214773.0       223347.0       232041.0       240707.0
       249278.0       257880.0       266542.0       275177.0       283814.0
       292403.0       300987.0       309567.0       318086.0       326607.0
       335034.0       343442.0       351920.0       360333.0       368693.0
       377009.0       385250.0       393468.0       401595.0       409615.0
       417548.0       425391.0       433178.0       440866.0       448409.0
       455841.0       463246.0       470536.0       477637.0       484661.0
       491650.0       498589.0       505322.0       511917.0       518452.0
       524747.0       530903.0       536899.0       542704.0       548341.0
       553784.0       559069.0       564123.0       568991.0       573724.0
       578209.0       582496.0       586618.0       590511.0       594230.0
       597728.0       601030.0       604117.0       606925.0       609559.0
       612008.0       614200.0       616183.0       617961.0       619503.0
       620822.0       621960.0       622930.0       623612.0       624091.0
       624404.0       624484.0       624313.0       623896.0       623291.0
       622467.0       621421.0       620144.0       618664.0       617036.0
       615253.0       613237.0       611007.0       608618.0       606020.0
       603241.0       600309.0       597190.0       593874.0       590390.0
       586720.0       582850.0       578785.0       574559.0       570146.0
       565519.0       560692.0       555703.0       550533.0       545120.0
       539585.0       533888.0       527976.0       521909.0       515647.0
       509262.0       502738.0       495991.0       489060.0       482022.0
       474813.0       467335.0       459737.0       452026.0       444132.0
       436043.0       427825.0       419534.0       411012.0       402421.0
       393752.0       384874.0       375940.0       366941.0       357842.0
       348611.0       339272.0       329815.0       320219.0       310479.0
       300597.0       290625.0       280531.0       270315.0       260022.0
       249638.0       239171.0       228603.0       217932.0       207184.0
       196303.0       185331.0       174207.0       162939.0       151620.0
       140184.0       128640.0       117021.0       105323.0       93608.00
       81853.00       69966.00       58045.00       46085.00       34083.00
       22031.00       9913.000      -2189.000      -14315.00      -26459.00
      -38668.00      -50880.00      -63087.00      -75342.00      -87505.00
      -99625.00      -111738.0      -123812.0      -135851.0      -147822.0
      -159739.0      -171613.0      -183430.0      -195205.0      -206889.0
      -218498.0      -230149.0      -241696.0      -253128.0      -264520.0
      -275760.0      -286914.0      -297959.0      -308862.0      -319719.0
      -330453.0      -341044.0      -351519.0      -361885.0      -372153.0
      -382327.0      -392327.0      -402125.0      -411831.0      -421372.0
      -430770.0      -440036.0      -449116.0      -458021.0      -466707.0
      -475238.0      -483602.0      -491735.0      -499697.0      -507486.0
      -515024.0      -522357.0      -529524.0      -536495.0      -543250.0
      -549763.0      -556109.0      -562184.0      -567967.0      -573578.0
      -578909.0      -584039.0      -588911.0      -593507.0      -597955.0
      -602118.0      -606033.0      -609755.0      -613196.0      -616312.0
      -619181.0      -621754.0      -624064.0      -626145.0      -627836.0
      -629334.0      -630555.0      -631396.0      -632047.0      -632400.0
      -632534.0      -632455.0      -632127.0      -631592.0      -630783.0
      -629731.0      -628440.0      -626958.0      -625252.0      -623330.0
      -621225.0      -618896.0      -616388.0      -613683.0      -610692.0
      -607544.0      -604203.0      -600625.0      -596892.0      -592870.0
      -588681.0      -584251.0      -579546.0      -574694.0      -569615.0
      -564323.0      -558789.0      -553020.0      -547003.0      -540755.0
      -534270.0      -527574.0      -520644.0      -513417.0      -505978.0
      -498289.0      -490408.0      -482257.0      -473900.0      -465394.0
      -456551.0      -447660.0      -438600.0      -429331.0      -419935.0
      -410412.0      -400784.0      -390785.0      -380791.0      -370542.0
      -360061.0      -349518.0      -338653.0      -327629.0      -316356.0
      -305074.0      -293541.0      -281753.0      -269989.0      -257981.0
      -245828.0      -233589.0      -221219.0      -208760.0      -196218.0
      -183654.0      -170954.0      -158148.0      -145441.0      -132430.0
      -119163.0      -105865.0      -92402.00      -79015.00      -65502.00
      -51932.00      -38397.00      -24755.00      -11109.00       2691.000
       16477.00       30349.00       44196.00       58070.00       72137.00
       85921.00       99815.00       113766.0       127735.0       141801.0
       155686.0       169777.0       183823.0       197831.0       211935.0
       225831.0       239795.0       253749.0       267504.0       281210.0
       294850.0       308494.0       322063.0       335419.0       348769.0
       362105.0       375358.0       388538.0       401580.0       414550.0
       427378.0       440102.0       452751.0       465206.0       477559.0
       489775.0       501795.0       513656.0       525372.0       536953.0
       548317.0       559556.0       570719.0       581653.0       592383.0
       603020.0       613502.0       623763.0       633902.0       643872.0
       653636.0       663245.0       672688.0       682007.0       691074.0
       699881.0       708538.0       716970.0       725146.0       733077.0
       740747.0       748194.0       755391.0       762313.0       769016.0
       775424.0       781644.0       787668.0       793406.0       798948.0
       804299.0       809425.0       814320.0       818991.0       823402.0
       827660.0       831672.0       835405.0       838956.0       842283.0
       845332.0       848091.0       850603.0       852850.0       854852.0
       856476.0       857806.0       858899.0       859619.0       860063.0
       860212.0       860084.0       859656.0       858905.0       857886.0
       856571.0       854958.0       853015.0       850814.0       848340.0
       845549.0       842543.0       839265.0       835677.0       831893.0
       827850.0       823504.0       818920.0       814043.0       808912.0
       803529.0       797862.0       791975.0       785877.0       779569.0
       773032.0       766285.0       759284.0       752097.0       744744.0
       737070.0       729193.0       721102.0       712766.0       704255.0
       695447.0       686416.0       677235.0       667846.0       658216.0
       648364.0       638350.0       628118.0       617711.0       607127.0
       596346.0       585440.0       574336.0       563055.0       551610.0
       539987.0       528181.0       516220.0       504148.0       491889.0
       479575.0       467130.0       454532.0       441880.0       429072.0
       416249.0       403348.0       390328.0       377191.0       363907.0
       350632.0       337251.0       323736.0       310253.0       296667.0
       283019.0       269438.0       255742.0       242074.0       228442.0
       214727.0       201105.0       187464.0       173763.0       160157.0
       146558.0       132839.0       119162.0       105537.0       91823.00
       78163.00       64552.00       50942.00       37412.00       23899.00
       10418.00      -2983.000      -16333.00      -29667.00      -42902.00
      -56116.00      -69305.00      -82304.00      -95362.00      -108325.0
      -121119.0      -133971.0      -146734.0      -159409.0      -172018.0
      -184551.0      -196983.0      -209386.0      -221734.0      -233867.0
      -245903.0      -257852.0      -269540.0      -281110.0      -292590.0
      -303860.0      -315015.0      -325924.0      -336674.0      -347305.0
      -357667.0      -367855.0      -377851.0      -387748.0      -397412.0
      -406828.0      -416209.0      -425346.0      -434279.0      -443086.0
      -451670.0      -460100.0      -468367.0      -476490.0      -484419.0
      -492150.0      -499726.0      -507080.0      -514261.0      -521280.0
      -528066.0      -534606.0      -540979.0      -547184.0      -553182.0
      -558983.0      -564544.0      -569874.0      -574951.0      -579789.0
      -584484.0      -588970.0      -593169.0      -597071.0      -600717.0
      -604220.0      -607505.0      -610588.0      -613485.0      -616151.0
      -618597.0      -620808.0      -622863.0      -624729.0      -626312.0
      -627668.0      -628817.0      -629672.0      -630320.0      -630689.0
      -630773.0      -630668.0      -630278.0      -629657.0      -628832.0
      -627772.0      -626402.0      -624807.0      -622991.0      -620930.0
      -618700.0      -616204.0      -613531.0      -610598.0      -607307.0
      -603843.0      -600167.0      -596246.0      -592134.0      -587792.0
      -583256.0      -578545.0      -573671.0      -568585.0      -563304.0
      -557763.0      -551905.0      -545895.0      -539697.0      -533276.0
      -526585.0      -519660.0      -512576.0      -505338.0      -497911.0
      -490238.0      -482410.0      -474409.0      -466190.0      -457746.0
      -449145.0      -440232.0      -431096.0      -421889.0      -412441.0
      -402919.0      -393271.0      -383573.0      -373763.0      -363760.0
      -353801.0      -343689.0      -333506.0      -323255.0      -312678.0
      -302073.0      -291341.0      -280393.0      -269294.0      -257767.0
      -246408.0      -234791.0      -223022.0      -211334.0      -199527.0
      -188230.0      -176454.0      -164682.0      -153205.0      -141468.0
      -129912.0      -118105.0      -106006.0      -93917.00      -81905.00
      -69777.00      -57446.00      -44779.00      -32134.00      -19705.00
      -6971.000       5350.000       17376.00       29262.00       41206.00
       53697.00       65656.00       77897.00       90022.00       101785.0
       114221.0       126177.0       138013.0       149676.0       161629.0
       173799.0       185056.0       196672.0       208435.0       220138.0
       231775.0       243040.0       254550.0       265820.0       276984.0
       288055.0       298723.0       309633.0       320639.0       331386.0
       341853.0       352335.0       363080.0       373438.0       383435.0
       393485.0       403403.0       413192.0       422804.0       432245.0
       441533.0       450741.0       459893.0       468626.0       477106.0
       485632.0       493933.0       501839.0       509451.0       516959.0
       524349.0       531418.0       538272.0       545002.0       551483.0
       557809.0       563914.0       569790.0       575551.0       581089.0
       586423.0       591422.0       596212.0       600948.0       605434.0
       609669.0       613708.0       617665.0       621403.0       624876.0
       628204.0       631268.0       634154.0       636858.0       639241.0
       641313.0       643144.0       644771.0       646143.0       647276.0
       648218.0       649007.0       649547.0       649858.0       650028.0
       649920.0       649568.0       649008.0       648200.0       647192.0
       645939.0       644512.0       642885.0       640974.0       638936.0
       636640.0       634048.0       631296.0       628323.0       625192.0
       621760.0       618128.0       614346.0       610274.0       606080.0
       601656.0       596993.0       592164.0       587097.0       581855.0
       576419.0       570748.0       564926.0       558892.0       552681.0
