     0.05000000      -12345.00      -12345.00   3.477910e+09      -12345.00
   0.0005380000       1859.951      -569.0195      -12345.00      -12345.00
      -12345.00      -12345.00      -12345.00      -12345.00      -12345.00
      -12345.00      -12345.00      -12345.00      -12345.00      -12345.00
      -12345.00      -12345.00      -12345.00      -12345.00      -12345.00
      -12345.00      -12345.00      -12345.00      -12345.00      -12345.00
      -12345.00      -64.77440      -64.04890       40.00000       0.000000
      -42.72450       173.0647      -12345.00       22.00000      -12345.00
      -12345.00      -12345.00      -12345.00      -12345.00      -12345.00
      -12345.00      -12345.00      -12345.00      -12345.00      -12345.00
       7109.332       156.3851       223.5385       63.93859      -12345.00
      -12345.00      -12345.00       0.000000       90.00000      -12345.00
      -12345.00      -12345.00      -12345.00      -12345.00      -12345.00
      -12345.00      -12345.00      -12345.00      -12345.00      -12345.00
      2016       318        11        12        28
        19         6    -12345    -12345     37200
    -12345    -12345    -12345    -12345    -12345
         1    -12345    -12345    -12345    -12345
    -12345    -12345    -12345    -12345    -12345
    -12345    -12345    -12345    -12345    -12345
    -12345    -12345    -12345    -12345    -12345
         1    -12345    -12345    -12345    -12345
PMSA    South Island, Ne
00      -12345  -12345  
-12345  -12345  -12345  
-12345  -12345  -12345  
-12345  -12345  -12345  
-12345  -12345  -12345  
-12345  -12345  BH1     
IU      -12345  Streckei
[...]
      -32552.00      -31143.00      -29743.00      -28304.00      -26944.00
      -25593.00      -24184.00      -22776.00      -21348.00      -19957.00
      -18587.00      -17262.00      -15923.00      -14520.00      -13162.00
      -11786.00      -10476.00      -9193.000      -7898.000      -6659.000
      -5373.000      -4168.000      -2964.000      -1706.000      -521.0000
       664.0000       1823.000       2978.000       4162.000       5370.000
       6580.000       7784.000       9013.000       10239.00       11490.00
       12744.00       13986.00       15274.00       16587.00       17925.00
       19275.00       20568.00       21854.00       23125.00       24388.00
       25660.00       26909.00       28208.00       29549.00       30857.00
       32133.00       33420.00       34694.00       35967.00       37265.00
       38519.00       39801.00       41101.00       42404.00       43759.00
       45088.00       46490.00       47881.00       49226.00       50560.00
       51844.00       53135.00       54383.00       55650.00       56867.00
       58087.00       59336.00       60530.00       61712.00       62884.00
       64076.00       65248.00       66431.00       67584.00       68731.00
       69898.00       71058.00       72256.00       73438.00       74618.00
       75761.00       76901.00       78047.00       79126.00       80225.00
       81344.00       82420.00       83521.00       84660.00       85781.00
       86964.00       88220.00       89484.00       90705.00       92020.00
       93455.00       94759.00       96073.00       97431.00       98708.00
       100011.0       101332.0       102689.0       104067.0       105442.0
       106849.0       108323.0       109844.0       111304.0       112744.0
       114245.0       115828.0       117500.0       119217.0       120904.0
       122582.0       124282.0       125973.0       127729.0       129509.0
       131298.0       133115.0       134909.0       136711.0       138554.0
       140419.0       142297.0       144258.0       146242.0       148214.0
       150223.0       152239.0       154270.0       156348.0       158432.0
       160560.0       162678.0       164705.0       166839.0       168986.0
       171128.0       173397.0       175617.0       177768.0       179951.0
       182145.0       184351.0       186581.0       188801.0       191062.0
       193310.0       195499.0       197654.0       199809.0       201971.0
       204098.0       206221.0       208337.0       210453.0       212582.0
       214693.0       216771.0       218809.0       220770.0       222680.0
       224578.0       226456.0       228334.0       230156.0       231950.0
       233706.0       235386.0       237102.0       238809.0       240467.0
       242172.0       243858.0       245529.0       247274.0       249039.0
       250850.0       252645.0       254380.0       256127.0       257855.0
       259577.0       261296.0       262977.0       264685.0       266437.0
       268243.0       270123.0       271991.0       273828.0       275670.0
       277531.0       279410.0       281300.0       283240.0       285216.0
       287113.0       288986.0       290920.0       292843.0       294845.0
       296904.0       298887.0       300965.0       303072.0       305150.0
       307335.0       309515.0       311716.0       313927.0       316107.0
       318334.0       320529.0       322713.0       324963.0       327191.0
       329361.0       331535.0       333667.0       335798.0       337973.0
       340092.0       342215.0       344294.0       346326.0       348362.0
       350306.0       352287.0       354283.0       356181.0       358020.0
       359860.0       361731.0       363575.0       365427.0       367288.0
       369109.0       370973.0       372900.0       374775.0       376618.0
       378524.0       380400.0       382252.0       384114.0       385922.0
       387743.0       389570.0       391387.0       393162.0       394987.0
       396831.0       398535.0       400273.0       402019.0       403786.0
       405567.0       407274.0       409005.0       410742.0       412468.0
       414178.0       415872.0       417497.0       419089.0       420684.0
       422237.0       423793.0       425321.0       426833.0       428355.0
       429875.0       431335.0       432724.0       434159.0       435572.0
       436918.0       438262.0       439597.0       440952.0       442308.0
       443666.0       445029.0       446349.0       447673.0       449032.0
       450445.0       451851.0       453202.0       454563.0       455947.0
       457299.0       458669.0       460076.0       461454.0       462852.0
       464230.0       465628.0       467060.0       468472.0       469911.0
       471339.0       472763.0       474207.0       475656.0       477063.0
       478478.0       479917.0       481316.0       482747.0       484143.0
       485501.0       486869.0       488202.0       489558.0       490926.0
       492311.0       493672.0       495003.0       496327.0       497594.0
       498879.0       500188.0       501542.0       502904.0       504219.0
       505511.0       506796.0       508073.0       509323.0       510574.0
       511777.0       512934.0       514035.0       515142.0       516256.0
       517284.0       518287.0       519208.0       520107.0       521003.0
       521871.0       522675.0       523391.0       524143.0       524829.0
       525447.0       526034.0       526610.0       527172.0       527629.0
       528086.0       528429.0       528710.0       529047.0       529212.0
       529299.0       529386.0       529405.0       529407.0       529325.0
       529173.0       529001.0       528768.0       528531.0       528232.0
       527892.0       527550.0       527143.0       526771.0       526423.0
       526062.0       525690.0       525305.0       524912.0       524533.0
       524216.0       523927.0       523655.0       523388.0       523113.0
       522832.0       522546.0       522252.0       521936.0       521612.0
       521256.0       520863.0       520481.0       520100.0       519667.0
       519221.0       518781.0       518309.0       517849.0       517367.0
       516868.0       516376.0       515843.0       515300.0       514695.0
       514047.0       513382.0       512673.0       511912.0       511089.0
       510266.0       509403.0       508496.0       507553.0       506576.0
       505603.0       504571.0       503527.0       502490.0       501430.0
       500354.0       499185.0       497955.0       496729.0       495514.0
       494253.0       492983.0       491751.0       490401.0       488998.0
       487595.0       486107.0       484600.0       483090.0       481593.0
       480068.0       478498.0       476909.0       475224.0       473493.0
       471746.0       470006.0       468295.0       466551.0       464772.0
       462891.0       460923.0       458893.0       456832.0       454802.0
       452730.0       450621.0       448470.0       446256.0       443996.0
       441683.0       439356.0       437054.0       434712.0       432291.0
       429796.0       427255.0       424665.0       421949.0       419198.0
       416465.0       413733.0       411023.0       408227.0       405321.0
       402374.0       399383.0       396397.0       393450.0       390368.0
       387104.0       383829.0       380464.0       376959.0       373399.0
       369861.0       366304.0       362620.0       358893.0       355101.0
       351238.0       347373.0       343488.0       339617.0       335734.0
       331803.0       327810.0       323723.0       319576.0       315416.0
       311277.0       307088.0       302811.0       298518.0       294190.0
       289768.0       285302.0       280828.0       276293.0       271748.0
       267152.0       262492.0       257799.0       253051.0       248297.0
       243464.0       238571.0       233702.0       228849.0       224011.0
       219093.0       214130.0       209149.0       204123.0       199115.0
       194048.0       188925.0       183743.0       178502.0       173231.0
       167850.0       162458.0       157030.0       151525.0       146011.0
       140448.0       134831.0       129146.0       123434.0       117693.0
       111879.0       105994.0       100088.0       94130.00       88108.00
       82087.00       76001.00       69939.00       63828.00       57630.00
       51472.00       45252.00       39038.00       32833.00       26538.00
       20240.00       13922.00       7582.000       1260.000      -5081.000
      -11421.00      -17791.00      -24223.00      -30657.00      -37110.00
      -43598.00      -50106.00      -56657.00      -63245.00      -69888.00
      -76567.00      -83212.00      -89911.00      -96641.00      -103319.0
      -110013.0      -116701.0      -123384.0      -130055.0      -136724.0
      -143394.0      -150041.0      -156662.0      -163222.0      -169766.0
      -176233.0      -182698.0      -189157.0      -195529.0      -201930.0
      -208254.0      -214510.0      -220745.0      -226898.0      -233042.0
      -239198.0      -245375.0      -251565.0      -257723.0      -263873.0
      -270021.0      -276174.0      -282283.0      -288303.0      -294349.0
      -300375.0      -306294.0      -312177.0      -317993.0      -323787.0
      -329546.0      -335224.0      -340883.0      -346479.0      -352041.0
      -357554.0      -362993.0      -368403.0      -373751.0      -379072.0
      -384290.0      -389425.0      -394556.0      -399646.0      -404753.0
      -409761.0      -414721.0      -419631.0      -424446.0      -429350.0
      -434231.0      -439042.0      -443819.0      -448501.0      -453131.0
      -457801.0      -462484.0      -467109.0      -471701.0      -476337.0
      -480986.0      -485602.0      -490245.0      -494917.0      -499640.0
      -504346.0      -509034.0      -513781.0      -518528.0      -523224.0
      -527867.0      -532523.0      -537152.0      -541749.0      -546291.0
      -550785.0      -555325.0      -559786.0      -564202.0      -568637.0
      -572996.0      -577331.0      -581627.0      -585889.0      -590129.0
      -594321.0      -598506.0      -602641.0      -606747.0      -610812.0
      -614826.0      -618806.0      -622778.0      -626733.0      -630619.0
      -634501.0      -638320.0      -642072.0      -645802.0      -649483.0
      -653113.0      -656708.0      -660227.0      -663747.0      -667365.0
      -670898.0      -674404.0      -677914.0      -681374.0      -684835.0
      -688237.0      -691665.0      -695134.0      -698580.0      -701983.0
      -705391.0      -708790.0      -712127.0      -715428.0      -718666.0
      -721865.0      -725047.0      -728211.0      -731298.0      -734363.0
      -737435.0      -740448.0      -743448.0      -746414.0      -749368.0
      -752293.0      -755184.0      -758020.0      -760773.0      -763513.0
      -766173.0      -768777.0      -771346.0      -773859.0      -776338.0
      -778750.0      -781147.0      -783562.0      -785932.0      -788248.0
      -790516.0      -792770.0      -795058.0      -797302.0      -799508.0
      -801721.0      -803849.0      -805876.0      -807895.0      -809909.0
      -811869.0      -813827.0      -815758.0      -817615.0      -819441.0
      -821202.0      -822932.0      -824714.0      -826477.0      -828181.0
      -829902.0      -831653.0      -833399.0      -835117.0      -836800.0
      -838469.0      -840106.0      -841721.0      -843364.0      -845025.0
      -846626.0      -848192.0      -849780.0      -851363.0      -852936.0
      -854510.0      -856093.0      -857652.0      -859249.0      -860867.0
      -862503.0      -864135.0      -865714.0      -867297.0      -868816.0
      -870378.0      -871936.0      -873405.0      -874925.0      -876469.0
      -877984.0      -879410.0      -880834.0      -882266.0      -883656.0
      -885034.0      -886344.0      -887693.0      -889068.0      -890368.0
      -891678.0      -892913.0      -894022.0      -895178.0      -896371.0
      -897535.0      -898670.0      -899780.0      -900880.0      -901974.0
      -903034.0      -904016.0      -905004.0      -905937.0      -906817.0
      -907700.0      -908607.0      -909519.0      -910397.0      -911247.0
      -912048.0      -912887.0      -913615.0      -914341.0      -915059.0
      -915722.0      -916481.0      -917228.0      -917998.0      -918719.0
      -919465.0      -920190.0      -920868.0      -921603.0      -922321.0
      -923047.0      -923712.0      -924341.0      -924939.0      -925506.0
      -926037.0      -926487.0      -926963.0      -927444.0      -927838.0
      -928187.0      -928554.0      -928882.0      -929129.0      -929314.0
      -929471.0      -929620.0      -929769.0      -929832.0      -929834.0
      -929863.0      -929795.0      -929667.0      -929483.0      -929283.0
      -929096.0      -928840.0      -928597.0      -928322.0      -927959.0
      -927517.0      -927022.0      -926536.0      -926023.0      -925410.0
      -924713.0      -923955.0      -923175.0      -922330.0      -921406.0
      -920502.0      -919572.0      -918547.0      -917483.0      -916449.0
      -915348.0      -914152.0      -912964.0      -911727.0      -910370.0
      -908971.0      -907549.0      -906011.0      -904424.0      -902761.0
      -900947.0      -899199.0      -897480.0      -895705.0      -893897.0
      -891977.0      -889972.0      -887931.0      -885986.0      -884001.0
      -881990.0      -880059.0      -878008.0      -875993.0      -873978.0
      -871915.0      -869933.0      -867958.0      -865963.0      -863925.0
      -861873.0      -859735.0      -857570.0      -855498.0      -853395.0
      -851265.0      -849085.0      -846851.0      -844601.0      -842377.0
      -840172.0      -837988.0      -835912.0      -833818.0      -831701.0
      -829587.0      -827495.0      -825438.0      -823378.0      -821355.0
      -819319.0      -817287.0      -815298.0      -813307.0      -811259.0
      -809242.0      -807279.0      -805376.0      -803528.0      -801624.0
      -799699.0      -797830.0      -795969.0      -794050.0      -792104.0
      -790139.0      -788171.0      -786150.0      -784104.0      -782064.0
      -780031.0      -777953.0      -775793.0      -773733.0      -771677.0
      -769607.0      -767535.0      -765501.0      -763541.0      -761521.0
      -759513.0      -757409.0      -755252.0      -753131.0      -750964.0
      -748748.0      -746538.0      -744352.0      -742066.0      -739768.0
      -737498.0      -735221.0      -732969.0      -730622.0      -728225.0
      -725887.0      -723444.0      -721034.0      -718742.0      -716341.0
      -713877.0      -711335.0      -708784.0      -706237.0      -703702.0
      -701163.0      -698583.0      -696125.0      -693536.0      -690821.0
      -688208.0      -685590.0      -682975.0      -680414.0      -677873.0
      -675231.0      -672570.0      -669932.0      -667238.0      -664601.0
      -661981.0      -659355.0      -656800.0      -654263.0      -651751.0
      -649219.0      -646624.0      -644090.0      -641643.0      -639175.0
      -636675.0      -634168.0      -631597.0      -629017.0      -626466.0
      -623878.0      -621255.0      -618631.0      -616033.0      -613506.0
      -610962.0      -608330.0      -605626.0      -602826.0      -600096.0
      -597367.0      -594569.0      -591741.0      -588808.0      -585867.0
      -582879.0      -579817.0      -576620.0      -573368.0      -570173.0
      -566908.0      -563676.0      -560477.0      -557165.0      -553840.0
      -550601.0      -547280.0      -543978.0      -540747.0      -537413.0
      -534074.0      -530709.0      -527262.0      -523776.0      -520257.0
      -516690.0      -513095.0      -509410.0      -505553.0      -501669.0
      -497792.0      -493923.0      -490042.0      -486025.0      -481990.0
      -477946.0      -473801.0      -469669.0      -465486.0      -461286.0
      -457049.0      -452698.0      -448399.0      -444063.0      -439675.0
      -435240.0      -430810.0      -426447.0      -422010.0      -417583.0
      -413178.0      -408760.0      -404355.0      -399883.0      -395347.0
      -390798.0      -386188.0      -381594.0      -377079.0      -372520.0
      -367875.0      -363157.0      -358418.0      -353655.0      -348876.0
      -344124.0      -339341.0      -334611.0      -329946.0      -325166.0
      -320362.0      -315605.0      -310909.0      -306341.0      -301788.0
      -297232.0      -292659.0      -288067.0      -283388.0      -278598.0
      -273861.0      -269104.0      -264281.0      -259393.0      -254415.0
      -249431.0      -244346.0      -239173.0      -234002.0      -228777.0
      -223593.0      -218458.0      -213287.0      -208143.0      -203054.0
      -197872.0      -192595.0      -187427.0      -182267.0      -177044.0
      -171801.0      -166596.0      -161416.0      -156169.0      -150931.0
      -145642.0      -140308.0      -135043.0      -129825.0      -124519.0
      -119225.0      -113953.0      -108594.0      -103214.0      -97769.00
      -92369.00      -86915.00      -81396.00      -75917.00      -70409.00
      -64856.00      -59195.00      -53564.00      -47908.00      -42252.00
      -36614.00      -30870.00      -25155.00      -19430.00      -13632.00
      -7871.000      -2117.000       3750.000       9530.000       15247.00
       21052.00       26769.00       32460.00       38232.00       43984.00
       49688.00       55418.00       61142.00       66967.00       72771.00
       78436.00       84212.00       89996.00       95754.00       101580.0
       107400.0       113208.0       118983.0       124668.0       130323.0
       135992.0       141587.0       147149.0       152753.0       158284.0
       163800.0       169341.0       174794.0       180210.0       185529.0
       190779.0       196039.0       201292.0       206479.0       211652.0
       216870.0       222057.0       227262.0       232318.0       237321.0
       242417.0       247470.0       252538.0       257613.0       262652.0
       267647.0       272590.0       277487.0       282417.0       287298.0
       292150.0       297029.0       301857.0       306681.0       311409.0
       316123.0       320850.0       325618.0       330342.0       334874.0
