     0.02500000      -12345.00      -12345.00   3.277480e+10      -12345.00
   0.0005380000       1859.976      -395.0196      -12345.00      -12345.00
      -12345.00      -12345.00      -12345.00      -12345.00      -12345.00
      -12345.00      -12345.00      -12345.00      -12345.00      -12345.00
      -12345.00      -12345.00      -12345.00      -12345.00      -12345.00
      -12345.00      -12345.00      -12345.00      -12345.00      -12345.00
      -12345.00      -9.404700       147.1597       90.00000       0.000000
      -42.72450       173.0647      -12345.00       22.00000      -12345.00
      -12345.00      -12345.00      -12345.00      -12345.00      -12345.00
      -12345.00      -12345.00      -12345.00      -12345.00      -12345.00
       4469.797       318.0964       150.0813       40.19963      -12345.00
      -12345.00      -12345.00       0.000000       90.00000      -12345.00
      -12345.00      -12345.00      -12345.00      -12345.00      -12345.00
      -12345.00      -12345.00      -12345.00      -12345.00      -12345.00
      2016       318        11         9        34
        19         6    -12345    -12345     74400
    -12345    -12345    -12345    -12345    -12345
         1    -12345    -12345    -12345    -12345
    -12345    -12345    -12345    -12345    -12345
    -12345    -12345    -12345    -12345    -12345
    -12345    -12345    -12345    -12345    -12345
         1    -12345    -12345    -12345    -12345
PMG     South Island, Ne
10      -12345  -12345  
-12345  -12345  -12345  
-12345  -12345  -12345  
-12345  -12345  -12345  
-12345  -12345  -12345  
-12345  -12345  BH1     
IU      -12345  Guralp C
[...]
  -2.846026e+07  -2.846103e+07  -2.846131e+07  -2.846120e+07  -2.835398e+07
  -2.807924e+07  -2.774806e+07  -2.742123e+07  -2.709008e+07  -2.675687e+07
  -2.641930e+07  -2.608269e+07  -2.574268e+07  -2.539805e+07  -2.505392e+07
  -2.470618e+07  -2.435758e+07  -2.400620e+07  -2.365125e+07  -2.329860e+07
  -2.294151e+07  -2.258123e+07  -2.222394e+07  -2.185958e+07  -2.149104e+07
  -2.112863e+07  -2.075853e+07  -2.038832e+07  -2.001898e+07  -1.964135e+07
  -1.926953e+07  -1.888998e+07  -1.851089e+07  -1.813410e+07  -1.774805e+07
  -1.736592e+07  -1.698083e+07  -1.659706e+07  -1.620908e+07  -1.581629e+07
  -1.542700e+07  -1.503343e+07  -1.464222e+07  -1.424851e+07  -1.385171e+07
  -1.345501e+07  -1.305499e+07  -1.265542e+07  -1.225561e+07  -1.185386e+07
  -1.145053e+07  -1.104749e+07  -1.064302e+07  -1.023859e+07      -9832030.
      -9421381.      -9016476.      -8608157.      -8195051.      -7787617.
      -7373561.      -6962465.      -6553651.      -6135548.      -5724715.
      -5311468.      -4894723.      -4482658.      -4065520.      -3648424.
      -3235242.      -2819314.      -2399833.      -1985528.      -1569859.
      -1149191.      -732209.0      -316705.0       99590.00       518476.0
       935548.0       1351722.       1769911.       2185458.       2603807.
       3020636.       3436492.       3853522.       4268838.       4686144.
       5100339.       5515181.       5929796.       6342723.       6756455.
       7170178.       7582400.       7991779.       8405003.       8814484.
       9223872.       9635865.   1.004230e+07   1.045104e+07   1.085643e+07
   1.126211e+07   1.166975e+07   1.206979e+07   1.247072e+07   1.287474e+07
   1.327642e+07   1.367326e+07   1.407106e+07   1.446894e+07   1.486613e+07
   1.526372e+07   1.565362e+07   1.604398e+07   1.643725e+07   1.682733e+07
   1.721566e+07   1.760139e+07   1.798677e+07   1.837300e+07   1.875532e+07
   1.913444e+07   1.951444e+07   1.989385e+07   2.026947e+07   2.064097e+07
   2.101512e+07   2.138770e+07   2.175374e+07   2.212141e+07   2.248926e+07
   2.285137e+07   2.321402e+07   2.357480e+07   2.392973e+07   2.428786e+07
   2.464211e+07   2.499425e+07   2.534422e+07   2.569123e+07   2.604051e+07
   2.638215e+07   2.672589e+07   2.706528e+07   2.740272e+07   2.773911e+07
   2.806853e+07   2.840188e+07   2.861663e+07   2.865522e+07   2.865422e+07
   2.865940e+07   2.865683e+07   2.865746e+07   2.865504e+07   2.865345e+07
   2.865200e+07   2.864980e+07   2.864866e+07   2.864688e+07   2.864570e+07
   2.864464e+07   2.864379e+07   2.864353e+07   2.864324e+07   2.864288e+07
   2.864260e+07   2.864236e+07   2.864214e+07   2.864197e+07   2.864180e+07
   2.864166e+07   2.864155e+07   2.864145e+07   2.864136e+07   2.864129e+07
   2.864123e+07   2.864117e+07   2.864113e+07   2.864108e+07   2.864106e+07
   2.864103e+07   2.864100e+07   2.864097e+07   2.864095e+07   2.864093e+07
   2.864092e+07   2.864090e+07   2.864090e+07   2.864088e+07   2.864088e+07
   2.864086e+07   2.864085e+07   2.864086e+07   2.864086e+07   2.864084e+07
   2.864085e+07   2.864084e+07   2.864082e+07   2.864082e+07   2.864083e+07
   2.864082e+07   2.864082e+07   2.864081e+07   2.864082e+07   2.864081e+07
   2.864080e+07   2.864080e+07   2.864081e+07   2.864080e+07   2.864079e+07
   2.864080e+07   2.864080e+07   2.864079e+07   2.864079e+07   2.864079e+07
   2.864078e+07   2.864078e+07   2.864078e+07   2.864078e+07   2.864078e+07
   2.864077e+07   2.864076e+07   2.864075e+07   2.864074e+07   2.864074e+07
   2.864073e+07   2.864072e+07   2.864071e+07   2.864070e+07   2.864070e+07
   2.864070e+07   2.864068e+07   2.864067e+07   2.864066e+07   2.864065e+07
   2.864065e+07   2.864064e+07   2.864062e+07   2.864063e+07   2.864062e+07
   2.864061e+07   2.864060e+07   2.864059e+07   2.864059e+07   2.864058e+07
   2.864057e+07   2.864056e+07   2.864054e+07   2.864054e+07   2.864054e+07
   2.864054e+07   2.864053e+07   2.864052e+07   2.864052e+07   2.864051e+07
   2.864051e+07   2.864050e+07   2.864050e+07   2.864048e+07   2.864047e+07
   2.864047e+07   2.864047e+07   2.864045e+07   2.864044e+07   2.864044e+07
   2.864044e+07   2.864042e+07   2.864042e+07   2.864042e+07   2.864042e+07
   2.864041e+07   2.864040e+07   2.864040e+07   2.864039e+07   2.864038e+07
   2.864038e+07   2.864038e+07   2.864037e+07   2.864036e+07   2.864036e+07
   2.864036e+07   2.864034e+07   2.864033e+07   2.864034e+07   2.864034e+07
   2.864032e+07   2.864032e+07   2.864033e+07   2.864033e+07   2.864034e+07
   2.864034e+07   2.864034e+07   2.864034e+07   2.864036e+07   2.864035e+07
   2.864034e+07   2.864035e+07   2.864035e+07   2.864036e+07   2.864036e+07
   2.864036e+07   2.864036e+07   2.864037e+07   2.864036e+07   2.864038e+07
   2.864040e+07   2.864040e+07   2.864041e+07   2.864042e+07   2.864043e+07
   2.864044e+07   2.864046e+07   2.864048e+07   2.864049e+07   2.864051e+07
   2.864053e+07   2.864057e+07   2.864061e+07   2.864064e+07   2.864068e+07
   2.864073e+07   2.864079e+07   2.864086e+07   2.864093e+07   2.864103e+07
   2.864113e+07   2.864126e+07   2.864141e+07   2.864157e+07   2.864177e+07
   2.864201e+07   2.864227e+07   2.864260e+07   2.864293e+07   2.864314e+07
   2.864367e+07   2.864477e+07   2.864579e+07   2.864739e+07   2.864890e+07
   2.865028e+07   2.865262e+07   2.865347e+07   2.865616e+07   2.865660e+07
   2.865736e+07   2.865714e+07   2.865213e+07   2.864620e+07   2.851739e+07
   2.820946e+07   2.787193e+07   2.754488e+07   2.720249e+07   2.686867e+07
   2.652645e+07   2.618211e+07   2.584047e+07   2.549003e+07   2.514414e+07
   2.479216e+07   2.443909e+07   2.408700e+07   2.372658e+07   2.336946e+07
   2.301007e+07   2.264857e+07   2.228209e+07   2.191493e+07   2.155030e+07
   2.117941e+07   2.080794e+07   2.043542e+07   2.006049e+07   1.968289e+07
   1.930474e+07   1.892557e+07   1.854336e+07   1.816040e+07   1.777519e+07
   1.738750e+07   1.700028e+07   1.661133e+07   1.622005e+07   1.582783e+07
   1.543185e+07   1.503934e+07   1.464366e+07   1.424282e+07   1.384539e+07
   1.344607e+07   1.304288e+07   1.263920e+07   1.223924e+07   1.183266e+07
   1.142556e+07   1.101936e+07   1.060897e+07   1.020447e+07       9793058.
       9377698.       8966396.       8554741.       8140349.       7726233.
       7312158.       6891910.       6475553.       6058107.       5640002.
       5222885.       4798959.       4379249.       3958585.       3536448.
       3116141.       2690676.       2269095.       1845517.       1419404.
       996515.0       571667.0       149367.0      -279021.0      -705559.0
      -1128214.      -1557660.      -1981929.      -2408794.      -2834597.
      -3258954.      -3688057.      -4113336.      -4538952.      -4965752.
      -5394701.      -5818397.      -6244244.      -6671242.      -7094450.
      -7522130.      -7945139.      -8371523.      -8795617.      -9218676.
      -9645749.  -1.006700e+07  -1.048970e+07  -1.091204e+07  -1.133492e+07
  -1.175527e+07  -1.217548e+07  -1.259829e+07  -1.301649e+07  -1.343523e+07
  -1.385314e+07  -1.427157e+07  -1.468900e+07  -1.510373e+07  -1.552210e+07
  -1.593520e+07  -1.634869e+07  -1.676403e+07  -1.717168e+07  -1.758413e+07
  -1.799699e+07  -1.840501e+07  -1.881141e+07  -1.921818e+07  -1.962820e+07
  -2.003036e+07  -2.043231e+07  -2.083705e+07  -2.123622e+07  -2.163692e+07
  -2.203490e+07  -2.243249e+07  -2.282844e+07  -2.322180e+07  -2.361780e+07
  -2.400726e+07  -2.439871e+07  -2.478935e+07  -2.517662e+07  -2.556505e+07
  -2.594693e+07  -2.633225e+07  -2.671198e+07  -2.709224e+07  -2.747409e+07
  -2.784627e+07  -2.822064e+07  -2.844932e+07  -2.846825e+07  -2.845956e+07
  -2.846492e+07  -2.845905e+07  -2.846148e+07  -2.845890e+07  -2.845840e+07
  -2.845804e+07  -2.845633e+07  -2.845636e+07  -2.845501e+07  -2.845458e+07
  -2.845406e+07  -2.845372e+07  -2.845402e+07  -2.845414e+07  -2.845415e+07
  -2.845415e+07  -2.845414e+07  -2.845414e+07  -2.845414e+07  -2.845414e+07
  -2.845413e+07  -2.845413e+07  -2.845413e+07  -2.845412e+07  -2.845412e+07
  -2.845413e+07  -2.845413e+07  -2.845413e+07  -2.845413e+07  -2.845412e+07
  -2.845413e+07  -2.845412e+07  -2.845412e+07  -2.845413e+07  -2.845413e+07
  -2.845413e+07  -2.845413e+07  -2.845413e+07  -2.845413e+07  -2.845413e+07
  -2.845413e+07  -2.845412e+07  -2.845412e+07  -2.845413e+07  -2.845413e+07
  -2.845413e+07  -2.845413e+07  -2.845413e+07  -2.845412e+07  -2.845412e+07
  -2.845413e+07  -2.845413e+07  -2.845412e+07  -2.845412e+07  -2.845412e+07
  -2.845412e+07  -2.845411e+07  -2.845411e+07  -2.845411e+07  -2.845410e+07
  -2.845411e+07  -2.845410e+07  -2.845409e+07  -2.845408e+07  -2.845407e+07
  -2.845408e+07  -2.845406e+07  -2.845404e+07  -2.845405e+07  -2.845405e+07
  -2.845404e+07  -2.845403e+07  -2.845403e+07  -2.845401e+07  -2.845399e+07
  -2.845399e+07  -2.845400e+07  -2.845399e+07  -2.845398e+07  -2.845397e+07
  -2.845395e+07  -2.845394e+07  -2.845394e+07  -2.845392e+07  -2.845391e+07
  -2.845391e+07  -2.845391e+07  -2.845390e+07  -2.845389e+07  -2.845388e+07
  -2.845387e+07  -2.845386e+07  -2.845385e+07  -2.845385e+07  -2.845384e+07
  -2.845382e+07  -2.845382e+07  -2.845380e+07  -2.845378e+07  -2.845378e+07
  -2.845378e+07  -2.845377e+07  -2.845376e+07  -2.845375e+07  -2.845374e+07
  -2.845374e+07  -2.845373e+07  -2.845372e+07  -2.845372e+07  -2.845371e+07
  -2.845370e+07  -2.845369e+07  -2.845369e+07  -2.845368e+07  -2.845368e+07
  -2.845366e+07  -2.845365e+07  -2.845365e+07  -2.845364e+07  -2.845363e+07
  -2.845362e+07  -2.845362e+07  -2.845361e+07  -2.845360e+07  -2.845359e+07
  -2.845359e+07  -2.845358e+07  -2.845358e+07  -2.845357e+07  -2.845357e+07
  -2.845357e+07  -2.845357e+07  -2.845357e+07  -2.845357e+07  -2.845357e+07
  -2.845356e+07  -2.845356e+07  -2.845356e+07  -2.845356e+07  -2.845356e+07
  -2.845356e+07  -2.845358e+07  -2.845357e+07  -2.845357e+07  -2.845357e+07
  -2.845357e+07  -2.845357e+07  -2.845357e+07  -2.845358e+07  -2.845357e+07
  -2.845357e+07  -2.845357e+07  -2.845357e+07  -2.845358e+07  -2.845358e+07
  -2.845357e+07  -2.845357e+07  -2.845357e+07  -2.845357e+07  -2.845358e+07
  -2.845357e+07  -2.845358e+07  -2.845358e+07  -2.845358e+07  -2.845358e+07
  -2.845358e+07  -2.845358e+07  -2.845358e+07  -2.845358e+07  -2.845357e+07
  -2.845358e+07  -2.845358e+07  -2.845358e+07  -2.845358e+07  -2.845358e+07
  -2.845358e+07  -2.845358e+07  -2.845359e+07  -2.845358e+07  -2.845358e+07
  -2.845358e+07  -2.845358e+07  -2.845360e+07  -2.845359e+07  -2.845359e+07
  -2.845359e+07  -2.845359e+07  -2.845359e+07  -2.845359e+07  -2.845359e+07
  -2.845359e+07  -2.845359e+07  -2.845360e+07  -2.845359e+07  -2.845360e+07
  -2.845361e+07  -2.845360e+07  -2.845360e+07  -2.845360e+07  -2.845351e+07
  -2.845320e+07  -2.845336e+07  -2.845402e+07  -2.845435e+07  -2.845570e+07
  -2.845599e+07  -2.845717e+07  -2.845837e+07  -2.845809e+07  -2.846128e+07
  -2.845907e+07  -2.846355e+07  -2.846146e+07  -2.846404e+07  -2.846286e+07
  -2.826775e+07  -2.787942e+07  -2.748058e+07  -2.708316e+07  -2.667755e+07
  -2.627563e+07  -2.587012e+07  -2.545964e+07  -2.505026e+07  -2.464152e+07
  -2.422445e+07  -2.381001e+07  -2.339227e+07  -2.297226e+07  -2.255307e+07
  -2.212917e+07  -2.170502e+07  -2.127957e+07  -2.085306e+07  -2.042335e+07
  -1.999472e+07  -1.956050e+07  -1.912304e+07  -1.869304e+07  -1.825471e+07
  -1.781430e+07  -1.737767e+07  -1.693396e+07  -1.649210e+07  -1.605094e+07
  -1.560197e+07  -1.515695e+07  -1.471314e+07  -1.426084e+07  -1.381042e+07
  -1.336106e+07  -1.290981e+07  -1.245814e+07  -1.200131e+07  -1.154521e+07
  -1.109342e+07  -1.063473e+07  -1.017375e+07      -9718352.      -9259547.
      -8797916.      -8336555.      -7875601.      -7412656.      -6950236.
      -6486047.      -6020635.      -5560053.      -5093776.      -4628210.
      -4163225.      -3696568.      -3231852.      -2763715.      -2296916.
      -1828149.      -1362317.      -897074.0      -426845.0       39355.00
       506375.0       974220.0       1442290.       1911595.       2378105.
       2843504.       3313280.       3780384.       4244013.       4714926.
       5178192.       5643602.       6115712.       6573441.       7040552.
       7511931.       7969753.       8435489.       8899379.       9359154.
       9824212.   1.028334e+07   1.074528e+07   1.120842e+07   1.166412e+07
   1.212221e+07   1.258276e+07   1.303820e+07   1.349231e+07   1.394955e+07
   1.440275e+07   1.485630e+07   1.531146e+07   1.575937e+07   1.620810e+07
   1.665986e+07   1.710612e+07   1.755130e+07   1.799926e+07   1.844315e+07
   1.888586e+07   1.932925e+07   1.976763e+07   2.020759e+07   2.064738e+07
   2.108093e+07   2.151441e+07   2.194957e+07   2.238236e+07   2.281261e+07
   2.324171e+07   2.366739e+07   2.409580e+07   2.452108e+07   2.494074e+07
   2.536722e+07   2.578478e+07   2.620263e+07   2.662344e+07   2.703284e+07
   2.744883e+07   2.785619e+07   2.827455e+07   2.859514e+07   2.866611e+07
   2.865325e+07   2.866408e+07   2.865756e+07   2.865798e+07   2.865569e+07
   2.865229e+07   2.865187e+07   2.864845e+07   2.864766e+07   2.864569e+07
   2.864427e+07   2.864338e+07   2.864234e+07   2.864226e+07   2.864217e+07
   2.864195e+07   2.864178e+07   2.864163e+07   2.864151e+07   2.864142e+07
   2.864134e+07   2.864126e+07   2.864120e+07   2.864116e+07   2.864113e+07
   2.864109e+07   2.864106e+07   2.864105e+07   2.864103e+07   2.864101e+07
   2.864100e+07   2.864099e+07   2.864098e+07   2.864097e+07   2.864097e+07
   2.864097e+07   2.864095e+07   2.864095e+07   2.864094e+07   2.864094e+07
   2.864094e+07   2.864094e+07   2.864093e+07   2.864092e+07   2.864093e+07
   2.864092e+07   2.864092e+07   2.864091e+07   2.864091e+07   2.864090e+07
   2.864090e+07   2.864090e+07   2.864090e+07   2.864090e+07   2.864090e+07
   2.864089e+07   2.864088e+07   2.864087e+07   2.864088e+07   2.864087e+07
   2.864086e+07   2.864086e+07   2.864085e+07   2.864084e+07   2.864083e+07
   2.864083e+07   2.864083e+07   2.864081e+07   2.864080e+07   2.864079e+07
   2.864079e+07   2.864078e+07   2.864076e+07   2.864076e+07   2.864076e+07
   2.864075e+07   2.864074e+07   2.864073e+07   2.864072e+07   2.864071e+07
   2.864071e+07   2.864070e+07   2.864069e+07   2.864067e+07   2.864067e+07
   2.864067e+07   2.864066e+07   2.864065e+07   2.864063e+07   2.864062e+07
   2.864062e+07   2.864061e+07   2.864062e+07   2.864060e+07   2.864060e+07
   2.864061e+07   2.864059e+07   2.864059e+07   2.864058e+07   2.864056e+07
   2.864056e+07   2.864056e+07   2.864056e+07   2.864054e+07   2.864053e+07
   2.864052e+07   2.864051e+07   2.864051e+07   2.864051e+07   2.864050e+07
   2.864050e+07   2.864049e+07   2.864048e+07   2.864048e+07   2.864048e+07
   2.864047e+07   2.864047e+07   2.864046e+07   2.864045e+07   2.864045e+07
   2.864044e+07   2.864043e+07   2.864043e+07   2.864042e+07   2.864041e+07
   2.864041e+07   2.864041e+07   2.864042e+07   2.864041e+07   2.864040e+07
   2.864040e+07   2.864040e+07   2.864040e+07   2.864040e+07   2.864040e+07
   2.864040e+07   2.864040e+07   2.864041e+07   2.864040e+07   2.864040e+07
   2.864040e+07   2.864041e+07   2.864042e+07   2.864040e+07   2.864040e+07
   2.864040e+07   2.864040e+07   2.864041e+07   2.864040e+07   2.864041e+07
   2.864041e+07   2.864041e+07   2.864041e+07   2.864042e+07   2.864042e+07
   2.864041e+07   2.864041e+07   2.864040e+07   2.864040e+07   2.864040e+07
   2.864040e+07   2.864040e+07   2.864041e+07   2.864040e+07   2.864040e+07
   2.864040e+07   2.864040e+07   2.864041e+07   2.864040e+07   2.864040e+07
   2.864041e+07   2.864041e+07   2.864041e+07   2.864041e+07   2.864041e+07
   2.864041e+07   2.864040e+07   2.864040e+07   2.864041e+07   2.864041e+07
   2.864041e+07   2.864042e+07   2.864043e+07   2.864042e+07   2.864042e+07
   2.864042e+07   2.864042e+07   2.864041e+07   2.864041e+07   2.864042e+07
   2.864043e+07   2.864043e+07   2.864043e+07   2.864044e+07   2.864044e+07
   2.864044e+07   2.864047e+07   2.864047e+07   2.864049e+07   2.864051e+07
   2.864052e+07   2.864055e+07   2.864058e+07   2.864064e+07   2.864070e+07
   2.864076e+07   2.864084e+07   2.864094e+07   2.864106e+07   2.864123e+07
   2.864141e+07   2.864145e+07   2.864147e+07   2.864247e+07   2.864341e+07
   2.864471e+07   2.864685e+07   2.864751e+07   2.865098e+07   2.865158e+07
   2.865471e+07   2.865770e+07   2.865670e+07   2.866434e+07   2.865328e+07
   2.866533e+07   2.859839e+07   2.826504e+07   2.782198e+07   2.739783e+07
   2.695630e+07   2.651936e+07   2.608393e+07   2.563904e+07   2.519585e+07
   2.475351e+07   2.429986e+07   2.385022e+07   2.340232e+07   2.294461e+07
   2.249108e+07   2.203455e+07   2.157326e+07   2.111553e+07   2.065456e+07
   2.018634e+07   1.972131e+07   1.925442e+07   1.878404e+07   1.831692e+07
   1.784102e+07   1.736924e+07   1.689709e+07   1.641297e+07   1.593849e+07
   1.545944e+07   1.497707e+07   1.449982e+07   1.401237e+07   1.352894e+07
   1.304406e+07   1.255665e+07   1.207132e+07   1.158019e+07   1.109216e+07
   1.060162e+07   1.010909e+07       9618129.       9124642.       8629319.
       8137092.       7643279.       7144432.       6651204.       6154888.
       5654569.       5158821.       4661856.       4164013.       3665419.
       3163370.       2664701.       2170236.       1669073.       1166911.
       669628.0       168879.0      -331435.0      -830850.0      -1331225.
      -1828245.      -2327449.      -2827275.      -3326543.      -3824547.
      -4320445.      -4820199.      -5317753.      -5812008.      -6307163.
      -6804566.      -7298435.      -7791181.      -8287605.      -8779178.
      -9269478.      -9761502.  -1.025314e+07  -1.074175e+07  -1.122929e+07
  -1.171820e+07  -1.220266e+07  -1.268822e+07  -1.317507e+07  -1.365617e+07
  -1.413820e+07  -1.462028e+07  -1.509944e+07  -1.557747e+07  -1.605521e+07
  -1.653000e+07  -1.700324e+07  -1.747844e+07  -1.794729e+07  -1.841588e+07
  -1.888688e+07  -1.935318e+07  -1.981739e+07  -2.027944e+07  -2.074197e+07
  -2.120176e+07  -2.165686e+07  -2.211260e+07  -2.256659e+07  -2.302135e+07
  -2.347225e+07  -2.391921e+07  -2.436493e+07  -2.481094e+07  -2.525581e+07
  -2.569122e+07  -2.613332e+07  -2.656536e+07  -2.700455e+07  -2.743375e+07
  -2.785684e+07  -2.829109e+07  -2.848203e+07  -2.845861e+07  -2.846572e+07
  -2.846408e+07  -2.845958e+07  -2.846346e+07  -2.845791e+07  -2.846016e+07
  -2.845754e+07  -2.845687e+07  -2.845648e+07  -2.845482e+07  -2.845478e+07
