     0.02500000      -12345.00      -12345.00   3.355440e+10      -12345.00
   0.0005380000       1859.976      -602.0195      -12345.00      -12345.00
      -12345.00      -12345.00      -12345.00      -12345.00      -12345.00
      -12345.00      -12345.00      -12345.00      -12345.00      -12345.00
      -12345.00      -12345.00      -12345.00      -12345.00      -12345.00
      -12345.00      -12345.00      -12345.00      -12345.00      -12345.00
      -12345.00       19.75730      -155.5326       1990.000       0.000000
      -42.72450       173.0647      -12345.00       22.00000      -12345.00
      -12345.00      -12345.00      -12345.00      -12345.00      -12345.00
      -12345.00      -12345.00      -12345.00      -12345.00      -12345.00
       7625.265       31.81433       204.3588       68.57870      -12345.00
      -12345.00      -12345.00       0.000000       90.00000      -12345.00
      -12345.00      -12345.00      -12345.00      -12345.00      -12345.00
      -12345.00      -12345.00      -12345.00      -12345.00      -12345.00
      2016       318        11        13         1
        19         6    -12345    -12345     74400
    -12345    -12345    -12345    -12345    -12345
         1    -12345    -12345    -12345    -12345
    -12345    -12345    -12345    -12345    -12345
    -12345    -12345    -12345    -12345    -12345
    -12345    -12345    -12345    -12345    -12345
         1    -12345    -12345    -12345    -12345
POHA    South Island, Ne
10      -12345  -12345  
-12345  -12345  -12345  
-12345  -12345  -12345  
-12345  -12345  -12345  
-12345  -12345  -12345  
-12345  -12345  BH1     
IU      -12345  Streckei
[...]
      -4707718.      -4695521.      -4696536.      -4684935.      -4680422.
      -4668297.      -4661171.      -4659918.      -4639507.      -4641115.
      -4627477.      -4617313.      -4612444.      -4595746.      -4597013.
      -4577013.      -4570538.      -4562722.      -4547658.      -4541244.
      -4519581.      -4517841.      -4501366.      -4490910.      -4480165.
      -4460324.      -4457157.      -4430621.      -4425169.      -4409943.
      -4391537.      -4386630.      -4359071.      -4356423.      -4334172.
      -4319508.      -4309946.      -4282181.      -4279420.      -4256042.
      -4242880.      -4223804.      -4205118.      -4197498.      -4170142.
      -4167239.      -4145459.      -4131165.      -4121555.      -4097347.
      -4098722.      -4073182.      -4061232.      -4049983.      -4028280.
      -4022243.      -3997684.      -3992307.      -3969681.      -3949552.
      -3945863.      -3914280.      -3908283.      -3887434.      -3868595.
      -3862888.      -3832910.      -3827952.      -3803571.      -3784541.
      -3774199.      -3746777.      -3738093.      -3710179.      -3695789.
      -3677270.      -3648696.      -3638902.      -3612375.      -3596925.
      -3570509.      -3550967.      -3538566.      -3510525.      -3495804.
      -3468765.      -3457436.      -3434142.      -3405191.      -3395406.
      -3360575.      -3346499.      -3324466.      -3294948.      -3281466.
      -3251046.      -3230033.      -3203066.      -3183117.      -3157756.
      -3130391.      -3112767.      -3078797.      -3062803.      -3032258.
      -3006914.      -2987426.      -2952307.      -2936306.      -2901270.
      -2878758.      -2856118.      -2820656.      -2799201.      -2768064.
      -2749543.      -2712950.      -2685393.      -2662372.      -2623143.
      -2606316.      -2566136.      -2541047.      -2517096.      -2475988.
      -2455779.      -2415210.      -2385654.      -2357091.      -2324286.
      -2290920.      -2250414.      -2230864.      -2186791.      -2155678.
      -2128710.      -2079250.      -2053838.      -2016013.      -1978733.
      -1945792.      -1907531.      -1876009.      -1834375.      -1803638.
      -1762072.      -1727327.      -1696454.      -1647173.      -1620042.
      -1579656.      -1543498.      -1504540.      -1462424.      -1438357.
      -1387806.      -1355276.      -1317253.      -1274395.      -1246103.
      -1196807.      -1164711.      -1123590.      -1086575.      -1048693.
      -1000679.      -976479.0      -927555.0      -886800.0      -851420.0
      -806918.0      -775910.0      -726970.0      -691663.0      -653246.0
      -612831.0      -577971.0      -531959.0      -502479.0      -459477.0
      -422374.0      -385107.0      -340501.0      -311608.0      -269433.0
      -233970.0      -194249.0      -153086.0      -123398.0      -78860.00
      -42629.00      -5184.000       31654.00       65739.00       106091.0
       140921.0       182094.0       214376.0       251635.0       291131.0
       324918.0       360708.0       391505.0       437053.0       468696.0
       503288.0       544916.0       574065.0       619180.0       647549.0
       684853.0       723959.0       756937.0       800201.0       828766.0
       872409.0       902598.0       940648.0       976671.0       1000374.
       1055831.       1075852.       1110258.       1152991.       1175499.
       1223048.       1243871.       1280573.       1318471.       1345005.
       1385930.       1408785.       1451401.       1482743.       1509304.
       1548659.       1574158.       1615830.       1641525.       1673930.
       1710866.       1738038.       1779319.       1796423.       1837997.
       1872679.       1894214.       1937938.       1960058.       2001580.
       2031971.       2061729.       2100161.       2127901.       2174711.
       2195917.       2238920.       2276618.       2301007.       2353954.
       2373831.       2413913.       2453947.       2484341.       2530369.
       2558145.       2604854.       2637876.       2676324.       2716754.
       2742770.       2796208.       2824549.       2860194.       2896537.
       2931960.       2981970.       3001565.       3045880.       3084557.
       3114727.       3157258.       3186308.       3230943.       3260707.
       3295979.       3332710.       3366825.       3411764.       3430065.
       3474530.       3511468.       3537479.       3583463.       3606025.
       3644415.       3681417.       3715500.       3747134.       3775334.
       3821708.       3842867.       3877934.       3913617.       3942915.
       3980855.       4000950.       4043871.       4071219.       4099241.
       4138080.       4160022.       4202500.       4225279.       4257508.
       4293571.       4317208.       4357124.       4381335.       4418380.
       4443217.       4472546.       4508394.       4526889.       4569278.
       4587530.       4620048.       4656103.       4669091.       4709875.
       4731393.       4760996.       4785056.       4806604.       4845883.
       4861337.       4895652.       4914307.       4942459.       4977820.
       4983284.       5020324.       5039996.       5064747.       5091242.
       5102621.       5138274.       5149619.       5174162.       5194233.
       5210258.       5243016.       5251084.       5277015.       5292522.
       5311288.       5336229.       5342926.       5372042.       5386041.
       5401623.       5417835.       5429882.       5457126.       5464053.
       5480979.       5499632.       5515250.       5533170.       5541790.
       5567863.       5576019.       5591182.       5614939.       5620928.
       5642464.       5653488.       5679341.       5692341.       5696430.
       5721778.       5722738.       5748898.       5762974.       5773750.
       5793977.       5796313.       5826910.       5832823.       5845245.
       5861640.       5867811.       5890835.       5898514.       5914547.
       5920947.       5936391.       5951988.       5958886.       5980449.
       5980205.       5995672.       6008101.       6010059.       6028224.
       6036557.       6054186.       6047654.       6051653.       6079526.
       6078089.       6089667.       6084742.       6091781.       6114658.
       6106737.       6120676.       6121531.       6125631.       6136805.
       6135323.       6145460.       6139810.       6147972.       6145041.
       6143953.       6156979.       6149952.       6147705.       6139326.
       6149157.       6143984.       6132931.       6138888.       6129689.
       6135528.       6117723.       6123185.       6128036.       6101470.
       6120859.       6110773.       6101938.       6103468.       6099678.
       6099481.       6077922.       6097384.       6079621.       6067789.
       6081977.       6050771.       6065589.       6056028.       6038603.
       6052716.       6037310.       6035170.       6021197.       6013740.
       6016364.       5998959.       5999051.       5989152.       5978518.
       5971245.       5956955.       5958579.       5946826.       5934980.
       5922956.       5911129.       5902691.       5891016.       5894308.
       5867271.       5847094.       5850947.       5839006.       5820957.
       5797364.       5793162.       5774794.       5767106.       5758781.
       5719942.       5724668.       5711118.       5685419.       5680462.
       5660471.       5642987.       5619323.       5613874.       5595064.
       5570841.       5561982.       5531326.       5515588.       5497000.
       5478609.       5455392.       5432893.       5421097.       5392055.
       5375712.       5354344.       5332328.       5309924.       5279179.
       5264743.       5237857.       5212722.       5188632.       5151717.
       5140699.       5115264.       5075275.       5050969.       5028057.
       4997853.       4961107.       4942926.       4909567.       4880499.
       4855410.       4816200.       4797512.       4755406.       4723539.
       4693764.       4654613.       4629330.       4584729.       4562316.
       4520369.       4482166.       4460484.       4406841.       4387862.
       4346585.       4304342.       4281079.       4234230.       4207378.
       4160902.       4132447.       4092108.       4042524.       4021469.
       3970159.       3940312.       3895298.       3858729.       3829011.
       3765745.       3743700.       3696132.       3655245.       3627748.
       3569455.       3542462.       3498322.       3456072.       3415001.
       3370058.       3343415.       3292279.       3259750.       3219863.
       3172283.       3134147.       3076647.       3046539.       3004073.
       2958126.       2915938.       2867089.       2841204.       2789033.
       2747064.       2704702.       2659999.       2627326.       2571543.
       2539613.       2496408.       2450027.       2416262.       2366285.
       2331897.       2288150.       2247721.       2201182.       2155012.
       2124152.       2073345.       2034989.       1985211.       1944610.
       1908349.       1847314.       1814039.       1764772.       1720355.
       1680551.       1626853.       1592128.       1539822.       1498591.
       1451057.       1404851.       1366120.       1312469.       1280072.
       1226608.       1185667.       1146071.       1087934.       1056682.
       1003590.       965053.0       920985.0       866067.0       831672.0
       777878.0       744197.0       690015.0       645170.0       616014.0
       555562.0       522069.0       468662.0       427631.0       389409.0
       328878.0       297957.0       244322.0       205580.0       160912.0
       109493.0       73427.00       17807.00      -13963.00      -68642.00
      -114899.0      -146598.0      -205124.0      -242020.0      -291474.0
      -331222.0      -376252.0      -428016.0      -461978.0      -520240.0
      -554435.0      -606049.0      -659018.0      -692788.0      -753564.0
      -788453.0      -840410.0      -892991.0      -929164.0      -984091.0
      -1026161.      -1080488.      -1121204.      -1164625.      -1221053.
      -1258611.      -1314036.      -1356565.      -1404544.      -1456327.
      -1498123.      -1553076.      -1591184.      -1644469.      -1691032.
      -1733149.      -1789808.      -1831368.      -1885994.      -1922509.
      -1975865.      -2033319.      -2065175.      -2124205.      -2165658.
      -2216161.      -2267579.      -2305868.      -2359796.      -2401498.
      -2451513.      -2491659.      -2539301.      -2591222.      -2628631.
      -2682322.      -2717226.      -2766665.      -2815420.      -2852437.
      -2902988.      -2939087.      -2991339.      -3031340.      -3074229.
      -3125042.      -3158157.      -3210518.      -3248859.      -3290645.
      -3333529.      -3369236.      -3422355.      -3456695.      -3500176.
      -3545477.      -3585409.      -3632718.      -3667614.      -3714180.
      -3757723.      -3799866.      -3840794.      -3878558.      -3929953.
      -3962214.      -4004830.      -4052925.      -4089459.      -4135523.
      -4169587.      -4218310.      -4257937.      -4294707.      -4343998.
      -4373997.      -4424464.      -4459597.      -4496181.      -4542481.
      -4572951.      -4624057.      -4648734.      -4689310.      -4736027.
      -4763114.      -4808618.      -4834831.      -4876864.      -4915243.
      -4948544.      -4987669.      -5014703.      -5060666.      -5083529.
      -5118244.      -5155723.      -5177480.      -5223250.      -5244155.
      -5275494.      -5310085.      -5338867.      -5373962.      -5392521.
      -5432162.      -5455420.      -5482596.      -5516685.      -5534401.
      -5571681.      -5587048.      -5617347.      -5647178.      -5663495.
      -5701963.      -5717150.      -5746424.      -5773509.      -5794254.
      -5826282.      -5839881.      -5872002.      -5894440.      -5914247.
      -5939567.      -5955318.      -5987828.      -5996431.      -6017992.
      -6044379.      -6057761.      -6083021.      -6091565.      -6118326.
      -6134777.      -6151876.      -6172217.      -6180604.      -6213135.
      -6220103.      -6239155.      -6257334.      -6266316.      -6296638.
      -6299004.      -6319787.      -6335429.      -6348328.      -6371949.
      -6373508.      -6398339.      -6409427.      -6419408.      -6434844.
      -6442721.      -6461941.      -6458744.      -6477658.      -6489319.
      -6488891.      -6506220.      -6504726.      -6522747.      -6523883.
      -6528114.      -6546632.      -6536887.      -6551017.      -6554224.
      -6558881.      -6563468.      -6557633.      -6575217.      -6563421.
      -6569007.      -6573873.      -6564672.      -6576885.      -6563370.
      -6571251.      -6569506.      -6564376.      -6571460.      -6555005.
      -6565166.      -6559793.      -6557436.      -6556241.      -6543200.
      -6552257.      -6539024.      -6536506.      -6530643.      -6523577.
      -6524132.      -6501573.      -6503675.      -6495020.      -6483496.
      -6476023.      -6456863.      -6458329.      -6441014.      -6431892.
      -6422805.      -6407522.      -6404250.      -6381876.      -6377278.
      -6363271.      -6349562.      -6344006.      -6322132.      -6317795.
      -6296143.      -6286834.      -6274341.      -6250939.      -6251458.
      -6223732.      -6213747.      -6200553.      -6177926.      -6170810.
      -6143605.      -6133207.      -6108949.      -6092510.      -6079107.
      -6046706.      -6042592.      -6016671.      -6001979.      -5986776.
      -5959094.      -5953055.      -5923719.      -5913015.      -5891546.
      -5867360.      -5863274.      -5831900.      -5820582.      -5796549.
      -5780469.      -5767829.      -5731220.      -5725529.      -5697245.
      -5680548.      -5658757.      -5627956.      -5627220.      -5590352.
      -5574019.      -5558117.      -5531334.      -5518952.      -5488541.
      -5479572.      -5455877.      -5433864.      -5418391.      -5391492.
      -5383059.      -5353739.      -5336415.      -5317653.      -5291119.
      -5281617.      -5255451.      -5240385.      -5215014.      -5196320.
      -5183574.      -5151305.      -5139197.      -5112160.      -5093964.
      -5076121.      -5048193.      -5034387.      -5004500.      -4989207.
      -4963839.      -4938920.      -4925894.      -4893153.      -4876475.
      -4845378.      -4824832.      -4810488.      -4770504.      -4754549.
      -4729014.      -4707773.      -4682717.      -4651818.      -4636338.
      -4604305.      -4584180.      -4551099.      -4525973.      -4504799.
      -4466758.      -4451383.      -4414824.      -4391293.      -4365199.
      -4325385.      -4306882.      -4269326.      -4246462.      -4214058.
      -4179110.      -4158460.      -4119196.      -4094245.      -4054503.
      -4024309.      -3999236.      -3956145.      -3930009.      -3888784.
      -3862578.      -3825053.      -3781701.      -3760806.      -3714591.
      -3684142.      -3647007.      -3608057.      -3577232.      -3532663.
      -3505435.      -3457445.      -3423821.      -3393173.      -3346306.
      -3317599.      -3268098.      -3243331.      -3201579.      -3153724.
      -3133830.      -3079759.      -3050847.      -3012259.      -2969437.
      -2938224.      -2889869.      -2861323.      -2813076.      -2784123.
      -2750825.      -2703587.      -2675105.      -2626962.      -2602851.
      -2557921.      -2517126.      -2495714.      -2441320.      -2412721.
      -2372931.      -2334128.      -2306327.      -2259692.      -2227901.
      -2186030.      -2152433.      -2111219.      -2067888.      -2037106.
      -1989663.      -1962394.      -1917971.      -1873979.      -1846117.
      -1795155.      -1762731.      -1720463.      -1677826.      -1641368.
      -1595585.      -1561749.      -1513938.      -1481517.      -1439455.
      -1392303.      -1358366.      -1311244.      -1279931.      -1231267.
      -1189243.      -1154968.      -1106238.      -1071798.      -1024755.
      -987621.0      -945800.0      -904825.0      -870852.0      -818308.0
      -785337.0      -743259.0      -702138.0      -662377.0      -616735.0
      -585461.0      -530616.0      -495627.0      -460923.0      -408630.0
      -374134.0      -323880.0      -290809.0      -247980.0      -201965.0
      -166533.0      -115516.0      -85661.00      -36757.00       6016.000
       40105.00       86360.00       122974.0       174421.0       208476.0
       252346.0       299583.0       334910.0       387409.0       421337.0
       474079.0       516629.0       553037.0       610397.0       641663.0
       693659.0       737971.0       778475.0       826853.0       861144.0
       917856.0       949243.0       995265.0       1049481.       1080322.
       1134362.       1170077.       1215918.       1259810.       1299944.
       1348728.       1378265.       1429768.       1465973.       1510327.
       1556452.       1582381.       1641328.       1675188.       1714947.
       1763077.       1800544.       1850896.       1880128.       1930523.
       1972342.       2010597.       2059611.       2086483.       2142262.
       2183208.       2219568.       2265693.       2299314.       2351828.
       2384918.       2427540.       2472434.       2511728.       2559208.
       2585725.       2636806.       2675604.       2711222.       2760582.
       2792892.       2842520.       2876765.       2920649.       2962661.
       2997522.       3047143.       3074796.       3126012.       3161610.
       3194349.       3241852.       3270345.       3320806.       3351168.
       3390370.       3435732.       3461807.       3507972.       3535806.
       3575452.       3612118.       3645510.       3690798.       3711116.
       3755199.       3789015.       3821280.       3861578.       3882597.
       3927529.       3954750.       3987138.       4020788.       4041250.
       4085354.       4109626.       4142075.       4172380.       4203515.
       4242508.       4258290.       4298069.       4330612.       4360940.
       4392642.       4419020.       4463343.       4480923.       4513756.
