     0.02500000      -12345.00      -12345.00   2.546780e+09      -12345.00
   0.0005380000       1859.976      -569.0195      -12345.00      -12345.00
      -12345.00      -12345.00      -12345.00      -12345.00      -12345.00
      -12345.00      -12345.00      -12345.00      -12345.00      -12345.00
      -12345.00      -12345.00      -12345.00      -12345.00      -12345.00
      -12345.00      -12345.00      -12345.00      -12345.00      -12345.00
      -12345.00      -64.77440      -64.04890       40.00000       0.000000
      -42.72450       173.0647      -12345.00       22.00000      -12345.00
      -12345.00      -12345.00      -12345.00      -12345.00      -12345.00
      -12345.00      -12345.00      -12345.00      -12345.00      -12345.00
       7109.332       156.3851       223.5385       63.93859      -12345.00
      -12345.00      -12345.00       0.000000       90.00000      -12345.00
      -12345.00      -12345.00      -12345.00      -12345.00      -12345.00
      -12345.00      -12345.00      -12345.00      -12345.00      -12345.00
      2016       318        11        12        28
        19         6    -12345    -12345     74400
    -12345    -12345    -12345    -12345    -12345
         1    -12345    -12345    -12345    -12345
    -12345    -12345    -12345    -12345    -12345
    -12345    -12345    -12345    -12345    -12345
    -12345    -12345    -12345    -12345    -12345
         1    -12345    -12345    -12345    -12345
PMSA    South Island, Ne
10      -12345  -12345  
-12345  -12345  -12345  
-12345  -12345  -12345  
-12345  -12345  -12345  
-12345  -12345  -12345  
-12345  -12345  BH1     
IU      -12345  Streckei
[...]
      -369845.0      -368457.0      -367061.0      -365648.0      -364236.0
      -362830.0      -361398.0      -359968.0      -358540.0      -357106.0
      -355656.0      -354195.0      -352779.0      -351359.0      -349924.0
      -348511.0      -347091.0      -345707.0      -344347.0      -342967.0
      -341602.0      -340227.0      -338838.0      -337478.0      -336107.0
      -334730.0      -333363.0      -332007.0      -330671.0      -329325.0
      -327974.0      -326641.0      -325320.0      -323993.0      -322657.0
      -321329.0      -320004.0      -318693.0      -317373.0      -316060.0
      -314766.0      -313461.0      -312145.0      -310813.0      -309514.0
      -308220.0      -306926.0      -305660.0      -304376.0      -303143.0
      -301915.0      -300666.0      -299432.0      -298159.0      -296918.0
      -295678.0      -294424.0      -293206.0      -291981.0      -290755.0
      -289518.0      -288261.0      -287010.0      -285765.0      -284505.0
      -283256.0      -282015.0      -280743.0      -279486.0      -278233.0
      -276949.0      -275670.0      -274418.0      -273157.0      -271896.0
      -270631.0      -269357.0      -268087.0      -266776.0      -265490.0
      -264248.0      -262989.0      -261739.0      -260481.0      -259233.0
      -257992.0      -256736.0      -255490.0      -254253.0      -253039.0
      -251841.0      -250634.0      -249422.0      -248209.0      -246987.0
      -245774.0      -244553.0      -243296.0      -242034.0      -240789.0
      -239544.0      -238299.0      -237049.0      -235793.0      -234552.0
      -233271.0      -231977.0      -230750.0      -229503.0      -228235.0
      -226969.0      -225675.0      -224391.0      -223116.0      -221860.0
      -220583.0      -219307.0      -218068.0      -216809.0      -215555.0
      -214269.0      -212962.0      -211676.0      -210391.0      -209105.0
      -207821.0      -206544.0      -205216.0      -203901.0      -202649.0
      -201395.0      -200147.0      -198880.0      -197590.0      -196290.0
      -194977.0      -193660.0      -192326.0      -190992.0      -189673.0
      -188356.0      -187041.0      -185731.0      -184420.0      -183121.0
      -181809.0      -180485.0      -179196.0      -177922.0      -176642.0
      -175340.0      -173998.0      -172639.0      -171292.0      -169969.0
      -168681.0      -167376.0      -166041.0      -164740.0      -163433.0
      -162148.0      -160895.0      -159616.0      -158336.0      -157032.0
      -155716.0      -154417.0      -153117.0      -151810.0      -150503.0
      -149212.0      -147899.0      -146594.0      -145320.0      -144045.0
      -142768.0      -141490.0      -140234.0      -138970.0      -137716.0
      -136495.0      -135263.0      -134037.0      -132810.0      -131588.0
      -130353.0      -129094.0      -127850.0      -126626.0      -125425.0
      -124234.0      -123048.0      -121861.0      -120654.0      -119458.0
      -118276.0      -117070.0      -115859.0      -114644.0      -113413.0
      -112187.0      -110967.0      -109768.0      -108564.0      -107341.0
      -106121.0      -104882.0      -103651.0      -102425.0      -101199.0
      -100001.0      -98789.00      -97592.00      -96421.00      -95231.00
      -94041.00      -92824.00      -91582.00      -90353.00      -89102.00
      -87823.00      -86545.00      -85293.00      -84068.00      -82826.00
      -81582.00      -80319.00      -79020.00      -77767.00      -76503.00
      -75180.00      -73877.00      -72564.00      -71252.00      -69955.00
      -68601.00      -67255.00      -65916.00      -64510.00      -63108.00
      -61707.00      -60295.00      -58912.00      -57523.00      -56137.00
      -54720.00      -53305.00      -51945.00      -50568.00      -49187.00
      -47792.00      -46359.00      -44936.00      -43536.00      -42160.00
      -40783.00      -39372.00      -37948.00      -36554.00      -35190.00
      -33833.00      -32444.00      -31031.00      -29642.00      -28259.00
      -26854.00      -25444.00      -24045.00      -22618.00      -21172.00
      -19736.00      -18294.00      -16857.00      -15399.00      -13929.00
      -12474.00      -11015.00      -9533.000      -8041.000      -6541.000
      -4966.000      -3386.000      -1852.000      -296.0000       1268.000
       2836.000       4385.000       5922.000       7475.000       9034.000
       10623.00       12217.00       13819.00       15423.00       17006.00
       18612.00       20247.00       21885.00       23507.00       25125.00
       26756.00       28405.00       30050.00       31665.00       33310.00
       34987.00       36673.00       38356.00       40017.00       41673.00
       43342.00       45035.00       46724.00       48405.00       50115.00
       51829.00       53513.00       55195.00       56866.00       58533.00
       60230.00       61906.00       63582.00       65276.00       66951.00
       68624.00       70287.00       71950.00       73612.00       75281.00
       76964.00       78648.00       80342.00       82049.00       83766.00
       85472.00       87180.00       88911.00       90633.00       92324.00
       93997.00       95682.00       97365.00       99057.00       100778.0
       102510.0       104252.0       105998.0       107732.0       109475.0
       111242.0       112993.0       114729.0       116474.0       118212.0
       119953.0       121693.0       123428.0       125156.0       126856.0
       128539.0       130241.0       131970.0       133705.0       135440.0
       137161.0       138865.0       140563.0       142246.0       143911.0
       145556.0       147175.0       148785.0       150402.0       152016.0
       153609.0       155223.0       156867.0       158483.0       160099.0
       161746.0       163407.0       165095.0       166784.0       168439.0
       170090.0       171772.0       173458.0       175122.0       176816.0
       178518.0       180222.0       181975.0       183719.0       185440.0
       187165.0       188929.0       190733.0       192520.0       194305.0
       196081.0       197876.0       199693.0       201486.0       203269.0
       205040.0       206799.0       208555.0       210316.0       212092.0
       213848.0       215581.0       217309.0       219035.0       220780.0
       222554.0       224337.0       226111.0       227868.0       229589.0
       231305.0       233051.0       234803.0       236533.0       238288.0
       240064.0       241783.0       243490.0       245213.0       246934.0
       248675.0       250416.0       252140.0       253868.0       255606.0
       257349.0       259112.0       260859.0       262573.0       264290.0
       266003.0       267699.0       269409.0       271147.0       272875.0
       274588.0       276280.0       277983.0       279731.0       281464.0
       283194.0       284939.0       286685.0       288433.0       290154.0
       291898.0       293646.0       295384.0       297175.0       298924.0
       300639.0       302404.0       304147.0       305891.0       307663.0
       309423.0       311217.0       313021.0       314778.0       316547.0
       318345.0       320120.0       321892.0       323672.0       325417.0
       327187.0       328998.0       330778.0       332543.0       334324.0
       336116.0       337899.0       339686.0       341483.0       343266.0
       345043.0       346817.0       348592.0       350383.0       352189.0
       353973.0       355723.0       357455.0       359209.0       360986.0
       362738.0       364474.0       366179.0       367890.0       369626.0
       371349.0       373093.0       374823.0       376537.0       378261.0
       379953.0       381640.0       383355.0       385063.0       386758.0
       388485.0       390227.0       391944.0       393628.0       395287.0
       396963.0       398661.0       400358.0       402047.0       403716.0
       405394.0       407092.0       408775.0       410460.0       412181.0
       413867.0       415527.0       417212.0       418873.0       420525.0
       422151.0       423760.0       425378.0       426968.0       428582.0
       430190.0       431754.0       433322.0       434871.0       436432.0
       438012.0       439562.0       441100.0       442631.0       444150.0
       445686.0       447217.0       448724.0       450223.0       451701.0
       453163.0       454639.0       456088.0       457488.0       458883.0
       460300.0       461708.0       463092.0       464485.0       465871.0
       467249.0       468611.0       469931.0       471306.0       472707.0
       474039.0       475393.0       476752.0       478099.0       479455.0
       480750.0       482015.0       483283.0       484570.0       485869.0
       487161.0       488445.0       489713.0       490996.0       492288.0
       493563.0       494830.0       496095.0       497348.0       498589.0
       499830.0       501044.0       502249.0       503448.0       504637.0
       505841.0       507043.0       508234.0       509419.0       510576.0
       511723.0       512910.0       514092.0       515227.0       516371.0
       517523.0       518665.0       519789.0       520852.0       521940.0
       523074.0       524159.0       525242.0       526365.0       527481.0
       528560.0       529629.0       530653.0       531654.0       532706.0
       533767.0       534816.0       535844.0       536861.0       537898.0
       538940.0       539995.0       541010.0       541978.0       542978.0
       543987.0       544967.0       545954.0       546904.0       547817.0
       548766.0       549736.0       550738.0       551751.0       552733.0
       553727.0       554732.0       555724.0       556736.0       557747.0
       558706.0       559656.0       560626.0       561579.0       562557.0
       563540.0       564468.0       565398.0       566344.0       567295.0
       568295.0       569295.0       570245.0       571176.0       572074.0
       572975.0       573900.0       574804.0       575699.0       576610.0
       577520.0       578414.0       579320.0       580253.0       581185.0
       582106.0       583045.0       583993.0       584948.0       585921.0
       586875.0       587839.0       588799.0       589741.0       590710.0
       591656.0       592596.0       593572.0       594540.0       595515.0
       596516.0       597522.0       598537.0       599569.0       600592.0
       601581.0       602553.0       603540.0       604541.0       605514.0
       606487.0       607482.0       608481.0       609460.0       610430.0
       611422.0       612405.0       613399.0       614399.0       615365.0
       616328.0       617317.0       618321.0       619296.0       620261.0
       621199.0       622144.0       623126.0       624046.0       624967.0
       625927.0       626849.0       627751.0       628688.0       629646.0
       630589.0       631497.0       632369.0       633259.0       634149.0
       635022.0       635909.0       636770.0       637609.0       638443.0
       639301.0       640199.0       641061.0       641886.0       642729.0
       643570.0       644402.0       645215.0       646000.0       646802.0
       647609.0       648377.0       649135.0       649893.0       650657.0
       651439.0       652178.0       652895.0       653648.0       654412.0
       655195.0       655999.0       656776.0       657554.0       658332.0
       659102.0       659898.0       660679.0       661448.0       662243.0
       663021.0       663760.0       664499.0       665238.0       665988.0
       666731.0       667431.0       668136.0       668846.0       669553.0
       670268.0       670965.0       671650.0       672311.0       672977.0
       673658.0       674346.0       675050.0       675720.0       676356.0
       676989.0       677587.0       678178.0       678800.0       679407.0
       680016.0       680634.0       681211.0       681775.0       682326.0
       682859.0       683398.0       683916.0       684433.0       684965.0
       685498.0       686054.0       686624.0       687176.0       687722.0
       688262.0       688800.0       689339.0       689849.0       690366.0
       690885.0       691370.0       691864.0       692363.0       692838.0
       693291.0       693699.0       694062.0       694425.0       694782.0
       695130.0       695493.0       695862.0       696218.0       696546.0
       696881.0       697219.0       697517.0       697809.0       698074.0
       698315.0       698566.0       698780.0       698983.0       699201.0
       699368.0       699509.0       699635.0       699734.0       699853.0
       699967.0       700075.0       700183.0       700240.0       700277.0
       700345.0       700397.0       700406.0       700404.0       700394.0
       700406.0       700414.0       700378.0       700322.0       700243.0
       700160.0       700075.0       699968.0       699837.0       699667.0
       699471.0       699257.0       699023.0       698790.0       698564.0
       698331.0       698077.0       697799.0       697511.0       697212.0
       696895.0       696568.0       696219.0       695858.0       695503.0
       695149.0       694783.0       694394.0       693993.0       693576.0
       693140.0       692690.0       692227.0       691767.0       691293.0
       690782.0       690248.0       689707.0       689159.0       688603.0
       688030.0       687449.0       686875.0       686290.0       685705.0
       685112.0       684485.0       683855.0       683202.0       682541.0
       681875.0       681174.0       680477.0       679768.0       679041.0
       678297.0       677523.0       676767.0       676009.0       675220.0
       674394.0       673533.0       672683.0       671831.0       670959.0
       670099.0       669255.0       668408.0       667537.0       666631.0
       665706.0       664762.0       663798.0       662840.0       661870.0
       660863.0       659856.0       658851.0       657825.0       656809.0
       655800.0       654772.0       653737.0       652680.0       651612.0
       650569.0       649526.0       648458.0       647395.0       646327.0
       645242.0       644179.0       643122.0       642029.0       640910.0
       639769.0       638612.0       637462.0       636331.0       635193.0
       634025.0       632871.0       631689.0       630504.0       629324.0
       628088.0       626908.0       625744.0       624542.0       623357.0
       622169.0       620964.0       619713.0       618427.0       617150.0
       615885.0       614612.0       613355.0       612114.0       610853.0
       609614.0       608395.0       607136.0       605853.0       604591.0
       603354.0       602083.0       600764.0       599459.0       598179.0
       596917.0       595651.0       594363.0       593087.0       591811.0
       590514.0       589216.0       587925.0       586641.0       585348.0
       584041.0       582718.0       581353.0       579983.0       578621.0
       577227.0       575840.0       574450.0       573035.0       571587.0
       570097.0       568615.0       567147.0       565665.0       564175.0
       562685.0       561190.0       559700.0       558193.0       556676.0
       555152.0       553572.0       552010.0       550457.0       548853.0
       547270.0       545687.0       544088.0       542491.0       540879.0
       539282.0       537685.0       536038.0       534401.0       532780.0
       531142.0       529548.0       527922.0       526262.0       524646.0
       522977.0       521301.0       519633.0       517904.0       516214.0
       514542.0       512847.0       511208.0       509553.0       507839.0
       506138.0       504437.0       502731.0       501039.0       499334.0
       497620.0       495909.0       494156.0       492386.0       490652.0
       488910.0       487146.0       485369.0       483589.0       481826.0
       480049.0       478290.0       476554.0       474793.0       473036.0
       471267.0       469478.0       467691.0       465887.0       464074.0
       462222.0       460340.0       458474.0       456593.0       454689.0
       452790.0       450900.0       449001.0       447105.0       445214.0
       443320.0       441436.0       439538.0       437601.0       435649.0
       433683.0       431678.0       429652.0       427616.0       425593.0
       423592.0       421591.0       419604.0       417617.0       415621.0
       413631.0       411627.0       409598.0       407564.0       405535.0
       403516.0       401502.0       399467.0       397434.0       395411.0
       393387.0       391356.0       389287.0       387231.0       385182.0
       383117.0       381075.0       379013.0       376954.0       374909.0
       372860.0       370804.0       368722.0       366639.0       364544.0
       362437.0       360273.0       358080.0       355906.0       353724.0
       351531.0       349324.0       347114.0       344875.0       342644.0
       340434.0       338205.0       336003.0       333787.0       331537.0
       329312.0       327094.0       324885.0       322674.0       320432.0
       318227.0       316046.0       313855.0       311694.0       309534.0
       307363.0       305192.0       302999.0       300809.0       298619.0
       296405.0       294207.0       292014.0       289827.0       287680.0
       285525.0       283361.0       281197.0       279015.0       276846.0
       274652.0       272459.0       270291.0       268094.0       265908.0
       263729.0       261541.0       259386.0       257240.0       255082.0
       252938.0       250810.0       248677.0       246554.0       244423.0
       242276.0       240148.0       238018.0       235885.0       233752.0
       231637.0       229551.0       227443.0       225327.0       223223.0
       221118.0       219045.0       216979.0       214904.0       212855.0
       210804.0       208780.0       206772.0       204729.0       202684.0
       200645.0       198633.0       196634.0       194624.0       192612.0
       190601.0       188629.0       186662.0       184694.0       182755.0
       180830.0       178911.0       176981.0       175068.0       173169.0
       171287.0       169421.0       167548.0       165692.0       163834.0
       161995.0       160188.0       158375.0       156578.0       154796.0
