     0.02500000      -12345.00      -12345.00   2.447790e+09      -12345.00
   0.0005380000       1859.976      -467.0196      -12345.00      -12345.00
      -12345.00      -12345.00      -12345.00      -12345.00      -12345.00
      -12345.00      -12345.00      -12345.00      -12345.00      -12345.00
      -12345.00      -12345.00      -12345.00      -12345.00      -12345.00
      -12345.00      -12345.00      -12345.00      -12345.00      -12345.00
      -12345.00      -25.07130      -130.0953       218.0000       2.000000
      -42.72450       173.0647      -12345.00       22.00000      -12345.00
      -12345.00      -12345.00      -12345.00      -12345.00      -12345.00
      -12345.00      -12345.00      -12345.00      -12345.00      -12345.00
       5495.869       88.12969       234.3050       49.42772      -12345.00
      -12345.00      -12345.00       0.000000       90.00000      -12345.00
      -12345.00      -12345.00      -12345.00      -12345.00      -12345.00
      -12345.00      -12345.00      -12345.00      -12345.00      -12345.00
      2016       318        11        10        46
        19         6    -12345    -12345     74400
    -12345    -12345    -12345    -12345    -12345
         1    -12345    -12345    -12345    -12345
    -12345    -12345    -12345    -12345    -12345
    -12345    -12345    -12345    -12345    -12345
    -12345    -12345    -12345    -12345    -12345
         1    -12345    -12345    -12345    -12345
PTCN    South Island, Ne
00      -12345  -12345  
-12345  -12345  -12345  
-12345  -12345  -12345  
-12345  -12345  -12345  
-12345  -12345  -12345  
-12345  -12345  BH1     
IU      -12345  Streckei
[...]
      -284453.0      -278849.0      -274849.0      -271954.0      -275576.0
      -273134.0      -263550.0      -257610.0      -253754.0      -250926.0
      -250265.0      -249164.0      -244117.0      -238176.0      -236584.0
      -233459.0      -227206.0      -222838.0      -220522.0      -215083.0
      -209410.0      -208721.0      -202375.0      -194030.0      -193854.0
      -192105.0      -186873.0      -181807.0      -180320.0      -180380.0
      -174294.0      -168416.0      -162311.0      -157902.0      -158674.0
      -154300.0      -150210.0      -148422.0      -144485.0      -140482.0
      -131710.0      -129141.0      -134485.0      -129116.0      -119039.0
      -114703.0      -112236.0      -112940.0      -113382.0      -108860.0
      -106522.0      -102788.0      -98519.00      -101324.0      -102462.0
      -99389.00      -94722.00      -93422.00      -95324.00      -91881.00
      -88993.00      -84798.00      -78541.00      -78739.00      -79243.00
      -77250.00      -73963.00      -73461.00      -70115.00      -60290.00
      -58978.00      -59126.00      -54065.00      -49114.00      -43416.00
      -38692.00      -33366.00      -30771.00      -29078.00      -21458.00
      -13704.00      -9612.000      -7250.000      -5796.000      -2241.000
       4349.000       6824.000       8886.000       17683.00       22446.00
       23691.00       28748.00       33244.00       37157.00       40754.00
       46026.00       53013.00       56348.00       61203.00       64147.00
       63124.00       69250.00       74965.00       76062.00       76847.00
       79133.00       84226.00       85453.00       86521.00       88596.00
       89127.00       91236.00       94787.00       101846.0       108422.0
       111067.0       113156.0       117965.0       123604.0       125932.0
       127466.0       130366.0       132780.0       132442.0       137177.0
       151391.0       157357.0       151114.0       149044.0       155457.0
       165992.0       174645.0       176823.0       176391.0       179155.0
       182040.0       185569.0       193521.0       194249.0       190598.0
       197218.0       201049.0       194730.0       196597.0       205112.0
       205864.0       210386.0       220496.0       218132.0       214028.0
       221270.0       225036.0       225457.0       231549.0       233440.0
       232291.0       238184.0       245659.0       248287.0       247304.0
       246739.0       252813.0       260421.0       259828.0       259398.0
       265388.0       270409.0       271391.0       275426.0       280189.0
       278525.0       284344.0       293769.0       291235.0       291740.0
       300562.0       306541.0       310819.0       315183.0       318994.0
       321482.0       321973.0       326535.0       334143.0       335377.0
       335166.0       339549.0       342985.0       344190.0       344846.0
       349463.0       355504.0       358570.0       363176.0       365809.0
       367825.0       371632.0       374781.0       378563.0       381438.0
       388752.0       399696.0       406825.0       412743.0       418582.0
       420789.0       419428.0       418859.0       418618.0       419261.0
       423502.0       427113.0       429339.0       433653.0       435800.0
       434361.0       437249.0       443649.0       449854.0       455199.0
       456435.0       455154.0       455880.0       461370.0       467871.0
       471753.0       475762.0       479846.0       482244.0       484270.0
       485882.0       486134.0       487648.0       489448.0       489735.0
       493055.0       499507.0       504653.0       510159.0       515782.0
       517303.0       520432.0       526955.0       530579.0       534072.0
       536217.0       532665.0       529085.0       532678.0       540432.0
       543341.0       543077.0       541075.0       538328.0       542754.0
       548452.0       549046.0       549691.0       549998.0       549318.0
       547920.0       547188.0       551592.0       555751.0       553968.0
       549477.0       547598.0       549697.0       550136.0       548071.0
       546229.0       545212.0       548454.0       555284.0       559533.0
       557084.0       553002.0       554384.0       556510.0       556739.0
       558268.0       559884.0       559865.0       554437.0       547741.0
       551164.0       555977.0       554482.0       556697.0       558820.0
       555643.0       554408.0       553608.0       550109.0       549618.0
       550120.0       550298.0       554205.0       555503.0       553805.0
       555017.0       557226.0       557766.0       555500.0       551840.0
       551938.0       554874.0       557709.0       559430.0       557392.0
       555231.0       554961.0       557366.0       560899.0       560503.0
       559135.0       559552.0       562763.0       564058.0       562848.0
       566326.0       566833.0       562350.0       559047.0       555044.0
       556493.0       560665.0       559818.0       560138.0       559208.0
       554744.0       552222.0       551769.0       552756.0       551665.0
       548302.0       548509.0       548194.0       543585.0       539555.0
       537259.0       534668.0       533388.0       533713.0       533269.0
       533313.0       531624.0       528899.0       528072.0       525043.0
       522804.0       523891.0       522312.0       519379.0       517418.0
       513312.0       509170.0       506113.0       504722.0       504041.0
       500495.0       494287.0       483843.0       477200.0       477907.0
       475188.0       470870.0       467791.0       462153.0       456865.0
       452998.0       447656.0       442787.0       439851.0       436183.0
       430810.0       425500.0       420383.0       414279.0       411078.0
       408965.0       405035.0       404674.0       402248.0       395285.0
       389644.0       386175.0       383220.0       372218.0       361575.0
       358523.0       351034.0       343527.0       338952.0       331370.0
       322702.0       316380.0       312315.0       306225.0       297607.0
       288841.0       281807.0       275436.0       269222.0       264617.0
       257188.0       246777.0       237036.0       227184.0       219109.0
       212538.0       206179.0       199834.0       187977.0       177603.0
       176691.0       173836.0       163718.0       153611.0       148389.0
       142907.0       134446.0       125034.0       114401.0       109331.0
       103086.0       91140.00       83669.00       75965.00       68999.00
       62401.00       53209.00       46865.00       37019.00       26891.00
       21232.00       14484.00       8022.000       135.0000      -9180.000
      -18504.00      -31017.00      -42612.00      -50043.00      -57806.00
      -68490.00      -78215.00      -84734.00      -95642.00      -112220.0
      -125628.0      -135441.0      -144589.0      -151827.0      -159147.0
      -165777.0      -174574.0      -187649.0      -195528.0      -203984.0
      -214461.0      -218752.0      -224815.0      -232837.0      -242087.0
      -254021.0      -262989.0      -273031.0      -283503.0      -293140.0
      -306374.0      -317137.0      -326072.0      -335995.0      -345847.0
      -356823.0      -367369.0      -380775.0      -394642.0      -405311.0
      -415931.0      -421622.0      -425815.0      -437382.0      -447302.0
      -457419.0      -472995.0      -479475.0      -482531.0      -496313.0
      -509604.0      -516117.0      -526562.0      -539836.0      -546469.0
      -552612.0      -566940.0      -581962.0      -592804.0      -605704.0
      -617874.0      -629054.0      -642769.0      -653229.0      -662358.0
      -675250.0      -689855.0      -702717.0      -711108.0      -718800.0
      -732026.0      -744138.0      -751424.0      -761453.0      -774307.0
      -789121.0      -801159.0      -808522.0      -817084.0      -825638.0
      -835179.0      -845325.0      -855878.0      -868774.0      -883048.0
      -896850.0      -905471.0      -914557.0      -927149.0      -937176.0
      -948413.0      -959659.0      -966681.0      -977325.0      -993744.0
      -1008068.      -1018147.      -1026430.      -1033432.      -1040096.
      -1048338.      -1060480.      -1073559.      -1081881.      -1087366.
      -1092602.      -1098905.      -1109359.      -1118342.      -1121718.
      -1130626.      -1143088.      -1152485.      -1163078.      -1166797.
      -1167766.      -1175896.      -1185533.      -1197878.      -1208578.
      -1212566.      -1220108.      -1227685.      -1229058.      -1237860.
      -1247869.      -1249083.      -1253233.      -1258764.      -1264653.
      -1271937.      -1276758.      -1280877.      -1281158.      -1281442.
      -1286103.      -1290734.      -1296193.      -1299470.      -1298418.
      -1303709.      -1308234.      -1306492.      -1313619.      -1319820.
      -1320912.      -1327193.      -1326293.      -1320263.      -1325365.
      -1333272.      -1333535.      -1336893.      -1343933.      -1344472.
      -1343111.      -1340368.      -1341263.      -1350871.      -1348910.
      -1341794.      -1349634.      -1351578.      -1345070.      -1347479.
      -1348405.      -1346387.      -1346821.      -1345659.      -1346228.
      -1349249.      -1345361.      -1334667.      -1338517.      -1348856.
      -1341675.      -1333663.      -1333136.      -1331822.      -1328484.
      -1321647.      -1318699.      -1320899.      -1316212.      -1302788.
      -1297720.      -1300734.      -1298041.      -1291045.      -1282531.
      -1277926.      -1273964.      -1266172.      -1260785.      -1257023.
      -1252542.      -1241897.      -1229800.      -1222971.      -1211869.
      -1199393.      -1190328.      -1180328.      -1171043.      -1160385.
      -1149281.      -1141453.      -1129757.      -1112189.      -1094624.
      -1081520.      -1073155.      -1061813.      -1046818.      -1036401.
      -1027409.      -1015341.      -1001381.      -985671.0      -975984.0
      -967290.0      -950222.0      -934860.0      -921479.0      -905198.0
      -890729.0      -878383.0      -863749.0      -844196.0      -823658.0
      -805475.0      -789315.0      -775876.0      -760296.0      -739555.0
      -720294.0      -704651.0      -683343.0      -658344.0      -643924.0
      -631641.0      -609805.0      -588672.0      -572228.0      -553027.0
      -531711.0      -512256.0      -492808.0      -471780.0      -447498.0
      -425968.0      -412306.0      -396218.0      -375426.0      -352866.0
      -330701.0      -311374.0      -290394.0      -270665.0      -248657.0
      -222694.0      -204058.0      -189792.0      -172909.0      -147026.0
      -118100.0      -100642.0      -84331.00      -62620.00      -41025.00
      -19559.00      -615.0000       18095.00       40086.00       64512.00
       87400.00       105377.0       125941.0       147652.0       165730.0
       190485.0       216701.0       237521.0       263559.0       291444.0
       310757.0       329572.0       354508.0       377210.0       398689.0
       422630.0       443788.0       464538.0       487001.0       509037.0
       531696.0       550932.0       570035.0       595292.0       619098.0
       638599.0       657317.0       676701.0       696705.0       718709.0
       743129.0       764324.0       784874.0       807276.0       826213.0
       846236.0       871223.0       894825.0       914720.0       935520.0
       959558.0       983497.0       1003617.       1021283.       1039235.
       1056382.       1075513.       1097250.       1117988.       1139651.
       1160223.       1179308.       1197348.       1212400.       1230502.
       1250932.       1267812.       1285432.       1305612.       1321599.
       1332786.       1344343.       1358793.       1376650.       1393558.
       1407359.       1421361.       1434131.       1445358.       1460178.
       1478500.       1495450.       1508566.       1520159.       1535617.
       1552221.       1563713.       1574111.       1586198.       1598734.
       1613522.       1626363.       1634510.       1646409.       1664084.
       1679670.       1689473.       1695530.       1703641.       1714720.
       1722730.       1727917.       1736846.       1750352.       1760373.
       1765009.       1768639.       1771721.       1779452.       1790369.
       1798464.       1805853.       1808310.       1809714.       1816883.
       1823330.       1827909.       1831319.       1836487.       1842567.
       1841113.       1839822.       1844308.       1848184.       1851882.
       1857974.       1863033.       1862357.       1863607.       1868380.
       1869701.       1870461.       1868600.       1863697.       1863016.
       1867921.       1871896.       1871734.       1870238.       1864958.
       1859082.       1858562.       1858354.       1856875.       1853184.
       1843367.       1834557.       1830195.       1826385.       1823309.
       1817014.       1806478.       1794586.       1783948.       1779015.
       1774423.       1767666.       1761415.       1752355.       1741338.
       1727757.       1715599.       1708745.       1702570.       1695912.
       1685791.       1675506.       1665337.       1651807.       1639628.
       1625820.       1612174.       1599849.       1585331.       1572262.
       1557075.       1541825.       1530556.       1516956.       1502320.
       1487338.       1469011.       1451875.       1439703.       1428252.
       1411938.       1396526.       1384390.       1369070.       1351188.
       1332114.       1313426.       1294643.       1276125.       1259953.
       1239611.       1214933.       1197126.       1187121.       1174385.
       1156133.       1135076.       1116616.       1101169.       1080474.
       1057693.       1038645.       1018798.       994642.0       971405.0
       949693.0       927579.0       907989.0       885341.0       859235.0
       835846.0       814278.0       794704.0       777690.0       757495.0
       729730.0       699977.0       675231.0       654856.0       634594.0
       612392.0       590198.0       568847.0       543722.0       517778.0
       495793.0       473056.0       447187.0       419080.0       391589.0
       368725.0       352528.0       338299.0       319679.0       295663.0
       267918.0       241448.0       215957.0       189565.0       164951.0
       143429.0       121476.0       98402.00       77690.00       55763.00
       35870.00       19739.00      -1388.000      -26077.00      -51608.00
      -79038.00      -104544.0      -125929.0      -145550.0      -164558.0
      -182286.0      -200169.0      -219457.0      -238316.0      -257579.0
      -278119.0      -298593.0      -318777.0      -337365.0      -355120.0
      -370880.0      -383718.0      -399406.0      -420270.0      -441443.0
      -459020.0      -474305.0      -489275.0      -505340.0      -522896.0
      -539654.0      -555428.0      -572600.0      -590417.0      -605299.0
      -618441.0      -633433.0      -647618.0      -662818.0      -683203.0
      -700363.0      -712343.0      -725751.0      -740252.0      -754883.0
      -769466.0      -782991.0      -792836.0      -803187.0      -819305.0
      -835022.0      -850493.0      -863994.0      -872685.0      -887700.0
      -904448.0      -916237.0      -926522.0      -932087.0      -939508.0
      -947982.0      -956295.0      -972859.0      -990856.0      -1008784.
      -1021821.      -1025135.      -1032601.      -1043412.      -1052008.
      -1060587.      -1070396.      -1081022.      -1087496.      -1097545.
      -1111009.      -1116534.      -1123851.      -1135060.      -1139079.
      -1141714.      -1148501.      -1154428.      -1158814.      -1161813.
      -1164284.      -1170738.      -1180030.      -1187727.      -1193567.
      -1196006.      -1195150.      -1198063.      -1204904.      -1209930.
      -1211942.      -1210681.      -1207723.      -1207305.      -1208500.
      -1211718.      -1219071.      -1221020.      -1216901.      -1214933.
      -1212877.      -1210560.      -1209329.      -1209444.      -1209746.
      -1208046.      -1207157.      -1202633.      -1193428.      -1189490.
      -1186898.      -1181040.      -1176167.      -1169015.      -1158757.
      -1150894.      -1147460.      -1143654.      -1137024.      -1130403.
      -1122974.      -1114803.      -1107661.      -1101207.      -1093035.
      -1083367.      -1074999.      -1064422.      -1051774.      -1044656.
      -1040053.      -1031105.      -1019954.      -1008708.      -999716.0
      -994541.0      -988935.0      -979479.0      -966488.0      -953416.0
      -943352.0      -933740.0      -924844.0      -916288.0      -903749.0
      -893233.0      -883412.0      -869649.0      -861295.0      -849929.0
      -833117.0      -824404.0      -809863.0      -795849.0      -795302.0
      -785959.0      -768947.0      -755867.0      -743934.0      -729857.0
      -713413.0      -699378.0      -687924.0      -676597.0      -661295.0
      -644479.0      -633363.0      -629639.0      -621911.0      -602918.0
      -590082.0      -579687.0      -563649.0      -552632.0      -538470.0
      -524534.0      -515316.0      -504307.0      -497488.0      -488616.0
      -471407.0      -456163.0      -449287.0      -437934.0      -418446.0
      -403895.0      -389655.0      -372944.0      -361293.0      -352654.0
      -340667.0      -327329.0      -314874.0      -301167.0      -288384.0
      -275281.0      -266199.0      -256726.0      -238762.0      -223757.0
      -214969.0      -204684.0      -193184.0      -187724.0      -175673.0
      -155325.0      -146807.0      -137412.0      -125982.0      -123225.0
      -114412.0      -101367.0      -90275.00      -80626.00      -72401.00
      -63817.00      -57385.00      -48997.00      -39378.00      -26560.00
      -14456.00      -11721.00      -2126.000       11594.00       19075.00
       31085.00       39842.00       42237.00       51761.00       63514.00
       67408.00       72765.00       90070.00       104013.0       103908.0
       105554.0       116684.0       126511.0       127861.0       129478.0
       139885.0       150128.0       153123.0       156342.0       162820.0
