     0.02500000      -12345.00      -12345.00   2.447790e+09      -12345.00
   0.0005390000       1859.976      -467.0196      -12345.00      -12345.00
      -12345.00      -12345.00      -12345.00      -12345.00      -12345.00
      -12345.00      -12345.00      -12345.00      -12345.00      -12345.00
      -12345.00      -12345.00      -12345.00      -12345.00      -12345.00
      -12345.00      -12345.00      -12345.00      -12345.00      -12345.00
      -12345.00      -25.07130      -130.0953       218.0000       2.000000
      -42.72450       173.0647      -12345.00       22.00000      -12345.00
      -12345.00      -12345.00      -12345.00      -12345.00      -12345.00
      -12345.00      -12345.00      -12345.00      -12345.00      -12345.00
       5495.869       88.12969       234.3050       49.42772      -12345.00
      -12345.00      -12345.00       90.00000       90.00000      -12345.00
      -12345.00      -12345.00      -12345.00      -12345.00      -12345.00
      -12345.00      -12345.00      -12345.00      -12345.00      -12345.00
      2016       318        11        10        46
        19         6    -12345    -12345     74400
    -12345    -12345    -12345    -12345    -12345
         1    -12345    -12345    -12345    -12345
    -12345    -12345    -12345    -12345    -12345
    -12345    -12345    -12345    -12345    -12345
    -12345    -12345    -12345    -12345    -12345
         1    -12345    -12345    -12345    -12345
PTCN    South Island, Ne
00      -12345  -12345  
-12345  -12345  -12345  
-12345  -12345  -12345  
-12345  -12345  -12345  
-12345  -12345  -12345  
-12345  -12345  BH2     
IU      -12345  Streckei
[...]
      -688274.0      -695097.0      -703103.0      -712225.0      -722210.0
      -732086.0      -738676.0      -742911.0      -749854.0      -760201.0
      -769069.0      -774141.0      -778015.0      -783685.0      -791841.0
      -801235.0      -810628.0      -815655.0      -819219.0      -827620.0
      -838558.0      -847760.0      -851360.0      -853455.0      -858943.0
      -865968.0      -872402.0      -875525.0      -877043.0      -879404.0
      -883011.0      -889474.0      -896217.0      -900846.0      -903022.0
      -905072.0      -911370.0      -915654.0      -916945.0      -922760.0
      -926067.0      -925278.0      -928533.0      -932760.0      -934946.0
      -937234.0      -941759.0      -946895.0      -948545.0      -947254.0
      -946384.0      -949438.0      -953478.0      -954215.0      -954003.0
      -954642.0      -955118.0      -955945.0      -958712.0      -960233.0
      -959426.0      -958734.0      -956687.0      -953793.0      -953613.0
      -955892.0      -955791.0      -953545.0      -951797.0      -951476.0
      -952813.0      -953189.0      -954959.0      -955181.0      -951077.0
      -950055.0      -949918.0      -949240.0      -948700.0      -943117.0
      -938422.0      -936621.0      -933286.0      -933267.0      -932544.0
      -926866.0      -923589.0      -920896.0      -917718.0      -917007.0
      -914307.0      -910711.0      -907183.0      -903963.0      -903075.0
      -903691.0      -905009.0      -900760.0      -894373.0      -891684.0
      -888719.0      -884202.0      -879080.0      -875557.0      -871893.0
      -871166.0      -872580.0      -867050.0      -860642.0      -858243.0
      -856768.0      -856326.0      -852665.0      -846704.0      -842620.0
      -837766.0      -834543.0      -832005.0      -826313.0      -821105.0
      -815759.0      -809785.0      -804418.0      -799832.0      -797408.0
      -794699.0      -789407.0      -780954.0      -772791.0      -767198.0
      -761969.0      -758481.0      -754475.0      -747824.0      -738659.0
      -728213.0      -721402.0      -715497.0      -710123.0      -704048.0
      -693914.0      -686475.0      -681987.0      -676009.0      -664607.0
      -652390.0      -646103.0      -637452.0      -627158.0      -621640.0
      -614466.0      -603713.0      -596946.0      -591822.0      -581193.0
      -568302.0      -559283.0      -553953.0      -545954.0      -535563.0
      -526649.0      -519381.0      -513310.0      -502945.0      -489846.0
      -480359.0      -473098.0      -466919.0      -460234.0      -451348.0
      -440887.0      -428772.0      -418171.0      -412747.0      -407936.0
      -399216.0      -388679.0      -377422.0      -370114.0      -369333.0
      -365339.0      -355819.0      -347100.0      -338451.0      -332527.0
      -328041.0      -315972.0      -304139.0      -297167.0      -290436.0
      -284557.0      -276488.0      -269864.0      -263186.0      -253133.0
      -244130.0      -234262.0      -225401.0      -217508.0      -208492.0
      -201014.0      -194905.0      -186932.0      -174858.0      -161923.0
      -153231.0      -151682.0      -150107.0      -142316.0      -134442.0
      -126047.0      -115153.0      -104887.0      -95016.00      -86964.00
      -80485.00      -74005.00      -66843.00      -56190.00      -45986.00
      -39677.00      -33590.00      -27142.00      -19332.00      -10141.00
      -2025.000       7462.000       17991.00       27180.00       36660.00
       44246.00       52876.00       66270.00       75132.00       80293.00
       91005.00       102380.0       107710.0       110611.0       117257.0
       130264.0       142447.0       146318.0       155937.0       173584.0
       178310.0       177593.0       186396.0       196441.0       203544.0
       208628.0       213817.0       225906.0       241734.0       246770.0
       244583.0       253018.0       264424.0       269178.0       276893.0
       289985.0       300796.0       303057.0       305267.0       314717.0
       322324.0       323061.0       325189.0       336769.0       348821.0
       352186.0       351267.0       355088.0       364590.0       368285.0
       368232.0       374907.0       382570.0       384780.0       388968.0
       397149.0       401647.0       402895.0       404467.0       410284.0
       420846.0       427209.0       428957.0       432667.0       435610.0
       437854.0       442541.0       449111.0       459140.0       463369.0
       457807.0       458685.0       465919.0       467695.0       467420.0
       468954.0       472905.0       480377.0       484277.0       483827.0
       485720.0       486752.0       488039.0       492017.0       495343.0
       499369.0       498842.0       497147.0       502236.0       504981.0
       504327.0       502867.0       501518.0       504726.0       509554.0
       513835.0       515921.0       516086.0       514770.0       514195.0
       518418.0       520072.0       520088.0       522669.0       523458.0
       525055.0       526816.0       526749.0       524652.0       520318.0
       519805.0       521004.0       520704.0       521134.0       519075.0
       518608.0       520686.0       517925.0       515293.0       517299.0
       519869.0       519936.0       517722.0       517080.0       518659.0
       519638.0       520743.0       522631.0       522937.0       523695.0
       526022.0       524075.0       519785.0       520828.0       523495.0
       522837.0       522774.0       523595.0       521219.0       515254.0
       512230.0       514824.0       514605.0       510537.0       510168.0
       511845.0       508187.0       503622.0       503618.0       501710.0
       498649.0       499704.0       502198.0       501476.0       497625.0
       497679.0       498941.0       497410.0       499920.0       502316.0
       498879.0       496651.0       497690.0       496242.0       495163.0
       495846.0       492093.0       488042.0       488139.0       487782.0
       486491.0       485079.0       481856.0       479015.0       475347.0
       470260.0       467944.0       467958.0       470132.0       472292.0
       470527.0       467471.0       464486.0       460019.0       456883.0
       457185.0       458430.0       458459.0       457019.0       454493.0
       451947.0       450315.0       448884.0       448661.0       449894.0
       450025.0       450780.0       451737.0       449861.0       448138.0
       446887.0       444313.0       441791.0       438531.0       433519.0
       431036.0       432804.0       433851.0       434139.0       433787.0
       432254.0       432423.0       432588.0       432993.0       435966.0
       438387.0       436937.0       431994.0       427784.0       429423.0
       433014.0       434787.0       438184.0       439065.0       438096.0
       439897.0       441527.0       444634.0       446416.0       445289.0
       446052.0       447463.0       449941.0       454433.0       459325.0
       463172.0       464586.0       464521.0       466084.0       469941.0
       473723.0       476634.0       477088.0       477490.0       483990.0
       491104.0       492499.0       490840.0       488312.0       491206.0
       499084.0       502586.0       503622.0       506217.0       509363.0
       513937.0       517322.0       518460.0       520615.0       521413.0
       520958.0       522513.0       527370.0       534603.0       538838.0
       542523.0       550376.0       558223.0       563939.0       568820.0
       569693.0       567506.0       569917.0       573956.0       576394.0
       580604.0       582962.0       586750.0       594292.0       598079.0
       601319.0       605850.0       606278.0       604642.0       605414.0
       612129.0       621759.0       624918.0       624716.0       629585.0
       637374.0       643434.0       646826.0       648290.0       646992.0
       644879.0       647356.0       651657.0       653542.0       656942.0
       661511.0       664896.0       669389.0       675153.0       682793.0
       691831.0       699778.0       703095.0       701839.0       701330.0
       702727.0       706021.0       709398.0       712410.0       718374.0
       723876.0       726016.0       729893.0       735339.0       737305.0
       737720.0       737606.0       737899.0       741920.0       746900.0
       751513.0       756801.0       762705.0       768670.0       771583.0
       771979.0       771161.0       770734.0       772375.0       771902.0
       770786.0       771825.0       775001.0       781846.0       787290.0
       789680.0       791980.0       794992.0       797446.0       796267.0
       794762.0       795016.0       795390.0       797089.0       799391.0
       801313.0       803571.0       806290.0       809891.0       812422.0
       811005.0       807126.0       802457.0       800190.0       802722.0
       805899.0       808834.0       812195.0       814209.0       813241.0
       809580.0       810284.0       813935.0       814320.0       814474.0
       811047.0       804419.0       801864.0       802153.0       807196.0
       815342.0       818459.0       817967.0       816764.0       815250.0
       814256.0       813178.0       811985.0       811656.0       813291.0
       815112.0       815507.0       813660.0       809164.0       806291.0
       805756.0       803613.0       799327.0       795637.0       794306.0
       792402.0       787794.0       781877.0       777627.0       775599.0
       774110.0       772737.0       769373.0       766028.0       763239.0
       757288.0       749710.0       741219.0       734648.0       732765.0
       731150.0       728688.0       725917.0       721376.0       713240.0
       702473.0       695880.0       690413.0       680884.0       674316.0
       670467.0       665503.0       660041.0       649966.0       638899.0
       632221.0       624686.0       614444.0       604424.0       596834.0
       587731.0       574636.0       564466.0       556048.0       546332.0
       537218.0       526723.0       515434.0       504043.0       492334.0
       478546.0       461417.0       447518.0       437408.0       426484.0
       416078.0       404418.0       387588.0       369529.0       355726.0
       344578.0       332624.0       321131.0       310610.0       296633.0
       280524.0       264873.0       248395.0       233947.0       220295.0
       203410.0       185938.0       171650.0       157892.0       139303.0
       119518.0       103264.0       86095.00       69805.00       55397.00
       36570.00       18485.00       3528.000      -13385.00      -31850.00
      -52044.00      -72066.00      -90480.00      -110406.0      -130252.0
      -146836.0      -162413.0      -178780.0      -195678.0      -214702.0
      -234577.0      -252301.0      -270488.0      -290503.0      -310394.0
      -331194.0      -351677.0      -369657.0      -387724.0      -407113.0
      -426648.0      -445565.0      -463659.0      -483233.0      -504487.0
      -524983.0      -543644.0      -560592.0      -579948.0      -600369.0
      -615814.0      -632769.0      -653842.0      -673268.0      -693692.0
      -712033.0      -729372.0      -752268.0      -771279.0      -786387.0
      -805166.0      -823829.0      -842811.0      -863469.0      -880733.0
      -894075.0      -907735.0      -924642.0      -944181.0      -962396.0
      -979786.0      -997017.0      -1012163.      -1026169.      -1040402.
      -1055169.      -1069887.      -1082350.      -1094063.      -1112078.
      -1129852.      -1141923.      -1159626.      -1177921.      -1187494.
      -1199717.      -1217886.      -1233758.      -1247019.      -1254638.
      -1260820.      -1276196.      -1294758.      -1309830.      -1319792.
      -1328543.      -1343448.      -1358336.      -1368960.      -1383041.
      -1396679.      -1403895.      -1414092.      -1429011.      -1440407.
      -1450381.      -1464062.      -1476173.      -1487182.      -1500879.
      -1511516.      -1519246.      -1526455.      -1535339.      -1549448.
      -1561592.      -1571207.      -1582161.      -1589086.      -1593590.
      -1598868.      -1609822.      -1623493.      -1628034.      -1633449.
      -1642433.      -1647427.      -1655852.      -1662252.      -1666727.
      -1679721.      -1689914.      -1693391.      -1699393.      -1707429.
      -1714298.      -1716732.      -1719360.      -1729485.      -1738452.
      -1739894.      -1740910.      -1745267.      -1750268.      -1753191.
      -1757837.      -1766300.      -1769209.      -1765442.      -1766251.
      -1772226.      -1771611.      -1765464.      -1765275.      -1770224.
      -1775277.      -1777732.      -1779778.      -1783547.      -1784727.
      -1785726.      -1787166.      -1785121.      -1783606.      -1781193.
      -1776089.      -1776152.      -1778245.      -1778597.      -1780602.
      -1780674.      -1776642.      -1770538.      -1767000.      -1764585.
      -1756805.      -1752314.      -1755233.      -1753504.      -1746197.
      -1742203.      -1741855.      -1737355.      -1731236.      -1728602.
      -1722570.      -1714559.      -1710650.      -1709595.      -1705613.
      -1697498.      -1692196.      -1687546.      -1680637.      -1675588.
      -1672410.      -1668518.      -1661671.      -1651927.      -1642687.
      -1634606.      -1625770.      -1616798.      -1607420.      -1598025.
      -1589407.      -1580875.      -1573139.      -1565945.      -1555291.
      -1541201.      -1528234.      -1516772.      -1509072.      -1502349.
      -1492549.      -1483028.      -1470698.      -1456988.      -1448449.
      -1442055.      -1431402.      -1416967.      -1403858.      -1392347.
      -1382451.      -1370822.      -1352920.      -1336939.      -1327466.
      -1318166.      -1306593.      -1293508.      -1280259.      -1266659.
      -1252204.      -1237804.      -1220977.      -1202743.      -1187091.
      -1173219.      -1159335.      -1144273.      -1127793.      -1113277.
      -1098060.      -1076673.      -1057293.      -1044049.      -1029163.
      -1010379.      -991128.0      -974842.0      -959983.0      -944125.0
      -930342.0      -915610.0      -895427.0      -875687.0      -857645.0
      -840294.0      -826485.0      -809681.0      -787220.0      -766218.0
      -748242.0      -732671.0      -717513.0      -700125.0      -681286.0
      -661759.0      -643489.0      -625398.0      -606430.0      -589650.0
      -571897.0      -551165.0      -531483.0      -515739.0      -500859.0
      -480796.0      -461020.0      -444884.0      -428629.0      -413174.0
      -394644.0      -372096.0      -350623.0      -332266.0      -316452.0
      -297697.0      -276743.0      -260146.0      -246832.0      -231491.0
      -212059.0      -192407.0      -171625.0      -149262.0      -131635.0
      -116505.0      -100466.0      -82228.00      -60229.00      -39790.00
      -24217.00      -8162.000       12816.00       32578.00       47687.00
       63214.00       80499.00       98389.00       116231.0       132463.0
       147421.0       164536.0       184403.0       203185.0       219420.0
       235776.0       251593.0       266415.0       281241.0       296419.0
       315153.0       333740.0       350166.0       367901.0       384609.0
       399698.0       414063.0       430544.0       448254.0       462619.0
       477142.0       491589.0       505945.0       522983.0       538145.0
       551446.0       565162.0       579916.0       595161.0       606713.0
       620549.0       637354.0       649891.0       664908.0       683474.0
       699172.0       712446.0       724881.0       740260.0       757959.0
       772577.0       784272.0       793631.0       803774.0       818568.0
       834077.0       847119.0       858664.0       870432.0       883456.0
       899251.0       916739.0       929972.0       939438.0       950268.0
       962031.0       972299.0       983033.0       993868.0       1001112.
       1011633.       1026892.       1039651.       1051522.       1061135.
       1069964.       1079782.       1087235.       1095963.       1104220.
       1111819.       1121364.       1130636.       1142780.       1152964.
       1158402.       1165835.       1171393.       1178049.       1188859.
       1195776.       1202755.       1210166.       1212962.       1217219.
       1226347.       1236998.       1245638.       1251256.       1252994.
       1251927.       1255704.       1265611.       1272834.       1273816.
       1273019.       1274392.       1276793.       1280060.       1285745.
       1289661.       1288491.       1285636.       1285306.       1287280.
       1289038.       1289346.       1288397.       1287492.       1288978.
       1292911.       1294842.       1294907.       1294030.       1290352.
       1289083.       1292059.       1293870.       1292061.       1289426.
       1289613.       1289155.       1285819.       1283417.       1282465.
       1281327.       1279227.       1277329.       1276732.       1274172.
       1269215.       1265678.       1264228.       1261940.       1257022.
       1251667.       1248880.       1248481.       1246460.       1242445.
       1236739.       1229973.       1227595.       1227282.       1223785.
       1217197.       1209449.       1205310.       1204122.       1199200.
       1194374.       1191893.       1185822.       1181085.       1179255.
       1176424.       1172351.       1167550.       1164590.       1160443.
       1154982.       1150333.       1145006.       1138944.       1132709.
       1128654.       1124876.       1120158.       1115833.       1107746.
       1098950.       1095433.       1092326.       1089620.       1086946.
       1078473.       1070345.       1067429.       1064987.       1062966.
       1060850.       1054593.       1046687.       1041141.       1036578.
       1031027.       1026038.       1020914.       1012959.       1006300.
       1003891.       998733.0       989911.0       981877.0       973904.0
       968975.0       966649.0       963160.0       958787.0       951093.0
       941809.0       935946.0       929841.0       923260.0       919203.0
       912126.0       902363.0       896018.0       890198.0       882596.0
