     0.02500000      -12345.00      -12345.00   3.378420e+10      -12345.00
   0.0005380000       1859.976      -395.0196      -12345.00      -12345.00
      -12345.00      -12345.00      -12345.00      -12345.00      -12345.00
      -12345.00      -12345.00      -12345.00      -12345.00      -12345.00
      -12345.00      -12345.00      -12345.00      -12345.00      -12345.00
      -12345.00      -12345.00      -12345.00      -12345.00      -12345.00
      -12345.00      -9.404700       147.1597       90.00000       0.000000
      -42.72450       173.0647      -12345.00       22.00000      -12345.00
      -12345.00      -12345.00      -12345.00      -12345.00      -12345.00
      -12345.00      -12345.00      -12345.00      -12345.00      -12345.00
       4469.797       318.0964       150.0813       40.19963      -12345.00
      -12345.00      -12345.00       90.00000       90.00000      -12345.00
      -12345.00      -12345.00      -12345.00      -12345.00      -12345.00
      -12345.00      -12345.00      -12345.00      -12345.00      -12345.00
      2016       318        11         9        34
        19         6    -12345    -12345     74400
    -12345    -12345    -12345    -12345    -12345
         1    -12345    -12345    -12345    -12345
    -12345    -12345    -12345    -12345    -12345
    -12345    -12345    -12345    -12345    -12345
    -12345    -12345    -12345    -12345    -12345
         1    -12345    -12345    -12345    -12345
PMG     South Island, Ne
10      -12345  -12345  
-12345  -12345  -12345  
-12345  -12345  -12345  
-12345  -12345  -12345  
-12345  -12345  -12345  
-12345  -12345  BH2     
IU      -12345  Guralp C
[...]
  -1.318770e+07  -1.319682e+07  -1.320037e+07  -1.320455e+07  -1.320834e+07
  -1.321073e+07  -1.321056e+07  -1.320900e+07  -1.320485e+07  -1.320334e+07
  -1.319689e+07  -1.318506e+07  -1.318130e+07  -1.317413e+07  -1.315986e+07
  -1.314575e+07  -1.313229e+07  -1.311812e+07  -1.310097e+07  -1.308261e+07
  -1.306322e+07  -1.304328e+07  -1.301880e+07  -1.299464e+07  -1.297122e+07
  -1.294224e+07  -1.291751e+07  -1.288577e+07  -1.285186e+07  -1.282313e+07
  -1.278638e+07  -1.275157e+07  -1.271357e+07  -1.267335e+07  -1.263467e+07
  -1.259177e+07  -1.254899e+07  -1.250344e+07  -1.245643e+07  -1.240816e+07
  -1.235819e+07  -1.230816e+07  -1.225319e+07  -1.219826e+07  -1.214655e+07
  -1.208620e+07  -1.202446e+07  -1.196836e+07  -1.190418e+07  -1.183810e+07
  -1.177572e+07  -1.170587e+07  -1.163935e+07  -1.157049e+07  -1.149386e+07
  -1.142319e+07  -1.134920e+07  -1.127372e+07  -1.119417e+07  -1.111668e+07
  -1.103790e+07  -1.095027e+07  -1.086926e+07  -1.078469e+07  -1.069905e+07
  -1.061040e+07  -1.051863e+07  -1.043149e+07  -1.033837e+07  -1.024255e+07
  -1.014863e+07  -1.005170e+07      -9949800.      -9851369.      -9750485.
      -9645206.      -9545897.      -9437870.      -9328949.      -9224206.
      -9109065.      -8998816.      -8886310.      -8767859.      -8656250.
      -8538759.      -8418746.      -8300459.      -8176212.      -8053645.
      -7931918.      -7803254.      -7676475.      -7551424.      -7420439.
      -7288330.      -7155359.      -7024965.      -6891325.      -6748946.
      -6613450.      -6478133.      -6336448.      -6194614.      -6054177.
      -5909019.      -5760917.      -5620683.      -5469982.      -5319960.
      -5173985.      -5018128.      -4870941.      -4716105.      -4558381.
      -4406546.      -4245560.      -4090573.      -3932589.      -3768393.
      -3610711.      -3448626.      -3283044.      -3118932.      -2955630.
      -2790449.      -2622716.      -2456251.      -2286130.      -2114442.
      -1944449.      -1774373.      -1602097.      -1428718.      -1256760.
      -1080780.      -903814.0      -728128.0      -551020.0      -374022.0
      -194745.0      -15613.00       164966.0       346407.0       523908.0
       708727.0       893011.0       1072767.       1257675.       1442477.
       1626881.       1810862.       1997150.       2184201.       2370106.
       2557272.       2745811.       2933818.       3119897.       3307509.
       3498445.       3689007.       3874839.       4063403.       4256368.
       4446903.       4633989.       4823233.       5018396.       5206821.
       5392651.       5588041.       5776696.       5965291.       6158551.
       6345577.       6536715.       6725444.       6913482.       7105091.
       7295197.       7484079.       7671665.       7863806.       8049388.
       8236828.       8426606.       8609661.       8801347.       8986861.
       9169323.       9358622.       9543531.       9728778.       9911973.
   1.009556e+07   1.027983e+07   1.046103e+07   1.064345e+07   1.082354e+07
   1.100349e+07   1.118313e+07   1.136229e+07   1.154042e+07   1.171755e+07
   1.189481e+07   1.206974e+07   1.224581e+07   1.241756e+07   1.258941e+07
   1.276112e+07   1.293196e+07   1.310350e+07   1.326968e+07   1.343947e+07
   1.360486e+07   1.376995e+07   1.393852e+07   1.409747e+07   1.425916e+07
   1.442349e+07   1.458168e+07   1.473831e+07   1.489648e+07   1.505370e+07
   1.520697e+07   1.536063e+07   1.551425e+07   1.566448e+07   1.581432e+07
   1.596224e+07   1.610722e+07   1.625048e+07   1.639521e+07   1.653843e+07
   1.667856e+07   1.681937e+07   1.695410e+07   1.709012e+07   1.722542e+07
   1.735620e+07   1.748871e+07   1.761586e+07   1.774232e+07   1.786917e+07
   1.799100e+07   1.811296e+07   1.823483e+07   1.835151e+07   1.846711e+07
   1.858372e+07   1.869501e+07   1.880541e+07   1.891643e+07   1.902062e+07
   1.912649e+07   1.923077e+07   1.932990e+07   1.942940e+07   1.952588e+07
   1.962242e+07   1.971169e+07   1.980312e+07   1.989612e+07   1.997696e+07
   2.006314e+07   2.014754e+07   2.022671e+07   2.030665e+07   2.037819e+07
   2.045245e+07   2.052602e+07   2.059334e+07   2.066088e+07   2.072602e+07
   2.079001e+07   2.084970e+07   2.090619e+07   2.095979e+07   2.101282e+07
   2.106604e+07   2.111277e+07   2.116055e+07   2.120557e+07   2.124328e+07
   2.128270e+07   2.132196e+07   2.135477e+07   2.138579e+07   2.141508e+07
   2.144056e+07   2.146650e+07   2.148722e+07   2.150647e+07   2.152373e+07
   2.153680e+07   2.154986e+07   2.155816e+07   2.156496e+07   2.156898e+07
   2.156933e+07   2.157093e+07   2.156640e+07   2.155973e+07   2.155252e+07
   2.153935e+07   2.152774e+07   2.151202e+07   2.149288e+07   2.147176e+07
   2.144739e+07   2.142147e+07   2.139087e+07   2.135934e+07   2.132638e+07
   2.128975e+07   2.124856e+07   2.120722e+07   2.116257e+07   2.111511e+07
   2.106555e+07   2.101094e+07   2.095869e+07   2.089981e+07   2.083900e+07
   2.077626e+07   2.070711e+07   2.064333e+07   2.057229e+07   2.049657e+07
   2.042334e+07   2.034515e+07   2.026259e+07   2.017828e+07   2.009302e+07
   2.000454e+07   1.991386e+07   1.981984e+07   1.972313e+07   1.962509e+07
   1.952400e+07   1.941870e+07   1.931212e+07   1.920438e+07   1.909380e+07
   1.897844e+07   1.886136e+07   1.874570e+07   1.862151e+07   1.849659e+07
   1.837183e+07   1.824217e+07   1.811164e+07   1.797645e+07   1.784106e+07
   1.770298e+07   1.756202e+07   1.741795e+07   1.726972e+07   1.712233e+07
   1.697243e+07   1.681755e+07   1.666237e+07   1.650695e+07   1.634664e+07
   1.618166e+07   1.601813e+07   1.585183e+07   1.567761e+07   1.551081e+07
   1.533618e+07   1.515532e+07   1.498199e+07   1.480121e+07   1.461683e+07
   1.442950e+07   1.424457e+07   1.405705e+07   1.386161e+07   1.366664e+07
   1.347524e+07   1.327556e+07   1.307283e+07   1.287794e+07   1.266915e+07
   1.246246e+07   1.225690e+07   1.204345e+07   1.183398e+07   1.161865e+07
   1.140422e+07   1.118683e+07   1.096451e+07   1.074472e+07   1.052183e+07
   1.029569e+07   1.006841e+07       9839612.       9608755.       9376448.
       9142011.       8907070.       8669965.       8429623.       8192049.
       7948529.       7703095.       7459618.       7210037.       6963185.
       6714579.       6463804.       6212612.       5956488.       5701520.
       5446887.       5189478.       4931097.       4671080.       4408824.
       4148829.       3886047.       3616942.       3352059.       3086990.
       2817627.       2549459.       2280717.       2011066.       1737703.
       1462902.       1190916.       919559.0       643108.0       364118.0
       91047.00      -186553.0      -468067.0      -743890.0      -1021263.
      -1303068.      -1584348.      -1863763.      -2145647.      -2427015.
      -2708913.      -2992695.      -3274099.      -3557371.      -3840272.
      -4123991.      -4407426.      -4689730.      -4975633.      -5256748.
      -5540547.      -5827360.      -6109216.      -6394756.      -6677400.
      -6961128.      -7246799.      -7526358.      -7812714.      -8097151.
      -8376116.      -8659201.      -8941071.      -9223994.      -9505885.
      -9785667.  -1.006510e+07  -1.034733e+07  -1.062864e+07  -1.090491e+07
  -1.118384e+07  -1.146309e+07  -1.174088e+07  -1.201725e+07  -1.229433e+07
  -1.257145e+07  -1.284409e+07  -1.311668e+07  -1.339201e+07  -1.366630e+07
  -1.393654e+07  -1.420643e+07  -1.447759e+07  -1.474478e+07  -1.501144e+07
  -1.527861e+07  -1.554427e+07  -1.580905e+07  -1.607096e+07  -1.633257e+07
  -1.659309e+07  -1.685338e+07  -1.711200e+07  -1.736840e+07  -1.762288e+07
  -1.787628e+07  -1.813024e+07  -1.837805e+07  -1.862898e+07  -1.888005e+07
  -1.912300e+07  -1.936928e+07  -1.961064e+07  -1.985064e+07  -2.009303e+07
  -2.032923e+07  -2.056804e+07  -2.080308e+07  -2.103424e+07  -2.126648e+07
  -2.149406e+07  -2.172120e+07  -2.194804e+07  -2.217197e+07  -2.239292e+07
  -2.261158e+07  -2.283058e+07  -2.304735e+07  -2.325920e+07  -2.347232e+07
  -2.368338e+07  -2.388695e+07  -2.409340e+07  -2.429611e+07  -2.449553e+07
  -2.469957e+07  -2.489356e+07  -2.508551e+07  -2.527853e+07  -2.546742e+07
  -2.565567e+07  -2.583844e+07  -2.602278e+07  -2.620428e+07  -2.638027e+07
  -2.655564e+07  -2.672718e+07  -2.689691e+07  -2.706435e+07  -2.723116e+07
  -2.739478e+07  -2.755343e+07  -2.770887e+07  -2.786498e+07  -2.801749e+07
  -2.816463e+07  -2.830845e+07  -2.840944e+07  -2.845426e+07  -2.846709e+07
  -2.846473e+07  -2.846465e+07  -2.846462e+07  -2.846362e+07  -2.846383e+07
  -2.846304e+07  -2.846292e+07  -2.846252e+07  -2.846216e+07  -2.846196e+07
  -2.846166e+07  -2.846158e+07  -2.846156e+07  -2.846159e+07  -2.846162e+07
  -2.846162e+07  -2.846161e+07  -2.846161e+07  -2.846160e+07  -2.846160e+07
  -2.846160e+07  -2.846159e+07  -2.846158e+07  -2.846159e+07  -2.846159e+07
  -2.846158e+07  -2.846158e+07  -2.846157e+07  -2.846157e+07  -2.846157e+07
  -2.846157e+07  -2.846157e+07  -2.846157e+07  -2.846157e+07  -2.846156e+07
  -2.846157e+07  -2.846157e+07  -2.846156e+07  -2.846156e+07  -2.846156e+07
  -2.846156e+07  -2.846156e+07  -2.846155e+07  -2.846155e+07  -2.846155e+07
  -2.846154e+07  -2.846155e+07  -2.846154e+07  -2.846154e+07  -2.846154e+07
  -2.846154e+07  -2.846154e+07  -2.846154e+07  -2.846154e+07  -2.846153e+07
  -2.846154e+07  -2.846155e+07  -2.846156e+07  -2.846157e+07  -2.846158e+07
  -2.846159e+07  -2.846160e+07  -2.846160e+07  -2.846161e+07  -2.846162e+07
  -2.846163e+07  -2.846165e+07  -2.846166e+07  -2.846167e+07  -2.846167e+07
  -2.846168e+07  -2.846168e+07  -2.846165e+07  -2.846163e+07  -2.846166e+07
  -2.846180e+07  -2.846213e+07  -2.846234e+07  -2.846286e+07  -2.846304e+07
  -2.846350e+07  -2.846409e+07  -2.846390e+07  -2.846538e+07  -2.846441e+07
  -2.846618e+07  -2.846608e+07  -2.844800e+07  -2.838929e+07  -2.826439e+07
  -2.811051e+07  -2.794768e+07  -2.778119e+07  -2.762435e+07  -2.745191e+07
  -2.727805e+07  -2.710754e+07  -2.692660e+07  -2.674596e+07  -2.656407e+07
  -2.637568e+07  -2.618576e+07  -2.599378e+07  -2.579742e+07  -2.560174e+07
  -2.539759e+07  -2.519060e+07  -2.498644e+07  -2.477479e+07  -2.456201e+07
  -2.434601e+07  -2.412620e+07  -2.390607e+07  -2.368142e+07  -2.345328e+07
  -2.322264e+07  -2.299088e+07  -2.275384e+07  -2.251496e+07  -2.227711e+07
  -2.203094e+07  -2.178227e+07  -2.153653e+07  -2.128481e+07  -2.102987e+07
  -2.077264e+07  -2.051393e+07  -2.025553e+07  -1.998761e+07  -1.972066e+07
  -1.945512e+07  -1.918214e+07  -1.890728e+07  -1.863185e+07  -1.835374e+07
  -1.807316e+07  -1.779055e+07  -1.750266e+07  -1.721613e+07  -1.692950e+07
  -1.663770e+07  -1.634196e+07  -1.604611e+07  -1.574845e+07  -1.544714e+07
  -1.514738e+07  -1.484154e+07  -1.453625e+07  -1.422981e+07  -1.391650e+07
  -1.360735e+07  -1.329257e+07  -1.297621e+07  -1.266412e+07  -1.234539e+07
  -1.202425e+07  -1.170252e+07  -1.137834e+07  -1.105183e+07  -1.072566e+07
  -1.039996e+07  -1.007004e+07      -9737607.      -9405691.      -9073553.
      -8736608.      -8400846.      -8065106.      -7722999.      -7385124.
      -7045127.      -6699957.      -6359165.      -6017074.      -5670007.
      -5321146.      -4976858.      -4630028.      -4278669.      -3930280.
      -3578440.      -3227306.      -2875051.      -2521748.      -2170780.
      -1814153.      -1460388.      -1105269.      -746819.0      -395169.0
      -37096.00       322416.0       676727.0       1036086.       1394791.
       1752978.       2111840.       2469992.       2829420.       3188733.
       3548486.       3906662.       4265284.       4627295.       4985725.
       5342027.       5702320.       6060045.       6418354.       6779186.
       7131888.       7489134.       7850553.       8202271.       8559008.
       8914874.       9267183.       9622403.       9972701.   1.032668e+07
   1.067852e+07   1.102475e+07   1.137496e+07   1.172552e+07   1.207216e+07
   1.241733e+07   1.276395e+07   1.310679e+07   1.344882e+07   1.379035e+07
   1.413108e+07   1.447215e+07   1.480899e+07   1.514622e+07   1.548040e+07
   1.581566e+07   1.615015e+07   1.647920e+07   1.681000e+07   1.713691e+07
   1.746324e+07   1.778850e+07   1.811200e+07   1.843344e+07   1.875152e+07
   1.907034e+07   1.938710e+07   1.970198e+07   2.000991e+07   2.032113e+07
   2.063374e+07   2.093652e+07   2.124134e+07   2.154239e+07   2.184190e+07
   2.214104e+07   2.243291e+07   2.272993e+07   2.302142e+07   2.330583e+07
   2.359452e+07   2.387793e+07   2.415786e+07   2.443872e+07   2.471654e+07
   2.498798e+07   2.525998e+07   2.553018e+07   2.579492e+07   2.606042e+07
   2.632354e+07   2.658256e+07   2.683583e+07   2.709036e+07   2.734322e+07
   2.758828e+07   2.783605e+07   2.807560e+07   2.831309e+07   2.853874e+07
   2.866023e+07   2.867542e+07   2.867703e+07   2.868077e+07   2.868053e+07
   2.868197e+07   2.868096e+07   2.868062e+07   2.867969e+07   2.867848e+07
   2.867765e+07   2.867640e+07   2.867554e+07   2.867463e+07   2.867398e+07
   2.867363e+07   2.867322e+07   2.867280e+07   2.867241e+07   2.867206e+07
   2.867173e+07   2.867144e+07   2.867118e+07   2.867093e+07   2.867071e+07
   2.867052e+07   2.867032e+07   2.867015e+07   2.867001e+07   2.866987e+07
   2.866975e+07   2.866963e+07   2.866952e+07   2.866943e+07   2.866934e+07
   2.866925e+07   2.866918e+07   2.866912e+07   2.866906e+07   2.866900e+07
   2.866895e+07   2.866890e+07   2.866885e+07   2.866881e+07   2.866878e+07
   2.866874e+07   2.866871e+07   2.866868e+07   2.866866e+07   2.866864e+07
   2.866861e+07   2.866859e+07   2.866857e+07   2.866855e+07   2.866853e+07
   2.866851e+07   2.866850e+07   2.866849e+07   2.866847e+07   2.866847e+07
   2.866846e+07   2.866844e+07   2.866844e+07   2.866843e+07   2.866842e+07
   2.866842e+07   2.866842e+07   2.866841e+07   2.866840e+07   2.866840e+07
   2.866840e+07   2.866841e+07   2.866842e+07   2.866842e+07   2.866842e+07
   2.866842e+07   2.866843e+07   2.866844e+07   2.866845e+07   2.866846e+07
   2.866847e+07   2.866848e+07   2.866850e+07   2.866850e+07   2.866851e+07
   2.866854e+07   2.866856e+07   2.866858e+07   2.866860e+07   2.866862e+07
   2.866866e+07   2.866870e+07   2.866872e+07   2.866878e+07   2.866882e+07
   2.866886e+07   2.866892e+07   2.866899e+07   2.866907e+07   2.866915e+07
   2.866922e+07   2.866931e+07   2.866941e+07   2.866953e+07   2.866965e+07
   2.866979e+07   2.866993e+07   2.867008e+07   2.867027e+07   2.867045e+07
   2.867066e+07   2.867089e+07   2.867114e+07   2.867143e+07   2.867173e+07
   2.867206e+07   2.867241e+07   2.867280e+07   2.867323e+07   2.867368e+07
   2.867404e+07   2.867453e+07   2.867537e+07   2.867620e+07   2.867730e+07
   2.867831e+07   2.867919e+07   2.868032e+07   2.868059e+07   2.868139e+07
   2.868072e+07   2.868010e+07   2.867827e+07   2.867455e+07   2.867090e+07
   2.860258e+07   2.841986e+07   2.818948e+07   2.796277e+07   2.772891e+07
   2.749524e+07   2.725940e+07   2.701497e+07   2.677562e+07   2.653128e+07
   2.628302e+07   2.603594e+07   2.578519e+07   2.553124e+07   2.527378e+07
   2.501869e+07   2.475797e+07   2.449680e+07   2.423331e+07   2.396592e+07
   2.370084e+07   2.342826e+07   2.315846e+07   2.288406e+07   2.260700e+07
   2.233193e+07   2.204915e+07   2.176880e+07   2.148354e+07   2.120022e+07
   2.091586e+07   2.062281e+07   2.033484e+07   2.004288e+07   1.974732e+07
   1.945352e+07   1.915832e+07   1.885989e+07   1.855942e+07   1.825872e+07
   1.795475e+07   1.765179e+07   1.734586e+07   1.703854e+07   1.673178e+07
   1.642009e+07   1.610968e+07   1.579732e+07   1.548434e+07   1.517163e+07
   1.485528e+07   1.453916e+07   1.422237e+07   1.390370e+07   1.358348e+07
   1.326178e+07   1.294209e+07   1.262092e+07   1.229569e+07   1.197159e+07
   1.164773e+07   1.132392e+07   1.099690e+07   1.066946e+07   1.034239e+07
   1.001559e+07       9687667.       9357983.       9029813.       8698794.
       8368888.       8037262.       7707199.       7376268.       7043291.
       6712991.       6378770.       6048619.       5714876.       5380812.
       5050872.       4714097.       4383227.       4051832.       3717344.
       3385708.       3051725.       2719664.       2386842.       2055197.
       1722109.       1390319.       1062753.       727747.0       397662.0
       70053.00      -261796.0      -589864.0      -921443.0      -1248854.
      -1576151.      -1904484.      -2226865.      -2556350.      -2881073.
      -3204257.      -3531056.      -3851061.      -4173930.      -4495640.
      -4816674.      -5137743.      -5455047.      -5773764.      -6090800.
      -6405680.      -6719467.      -7033673.      -7347337.      -7658020.
      -7969135.      -8280188.      -8586811.      -8893702.      -9200514.
      -9503282.      -9809737.  -1.011245e+07  -1.041138e+07  -1.071251e+07
  -1.101040e+07  -1.130725e+07  -1.160202e+07  -1.189553e+07  -1.218866e+07
  -1.248004e+07  -1.276894e+07  -1.305811e+07  -1.334567e+07  -1.362806e+07
  -1.391245e+07  -1.419508e+07  -1.447256e+07  -1.475307e+07  -1.503053e+07
  -1.530484e+07  -1.557853e+07  -1.584916e+07  -1.612061e+07  -1.638649e+07
  -1.665565e+07  -1.692032e+07  -1.717699e+07  -1.744152e+07  -1.769943e+07
  -1.795619e+07  -1.821380e+07  -1.846305e+07  -1.871594e+07  -1.896654e+07
  -1.920970e+07  -1.945508e+07  -1.969832e+07  -1.993768e+07  -2.017605e+07
  -2.041356e+07  -2.064896e+07  -2.087922e+07  -2.110974e+07  -2.133776e+07
  -2.156060e+07  -2.178429e+07  -2.200728e+07  -2.222545e+07  -2.244243e+07
  -2.265804e+07  -2.286861e+07  -2.307847e+07  -2.328550e+07  -2.349134e+07
  -2.369254e+07  -2.389132e+07  -2.409152e+07  -2.428623e+07  -2.448139e+07
  -2.466934e+07  -2.485720e+07  -2.504536e+07  -2.522623e+07  -2.540861e+07
  -2.558359e+07  -2.576031e+07  -2.593503e+07  -2.610274e+07  -2.627301e+07
  -2.643798e+07  -2.660093e+07  -2.676090e+07  -2.692034e+07  -2.707854e+07
  -2.722984e+07  -2.737846e+07  -2.752813e+07  -2.767438e+07  -2.781212e+07
  -2.795486e+07  -2.809157e+07  -2.822638e+07  -2.834966e+07  -2.842102e+07
  -2.845656e+07  -2.846679e+07  -2.846364e+07  -2.846480e+07  -2.846376e+07
  -2.846349e+07  -2.846343e+07  -2.846269e+07  -2.846273e+07  -2.846221e+07
  -2.846201e+07  -2.846177e+07  -2.846153e+07  -2.846149e+07  -2.846147e+07
  -2.846150e+07  -2.846152e+07  -2.846152e+07  -2.846151e+07  -2.846151e+07
  -2.846150e+07  -2.846151e+07  -2.846150e+07  -2.846150e+07  -2.846150e+07
