     0.05000000      -12345.00      -12345.00   3.290010e+09      -12345.00
   0.0005380000       1859.951      -602.0195      -12345.00      -12345.00
      -12345.00      -12345.00      -12345.00      -12345.00      -12345.00
      -12345.00      -12345.00      -12345.00      -12345.00      -12345.00
      -12345.00      -12345.00      -12345.00      -12345.00      -12345.00
      -12345.00      -12345.00      -12345.00      -12345.00      -12345.00
      -12345.00       19.75730      -155.5326       1910.000       80.00000
      -42.72450       173.0647      -12345.00       22.00000      -12345.00
      -12345.00      -12345.00      -12345.00      -12345.00      -12345.00
      -12345.00      -12345.00      -12345.00      -12345.00      -12345.00
       7625.265       31.81433       204.3588       68.57870      -12345.00
      -12345.00      -12345.00       0.000000       0.000000      -12345.00
      -12345.00      -12345.00      -12345.00      -12345.00      -12345.00
      -12345.00      -12345.00      -12345.00      -12345.00      -12345.00
      2016       318        11        13         1
        19         6    -12345    -12345     37200
    -12345    -12345    -12345    -12345    -12345
         1    -12345    -12345    -12345    -12345
    -12345    -12345    -12345    -12345    -12345
    -12345    -12345    -12345    -12345    -12345
    -12345    -12345    -12345    -12345    -12345
         1    -12345    -12345    -12345    -12345
POHA    South Island, Ne
00      -12345  -12345  
-12345  -12345  -12345  
-12345  -12345  -12345  
-12345  -12345  -12345  
-12345  -12345  -12345  
-12345  -12345  BHZ     
IU      -12345  Geotech 
[...]
      -580431.0      -575335.0      -570170.0      -564963.0      -559786.0
      -554578.0      -549272.0      -543868.0      -538367.0      -532776.0
      -527081.0      -521320.0      -515472.0      -509602.0      -503710.0
      -497717.0      -491652.0      -485447.0      -479167.0      -472855.0
      -466487.0      -460087.0      -453578.0      -447035.0      -440502.0
      -433909.0      -427299.0      -420648.0      -413915.0      -407137.0
      -400345.0      -393448.0      -386446.0      -379418.0      -372316.0
      -365199.0      -358024.0      -350753.0      -343438.0      -336022.0
      -328519.0      -320960.0      -313359.0      -305750.0      -298151.0
      -290494.0      -282780.0      -275020.0      -267166.0      -259256.0
      -251326.0      -243440.0      -235599.0      -227755.0      -219915.0
      -212035.0      -204167.0      -196323.0      -188394.0      -180415.0
      -172401.0      -164395.0      -156462.0      -148538.0      -140705.0
      -132933.0      -125133.0      -117331.0      -109571.0      -101915.0
      -94265.00      -86722.00      -79241.00      -71750.00      -64337.00
      -57056.00      -49912.00      -42818.00      -35846.00      -28926.00
      -22073.00      -15321.00      -8727.000      -2268.000       4067.000
       10194.00       16285.00       22238.00       28096.00       33820.00
       39360.00       44930.00       50367.00       55800.00       61138.00
       66228.00       71288.00       76144.00       80842.00       85489.00
       90144.00       94785.00       99379.00       103945.0       108328.0
       112666.0       116860.0       120905.0       124884.0       128668.0
       132366.0       135917.0       139372.0       142794.0       146120.0
       149354.0       152508.0       155577.0       158461.0       161274.0
       163972.0       166531.0       169053.0       171403.0       173636.0
       175739.0       177648.0       179426.0       181033.0       182482.0
       183791.0       184954.0       186036.0       187024.0       187919.0
       188761.0       189489.0       190186.0       190852.0       191425.0
       191951.0       192390.0       192759.0       193042.0       193284.0
       193481.0       193552.0       193578.0       193506.0       193303.0
       193032.0       192732.0       192488.0       192295.0       192167.0
       192056.0       191949.0       191851.0       191723.0       191602.0
       191457.0       191274.0       190987.0       190647.0       190279.0
       189820.0       189328.0       188768.0       188100.0       187347.0
       186530.0       185657.0       184656.0       183561.0       182412.0
       181167.0       179832.0       178374.0       176798.0       175110.0
       173285.0       171328.0       169248.0       167030.0       164650.0
       162121.0       159453.0       156686.0       153805.0       150762.0
       147575.0       144237.0       140755.0       137116.0       133315.0
       129396.0       125333.0       121120.0       116813.0       112438.0
       108004.0       103565.0       99101.00       94552.00       89906.00
       85092.00       80164.00       75211.00       70268.00       65330.00
       60331.00       55301.00       50292.00       45320.00       40400.00
       35531.00       30667.00       25820.00       20978.00       16069.00
       11156.00       6241.000       1304.000      -3638.000      -8607.000
      -13548.00      -18488.00      -23417.00      -28327.00      -33255.00
      -38163.00      -43085.00      -48025.00      -52966.00      -57976.00
      -63070.00      -68206.00      -73389.00      -78614.00      -83874.00
      -89158.00      -94467.00      -99829.00      -105250.0      -110736.0
      -116279.0      -121903.0      -127615.0      -133449.0      -139412.0
      -145454.0      -151546.0      -157710.0      -163973.0      -170285.0
      -176675.0      -183139.0      -189654.0      -196274.0      -202955.0
      -209708.0      -216566.0      -223468.0      -230448.0      -237506.0
      -244637.0      -251863.0      -259106.0      -266406.0      -273751.0
      -281089.0      -288434.0      -295739.0      -303041.0      -310334.0
      -317554.0      -324731.0      -331853.0      -338925.0      -345962.0
      -352956.0      -359882.0      -366738.0      -373564.0      -380366.0
      -387174.0      -393982.0      -400778.0      -407564.0      -414328.0
      -421097.0      -427865.0      -434614.0      -441353.0      -448080.0
      -454778.0      -461413.0      -468007.0      -474581.0      -481112.0
      -487653.0      -494191.0      -500657.0      -507100.0      -513514.0
      -519890.0      -526242.0      -532542.0      -538782.0      -544943.0
      -551071.0      -557132.0      -563109.0      -569048.0      -574940.0
      -580789.0      -586611.0      -592461.0      -598298.0      -604101.0
      -609859.0      -615545.0      -621180.0      -626711.0      -632132.0
      -637474.0      -642696.0      -647809.0      -652812.0      -657678.0
      -662475.0      -667217.0      -671891.0      -676500.0      -681083.0
      -685673.0      -690220.0      -694764.0      -699293.0      -703733.0
      -708107.0      -712413.0      -716621.0      -720741.0      -724818.0
      -728811.0      -732685.0      -736456.0      -740097.0      -743619.0
      -747035.0      -750409.0      -753706.0      -756876.0      -759948.0
      -762863.0      -765668.0      -768368.0      -770936.0      -773412.0
      -775799.0      -778106.0      -780312.0      -782384.0      -784356.0
      -786240.0      -788025.0      -789772.0      -791509.0      -793265.0
      -795072.0      -796888.0      -798727.0      -800547.0      -802278.0
      -803898.0      -805384.0      -806765.0      -808052.0      -809224.0
      -810267.0      -811199.0      -812026.0      -812753.0      -813406.0
      -814014.0      -814592.0      -815124.0      -815613.0      -816040.0
      -816362.0      -816568.0      -816615.0      -816492.0      -816247.0
      -815876.0      -815366.0      -814684.0      -813790.0      -812665.0
      -811303.0      -809711.0      -807929.0      -806003.0      -803938.0
      -801753.0      -799450.0      -797032.0      -794543.0      -791974.0
      -789301.0      -786542.0      -783664.0      -780627.0      -777446.0
      -774152.0      -770737.0      -767222.0      -763611.0      -759867.0
      -756010.0      -752057.0      -748029.0      -743960.0      -739871.0
      -735781.0      -731649.0      -727458.0      -723223.0      -718937.0
      -714658.0      -710371.0      -706058.0      -701737.0      -697335.0
      -692830.0      -688244.0      -683564.0      -678802.0      -673954.0
      -669014.0      -663991.0      -658887.0      -653694.0      -648431.0
      -643123.0      -637779.0      -632398.0      -626993.0      -621558.0
      -616050.0      -610486.0      -604847.0      -599089.0      -593191.0
      -587132.0      -580931.0      -574622.0      -568251.0      -561831.0
      -555320.0      -548701.0      -541992.0      -535246.0      -528486.0
      -521670.0      -514801.0      -507884.0      -500895.0      -493857.0
      -486793.0      -479684.0      -472530.0      -465332.0      -458076.0
      -450792.0      -443491.0      -436123.0      -428692.0      -421221.0
      -413707.0      -406165.0      -398584.0      -390991.0      -383438.0
      -375891.0      -368333.0      -360789.0      -353265.0      -345790.0
      -338364.0      -330946.0      -323543.0      -316180.0      -308809.0
      -301389.0      -293927.0      -286426.0      -278887.0      -271352.0
      -263867.0      -256498.0      -249221.0      -242000.0      -234884.0
      -227826.0      -220869.0      -214069.0      -207350.0      -200716.0
      -194194.0      -187720.0      -181223.0      -174713.0      -168153.0
      -161517.0      -154877.0      -148180.0      -141445.0      -134698.0
      -127923.0      -121169.0      -114415.0      -107682.0      -100947.0
      -94186.00      -87440.00      -80726.00      -74017.00      -67353.00
      -60771.00      -54203.00      -47698.00      -41228.00      -34701.00
      -28148.00      -21525.00      -14807.00      -8014.000      -1153.000
       5745.000       12636.00       19467.00       26248.00       32998.00
       39671.00       46275.00       52841.00       59315.00       65688.00
       72007.00       78271.00       84474.00       90613.00       96686.00
       102653.0       108506.0       114257.0       119876.0       125424.0
       130922.0       136313.0       141648.0       146920.0       152124.0
       157309.0       162439.0       167470.0       172450.0       177360.0
       182153.0       186838.0       191383.0       195844.0       200232.0
       204528.0       208763.0       212887.0       216972.0       221132.0
       225297.0       229377.0       233317.0       237128.0       240839.0
       244495.0       248140.0       251729.0       255211.0       258614.0
       261911.0       265084.0       268180.0       271170.0       274038.0
       276824.0       279516.0       282109.0       284643.0       287122.0
       289539.0       291892.0       294202.0       296441.0       298568.0
       300595.0       302467.0       304173.0       305723.0       307151.0
       308474.0       309652.0       310752.0       311730.0       312532.0
       313198.0       313721.0       314106.0       314398.0       314652.0
       314854.0       315017.0       315138.0       315201.0       315172.0
       315051.0       314878.0       314613.0       314296.0       313915.0
       313382.0       312750.0       312041.0       311220.0       310298.0
       309280.0       308135.0       306876.0       305467.0       303882.0
       302133.0       300207.0       298157.0       295961.0       293613.0
       291086.0       288382.0       285523.0       282494.0       279385.0
       276140.0       272763.0       269312.0       265713.0       261926.0
       257933.0       253791.0       249544.0       245177.0       240699.0
       236097.0       231379.0       226574.0       221657.0       216639.0
       211552.0       206435.0       201315.0       196138.0       190906.0
       185605.0       180248.0       174842.0       169408.0       163998.0
       158564.0       153123.0       147636.0       142079.0       136451.0
       130723.0       124926.0       119060.0       113171.0       107197.0
       101128.0       95021.00       88795.00       82501.00       76145.00
       69703.00       63225.00       56706.00       50146.00       43543.00
       36891.00       30157.00       23333.00       16421.00       9431.000
       2379.000      -4776.000      -12002.00      -19248.00      -26499.00
      -33729.00      -40966.00      -48248.00      -55596.00      -63027.00
      -70553.00      -78137.00      -85751.00      -93428.00      -101179.0
      -108991.0      -116906.0      -124948.0      -133071.0      -141306.0
      -149634.0      -158018.0      -166484.0      -174984.0      -183496.0
      -192026.0      -200572.0      -209145.0      -217777.0      -226513.0
      -235363.0      -244324.0      -253399.0      -262571.0      -271809.0
      -281103.0      -290438.0      -299795.0      -309187.0      -318593.0
      -328004.0      -337471.0      -346968.0      -356504.0      -366124.0
      -375799.0      -385534.0      -395303.0      -405118.0      -414996.0
      -424889.0      -434807.0      -444721.0      -454606.0      -464525.0
      -474485.0      -484477.0      -494548.0      -504705.0      -514918.0
      -525163.0      -535417.0      -545646.0      -555837.0      -565996.0
      -576072.0      -586046.0      -595957.0      -605806.0      -615570.0
      -625276.0      -634967.0      -644629.0      -654240.0      -663801.0
      -673279.0      -682684.0      -692022.0      -701267.0      -710380.0
      -719362.0      -728265.0      -737082.0      -745845.0      -754557.0
      -763175.0      -771745.0      -780262.0      -788688.0      -797048.0
      -805351.0      -813573.0      -821683.0      -829662.0      -837467.0
      -845097.0      -852569.0      -859899.0      -867103.0      -874184.0
      -881138.0      -887970.0      -894696.0      -901286.0      -907751.0
      -914099.0      -920316.0      -926461.0      -932511.0      -938486.0
      -944449.0      -950362.0      -956185.0      -961893.0      -967452.0
      -972802.0      -977976.0      -983001.0      -987857.0      -992537.0
      -997034.0      -1001403.      -1005585.      -1009571.      -1013412.
      -1017084.      -1020607.      -1023975.      -1027202.      -1030281.
      -1033190.      -1035894.      -1038372.      -1040670.      -1042735.
      -1044593.      -1046295.      -1047797.      -1049121.      -1050236.
      -1051087.      -1051688.      -1052011.      -1052036.      -1051753.
      -1051193.      -1050331.      -1049126.      -1047652.      -1045899.
      -1043842.      -1041558.      -1039105.      -1036457.      -1033626.
      -1030651.      -1027513.      -1024215.      -1020759.      -1017146.
      -1013421.      -1009564.      -1005557.      -1001380.      -996973.0
      -992355.0      -987522.0      -982522.0      -977401.0      -972122.0
      -966718.0      -961214.0      -955535.0      -949645.0      -943622.0
      -937443.0      -931084.0      -924633.0      -918115.0      -911499.0
      -904773.0      -897931.0      -890928.0      -883765.0      -876439.0
      -868943.0      -861321.0      -853544.0      -845596.0      -837511.0
      -829272.0      -820913.0      -812421.0      -803778.0      -795029.0
      -786131.0      -777113.0      -768048.0      -758902.0      -749671.0
      -740384.0      -731034.0      -721623.0      -712114.0      -702492.0
      -692784.0      -682991.0      -673133.0      -663194.0      -653163.0
      -643047.0      -632820.0      -622503.0      -612122.0      -601650.0
      -591079.0      -580445.0      -569726.0      -558916.0      -548053.0
      -537116.0      -526103.0      -515053.0      -503982.0      -492867.0
      -481723.0      -470589.0      -459472.0      -448391.0      -437379.0
      -426440.0      -415568.0      -404756.0      -393945.0      -383146.0
      -372322.0      -361432.0      -350543.0      -339613.0      -328726.0
      -317943.0      -307136.0      -296346.0      -285605.0      -274880.0
      -264190.0      -253523.0      -242869.0      -232156.0      -221366.0
      -210591.0      -199772.0      -188872.0      -177965.0      -167045.0
      -156112.0      -145177.0      -134311.0      -123535.0      -112813.0
      -102153.0      -91496.00      -80850.00      -70276.00      -59764.00
      -49310.00      -38909.00      -28551.00      -18245.00      -7959.000
       2332.000       12606.00       22840.00       32994.00       43099.00
       53157.00       63110.00       72968.00       82726.00       92356.00
       101844.0       111185.0       120381.0       129387.0       138206.0
       146853.0       155257.0       163494.0       171657.0       179683.0
       187568.0       195345.0       202990.0       210498.0       217864.0
       225067.0       232153.0       239161.0       246059.0       252846.0
       259561.0       266210.0       272768.0       279231.0       285594.0
       291791.0       297822.0       303749.0       309498.0       315044.0
       320428.0       325610.0       330592.0       335380.0       339982.0
       344422.0       348687.0       352816.0       356836.0       360769.0
       364632.0       368398.0       372065.0       375641.0       379131.0
       382540.0       385833.0       388994.0       392041.0       394993.0
       397838.0       400545.0       403110.0       405513.0       407679.0
       409598.0       411311.0       412794.0       414099.0       415224.0
       416146.0       416946.0       417612.0       418139.0       418558.0
       418847.0       418974.0       418929.0       418721.0       418401.0
       417968.0       417422.0       416792.0       415974.0       414935.0
       413747.0       412379.0       410851.0       409141.0       407200.0
       405071.0       402716.0       400120.0       397320.0       394357.0
       391243.0       387985.0       384642.0       381219.0       377697.0
       374095.0       370408.0       366624.0       362704.0       358631.0
       354445.0       350134.0       345671.0       341141.0       336542.0
       331837.0       327112.0       322338.0       317494.0       312600.0
       307593.0       302505.0       297302.0       291921.0       286493.0
       280973.0       275371.0       269723.0       263861.0       257787.0
       251598.0       245439.0       239296.0       233029.0       226664.0
       220203.0       213590.0       206863.0       200001.0       192977.0
       185831.0       178544.0       171127.0       163558.0       155797.0
       147835.0       139653.0       131290.0       122752.0       114058.0
       105303.0       96485.00       87632.00       78827.00       70017.00
       61200.00       52340.00       43392.00       34401.00       25314.00
       16174.00       6955.000      -2384.000      -11771.00      -21269.00
      -30878.00      -40560.00      -50328.00      -60162.00      -70034.00
      -79928.00      -89831.00      -99733.00      -109633.0      -119513.0
      -129344.0      -139110.0      -148791.0      -158439.0      -168065.0
      -177631.0      -187192.0      -196752.0      -206310.0      -215887.0
      -225505.0      -235227.0      -245057.0      -254933.0      -264843.0
      -274798.0      -284792.0      -294790.0      -304779.0      -314785.0
      -324755.0      -334734.0      -344763.0      -354766.0      -364764.0
      -374767.0      -384747.0      -394747.0      -404728.0      -414662.0
      -424599.0      -434531.0      -444406.0      -454221.0      -464009.0
      -473725.0      -483326.0      -492825.0      -502188.0      -511419.0
      -520524.0      -529480.0      -538298.0      -546986.0      -555551.0
      -563993.0      -572347.0      -580661.0      -588927.0      -597103.0
      -605201.0      -613259.0      -621244.0      -629143.0      -636985.0
      -644779.0      -652525.0      -660202.0      -667794.0      -675296.0
      -682713.0      -690087.0      -697380.0      -704568.0      -711657.0
