     0.02500000      -12345.00      -12345.00   3.374700e+10      -12345.00
   0.0005380000       1859.976      -395.0196      -12345.00      -12345.00
      -12345.00      -12345.00      -12345.00      -12345.00      -12345.00
      -12345.00      -12345.00      -12345.00      -12345.00      -12345.00
      -12345.00      -12345.00      -12345.00      -12345.00      -12345.00
      -12345.00      -12345.00      -12345.00      -12345.00      -12345.00
      -12345.00      -9.404700       147.1597       90.00000       0.000000
      -42.72450       173.0647      -12345.00       22.00000      -12345.00
      -12345.00      -12345.00      -12345.00      -12345.00      -12345.00
      -12345.00      -12345.00      -12345.00      -12345.00      -12345.00
       4469.797       318.0964       150.0813       40.19963      -12345.00
      -12345.00      -12345.00       0.000000       0.000000      -12345.00
      -12345.00      -12345.00      -12345.00      -12345.00      -12345.00
      -12345.00      -12345.00      -12345.00      -12345.00      -12345.00
      2016       318        11         9        34
        19         6    -12345    -12345     74400
    -12345    -12345    -12345    -12345    -12345
         1    -12345    -12345    -12345    -12345
    -12345    -12345    -12345    -12345    -12345
    -12345    -12345    -12345    -12345    -12345
    -12345    -12345    -12345    -12345    -12345
         1    -12345    -12345    -12345    -12345
PMG     South Island, Ne
10      -12345  -12345  
-12345  -12345  -12345  
-12345  -12345  -12345  
-12345  -12345  -12345  
-12345  -12345  -12345  
-12345  -12345  BHZ     
IU      -12345  Guralp C
[...]
  -2.850310e+07  -2.850310e+07  -2.850310e+07  -2.850311e+07  -2.850310e+07
  -2.850310e+07  -2.850310e+07  -2.850310e+07  -2.850310e+07  -2.850310e+07
  -2.850309e+07  -2.850309e+07  -2.850309e+07  -2.850309e+07  -2.850309e+07
  -2.850310e+07  -2.850310e+07  -2.850310e+07  -2.850310e+07  -2.850310e+07
  -2.850310e+07  -2.850309e+07  -2.850309e+07  -2.850309e+07  -2.850310e+07
  -2.850309e+07  -2.850309e+07  -2.850309e+07  -2.850308e+07  -2.850308e+07
  -2.850309e+07  -2.850309e+07  -2.850309e+07  -2.850308e+07  -2.850308e+07
  -2.850308e+07  -2.850308e+07  -2.850308e+07  -2.850308e+07  -2.850307e+07
  -2.850307e+07  -2.850308e+07  -2.850308e+07  -2.850308e+07  -2.850308e+07
  -2.850307e+07  -2.850307e+07  -2.850307e+07  -2.850307e+07  -2.850307e+07
  -2.850306e+07  -2.850306e+07  -2.850306e+07  -2.850306e+07  -2.850306e+07
  -2.850305e+07  -2.850305e+07  -2.850306e+07  -2.850305e+07  -2.850305e+07
  -2.850305e+07  -2.850305e+07  -2.850305e+07  -2.850304e+07  -2.850304e+07
  -2.850304e+07  -2.850303e+07  -2.850304e+07  -2.850303e+07  -2.850303e+07
  -2.850302e+07  -2.850302e+07  -2.850302e+07  -2.850302e+07  -2.850302e+07
  -2.850301e+07  -2.850301e+07  -2.850301e+07  -2.850301e+07  -2.850300e+07
  -2.850277e+07  -2.850250e+07  -2.850325e+07  -2.850356e+07  -2.850437e+07
  -2.850570e+07  -2.850528e+07  -2.850819e+07  -2.850678e+07  -2.850943e+07
  -2.851037e+07  -2.850823e+07  -2.851662e+07  -2.850446e+07  -2.852753e+07
  -2.844968e+07  -2.810175e+07  -2.769558e+07  -2.731112e+07  -2.690714e+07
  -2.651380e+07  -2.610963e+07  -2.570638e+07  -2.530160e+07  -2.489163e+07
  -2.448223e+07  -2.406906e+07  -2.365534e+07  -2.323931e+07  -2.282040e+07
  -2.239998e+07  -2.197744e+07  -2.155246e+07  -2.112667e+07  -2.069912e+07
  -2.026946e+07  -1.983766e+07  -1.940447e+07  -1.896833e+07  -1.853063e+07
  -1.809447e+07  -1.765259e+07  -1.721013e+07  -1.676994e+07  -1.632215e+07
  -1.587548e+07  -1.543023e+07  -1.497921e+07  -1.452901e+07  -1.407820e+07
  -1.362598e+07  -1.317191e+07  -1.271544e+07  -1.226197e+07  -1.180533e+07
  -1.134637e+07  -1.088850e+07  -1.042744e+07      -9968041.      -9506893.
      -9044711.      -8582658.      -8116951.      -7654376.      -7189325.
      -6722423.      -6257822.      -5790096.      -5323740.      -4856811.
      -4388548.      -3921495.      -3451389.      -2982538.      -2514925.
      -2045526.      -1577142.      -1108411.      -637926.0      -167329.0
       300013.0       767791.0       1238127.       1706344.       2173967.
       2643297.       3111261.       3578831.       4045944.       4508229.
       4973862.       5442417.       5904004.       6367849.       6832846.
       7290836.       7753086.       8214833.       8673232.       9133068.
       9589631.   1.004582e+07   1.050047e+07   1.095532e+07   1.140766e+07
   1.185902e+07   1.231204e+07   1.276185e+07   1.320998e+07   1.365747e+07
   1.410483e+07   1.454902e+07   1.499325e+07   1.543677e+07   1.587596e+07
   1.631630e+07   1.675634e+07   1.719088e+07   1.762487e+07   1.805816e+07
   1.848931e+07   1.892069e+07   1.934686e+07   1.977114e+07   2.019549e+07
   2.061696e+07   2.103657e+07   2.145367e+07   2.186851e+07   2.228050e+07
   2.269159e+07   2.310058e+07   2.350544e+07   2.391063e+07   2.431193e+07
   2.471176e+07   2.510972e+07   2.550482e+07   2.589785e+07   2.628565e+07
   2.667751e+07   2.705761e+07   2.744572e+07   2.782416e+07   2.820072e+07
   2.858207e+07   2.874828e+07   2.873585e+07   2.874626e+07   2.874564e+07
   2.874204e+07   2.874389e+07   2.873828e+07   2.873891e+07   2.873562e+07
   2.873422e+07   2.873302e+07   2.873098e+07   2.873035e+07   2.872910e+07
   2.872870e+07   2.872870e+07   2.872849e+07   2.872830e+07   2.872813e+07
   2.872799e+07   2.872789e+07   2.872779e+07   2.872771e+07   2.872764e+07
   2.872759e+07   2.872755e+07   2.872752e+07   2.872749e+07   2.872747e+07
   2.872744e+07   2.872742e+07   2.872741e+07   2.872740e+07   2.872739e+07
   2.872738e+07   2.872736e+07   2.872734e+07   2.872734e+07   2.872734e+07
   2.872733e+07   2.872732e+07   2.872732e+07   2.872732e+07   2.872731e+07
   2.872731e+07   2.872730e+07   2.872729e+07   2.872729e+07   2.872729e+07
   2.872728e+07   2.872728e+07   2.872727e+07   2.872727e+07   2.872726e+07
   2.872726e+07   2.872727e+07   2.872726e+07   2.872725e+07   2.872726e+07
   2.872725e+07   2.872724e+07   2.872725e+07   2.872725e+07   2.872724e+07
   2.872724e+07   2.872723e+07   2.872722e+07   2.872722e+07   2.872722e+07
   2.872721e+07   2.872720e+07   2.872720e+07   2.872720e+07   2.872719e+07
   2.872719e+07   2.872718e+07   2.872718e+07   2.872718e+07   2.872717e+07
   2.872717e+07   2.872717e+07   2.872716e+07   2.872716e+07   2.872716e+07
   2.872716e+07   2.872716e+07   2.872715e+07   2.872716e+07   2.872714e+07
   2.872714e+07   2.872713e+07   2.872713e+07   2.872714e+07   2.872713e+07
   2.872712e+07   2.872712e+07   2.872712e+07   2.872712e+07   2.872712e+07
   2.872712e+07   2.872712e+07   2.872711e+07   2.872711e+07   2.872711e+07
   2.872711e+07   2.872711e+07   2.872711e+07   2.872710e+07   2.872710e+07
   2.872708e+07   2.872707e+07   2.872708e+07   2.872708e+07   2.872708e+07
   2.872708e+07   2.872707e+07   2.872707e+07   2.872707e+07   2.872706e+07
   2.872705e+07   2.872705e+07   2.872705e+07   2.872705e+07   2.872705e+07
   2.872704e+07   2.872705e+07   2.872704e+07   2.872704e+07   2.872704e+07
   2.872704e+07   2.872704e+07   2.872704e+07   2.872703e+07   2.872703e+07
   2.872702e+07   2.872701e+07   2.872702e+07   2.872701e+07   2.872701e+07
   2.872700e+07   2.872701e+07   2.872700e+07   2.872699e+07   2.872699e+07
   2.872699e+07   2.872699e+07   2.872699e+07   2.872699e+07   2.872700e+07
   2.872701e+07   2.872701e+07   2.872700e+07   2.872700e+07   2.872701e+07
   2.872700e+07   2.872701e+07   2.872701e+07   2.872702e+07   2.872705e+07
   2.872706e+07   2.872708e+07   2.872711e+07   2.872714e+07   2.872718e+07
   2.872722e+07   2.872727e+07   2.872734e+07   2.872742e+07   2.872753e+07
   2.872765e+07   2.872781e+07   2.872801e+07   2.872808e+07   2.872812e+07
   2.872916e+07   2.873002e+07   2.873126e+07   2.873338e+07   2.873382e+07
   2.873736e+07   2.873764e+07   2.874066e+07   2.874357e+07   2.874162e+07
   2.874947e+07   2.873636e+07   2.874822e+07   2.867921e+07   2.834906e+07
   2.794058e+07   2.755736e+07   2.715208e+07   2.675514e+07   2.635036e+07
   2.594240e+07   2.553414e+07   2.512136e+07   2.470776e+07   2.428800e+07
   2.386896e+07   2.344666e+07   2.301960e+07   2.259322e+07   2.216286e+07
   2.172893e+07   2.129479e+07   2.085618e+07   2.041513e+07   1.997291e+07
   1.952894e+07   1.908128e+07   1.862885e+07   1.817642e+07   1.772383e+07
   1.726755e+07   1.680873e+07   1.634850e+07   1.588478e+07   1.542104e+07
   1.495469e+07   1.448553e+07   1.401618e+07   1.354290e+07   1.306880e+07
   1.259272e+07   1.211529e+07   1.163762e+07   1.115618e+07   1.067298e+07
   1.018930e+07       9704803.       9217573.       8730116.       8241904.
       7750727.       7259079.       6765620.       6270700.       5775673.
       5279854.       4781204.       4283660.       3785085.       3284045.
       2783810.       2280660.       1779480.       1276755.       771945.0
       268323.0      -236847.0      -740831.0      -1248141.      -1755749.
      -2260689.      -2767769.      -3275626.      -3782114.      -4290120.
      -4798559.      -5304095.      -5811959.      -6320230.      -6825500.
      -7333145.      -7840341.      -8346236.      -8853239.      -9356989.
      -9862191.  -1.036846e+07  -1.087158e+07  -1.137404e+07  -1.187787e+07
  -1.238137e+07  -1.288076e+07  -1.338188e+07  -1.388298e+07  -1.438239e+07
  -1.488065e+07  -1.537568e+07  -1.587292e+07  -1.636860e+07  -1.686136e+07
  -1.735401e+07  -1.784410e+07  -1.833486e+07  -1.882541e+07  -1.931171e+07
  -1.979666e+07  -2.028143e+07  -2.076311e+07  -2.124250e+07  -2.172169e+07
  -2.219888e+07  -2.267690e+07  -2.315168e+07  -2.362294e+07  -2.409375e+07
  -2.456306e+07  -2.503174e+07  -2.549269e+07  -2.596089e+07  -2.641730e+07
  -2.687780e+07  -2.733746e+07  -2.777966e+07  -2.825638e+07  -2.852235e+07
  -2.851387e+07  -2.851168e+07  -2.851610e+07  -2.850792e+07  -2.851331e+07
  -2.850761e+07  -2.850903e+07  -2.850742e+07  -2.850576e+07  -2.850593e+07
  -2.850392e+07  -2.850379e+07  -2.850290e+07  -2.850259e+07  -2.850304e+07
  -2.850313e+07  -2.850313e+07  -2.850313e+07  -2.850312e+07  -2.850312e+07
  -2.850312e+07  -2.850312e+07  -2.850312e+07  -2.850312e+07  -2.850311e+07
  -2.850311e+07  -2.850311e+07  -2.850310e+07  -2.850310e+07  -2.850310e+07
  -2.850309e+07  -2.850308e+07  -2.850308e+07  -2.850308e+07  -2.850308e+07
  -2.850307e+07  -2.850306e+07  -2.850306e+07  -2.850305e+07  -2.850304e+07
  -2.850304e+07  -2.850304e+07  -2.850303e+07  -2.850303e+07  -2.850302e+07
  -2.850301e+07  -2.850301e+07  -2.850301e+07  -2.850301e+07  -2.850301e+07
  -2.850300e+07  -2.850299e+07  -2.850299e+07  -2.850298e+07  -2.850298e+07
  -2.850298e+07  -2.850296e+07  -2.850296e+07  -2.850296e+07  -2.850295e+07
  -2.850295e+07  -2.850294e+07  -2.850294e+07  -2.850294e+07  -2.850293e+07
  -2.850293e+07  -2.850294e+07  -2.850292e+07  -2.850292e+07  -2.850291e+07
  -2.850291e+07  -2.850292e+07  -2.850290e+07  -2.850288e+07  -2.850289e+07
  -2.850289e+07  -2.850289e+07  -2.850288e+07  -2.850287e+07  -2.850288e+07
  -2.850287e+07  -2.850286e+07  -2.850286e+07  -2.850286e+07  -2.850286e+07
  -2.850286e+07  -2.850285e+07  -2.850285e+07  -2.850284e+07  -2.850284e+07
  -2.850284e+07  -2.850284e+07  -2.850283e+07  -2.850282e+07  -2.850283e+07
  -2.850283e+07  -2.850282e+07  -2.850283e+07  -2.850282e+07  -2.850282e+07
  -2.850282e+07  -2.850281e+07  -2.850280e+07  -2.850280e+07  -2.850280e+07
  -2.850279e+07  -2.850279e+07  -2.850279e+07  -2.850279e+07  -2.850278e+07
  -2.850278e+07  -2.850278e+07  -2.850278e+07  -2.850278e+07  -2.850277e+07
  -2.850277e+07  -2.850277e+07  -2.850276e+07  -2.850276e+07  -2.850276e+07
  -2.850276e+07  -2.850275e+07  -2.850275e+07  -2.850274e+07  -2.850274e+07
  -2.850274e+07  -2.850274e+07  -2.850273e+07  -2.850273e+07  -2.850273e+07
  -2.850273e+07  -2.850272e+07  -2.850272e+07  -2.850272e+07  -2.850270e+07
  -2.850270e+07  -2.850270e+07  -2.850270e+07  -2.850270e+07  -2.850270e+07
  -2.850270e+07  -2.850268e+07  -2.850268e+07  -2.850268e+07  -2.850268e+07
  -2.850269e+07  -2.850268e+07  -2.850268e+07  -2.850269e+07  -2.850269e+07
  -2.850269e+07  -2.850269e+07  -2.850269e+07  -2.850269e+07  -2.850268e+07
  -2.850268e+07  -2.850268e+07  -2.850269e+07  -2.850269e+07  -2.850268e+07
  -2.850269e+07  -2.850269e+07  -2.850268e+07  -2.850268e+07  -2.850268e+07
  -2.850268e+07  -2.850268e+07  -2.850268e+07  -2.850268e+07  -2.850268e+07
  -2.850268e+07  -2.850268e+07  -2.850268e+07  -2.850267e+07  -2.850267e+07
  -2.850268e+07  -2.850268e+07  -2.850268e+07  -2.850268e+07  -2.850268e+07
  -2.850268e+07  -2.850267e+07  -2.850267e+07  -2.850255e+07  -2.850209e+07
  -2.850251e+07  -2.850338e+07  -2.850361e+07  -2.850572e+07  -2.850541e+07
  -2.850751e+07  -2.850868e+07  -2.850782e+07  -2.851331e+07  -2.850772e+07
  -2.851712e+07  -2.851025e+07  -2.851682e+07  -2.851224e+07  -2.820626e+07
  -2.770000e+07  -2.723156e+07  -2.674297e+07  -2.625599e+07  -2.577113e+07
  -2.527364e+07  -2.478256e+07  -2.428320e+07  -2.378331e+07  -2.328246e+07
  -2.277710e+07  -2.226876e+07  -2.175945e+07  -2.124893e+07  -2.073468e+07
  -2.021889e+07  -1.970174e+07  -1.918272e+07  -1.865929e+07  -1.813324e+07
  -1.760730e+07  -1.707916e+07  -1.654949e+07  -1.601556e+07  -1.548091e+07
  -1.494577e+07  -1.440670e+07  -1.386841e+07  -1.332645e+07  -1.278403e+07
  -1.224241e+07  -1.169436e+07  -1.114744e+07  -1.060008e+07  -1.005043e+07
      -9501266.      -8947611.      -8395800.      -7841886.      -7284539.
      -6731059.      -6174397.      -5616432.      -5058705.      -4498888.
      -3939721.      -3379454.      -2818766.      -2258499.      -1695951.
      -1133528.      -572821.0      -11171.00       553467.0       1116665.
       1677171.       2241189.       2804695.       3367134.       3929723.
       4490515.       5054506.       5617160.       6176518.       6738530.
       7299593.       7858413.       8417061.       8976054.       9534625.
   1.009078e+07   1.064656e+07   1.120269e+07   1.175774e+07   1.231047e+07
   1.286290e+07   1.341459e+07   1.396368e+07   1.451292e+07   1.506144e+07
   1.560728e+07   1.615226e+07   1.669676e+07   1.723914e+07   1.777965e+07
   1.831742e+07   1.885401e+07   1.938988e+07   1.992368e+07   2.045550e+07
   2.098422e+07   2.151170e+07   2.203845e+07   2.256267e+07   2.308498e+07
   2.360671e+07   2.412486e+07   2.464260e+07   2.515315e+07   2.566634e+07
   2.617872e+07   2.667775e+07   2.719397e+07   2.768330e+07   2.819880e+07
   2.864741e+07   2.876070e+07   2.873797e+07   2.875405e+07   2.874326e+07
   2.874387e+07   2.874156e+07   2.873676e+07   2.873747e+07   2.873302e+07
   2.873280e+07   2.873068e+07   2.872919e+07   2.872853e+07   2.872733e+07
   2.872746e+07   2.872763e+07   2.872755e+07   2.872748e+07   2.872742e+07
   2.872738e+07   2.872735e+07   2.872732e+07   2.872730e+07   2.872728e+07
   2.872727e+07   2.872726e+07   2.872725e+07   2.872724e+07   2.872723e+07
   2.872723e+07   2.872722e+07   2.872721e+07   2.872720e+07   2.872719e+07
   2.872719e+07   2.872718e+07   2.872717e+07   2.872718e+07   2.872716e+07
   2.872716e+07   2.872715e+07   2.872713e+07   2.872713e+07   2.872713e+07
   2.872711e+07   2.872711e+07   2.872710e+07   2.872710e+07   2.872709e+07
   2.872707e+07   2.872707e+07   2.872707e+07   2.872706e+07   2.872704e+07
   2.872704e+07   2.872705e+07   2.872703e+07   2.872702e+07   2.872702e+07
   2.872702e+07   2.872701e+07   2.872699e+07   2.872699e+07   2.872700e+07
   2.872699e+07   2.872699e+07   2.872698e+07   2.872697e+07   2.872697e+07
   2.872698e+07   2.872697e+07   2.872697e+07   2.872696e+07   2.872696e+07
   2.872696e+07   2.872696e+07   2.872695e+07   2.872696e+07   2.872695e+07
   2.872695e+07   2.872696e+07   2.872695e+07   2.872696e+07   2.872696e+07
   2.872696e+07   2.872695e+07   2.872695e+07   2.872696e+07   2.872696e+07
   2.872695e+07   2.872695e+07   2.872695e+07   2.872696e+07   2.872696e+07
   2.872697e+07   2.872697e+07   2.872697e+07   2.872697e+07   2.872697e+07
   2.872697e+07   2.872696e+07   2.872697e+07   2.872696e+07   2.872696e+07
   2.872696e+07   2.872697e+07   2.872696e+07   2.872694e+07   2.872694e+07
   2.872694e+07   2.872694e+07   2.872694e+07   2.872692e+07   2.872693e+07
   2.872692e+07   2.872692e+07   2.872691e+07   2.872691e+07   2.872693e+07
   2.872693e+07   2.872691e+07   2.872691e+07   2.872691e+07   2.872691e+07
   2.872691e+07   2.872690e+07   2.872690e+07   2.872689e+07   2.872688e+07
   2.872688e+07   2.872689e+07   2.872689e+07   2.872688e+07   2.872688e+07
   2.872687e+07   2.872687e+07   2.872687e+07   2.872687e+07   2.872687e+07
   2.872686e+07   2.872686e+07   2.872687e+07   2.872687e+07   2.872687e+07
   2.872688e+07   2.872686e+07   2.872686e+07   2.872686e+07   2.872686e+07
   2.872686e+07   2.872686e+07   2.872685e+07   2.872686e+07   2.872685e+07
   2.872685e+07   2.872685e+07   2.872685e+07   2.872685e+07   2.872684e+07
   2.872684e+07   2.872685e+07   2.872684e+07   2.872684e+07   2.872684e+07
   2.872684e+07   2.872684e+07   2.872684e+07   2.872684e+07   2.872684e+07
   2.872684e+07   2.872684e+07   2.872684e+07   2.872684e+07   2.872683e+07
   2.872682e+07   2.872683e+07   2.872683e+07   2.872683e+07   2.872683e+07
   2.872683e+07   2.872683e+07   2.872683e+07   2.872683e+07   2.872682e+07
   2.872682e+07   2.872683e+07   2.872682e+07   2.872683e+07   2.872683e+07
   2.872684e+07   2.872684e+07   2.872686e+07   2.872688e+07   2.872690e+07
   2.872692e+07   2.872696e+07   2.872701e+07   2.872707e+07   2.872712e+07
   2.872686e+07   2.872698e+07   2.872829e+07   2.872878e+07   2.873084e+07
   2.873222e+07   2.873330e+07   2.873738e+07   2.873625e+07   2.874298e+07
   2.874188e+07   2.874615e+07   2.875103e+07   2.873867e+07   2.875750e+07
   2.855774e+07   2.805359e+07   2.754186e+07   2.704023e+07   2.651931e+07
   2.601182e+07   2.548996e+07   2.497090e+07   2.444913e+07   2.392272e+07
   2.339557e+07   2.286498e+07   2.233241e+07   2.179904e+07   2.126383e+07
   2.072514e+07   2.018624e+07   1.964309e+07   1.909844e+07   1.855502e+07
   1.800599e+07   1.745536e+07   1.690618e+07   1.635276e+07   1.579783e+07
   1.524308e+07   1.468307e+07   1.412258e+07   1.356461e+07   1.300034e+07
   1.243553e+07   1.187126e+07   1.130308e+07   1.073709e+07   1.016728e+07
       9597477.       9028052.       8454162.       7881863.       7308842.
       6734655.       6158151.       5580248.       5004786.       4428287.
       3851045.       3273364.       2693497.       2115225.       1536293.
       956156.0       377064.0      -201661.0      -780702.0      -1360879.
      -1938635.      -2516758.      -3095756.      -3674386.      -4251893.
      -4829139.      -5407567.      -5982912.      -6559440.      -7133854.
      -7707581.      -8284052.      -8855394.      -9427416.  -1.000061e+07
  -1.056991e+07  -1.113929e+07  -1.170821e+07  -1.227468e+07  -1.284084e+07
  -1.340534e+07  -1.396819e+07  -1.453011e+07  -1.509035e+07  -1.564991e+07
  -1.620637e+07  -1.676134e+07  -1.731612e+07  -1.786789e+07  -1.841817e+07
  -1.896695e+07  -1.951281e+07  -2.005730e+07  -2.059935e+07  -2.113877e+07
  -2.167855e+07  -2.221410e+07  -2.274746e+07  -2.328242e+07  -2.380972e+07
  -2.433939e+07  -2.486376e+07  -2.538684e+07  -2.591077e+07  -2.642023e+07
  -2.694532e+07  -2.744353e+07  -2.797086e+07  -2.842828e+07  -2.853550e+07
  -2.850515e+07  -2.852032e+07  -2.851000e+07  -2.851230e+07  -2.851142e+07
  -2.850781e+07  -2.850966e+07  -2.850594e+07  -2.850642e+07  -2.850476e+07
  -2.850363e+07  -2.850327e+07  -2.850227e+07  -2.850260e+07  -2.850291e+07
  -2.850292e+07  -2.850292e+07  -2.850291e+07  -2.850291e+07  -2.850292e+07
  -2.850291e+07  -2.850291e+07  -2.850292e+07  -2.850292e+07  -2.850292e+07
  -2.850292e+07  -2.850292e+07  -2.850292e+07  -2.850291e+07  -2.850292e+07
  -2.850291e+07  -2.850290e+07  -2.850290e+07  -2.850290e+07  -2.850290e+07
  -2.850289e+07  -2.850288e+07  -2.850288e+07  -2.850288e+07  -2.850288e+07
  -2.850288e+07  -2.850288e+07  -2.850287e+07  -2.850287e+07  -2.850286e+07
