     0.02500000      -12345.00      -12345.00   1.983070e+09      -12345.00
   0.0005390000       1859.976      -467.0196      -12345.00      -12345.00
      -12345.00      -12345.00      -12345.00      -12345.00      -12345.00
      -12345.00      -12345.00      -12345.00      -12345.00      -12345.00
      -12345.00      -12345.00      -12345.00      -12345.00      -12345.00
      -12345.00      -12345.00      -12345.00      -12345.00      -12345.00
      -12345.00      -25.07130      -130.0953       218.0000       2.000000
      -42.72450       173.0647      -12345.00       22.00000      -12345.00
      -12345.00      -12345.00      -12345.00      -12345.00      -12345.00
      -12345.00      -12345.00      -12345.00      -12345.00      -12345.00
       5495.869       88.12969       234.3050       49.42772      -12345.00
      -12345.00      -12345.00       0.000000       90.00000      -12345.00
      -12345.00      -12345.00      -12345.00      -12345.00      -12345.00
      -12345.00      -12345.00      -12345.00      -12345.00      -12345.00
      2016       318        11        10        46
        19         6    -12345    -12345     74400
    -12345    -12345    -12345    -12345    -12345
         1    -12345    -12345    -12345    -12345
    -12345    -12345    -12345    -12345    -12345
    -12345    -12345    -12345    -12345    -12345
    -12345    -12345    -12345    -12345    -12345
         1    -12345    -12345    -12345    -12345
PTCN    South Island, Ne
10      -12345  -12345  
-12345  -12345  -12345  
-12345  -12345  -12345  
-12345  -12345  -12345  
-12345  -12345  -12345  
-12345  -12345  BH1     
IU      -12345  Trillium
[...]
      -251414.0      -249690.0      -245902.0      -245401.0      -249140.0
      -244093.0      -236494.0      -233448.0      -230454.0      -228892.0
      -229040.0      -227692.0      -222432.0      -218791.0      -218552.0
      -214896.0      -209884.0      -207551.0      -205891.0      -200306.0
      -197172.0      -197272.0      -189736.0      -185001.0      -186478.0
      -183565.0      -179328.0      -175648.0      -176043.0      -175217.0
      -169162.0      -165324.0      -159792.0      -158323.0      -159152.0
      -153889.0      -152192.0      -150460.0      -147254.0      -143449.0
      -135612.0      -137535.0      -141413.0      -133151.0      -126268.0
      -124419.0      -122824.0      -124505.0      -123368.0      -119197.0
      -118570.0      -114252.0      -112256.0      -115947.0      -115326.0
      -112225.0      -108467.0      -109274.0      -110310.0      -106290.0
      -104886.0      -100167.0      -96305.00      -98083.00      -97491.00
      -95352.00      -92902.00      -93548.00      -88294.00      -80743.00
      -82781.00      -81115.00      -76517.00      -72687.00      -68190.00
      -64637.00      -60245.00      -59510.00      -57037.00      -49565.00
      -44496.00      -41937.00      -40374.00      -39232.00      -35150.00
      -29872.00      -29600.00      -26297.00      -18273.00      -16751.00
      -15163.00      -10338.00      -7226.000      -4059.000      -1281.000
       4078.000       9167.000       11123.00       16033.00       16454.00
       16376.00       23469.00       26195.00       26665.00       27510.00
       30413.00       34490.00       34130.00       35971.00       37358.00
       37812.00       40099.00       43616.00       50168.00       54464.00
       55756.00       57926.00       62882.00       66988.00       68042.00
       69597.00       72293.00       73879.00       73415.00       80343.00
       92651.00       92784.00       86677.00       88081.00       95237.00
       104091.0       109490.0       109571.0       109982.0       113329.0
       115053.0       119253.0       125928.0       123294.0       122115.0
       130305.0       129982.0       124085.0       129923.0       136134.0
       134876.0       141834.0       148856.0       143109.0       142851.0
       150824.0       151489.0       153024.0       158926.0       158306.0
       158566.0       165343.0       170473.0       171487.0       170349.0
       171111.0       178311.0       183018.0       180530.0       182470.0
       188698.0       191350.0       191960.0       196966.0       199388.0
       197761.0       206280.0       211760.0       207381.0       211353.0
       219277.0       222882.0       226614.0       230319.0       233474.0
       234910.0       235626.0       241462.0       247257.0       246307.0
       247481.0       252154.0       254309.0       255102.0       256195.0
       261631.0       265988.0       268301.0       272692.0       274115.0
       276640.0       279981.0       282940.0       286192.0       288738.0
       296917.0       305511.0       310230.0       315537.0       320095.0
       320852.0       319831.0       320337.0       320205.0       321854.0
       326377.0       328721.0       331046.0       335323.0       335814.0
       335023.0       339399.0       344879.0       350208.0       354177.0
       354182.0       353469.0       355595.0       361516.0       366359.0
       369195.0       373139.0       376537.0       378412.0       380375.0
       381767.0       382376.0       384424.0       385723.0       386307.0
       390717.0       396546.0       400535.0       405670.0       409692.0
       410471.0       414872.0       420346.0       422755.0       426425.0
       427402.0       423695.0       422446.0       428099.0       434367.0
       435293.0       435271.0       433244.0       432517.0       438570.0
       442117.0       442222.0       443567.0       443709.0       443568.0
       442595.0       443387.0       448551.0       450886.0       448471.0
       445349.0       445576.0       448173.0       447790.0       446410.0
       445566.0       445720.0       450211.0       456371.0       458444.0
       455090.0       453293.0       456279.0       457671.0       458230.0
       460242.0       461753.0       461323.0       455664.0       452362.0
       458414.0       460677.0       459176.0       463092.0       463678.0
       460832.0       461430.0       460410.0       457888.0       459102.0
       459451.0       460786.0       464836.0       464557.0       463935.0
       466373.0       468098.0       468254.0       466241.0       464066.0
       465859.0       468787.0       471362.0       472367.0       470415.0
       469761.0       470407.0       473668.0       476237.0       475228.0
       474919.0       476425.0       479988.0       479925.0       480017.0
       484417.0       482862.0       479582.0       477748.0       475105.0
       478981.0       481657.0       480307.0       481977.0       480407.0
       476989.0       476419.0       476878.0       478127.0       476548.0
       474500.0       476221.0       475302.0       471323.0       469261.0
       467967.0       466190.0       466347.0       467029.0       466911.0
       467450.0       465611.0       464383.0       464232.0       461358.0
       461189.0       462711.0       460624.0       459058.0       457792.0
       454316.0       451803.0       449987.0       449943.0       449257.0
       445999.0       440563.0       431901.0       429638.0       431168.0
       427697.0       425211.0       422884.0       418021.0       414886.0
       412207.0       407809.0       404804.0       403072.0       399932.0
       395689.0       392130.0       388165.0       383658.0       382497.0
       380474.0       377911.0       378907.0       375533.0       369901.0
       366397.0       364699.0       361601.0       350845.0       345195.0
       343512.0       336085.0       331825.0       328210.0       321445.0
       315104.0       311186.0       308296.0       302789.0       295774.0
       289263.0       284497.0       279600.0       275215.0       271749.0
       264733.0       256552.0       249167.0       241606.0       236165.0
       231053.0       226436.0       220795.0       209877.0       204273.0
       205483.0       200983.0       191709.0       185081.0       182101.0
       176781.0       169908.0       161991.0       154060.0       151949.0
       144815.0       135350.0       130866.0       124028.0       119505.0
       113341.0       106265.0       101758.0       92351.00       85649.00
       81682.00       75985.00       71042.00       63798.00       56641.00
       48957.00       38083.00       29977.00       24904.00       17933.00
       8768.000       1960.000      -3095.000      -14022.00      -27584.00
      -36681.00      -44321.00      -51351.00      -56903.00      -63053.00
      -67979.00      -76836.00      -87278.00      -91806.00      -100403.0
      -107854.0      -110153.0      -116511.0      -122977.0      -131631.0
      -141117.0      -147474.0      -156605.0      -164456.0      -172951.0
      -184330.0      -191830.0      -199461.0      -207536.0      -215891.0
      -224930.0      -233676.0      -245718.0      -256059.0      -264443.0
      -272998.0      -275989.0      -281125.0      -292101.0      -298718.0
      -308962.0      -321709.0      -323512.0      -328181.0      -342219.0
      -350897.0      -355646.0      -366519.0      -376647.0      -380288.0
      -387325.0      -401186.0      -412181.0      -420745.0      -432295.0
      -441566.0      -451579.0      -463123.0      -470414.0      -478924.0
      -490833.0      -502786.0      -512618.0      -518677.0      -526354.0
      -538798.0      -547145.0      -553222.0      -563110.0      -574335.0
      -587031.0      -595420.0      -601530.0      -609551.0      -616753.0
      -625486.0      -634074.0      -643712.0      -655070.0      -667293.0
      -678085.0      -684195.0      -693615.0      -704497.0      -712416.0
      -722950.0      -731488.0      -737337.0      -748801.0      -763092.0
      -773734.0      -781785.0      -788845.0      -795000.0      -801306.0
      -809311.0      -820935.0      -831489.0      -837314.0      -842393.0
      -847449.0      -854083.0      -864261.0      -870420.0      -873641.0
      -884193.0      -894071.0      -902188.0      -911417.0      -912607.0
      -915832.0      -924718.0      -933196.0      -944942.0      -952424.0
      -955665.0      -964471.0      -969472.0      -971282.0      -982402.0
      -988830.0      -989619.0      -995662.0      -1000409.      -1006864.
      -1013248.      -1017536.      -1021494.      -1021378.      -1023830.
      -1029383.      -1033772.      -1039432.      -1041327.      -1041594.
      -1049204.      -1051214.      -1051189.      -1060765.      -1063983.
      -1066468.      -1073202.      -1069880.      -1067427.      -1076075.
      -1081701.      -1081305.      -1087434.      -1093458.      -1092839.
      -1092972.      -1091376.      -1096058.      -1105121.      -1099332.
      -1097573.      -1107989.      -1105754.      -1102444.      -1107693.
      -1107469.      -1107467.      -1108921.      -1108531.      -1111272.
      -1114523.      -1109073.      -1102324.      -1112571.      -1118740.
      -1109220.      -1106978.      -1108630.      -1108000.      -1105094.
      -1100268.      -1101519.      -1104443.      -1097978.      -1087788.
      -1089149.      -1092480.      -1089053.      -1083737.      -1078209.
      -1077212.      -1073890.      -1068201.      -1065850.      -1064073.
      -1060640.      -1050944.      -1043783.      -1039939.      -1030179.
      -1022208.      -1016182.      -1008875.      -1002772.      -994197.0
      -986967.0      -982096.0      -971744.0      -957763.0      -945164.0
      -937490.0      -932332.0      -922027.0      -911045.0      -905345.0
      -898262.0      -888587.0      -877613.0      -866503.0      -861790.0
      -853384.0      -838901.0      -829436.0      -819004.0      -806146.0
      -796270.0      -787242.0      -775091.0      -759006.0      -743793.0
      -730696.0      -719189.0      -709504.0      -696092.0      -679331.0
      -666097.0      -654238.0      -635240.0      -617035.0      -609350.0
      -597967.0      -579092.0      -564571.0      -552214.0      -536051.0
      -519707.0      -505127.0      -489852.0      -472705.0      -453008.0
      -438542.0      -429225.0      -414800.0      -397742.0      -379664.0
      -363228.0      -348246.0      -331323.0      -316696.0      -297398.0
      -277309.0      -265319.0      -254060.0      -239126.0      -215692.0
      -194717.0      -183969.0      -169142.0      -151298.0      -134419.0
      -117559.0      -103265.0      -87715.00      -69149.00      -49323.00
      -32636.00      -18917.00      -663.0000       15573.00       30105.00
       52415.00       71875.00       88216.00       111331.0       132321.0
       145642.0       162648.0       183767.0       200691.0       218815.0
       238250.0       254404.0       271968.0       290228.0       308248.0
       326594.0       341003.0       358094.0       379806.0       397721.0
       412983.0       428487.0       444810.0       461416.0       480429.0
       500427.0       516640.0       534339.0       552489.0       567253.0
       585350.0       606692.0       624953.0       640865.0       659080.0
       679671.0       698688.0       714256.0       729123.0       744371.0
       758693.0       775846.0       794037.0       811238.0       829692.0
       846152.0       862239.0       876783.0       889428.0       906430.0
       923134.0       936602.0       952842.0       969809.0       981623.0
       990993.0       1001884.       1015576.       1031494.       1045007.
       1056646.       1069112.       1079609.       1089826.       1104256.
       1120350.       1134041.       1144607.       1155412.       1170290.
       1183864.       1192810.       1202861.       1214017.       1225644.
       1239193.       1249127.       1256387.       1269395.       1285398.
       1297505.       1305005.       1310874.       1320112.       1330353.
       1336537.       1342109.       1352479.       1365019.       1372288.
       1376567.       1380826.       1384961.       1394419.       1404169.
       1411434.       1418381.       1419870.       1423719.       1432071.
       1437713.       1442470.       1446476.       1453129.       1458224.
       1456584.       1458932.       1464814.       1468687.       1473438.
       1480385.       1484584.       1484341.       1488718.       1493735.
       1495271.       1497528.       1496249.       1493927.       1496722.
       1503029.       1506477.       1507010.       1506789.       1502890.
       1500983.       1503261.       1503817.       1504011.       1501090.
       1493537.       1489664.       1488266.       1486772.       1485604.
       1480431.       1473072.       1464984.       1458917.       1457725.
       1454577.       1450630.       1446760.       1440120.       1432419.
       1422214.       1415474.       1412363.       1408714.       1404259.
       1396429.       1390372.       1382691.       1372824.       1364936.
       1354530.       1345900.       1336832.       1326321.       1317655.
       1305746.       1295979.       1288557.       1277771.       1267718.
       1256407.       1242359.       1231045.       1223727.       1214810.
       1201848.       1192163.       1183489.       1171164.       1157719.
       1143385.       1129869.       1115716.       1102791.       1091062.
       1073708.       1055214.       1045165.       1038901.       1027792.
       1013108.       997191.0       984878.0       973097.0       955603.0
       939064.0       925607.0       909492.0       890387.0       873704.0
       857002.0       840525.0       826088.0       807098.0       787141.0
       770114.0       753828.0       739801.0       727082.0       709677.0
       686452.0       664185.0       646792.0       631722.0       615717.0
       598001.0       581153.0       564325.0       543540.0       524268.0
       507925.0       489350.0       468388.0       446077.0       425294.0
       409160.0       398134.0       386395.0       370240.0       349956.0
       327792.0       307766.0       287472.0       266674.0       248239.0
       231838.0       213603.0       195702.0       179829.0       161777.0
       147490.0       134527.0       115797.0       95963.00       75304.00
       53293.00       34090.00       17927.00       2322.000      -12627.00
      -26662.00      -41539.00      -57142.00      -72046.00      -88012.00
      -104730.0      -121235.0      -137237.0      -151734.0      -166015.0
      -177794.0      -188034.0      -202501.0      -220403.0      -236746.0
      -250067.0      -262322.0      -274666.0      -288367.0      -302880.0
      -316064.0      -329012.0      -343732.0      -358115.0      -369325.0
      -380474.0      -393301.0      -404470.0      -418463.0      -435987.0
      -447919.0      -457579.0      -469647.0      -481789.0      -493999.0
      -506111.0      -516865.0      -524271.0      -534535.0      -549120.0
      -561481.0      -574755.0      -584561.0      -592151.0      -607186.0
      -619740.0      -629078.0      -637248.0      -641498.0      -649654.0
      -656380.0      -665126.0      -680984.0      -695444.0      -710660.0
      -718603.0      -720979.0      -730288.0      -739225.0      -746503.0
      -754376.0      -763709.0      -772379.0      -777493.0      -788663.0
      -799081.0      -802494.0      -811490.0      -820584.0      -822468.0
      -826671.0      -833681.0      -838581.0      -842775.0      -845589.0
      -848963.0      -856493.0      -864847.0      -871140.0      -876220.0
      -877833.0      -878000.0      -883060.0      -889825.0      -893833.0
      -895490.0      -894635.0      -893499.0      -894982.0      -896925.0
      -901736.0      -908869.0      -908602.0      -906055.0      -906324.0
      -905264.0      -904727.0      -905002.0      -906404.0      -907078.0
      -906535.0      -907117.0      -902409.0      -896151.0      -895995.0
      -893887.0      -889837.0      -887182.0      -881197.0      -873806.0
      -869888.0      -868932.0      -865864.0      -861090.0      -856885.0
      -851503.0      -845971.0      -841471.0      -837236.0      -830901.0
      -824155.0      -818623.0      -809846.0      -801209.0      -798380.0
      -794857.0      -787261.0      -779178.0      -771256.0      -765933.0
      -763314.0      -758875.0      -750927.0      -740760.0      -731857.0
      -725364.0      -718273.0      -712504.0      -705755.0      -695675.0
      -689409.0      -681190.0      -670963.0      -666823.0      -655588.0
      -643757.0      -639176.0      -625059.0      -618328.0      -620153.0
      -608600.0      -595928.0      -587588.0      -578530.0      -566873.0
      -554333.0      -544809.0      -536824.0      -527788.0      -514699.0
      -502611.0      -496637.0      -495430.0      -486216.0      -470246.0
      -463954.0      -454258.0      -441907.0      -434840.0      -422229.0
      -413474.0      -406564.0      -398219.0      -394560.0      -385562.0
      -370735.0      -361336.0      -357811.0      -345826.0      -330191.0
      -320948.0      -308651.0      -296091.0      -289131.0      -282161.0
      -271467.0      -261678.0      -252045.0      -241268.0      -231445.0
      -221322.0      -216050.0      -206615.0      -190993.0      -181765.0
      -175839.0      -166483.0      -158348.0      -155530.0      -141847.0
      -126804.0      -123592.0      -113415.0      -106455.0      -105528.0
      -95758.00      -85733.00      -77445.00      -70552.00      -63914.00
      -57426.00      -52599.00      -45150.00      -37602.00      -25940.00
      -18676.00      -17791.00      -6463.000       2855.000       8249.000
       19309.00       23479.00       25618.00       35825.00       43874.00
       44810.00       51971.00       68584.00       75466.00       72651.00
       77190.00       88029.00       93691.00       92749.00       96292.00
       106860.0       112999.0       113966.0       117837.0       123802.0
