     0.02500000      -12345.00      -12345.00   9.244250e+08      -12345.00
   0.0005380000       1859.976      -395.0196      -12345.00      -12345.00
      -12345.00      -12345.00      -12345.00      -12345.00      -12345.00
      -12345.00      -12345.00      -12345.00      -12345.00      -12345.00
      -12345.00      -12345.00      -12345.00      -12345.00      -12345.00
      -12345.00      -12345.00      -12345.00      -12345.00      -12345.00
      -12345.00      -9.404700       147.1597       90.00000       0.000000
      -42.72450       173.0647      -12345.00       22.00000      -12345.00
      -12345.00      -12345.00      -12345.00      -12345.00      -12345.00
      -12345.00      -12345.00      -12345.00      -12345.00      -12345.00
       4469.797       318.0964       150.0813       40.19963      -12345.00
      -12345.00      -12345.00       0.000000       90.00000      -12345.00
      -12345.00      -12345.00      -12345.00      -12345.00      -12345.00
      -12345.00      -12345.00      -12345.00      -12345.00      -12345.00
      2016       318        11         9        34
        19         6    -12345    -12345     74400
    -12345    -12345    -12345    -12345    -12345
         1    -12345    -12345    -12345    -12345
    -12345    -12345    -12345    -12345    -12345
    -12345    -12345    -12345    -12345    -12345
    -12345    -12345    -12345    -12345    -12345
         1    -12345    -12345    -12345    -12345
PMG     South Island, Ne
60      -12345  -12345  
-12345  -12345  -12345  
-12345  -12345  -12345  
-12345  -12345  -12345  
-12345  -12345  -12345  
-12345  -12345  BH1     
IU      -12345  Metrozet
[...]
       459549.0       471328.0       482932.0       494487.0       506125.0
       517647.0       529122.0       540604.0       551954.0       563300.0
       574637.0       585873.0       597072.0       608184.0       619330.0
       630394.0       641378.0       652370.0       663244.0       674095.0
       684859.0       695572.0       706265.0       716880.0       727445.0
       737908.0       748312.0       758716.0       769063.0       779281.0
       789468.0       799582.0       809592.0       819589.0       829535.0
       839377.0       849126.0       858871.0       868514.0       878066.0
       887590.0       896978.0       906323.0       915695.0       924855.0
       933907.0       943070.0       952004.0       960824.0       969696.0
       978423.0       987088.0       995694.0       1004174.       1012532.
       1020919.       1029193.       1037282.       1045363.       1053375.
       1061312.       1069057.       1076796.       1084517.       1092009.
       1099468.       1106868.       1114126.       1121309.       1128484.
       1135467.       1142301.       1149180.       1155950.       1162573.
       1169118.       1175595.       1181934.       1188177.       1194377.
       1200430.       1206426.       1212316.       1218091.       1223843.
       1229373.       1234861.       1240297.       1245527.       1250777.
       1255893.       1260812.       1265687.       1270533.       1275243.
       1279786.       1284303.       1288684.       1292925.       1297113.
       1301175.       1305112.       1309022.       1312849.       1316430.
       1319923.       1323445.       1326797.       1330024.       1333206.
       1336172.       1339052.       1341877.       1344622.       1347275.
       1349681.       1352107.       1354405.       1356551.       1358674.
       1360568.       1362417.       1364179.       1365861.       1367377.
       1368744.       1370086.       1371306.       1372439.       1373379.
       1374258.       1375072.       1375764.       1376292.       1376760.
       1377148.       1377322.       1377474.       1377450.       1377412.
       1377280.       1376916.       1376535.       1376009.       1375386.
       1374714.       1373856.       1372860.       1371844.       1370684.
       1369448.       1368078.       1366552.       1365022.       1363311.
       1361451.       1359529.       1357585.       1355482.       1353180.
       1350875.       1348492.       1345948.       1343296.       1340503.
       1337652.       1334683.       1331576.       1328474.       1325130.
       1321733.       1318246.       1314615.       1311008.       1307156.
       1303222.       1299190.       1295058.       1290856.       1286537.
       1282100.       1277510.       1272972.       1268243.       1263307.
       1258413.       1253398.       1248220.       1243009.       1237680.
       1232211.       1226718.       1221044.       1215314.       1209578.
       1203564.       1197507.       1191503.       1185224.       1178858.
       1172553.       1166080.       1159451.       1152761.       1146035.
       1139123.       1132141.       1125184.       1118024.       1110762.
       1103455.       1096059.       1088572.       1080968.       1073296.
       1065541.       1057719.       1049771.       1041748.       1033714.
       1025516.       1017215.       1008906.       1000472.       991946.0
       983378.0       974715.0       966029.0       957169.0       948261.0
       939333.0       930204.0       921137.0       911919.0       902638.0
       893341.0       883884.0       874478.0       864876.0       855218.0
       845566.0       835826.0       825968.0       816002.0       806103.0
       796090.0       785981.0       775830.0       765634.0       755326.0
       744962.0       734599.0       724112.0       713589.0       703007.0
       692329.0       681613.0       670887.0       660070.0       649190.0
       638236.0       627262.0       616299.0       605155.0       594008.0
       582886.0       571618.0       560281.0       549043.0       537685.0
       526185.0       514766.0       503214.0       491721.0       480177.0
       468404.0       456720.0       445040.0       433258.0       421491.0
       409699.0       397736.0       385808.0       373884.0       361909.0
       349976.0       337837.0       325715.0       313661.0       301491.0
       289356.0       277124.0       264884.0       252672.0       240330.0
       228031.0       215723.0       203410.0       191012.0       178537.0
       166207.0       153715.0       141237.0       128812.0       116273.0
       103836.0       91283.00       78717.00       66210.00       53638.00
       40998.00       28419.00       15868.00       3208.000      -9355.000
      -22004.00      -34634.00      -47261.00      -59936.00      -72538.00
      -85257.00      -97904.00      -110530.0      -123194.0      -135869.0
      -148516.0      -161140.0      -173834.0      -186481.0      -199115.0
      -211731.0      -224386.0      -237038.0      -249611.0      -262276.0
      -274886.0      -287438.0      -300089.0      -312588.0      -325107.0
      -337753.0      -350269.0      -362736.0      -375209.0      -387758.0
      -400239.0      -412574.0      -425044.0      -437434.0      -449768.0
      -462152.0      -474442.0      -486770.0      -499017.0      -511280.0
      -523500.0      -535627.0      -547822.0      -559969.0      -572070.0
      -584098.0      -596130.0      -608117.0      -620062.0      -632044.0
      -643921.0      -655764.0      -667581.0      -679351.0      -691078.0
      -702733.0      -714359.0      -725979.0      -737611.0      -749065.0
      -760481.0      -771971.0      -783314.0      -794599.0      -805864.0
      -817112.0      -828279.0      -839366.0      -850415.0      -861425.0
      -872375.0      -883246.0      -894115.0      -904854.0      -915538.0
      -926217.0      -936797.0      -947316.0      -957771.0      -968158.0
      -978509.0      -988785.0      -998954.0      -1009052.      -1019114.
      -1029129.      -1038999.      -1048847.      -1058621.      -1068291.
      -1077899.      -1087374.      -1096848.      -1106248.      -1115544.
      -1124736.      -1133850.      -1142885.      -1151835.      -1160706.
      -1169461.      -1178210.      -1186804.      -1195254.      -1203695.
      -1212067.      -1220313.      -1228435.      -1236473.      -1244461.
      -1252307.      -1260043.      -1267743.      -1275287.      -1282774.
      -1290165.      -1297387.      -1304518.      -1311609.      -1318587.
      -1325409.      -1332187.      -1338817.      -1345340.      -1351791.
      -1358119.      -1364334.      -1370405.      -1376390.      -1382277.
      -1388084.      -1393750.      -1399233.      -1404662.      -1410034.
      -1415242.      -1420295.      -1425307.      -1430183.      -1434877.
      -1439467.      -1443945.      -1448383.      -1452638.      -1456724.
      -1460787.      -1464679.      -1468440.      -1472062.      -1475593.
      -1479043.      -1482333.      -1485501.      -1488513.      -1491458.
      -1494260.      -1496945.      -1499470.      -1501887.      -1504311.
      -1506449.      -1508482.      -1510446.      -1512236.      -1513912.
      -1515452.      -1516936.      -1518192.      -1519368.      -1520485.
      -1521364.      -1522174.      -1522877.      -1523450.      -1523820.
      -1524042.      -1524242.      -1524286.      -1524156.      -1523912.
      -1523601.      -1523120.      -1522502.      -1521776.      -1520865.
      -1519879.      -1518782.      -1517513.      -1516124.      -1514674.
      -1513072.      -1511272.      -1509391.      -1507372.      -1505230.
      -1503021.      -1500650.      -1498124.      -1495509.      -1492755.
      -1489860.      -1486843.      -1483728.      -1480498.      -1477118.
      -1473622.      -1469992.      -1466224.      -1462328.      -1458362.
      -1454251.      -1449949.      -1445597.      -1441121.      -1436539.
      -1431791.      -1426856.      -1421917.      -1416814.      -1411566.
      -1406268.      -1400800.      -1395225.      -1389581.      -1383740.
      -1377799.      -1371812.      -1365604.      -1359360.      -1353049.
      -1346544.      -1339934.      -1333204.      -1326458.      -1319569.
      -1312473.      -1305328.      -1298178.      -1290862.      -1283335.
      -1275836.      -1268174.      -1260406.      -1252623.      -1244647.
      -1236581.      -1228435.      -1220209.      -1211823.      -1203373.
      -1194831.      -1186191.      -1177508.      -1168624.      -1159713.
      -1150735.      -1141649.      -1132515.      -1123192.      -1113776.
      -1104389.      -1094848.      -1085197.      -1075550.      -1065753.
      -1055870.      -1045885.      -1035815.      -1025746.      -1015586.
      -1005289.      -994912.0      -984513.0      -973995.0      -963374.0
      -952722.0      -942000.0      -931154.0      -920266.0      -909388.0
      -898325.0      -887224.0      -876090.0      -864821.0      -853545.0
      -842168.0      -830712.0      -819199.0      -807675.0      -796060.0
      -784377.0      -772647.0      -760716.0      -748920.0      -737057.0
      -724959.0      -712978.0      -700874.0      -688665.0      -676541.0
      -664239.0      -651876.0      -639613.0      -627167.0      -614636.0
      -602143.0      -589612.0      -577052.0      -564352.0      -551586.0
      -538917.0      -526155.0      -513213.0      -500378.0      -487529.0
      -474535.0      -461521.0      -448513.0      -435447.0      -422325.0
      -409220.0      -395998.0      -382839.0      -369683.0      -356375.0
      -343104.0      -329799.0      -316479.0      -303122.0      -289711.0
      -276278.0      -262840.0      -249458.0      -235966.0      -222441.0
      -208979.0      -195455.0      -181900.0      -168302.0      -154706.0
      -141189.0      -127560.0      -113884.0      -100347.0      -86670.00
      -72994.00      -59425.00      -45635.00      -32014.00      -18445.00
      -4545.000       9093.000       22695.00       36487.00       50108.00
       63833.00       77528.00       91185.00       104974.0       118631.0
       132240.0       145976.0       159652.0       173226.0       186921.0
       200566.0       214158.0       227860.0       241435.0       254932.0
       268565.0       282123.0       295598.0       309164.0       322677.0
       336147.0       349646.0       363045.0       376464.0       389921.0
       403240.0       416537.0       429878.0       443191.0       456471.0
       469715.0       482850.0       496044.0       509231.0       522251.0
       535384.0       548452.0       561404.0       574461.0       587378.0
       600213.0       613127.0       625976.0       638765.0       651457.0
       664136.0       676857.0       689439.0       701991.0       714518.0
       726950.0       739343.0       751738.0       764074.0       776299.0
       788520.0       800669.0       812741.0       824748.0       836782.0
       848722.0       860499.0       872364.0       884055.0       895712.0
       907397.0       918960.0       930427.0       941772.0       953167.0
       964433.0       975645.0       986817.0       997871.0       1008867.
       1019754.       1030651.       1041430.       1052106.       1062765.
       1073311.       1083765.       1094141.       1104444.       1114636.
       1124799.       1134867.       1144806.       1154701.       1164461.
       1174179.       1183803.       1193292.       1202753.       1212114.
       1221374.       1230541.       1239568.       1248540.       1257473.
       1266239.       1274944.       1283547.       1292021.       1300423.
       1308726.       1316910.       1325004.       1333067.       1340905.
       1348710.       1356434.       1363937.       1371418.       1378776.
       1386048.       1393192.       1400220.       1407163.       1413991.
       1420684.       1427292.       1433827.       1440149.       1446455.
       1452625.       1458641.       1464571.       1470315.       1476096.
       1481705.       1487080.       1492424.       1497671.       1502770.
       1507734.       1512622.       1517355.       1521958.       1526510.
       1530887.       1535090.       1539274.       1543313.       1547120.
       1550956.       1554645.       1558115.       1561520.       1564800.
       1567986.       1570953.       1573878.       1576724.       1579296.
       1581899.       1584278.       1586430.       1588705.       1590701.
       1592517.       1594338.       1595979.       1597534.       1598873.
       1600092.       1601226.       1602225.       1603117.       1603755.
       1604426.       1604956.       1605159.       1605440.       1605557.
       1605433.       1605346.       1605052.       1604526.       1603987.
       1603328.       1602418.       1601477.       1600474.       1599122.
       1597816.       1596387.       1594626.       1593004.       1591122.
       1589015.       1586977.       1584631.       1582203.       1579742.
       1577011.       1574250.       1571363.       1568289.       1565075.
       1561764.       1558373.       1554733.       1551107.       1547316.
       1543281.       1539255.       1535027.       1530693.       1526280.
       1521696.       1517002.       1512175.       1507248.       1502155.
       1496928.       1491556.       1486119.       1480636.       1474863.
       1469014.       1463106.       1457044.       1450844.       1444544.
       1438139.       1431568.       1424951.       1418107.       1411208.
       1404282.       1397057.       1389825.       1382546.       1374999.
       1367462.       1359779.       1351877.       1344070.       1336032.
       1327830.       1319631.       1311253.       1302798.       1294278.
       1285607.       1276782.       1267923.       1258956.       1249851.
       1240680.       1231403.       1221956.       1212485.       1202896.
       1193192.       1183483.       1173520.       1163550.       1153435.
       1143252.       1133133.       1122651.       1112202.       1101745.
       1090999.       1080338.       1069635.       1058628.       1047543.
       1036597.       1025451.       1014105.       1002850.       991462.0
       979920.0       968305.0       956731.0       945020.0       933137.0
       921362.0       909352.0       897227.0       885223.0       873022.0
       860736.0       848446.0       836018.0       823559.0       811105.0
       798443.0       785735.0       773036.0       760209.0       747434.0
       734472.0       721469.0       708553.0       695324.0       682140.0
       669016.0       655685.0       642451.0       629059.0       615566.0
       602152.0       588596.0       575056.0       561422.0       547743.0
       534060.0       520272.0       506491.0       492666.0       478737.0
       464840.0       450962.0       436903.0       422889.0       408909.0
       394732.0       380612.0       366529.0       352337.0       338162.0
       323873.0       309559.0       295404.0       281109.0       266710.0
       252382.0       238016.0       223615.0       209197.0       194767.0
       180359.0       165945.0       151475.0       136960.0       122485.0
       108052.0       93526.00       78987.00       64513.00       50058.00
       35522.00       20980.00       6528.000      -8023.000      -22575.00
      -37022.00      -51504.00      -66068.00      -80555.00      -94978.00
      -109500.0      -123940.0      -138339.0      -152861.0      -167271.0
      -181634.0      -196070.0      -210456.0      -224790.0      -239144.0
      -253465.0      -267714.0      -282042.0      -296270.0      -310420.0
      -324678.0      -338870.0      -352990.0      -367066.0      -381148.0
      -395219.0      -409159.0      -423098.0      -437051.0      -450958.0
      -464858.0      -478627.0      -492341.0      -506101.0      -519827.0
      -533418.0      -546969.0      -560553.0      -574053.0      -587533.0
      -600873.0      -614153.0      -627533.0      -640773.0      -653906.0
      -667040.0      -680097.0      -693080.0      -706043.0      -718903.0
      -731705.0      -744565.0      -757260.0      -769768.0      -782392.0
      -794930.0      -807283.0      -819652.0      -831958.0      -844212.0
      -856351.0      -868370.0      -880379.0      -892340.0      -904211.0
      -915953.0      -927629.0      -939241.0      -950739.0      -962202.0
      -973596.0      -984886.0      -996059.0      -1007172.      -1018232.
      -1029129.      -1040018.      -1050773.      -1061375.      -1071980.
      -1082456.      -1092866.      -1103178.      -1113318.      -1123455.
      -1133517.      -1143360.      -1153145.      -1162863.      -1172517.
      -1182040.      -1191371.      -1200751.      -1209967.      -1219018.
      -1228053.      -1236903.      -1245704.      -1254397.      -1262925.
      -1271424.      -1279809.      -1288064.      -1296197.      -1304210.
      -1312087.      -1319906.      -1327706.      -1335193.      -1342678.
      -1350114.      -1357177.      -1364347.      -1371443.      -1378255.
      -1385010.      -1391667.      -1398244.      -1404659.      -1410905.
      -1417060.      -1423146.      -1429127.      -1434859.      -1440541.
      -1446114.      -1451482.      -1456820.      -1462014.      -1467031.
      -1471974.      -1476798.      -1481422.      -1486009.      -1490464.
      -1494702.      -1498895.      -1502962.      -1506858.      -1510644.
      -1514275.      -1517815.      -1521242.      -1524459.      -1527630.
      -1530625.      -1533456.      -1536250.      -1538846.      -1541331.
      -1543683.      -1545860.      -1547990.      -1549964.      -1551703.
      -1553394.      -1554999.      -1556406.      -1557712.      -1558847.
      -1559835.      -1560751.      -1561483.      -1562067.      -1562578.
      -1562945.      -1563118.      -1563208.      -1563179.      -1562966.
      -1562637.      -1562221.      -1561648.      -1560869.      -1560067.
      -1559029.      -1557851.      -1556704.      -1555281.      -1553762.
      -1552073.      -1550288.      -1548412.      -1546361.      -1544213.
