     0.05000000      -12345.00      -12345.00   3.461140e+09      -12345.00
   0.0005380000       1859.951      -602.0195      -12345.00      -12345.00
      -12345.00      -12345.00      -12345.00      -12345.00      -12345.00
      -12345.00      -12345.00      -12345.00      -12345.00      -12345.00
      -12345.00      -12345.00      -12345.00      -12345.00      -12345.00
      -12345.00      -12345.00      -12345.00      -12345.00      -12345.00
      -12345.00       19.75730      -155.5326       1910.000       80.00000
      -42.72450       173.0647      -12345.00       22.00000      -12345.00
      -12345.00      -12345.00      -12345.00      -12345.00      -12345.00
      -12345.00      -12345.00      -12345.00      -12345.00      -12345.00
       7625.265       31.81433       204.3588       68.57870      -12345.00
      -12345.00      -12345.00       138.0000       90.00000      -12345.00
      -12345.00      -12345.00      -12345.00      -12345.00      -12345.00
      -12345.00      -12345.00      -12345.00      -12345.00      -12345.00
      2016       318        11        13         1
        19         6    -12345    -12345     37200
    -12345    -12345    -12345    -12345    -12345
         1    -12345    -12345    -12345    -12345
    -12345    -12345    -12345    -12345    -12345
    -12345    -12345    -12345    -12345    -12345
    -12345    -12345    -12345    -12345    -12345
         1    -12345    -12345    -12345    -12345
POHA    South Island, Ne
00      -12345  -12345  
-12345  -12345  -12345  
-12345  -12345  -12345  
-12345  -12345  -12345  
-12345  -12345  -12345  
-12345  -12345  BH1     
IU      -12345  Geotech 
[...]
      -501348.0      -498805.0      -496338.0      -493971.0      -491641.0
      -489423.0      -487303.0      -485306.0      -483512.0      -481848.0
      -480363.0      -479096.0      -478064.0      -477319.0      -476845.0
      -476657.0      -476703.0      -476939.0      -477414.0      -478072.0
      -478896.0      -479905.0      -481083.0      -482479.0      -484035.0
      -485703.0      -487515.0      -489455.0      -491505.0      -493623.0
      -495771.0      -497930.0      -500038.0      -502083.0      -504066.0
      -505915.0      -507676.0      -509354.0      -510850.0      -512121.0
      -513172.0      -513990.0      -514540.0      -514857.0      -514959.0
      -514870.0      -514627.0      -514234.0      -513719.0      -513116.0
      -512439.0      -511628.0      -510706.0      -509713.0      -508616.0
      -507457.0      -506240.0      -504957.0      -503634.0      -502288.0
      -500944.0      -499587.0      -498183.0      -496715.0      -495203.0
      -493727.0      -492239.0      -490654.0      -489073.0      -487537.0
      -486060.0      -484667.0      -483350.0      -482117.0      -480968.0
      -479924.0      -478983.0      -478114.0      -477305.0      -476588.0
      -475949.0      -475360.0      -474832.0      -474344.0      -473906.0
      -473544.0      -473173.0      -472704.0      -472174.0      -471599.0
      -470948.0      -470213.0      -469399.0      -468521.0      -467604.0
      -466657.0      -465618.0      -464492.0      -463371.0      -462234.0
      -461110.0      -460009.0      -458858.0      -457741.0      -456738.0
      -455822.0      -454963.0      -454170.0      -453452.0      -452893.0
      -452491.0      -452154.0      -451962.0      -451891.0      -451925.0
      -452086.0      -452323.0      -452637.0      -452994.0      -453367.0
      -453729.0      -454069.0      -454382.0      -454674.0      -455007.0
      -455355.0      -455709.0      -456092.0      -456501.0      -456987.0
      -457549.0      -458160.0      -458877.0      -459649.0      -460479.0
      -461398.0      -462341.0      -463337.0      -464340.0      -465307.0
      -466202.0      -467027.0      -467811.0      -468526.0      -469172.0
      -469708.0      -470136.0      -470455.0      -470617.0      -470631.0
      -470481.0      -470198.0      -469813.0      -469237.0      -468563.0
      -467866.0      -467032.0      -466187.0      -465338.0      -464446.0
      -463626.0      -462748.0      -461862.0      -461016.0      -460126.0
      -459171.0      -458051.0      -456804.0      -455458.0      -453921.0
      -452206.0      -450317.0      -448282.0      -446134.0      -443866.0
      -441450.0      -438919.0      -436337.0      -433663.0      -430933.0
      -428161.0      -425341.0      -422524.0      -419652.0      -416693.0
      -413760.0      -410757.0      -407666.0      -404631.0      -401578.0
      -398594.0      -395710.0      -392863.0      -390121.0      -387526.0
      -385065.0      -382757.0      -380643.0      -378655.0      -376808.0
      -375124.0      -373562.0      -372168.0      -370957.0      -369862.0
      -368899.0      -368082.0      -367418.0      -366967.0      -366690.0
      -366564.0      -366598.0      -366718.0      -366959.0      -367340.0
      -367800.0      -368347.0      -368955.0      -369632.0      -370385.0
      -371230.0      -372207.0      -373337.0      -374661.0      -376153.0
      -377801.0      -379630.0      -381602.0      -383675.0      -385857.0
      -388134.0      -390469.0      -392833.0      -395237.0      -397677.0
      -400138.0      -402601.0      -405014.0      -407388.0      -409710.0
      -411953.0      -414134.0      -416218.0      -418171.0      -420019.0
      -421763.0      -423446.0      -425080.0      -426673.0      -428288.0
      -429908.0      -431515.0      -433156.0      -434864.0      -436597.0
      -438339.0      -440020.0      -441651.0      -443304.0      -444984.0
      -446591.0      -448091.0      -449570.0      -450975.0      -452375.0
      -453745.0      -455057.0      -456379.0      -457657.0      -458862.0
      -460037.0      -461216.0      -462364.0      -463485.0      -464560.0
      -465570.0      -466572.0      -467532.0      -468377.0      -469082.0
      -469605.0      -470003.0      -470286.0      -470383.0      -470273.0
      -469955.0      -469463.0      -468820.0      -467979.0      -466973.0
      -465870.0      -464652.0      -463340.0      -461948.0      -460497.0
      -459010.0      -457491.0      -455943.0      -454454.0      -453053.0
      -451732.0      -450570.0      -449513.0      -448558.0      -447754.0
      -447121.0      -446607.0      -446245.0      -446083.0      -446045.0
      -446139.0      -446389.0      -446824.0      -447432.0      -448199.0
      -449110.0      -450213.0      -451502.0      -452976.0      -454693.0
      -456579.0      -458664.0      -460944.0      -463392.0      -466050.0
      -468876.0      -471829.0      -474874.0      -477970.0      -481102.0
      -484237.0      -487341.0      -490426.0      -493442.0      -496328.0
      -499087.0      -501729.0      -504232.0      -506594.0      -508826.0
      -510910.0      -512847.0      -514623.0      -516322.0      -517948.0
      -519503.0      -520996.0      -522393.0      -523689.0      -524866.0
      -526001.0      -527056.0      -528032.0      -528959.0      -529796.0
      -530553.0      -531316.0      -532003.0      -532563.0      -533061.0
      -533421.0      -533641.0      -533677.0      -533548.0      -533259.0
      -532754.0      -532049.0      -531167.0      -530091.0      -528870.0
      -527491.0      -525930.0      -524275.0      -522442.0      -520525.0
      -518566.0      -516549.0      -514516.0      -512392.0      -510251.0
      -508057.0      -505766.0      -503462.0      -501081.0      -498564.0
      -495958.0      -493263.0      -490491.0      -487693.0      -484874.0
      -482024.0      -479193.0      -476386.0      -473595.0      -470905.0
      -468340.0      -465874.0      -463509.0      -461198.0      -458960.0
      -456867.0      -454885.0      -452989.0      -451206.0      -449581.0
      -448137.0      -446850.0      -445697.0      -444730.0      -443939.0
      -443319.0      -442843.0      -442514.0      -442339.0      -442296.0
      -442369.0      -442524.0      -442835.0      -443290.0      -443895.0
      -444645.0      -445491.0      -446433.0      -447480.0      -448614.0
      -449822.0      -451071.0      -452311.0      -453550.0      -454751.0
      -455949.0      -457133.0      -458306.0      -459435.0      -460498.0
      -461525.0      -462471.0      -463376.0      -464221.0      -464976.0
      -465676.0      -466314.0      -466851.0      -467278.0      -467559.0
      -467669.0      -467657.0      -467501.0      -467137.0      -466622.0
      -465944.0      -465111.0      -464201.0      -463190.0      -462164.0
      -461117.0      -459976.0      -458824.0      -457643.0      -456373.0
      -455140.0      -453900.0      -452621.0      -451391.0      -450153.0
      -448954.0      -447799.0      -446691.0      -445635.0      -444571.0
      -443490.0      -442381.0      -441209.0      -439996.0      -438724.0
      -437364.0      -436057.0      -434756.0      -433501.0      -432290.0
      -431079.0      -430047.0      -429107.0      -428273.0      -427571.0
      -426936.0      -426447.0      -426049.0      -425734.0      -425495.0
      -425309.0      -425222.0      -425198.0      -425303.0      -425476.0
      -425697.0      -426022.0      -426323.0      -426702.0      -427129.0
      -427583.0      -428108.0      -428612.0      -429165.0      -429735.0
      -430338.0      -431005.0      -431673.0      -432380.0      -433150.0
      -433989.0      -434894.0      -435875.0      -436925.0      -438016.0
      -439193.0      -440468.0      -441864.0      -443365.0      -444961.0
      -446708.0      -448562.0      -450563.0      -452724.0      -455011.0
      -457468.0      -460096.0      -462907.0      -465894.0      -469044.0
      -472363.0      -475852.0      -479462.0      -483187.0      -487070.0
      -491071.0      -495156.0      -499377.0      -503815.0      -508528.0
      -513427.0      -518447.0      -523625.0      -528959.0      -534508.0
      -540252.0      -546148.0      -552188.0      -558343.0      -564672.0
      -571194.0      -577944.0      -584895.0      -591981.0      -599205.0
      -606546.0      -614044.0      -621649.0      -629245.0      -636841.0
      -644457.0      -652053.0      -659576.0      -667020.0      -674379.0
      -681612.0      -688740.0      -695724.0      -702547.0      -709265.0
      -715936.0      -722566.0      -729092.0      -735577.0      -742015.0
      -748402.0      -754728.0      -760923.0      -767053.0      -773071.0
      -778942.0      -784681.0      -790246.0      -795655.0      -800908.0
      -805963.0      -810816.0      -815485.0      -819964.0      -824316.0
      -828575.0      -832729.0      -836799.0      -840765.0      -844633.0
      -848456.0      -852209.0      -855876.0      -859457.0      -862869.0
      -866091.0      -869108.0      -871904.0      -874475.0      -876801.0
      -878869.0      -880624.0      -882055.0      -883172.0      -883944.0
      -884377.0      -884458.0      -884171.0      -883519.0      -882498.0
      -881177.0      -879588.0      -877758.0      -875701.0      -873381.0
      -870806.0      -867973.0      -864889.0      -861542.0      -857933.0
      -854087.0      -850009.0      -845721.0      -841251.0      -836637.0
      -831931.0      -827168.0      -822389.0      -817662.0      -813070.0
      -808634.0      -804352.0      -800245.0      -796283.0      -792489.0
      -788883.0      -785413.0      -782051.0      -778815.0      -775674.0
      -772612.0      -769645.0      -766728.0      -763860.0      -761052.0
      -758267.0      -755484.0      -752716.0      -749937.0      -747149.0
      -744381.0      -741591.0      -738763.0      -735921.0      -733069.0
      -730207.0      -727327.0      -724391.0      -721405.0      -718358.0
      -715193.0      -711875.0      -708398.0      -704773.0      -700968.0
      -696972.0      -692747.0      -688289.0      -683654.0      -678821.0
      -673818.0      -668655.0      -663313.0      -657830.0      -652239.0
      -646575.0      -640834.0      -634974.0      -629021.0      -622975.0
      -616825.0      -610602.0      -604252.0      -597733.0      -591030.0
      -584131.0      -577063.0      -569814.0      -562378.0      -554781.0
      -547048.0      -539179.0      -531128.0      -522936.0      -514671.0
      -506315.0      -497847.0      -489232.0      -480480.0      -471620.0
      -462691.0      -453711.0      -444677.0      -435631.0      -426574.0
      -417552.0      -408566.0      -399583.0      -390615.0      -381658.0
      -372754.0      -363846.0      -354925.0      -346070.0      -337257.0
      -328478.0      -319728.0      -311003.0      -302333.0      -293704.0
      -285126.0      -276633.0      -268219.0      -259879.0      -251564.0
      -243267.0      -235043.0      -226886.0      -218816.0      -210849.0
      -202990.0      -195272.0      -187699.0      -180264.0      -172968.0
      -165840.0      -158899.0      -152148.0      -145589.0      -139215.0
      -133009.0      -126969.0      -121139.0      -115551.0      -110203.0
      -105057.0      -100101.0      -95381.00      -90876.00      -86595.00
      -82569.00      -78766.00      -75164.00      -71797.00      -68667.00
      -65708.00      -62922.00      -60278.00      -57765.00      -55440.00
      -53278.00      -51234.00      -49317.00      -47544.00      -45898.00
      -44342.00      -42854.00      -41416.00      -40010.00      -38637.00
      -37254.00      -35839.00      -34388.00      -32887.00      -31390.00
      -29917.00      -28441.00      -26953.00      -25485.00      -24075.00
      -22711.00      -21364.00      -20040.00      -18729.00      -17412.00
      -16070.00      -14688.00      -13263.00      -11824.00      -10402.00
      -9009.000      -7644.000      -6280.000      -4910.000      -3563.000
      -2247.000      -910.0000       500.0000       1964.000       3484.000
       5068.000       6727.000       8482.000       10293.00       12115.00
       13983.00       15936.00       17964.00       20050.00       22186.00
       24384.00       26642.00       28956.00       31303.00       33648.00
       35995.00       38351.00       40734.00       43126.00       45486.00
       47821.00       50103.00       52313.00       54445.00       56468.00
       58397.00       60245.00       62000.00       63641.00       65182.00
       66635.00       67948.00       69123.00       70180.00       71084.00
       71817.00       72295.00       72485.00       72465.00       72246.00
       71783.00       71031.00       69964.00       68582.00       66910.00
       64942.00       62634.00       59982.00       56992.00       53676.00
       50062.00       46151.00       41918.00       37357.00       32459.00
       27199.00       21626.00       15789.00       9708.000       3405.000
      -3147.000      -9946.000      -16939.00      -24093.00      -31412.00
      -38928.00      -46619.00      -54427.00      -62350.00      -70378.00
      -78483.00      -86660.00      -94834.00      -102948.0      -111047.0
      -119123.0      -127142.0      -135064.0      -142861.0      -150555.0
      -158126.0      -165541.0      -172767.0      -179783.0      -186588.0
      -193136.0      -199414.0      -205436.0      -211179.0      -216659.0
      -221897.0      -226904.0      -231703.0      -236286.0      -240653.0
      -244809.0      -248787.0      -252623.0      -256324.0      -259907.0
      -263367.0      -266733.0      -270038.0      -273263.0      -276400.0
      -279460.0      -282481.0      -285470.0      -288432.0      -291391.0
      -294381.0      -297431.0      -300549.0      -303748.0      -307046.0
      -310437.0      -313898.0      -317406.0      -320927.0      -324456.0
      -327993.0      -331546.0      -335132.0      -338751.0      -342436.0
      -346211.0      -350055.0      -353962.0      -357928.0      -361923.0
      -365920.0      -369935.0      -373971.0      -378000.0      -382000.0
      -385956.0      -389886.0      -393825.0      -397758.0      -401649.0
      -405496.0      -409294.0      -413005.0      -416627.0      -420167.0
      -423581.0      -426848.0      -429968.0      -432929.0      -435727.0
      -438374.0      -440874.0      -443262.0      -445571.0      -447750.0
      -449756.0      -451611.0      -453352.0      -454968.0      -456410.0
      -457666.0      -458786.0      -459738.0      -460526.0      -461156.0
      -461539.0      -461749.0      -461866.0      -461834.0      -461661.0
      -461393.0      -461050.0      -460642.0      -460154.0      -459629.0
      -459119.0      -458597.0      -458035.0      -457473.0      -456955.0
      -456478.0      -456049.0      -455701.0      -455482.0      -455396.0
      -455444.0      -455676.0      -456133.0      -456828.0      -457765.0
      -458918.0      -460282.0      -461848.0      -463577.0      -465481.0
      -467514.0      -469628.0      -471851.0      -474193.0      -476661.0
      -479211.0      -481811.0      -484494.0      -487237.0      -490006.0
      -492810.0      -495644.0      -498520.0      -501427.0      -504334.0
      -507239.0      -510102.0      -512892.0      -515653.0      -518402.0
      -521099.0      -523746.0      -526395.0      -529074.0      -531786.0
      -534522.0      -537243.0      -539952.0      -542706.0      -545475.0
      -548171.0      -550767.0      -553278.0      -555715.0      -558021.0
      -560135.0      -562065.0      -563834.0      -565429.0      -566796.0
      -567891.0      -568741.0      -569343.0      -569692.0      -569800.0
      -569611.0      -569120.0      -568337.0      -567296.0      -566051.0
      -564610.0      -563002.0      -561258.0      -559409.0      -557445.0
      -555390.0      -553299.0      -551165.0      -549019.0      -546935.0
      -544941.0      -543037.0      -541234.0      -539558.0      -538070.0
      -536803.0      -535742.0      -534890.0      -534246.0      -533820.0
      -533648.0      -533706.0      -533986.0      -534477.0      -535119.0
      -535990.0      -537110.0      -538404.0      -539903.0      -541610.0
      -543547.0      -545703.0      -548025.0      -550507.0      -553141.0
      -555937.0      -558854.0      -561855.0      -564935.0      -568067.0
      -571242.0      -574441.0      -577682.0      -580971.0      -584312.0
      -587719.0      -591158.0      -594615.0      -598078.0      -601580.0
      -605118.0      -608623.0      -612064.0      -615413.0      -618694.0
      -621875.0      -624970.0      -628023.0      -630983.0      -633905.0
      -636795.0      -639649.0      -642500.0      -645303.0      -648061.0
      -650789.0      -653479.0      -656097.0      -658686.0      -661248.0
      -663768.0      -666309.0      -668800.0      -671276.0      -673779.0
      -676266.0      -678725.0      -681107.0      -683381.0      -685544.0
      -687598.0      -689491.0      -691256.0      -692907.0      -694426.0
      -695889.0      -697258.0      -698511.0      -699684.0      -700760.0
      -701740.0      -702620.0      -703410.0      -704087.0      -704604.0
      -704968.0      -705185.0      -705270.0      -705195.0      -704916.0
      -704490.0      -703951.0      -703289.0      -702490.0      -701541.0
      -700482.0      -699359.0      -698190.0      -696939.0      -695609.0
      -694251.0      -692880.0      -691527.0      -690135.0      -688686.0
      -687229.0      -685714.0      -684130.0      -682425.0      -680535.0
      -678480.0      -676251.0      -673858.0      -671346.0      -668752.0
      -666072.0      -663335.0      -660569.0      -657770.0      -654979.0
      -652157.0      -649278.0      -646344.0      -643302.0      -640179.0
      -636944.0      -633557.0      -630039.0      -626397.0      -622646.0
      -618805.0      -614890.0      -610913.0      -606927.0      -602985.0
      -599109.0      -595314.0      -591597.0      -587974.0      -584472.0
      -581095.0      -577847.0      -574717.0      -571696.0      -568799.0
