     0.02500000      -12345.00      -12345.00   3.355440e+10      -12345.00
   0.0005380000       1859.976      -602.0195      -12345.00      -12345.00
      -12345.00      -12345.00      -12345.00      -12345.00      -12345.00
      -12345.00      -12345.00      -12345.00      -12345.00      -12345.00
      -12345.00      -12345.00      -12345.00      -12345.00      -12345.00
      -12345.00      -12345.00      -12345.00      -12345.00      -12345.00
      -12345.00       19.75730      -155.5326       1990.000       0.000000
      -42.72450       173.0647      -12345.00       22.00000      -12345.00
      -12345.00      -12345.00      -12345.00      -12345.00      -12345.00
      -12345.00      -12345.00      -12345.00      -12345.00      -12345.00
       7625.265       31.81433       204.3588       68.57870      -12345.00
      -12345.00      -12345.00       0.000000       0.000000      -12345.00
      -12345.00      -12345.00      -12345.00      -12345.00      -12345.00
      -12345.00      -12345.00      -12345.00      -12345.00      -12345.00
      2016       318        11        13         1
        19         6    -12345    -12345     74400
    -12345    -12345    -12345    -12345    -12345
         1    -12345    -12345    -12345    -12345
    -12345    -12345    -12345    -12345    -12345
    -12345    -12345    -12345    -12345    -12345
    -12345    -12345    -12345    -12345    -12345
         1    -12345    -12345    -12345    -12345
POHA    South Island, Ne
10      -12345  -12345  
-12345  -12345  -12345  
-12345  -12345  -12345  
-12345  -12345  -12345  
-12345  -12345  -12345  
-12345  -12345  BHZ     
IU      -12345  Streckei
[...]
      -4263120.      -4249122.      -4226901.      -4209496.      -4195707.
      -4170767.      -4156874.      -4136304.      -4114214.      -4099382.
      -4075408.      -4057386.      -4039401.      -4019184.      -3999061.
      -3979172.      -3962030.      -3939722.      -3920757.      -3901176.
      -3882525.      -3863512.      -3839456.      -3820362.      -3800752.
      -3778857.      -3755809.      -3735521.      -3714417.      -3691340.
      -3671853.      -3647068.      -3624892.      -3603347.      -3577623.
      -3557344.      -3532828.      -3508729.      -3487872.      -3461414.
      -3438385.      -3414836.      -3390886.      -3365843.      -3340546.
      -3315907.      -3290147.      -3268751.      -3241599.      -3218281.
      -3194408.      -3167553.      -3143962.      -3115446.      -3093270.
      -3068226.      -3040873.      -3015449.      -2990542.      -2966196.
      -2934412.      -2910523.      -2883050.      -2852610.      -2826979.
      -2794829.      -2769458.      -2738786.      -2706517.      -2681127.
      -2649633.      -2623910.      -2592676.      -2561408.      -2533021.
      -2498603.      -2471810.      -2438699.      -2408078.      -2378236.
      -2345402.      -2315399.      -2282022.      -2257229.      -2220633.
      -2186327.      -2161767.      -2125296.      -2093752.      -2061397.
      -2031161.      -1997423.      -1963291.      -1935195.      -1897356.
      -1867679.      -1834144.      -1799287.      -1771034.      -1731871.
      -1701498.      -1668646.      -1632983.      -1602752.      -1565878.
      -1534430.      -1500125.      -1466857.      -1430084.      -1396083.
      -1368612.      -1325143.      -1294388.      -1262362.      -1222908.
      -1191158.      -1152019.      -1121181.      -1086456.      -1047223.
      -1016349.      -982525.0      -946911.0      -910557.0      -877430.0
      -842424.0      -805099.0      -774014.0      -736554.0      -699919.0
      -670628.0      -633978.0      -599203.0      -566314.0      -530650.0
      -496571.0      -461004.0      -428362.0      -397231.0      -359495.0
      -323190.0      -296235.0      -261145.0      -221330.0      -190603.0
      -154481.0      -120454.0      -87556.00      -49675.00      -15609.00
       19220.00       52926.00       90017.00       123642.0       154592.0
       194752.0       227228.0       254979.0       290927.0       327417.0
       358225.0       388561.0       424003.0       456903.0       487918.0
       521716.0       554258.0       583537.0       618038.0       644535.0
       670566.0       714124.0       738787.0       764248.0       799796.0
       826881.0       860724.0       886388.0       918035.0       951116.0
       975154.0       1010500.       1039375.       1070769.       1103708.
       1129015.       1168896.       1194331.       1219451.       1263821.
       1287609.       1316503.       1354914.       1383538.       1413472.
       1446467.       1477318.       1503994.       1540932.       1572443.
       1599840.       1634243.       1663856.       1694702.       1725268.
       1758401.       1789424.       1820437.       1854213.       1882884.
       1913617.       1942187.       1976819.       2008871.       2034326.
       2067301.       2096487.       2127017.       2156651.       2183903.
       2217576.       2246646.       2274344.       2308847.       2342594.
       2365312.       2397110.       2435594.       2458681.       2493247.
       2528808.       2553907.       2589707.       2626414.       2654041.
       2682685.       2718108.       2748636.       2779075.       2814422.
       2842207.       2875220.       2908734.       2932996.       2964057.
       2998382.       3031006.       3056341.       3084941.       3121676.
       3149124.       3174055.       3203357.       3239180.       3266006.
       3286588.       3325889.       3353783.       3374509.       3409629.
       3437351.       3463971.       3491799.       3517978.       3547770.
       3573483.       3599601.       3627872.       3653646.       3676522.
       3704808.       3731438.       3753761.       3783163.       3804995.
       3830133.       3859314.       3880680.       3903939.       3928501.
       3954277.       3978151.       4001717.       4025414.       4049491.
       4075667.       4096844.       4120211.       4145163.       4167298.
       4190989.       4211401.       4235820.       4260164.       4277284.
       4301525.       4325878.       4344589.       4363684.       4383907.
       4405934.       4425426.       4445757.       4466515.       4489627.
       4508361.       4524291.       4544753.       4561292.       4580871.
       4598911.       4619910.       4645213.       4659963.       4678639.
       4698696.       4716990.       4735855.       4753445.       4774613.
       4787796.       4803855.       4820607.       4836973.       4857831.
       4870847.       4891176.       4908564.       4922474.       4940521.
       4953340.       4973366.       4985338.       4997866.       5019297.
       5032458.       5045462.       5060006.       5076123.       5086833.
       5102066.       5118976.       5124672.       5140338.       5156446.
       5165190.       5178180.       5191514.       5203625.       5214353.
       5225805.       5236878.       5250344.       5259237.       5268594.
       5285837.       5293919.       5302255.       5314669.       5324571.
       5336139.       5343106.       5353775.       5365163.       5373360.
       5382498.       5388590.       5399160.       5405026.       5410292.
       5419216.       5425221.       5432994.       5437036.       5442222.
       5448765.       5453315.       5460850.       5462479.       5468299.
       5474468.       5475438.       5481662.       5482313.       5486035.
       5487937.       5489668.       5493842.       5491553.       5495429.
       5496145.       5496312.       5498214.       5497575.       5501038.
       5500915.       5501957.       5503100.       5505035.       5506396.
       5502877.       5506210.       5504981.       5503650.       5505748.
       5499422.       5502257.       5501534.       5497415.       5498627.
       5496697.       5497044.       5490406.       5490870.       5488722.
       5484246.       5484470.       5475613.       5476129.       5472759.
       5467037.       5464360.       5457226.       5456043.       5449269.
       5443159.       5438876.       5432851.       5427925.       5419128.
       5415176.       5407330.       5396363.       5390192.       5382342.
       5373158.       5361061.       5354264.       5344032.       5331788.
       5325897.       5311882.       5301624.       5287768.       5276549.
       5267700.       5249343.       5238598.       5225261.       5212120.
       5197597.       5181066.       5168609.       5152901.       5138662.
       5121217.       5106641.       5092918.       5074434.       5059871.
       5039824.       5024549.       5008403.       4986329.       4970558.
       4949177.       4931459.       4912299.       4889660.       4871961.
       4849872.       4830733.       4808953.       4789595.       4769042.
       4742816.       4724463.       4702331.       4679641.       4656551.
       4633189.       4611935.       4586954.       4564506.       4541339.
       4516973.       4494049.       4470000.       4447015.       4423041.
       4399989.       4375499.       4350827.       4328464.       4301755.
       4278668.       4252273.       4226126.       4205945.       4177192.
       4153537.       4128978.       4102884.       4079528.       4052831.
       4032922.       4002112.       3976765.       3957795.       3927194.
       3903079.       3875958.       3849426.       3825474.       3796502.
       3770080.       3742659.       3717267.       3689608.       3659936.
       3634983.       3607302.       3579222.       3550832.       3523358.
       3494396.       3466238.       3439055.       3408442.       3381861.
       3349538.       3319564.       3293364.       3260209.       3232344.
       3201034.       3171041.       3143412.       3108943.       3080950.
       3051387.       3020313.       2990021.       2958147.       2929138.
       2895672.       2866308.       2835091.       2800452.       2769125.
       2737541.       2707112.       2670557.       2641274.       2607494.
       2571704.       2543464.       2504968.       2473844.       2439845.
       2405668.       2374271.       2336330.       2307881.       2272794.
       2239109.       2206698.       2170686.       2142665.       2103925.
       2067083.       2038169.       2002460.       1963004.       1928843.
       1899861.       1860815.       1822952.       1790841.       1755913.
       1719818.       1681581.       1648694.       1612035.       1573754.
       1537731.       1500396.       1466036.       1424210.       1387165.
       1353702.       1310627.       1274732.       1237464.       1194984.
       1158442.       1119119.       1080118.       1040050.       1000062.
       961219.0       921387.0       884124.0       840981.0       802689.0
       765781.0       723279.0       685876.0       645980.0       606012.0
       565800.0       526881.0       485321.0       441234.0       404868.0
       360091.0       316704.0       278646.0       233984.0       193143.0
       150470.0       106347.0       64890.00       21325.00      -21839.00
      -65440.00      -106717.0      -150023.0      -195026.0      -237804.0
      -281393.0      -322539.0      -368336.0      -413046.0      -454448.0
      -497362.0      -541522.0      -588245.0      -626859.0      -672228.0
      -720002.0      -761274.0      -806641.0      -849526.0      -896848.0
      -940936.0      -984072.0      -1031284.      -1075158.      -1123236.
      -1164868.      -1210067.      -1260900.      -1302148.      -1348852.
      -1395940.      -1440106.      -1486281.      -1530951.      -1578219.
      -1622937.      -1666879.      -1714146.      -1759883.      -1805407.
      -1852143.      -1897437.      -1944026.      -1993124.      -2036333.
      -2084446.      -2134919.      -2177674.      -2227187.      -2273870.
      -2320638.      -2369522.      -2412834.      -2462953.      -2509728.
      -2555360.      -2603551.      -2647819.      -2697032.      -2741587.
      -2786303.      -2834490.      -2878314.      -2924685.      -2968185.
      -3012913.      -3059940.      -3103165.      -3146289.      -3193094.
      -3239448.      -3280587.      -3326777.      -3371791.      -3414739.
      -3460492.      -3502334.      -3547153.      -3590784.      -3634011.
      -3676960.      -3719045.      -3765605.      -3806451.      -3848155.
      -3891315.      -3932080.      -3976470.      -4013744.      -4055717.
      -4100195.      -4136618.      -4178420.      -4219606.      -4260975.
      -4299235.      -4337957.      -4380354.      -4418748.      -4459157.
      -4498121.      -4538500.      -4577671.      -4614982.      -4656820.
      -4693545.      -4732357.      -4769491.      -4805319.      -4849142.
      -4882948.      -4920538.      -4962373.      -4996092.      -5034857.
      -5068957.      -5104812.      -5141702.      -5173764.      -5209643.
      -5243951.      -5279771.      -5311305.      -5344233.      -5379588.
      -5410815.      -5444452.      -5474132.      -5506442.      -5540527.
      -5570287.      -5603183.      -5632329.      -5662495.      -5695199.
      -5723814.      -5752268.      -5783171.      -5814469.      -5839678.
      -5869645.      -5898345.      -5925813.      -5954584.      -5978076.
      -6011404.      -6036666.      -6060896.      -6093681.      -6118757.
      -6145684.      -6171951.      -6202086.      -6228562.      -6254202.
      -6280445.      -6302164.      -6332023.      -6353901.      -6377148.
      -6403358.      -6424383.      -6448417.      -6469074.      -6493440.
      -6514268.      -6536111.      -6558371.      -6576388.      -6601445.
      -6617339.      -6637419.      -6659226.      -6675838.      -6695348.
      -6709224.      -6731693.      -6748507.      -6760090.      -6782171.
      -6796665.      -6811111.      -6828486.      -6843924.      -6858080.
      -6871654.      -6887696.      -6899235.      -6915276.      -6928018.
      -6937137.      -6952854.      -6962470.      -6974733.      -6984279.
      -6989954.      -7004943.      -7012752.      -7019415.      -7029051.
      -7038544.      -7044645.      -7049091.      -7059475.      -7063289.
      -7070297.      -7074601.      -7077660.      -7085142.      -7085648.
      -7091284.      -7091859.      -7091833.      -7094815.      -7092601.
      -7096255.      -7092740.      -7088966.      -7088793.      -7084280.
      -7081836.      -7076148.      -7071302.      -7065125.      -7058346.
      -7052364.      -7039641.      -7034581.      -7026441.      -7011698.
      -7004246.      -6994651.      -6983722.      -6969332.      -6959049.
      -6948239.      -6933891.      -6920731.      -6905987.      -6896436.
      -6879661.      -6863795.      -6851149.      -6835329.      -6822057.
      -6800317.      -6785937.      -6774235.      -6753369.      -6737019.
      -6719710.      -6703957.      -6683506.      -6665285.      -6651280.
      -6625738.      -6608106.      -6588826.      -6565245.      -6545527.
      -6520558.      -6500532.      -6477442.      -6454785.      -6432254.
      -6406640.      -6383279.      -6358616.      -6334983.      -6308830.
      -6285925.      -6262463.      -6232782.      -6207559.      -6182964.
      -6153512.      -6125141.      -6099213.      -6071533.      -6041400.
      -6012490.      -5982488.      -5954493.      -5925772.      -5893462.
      -5867352.      -5836102.      -5803755.      -5775801.      -5743567.
      -5714292.      -5680060.      -5648840.      -5619988.      -5584203.
      -5551642.      -5516877.      -5484031.      -5450417.      -5414294.
      -5381496.      -5344999.      -5309872.      -5273919.      -5237508.
      -5201289.      -5162925.      -5128675.      -5087417.      -5050078.
      -5014262.      -4972819.      -4937035.      -4896638.      -4859022.
      -4817585.      -4776367.      -4739825.      -4693670.      -4655198.
      -4614552.      -4572845.      -4534356.      -4488898.      -4449382.
      -4407491.      -4364241.      -4321707.      -4279435.      -4239774.
      -4194701.      -4152406.      -4109662.      -4066654.      -4022659.
      -3976943.      -3938852.      -3890589.      -3844742.      -3803474.
      -3755069.      -3713379.      -3666942.      -3621300.      -3576711.
      -3530864.      -3487388.      -3437497.      -3393328.      -3349360.
      -3298791.      -3250376.      -3206289.      -3160406.      -3107533.
      -3062652.      -3016821.      -2966744.      -2920989.      -2869671.
      -2823206.      -2773898.      -2721863.      -2675795.      -2624212.
      -2578128.      -2527290.      -2474270.      -2429041.      -2376995.
      -2322977.      -2272675.      -2227720.      -2175305.      -2122996.
      -2074652.      -2020685.      -1972620.      -1919421.      -1868373.
      -1821574.      -1765925.      -1716575.      -1665919.      -1614750.
      -1565949.      -1512196.      -1463004.      -1414010.      -1365707.
      -1314029.      -1265273.      -1218474.      -1162680.      -1117098.
      -1069007.      -1016851.      -968440.0      -917940.0      -870994.0
      -819079.0      -768891.0      -717157.0      -666897.0      -618805.0
      -564890.0      -519706.0      -469941.0      -420554.0      -370920.0
      -315703.0      -271988.0      -220227.0      -172368.0      -127810.0
      -71218.00      -22312.00       26014.00       74060.00       124032.0
       170863.0       215632.0       269901.0       317150.0       369479.0
       420271.0       464866.0       517545.0       563616.0       611696.0
       665604.0       717251.0       764881.0       815284.0       865935.0
       910807.0       965876.0       1017030.       1062311.       1116843.
       1168108.       1217791.       1263582.       1315417.       1369099.
       1410521.       1464257.       1511537.       1558341.       1613503.
       1656468.       1709357.       1759606.       1805243.       1853973.
       1902855.       1951997.       1995284.       2048413.       2094556.
       2141055.       2195001.       2236306.       2283988.       2333843.
       2381107.       2426637.       2469982.       2523672.       2571061.
       2614872.       2662722.       2711452.       2759216.       2799604.
       2851946.       2900448.       2940188.       2990162.       3036946.
       3081597.       3124707.       3173134.       3219934.       3259906.
       3307418.       3350440.       3393653.       3437952.       3481968.
       3525451.       3564739.       3610569.       3650669.       3691291.
       3734868.       3773541.       3816227.       3852374.       3892124.
       3931654.       3965147.       4007069.       4045670.       4084141.
       4117544.       4153984.       4195461.       4226838.       4266839.
       4302601.       4336065.       4376135.       4405925.       4439892.
       4476858.       4511980.       4542649.       4574882.       4614155.
       4642217.       4670431.       4707786.       4743869.       4769153.
       4800264.       4839502.       4865022.       4894363.       4928297.
       4957434.       4987409.       5019675.       5050646.       5077171.
       5111174.       5138790.       5165758.       5197572.       5221239.
       5253603.       5281052.       5304950.       5335650.       5359589.
       5388273.       5413875.       5435859.       5464409.       5486587.
       5510904.       5535340.       5558124.       5581260.       5602507.
       5626536.       5644470.       5666189.       5688273.       5705175.
       5728210.       5747095.       5766798.       5785180.       5802168.
       5822822.       5839980.       5859999.       5876369.       5894485.
       5914594.       5929669.       5947660.       5964014.       5981521.
       5998273.       6011817.       6031003.       6048009.       6062613.
