     0.02500000      -12345.00      -12345.00   2.513220e+09      -12345.00
   0.0005380000       1859.976      -569.0195      -12345.00      -12345.00
      -12345.00      -12345.00      -12345.00      -12345.00      -12345.00
      -12345.00      -12345.00      -12345.00      -12345.00      -12345.00
      -12345.00      -12345.00      -12345.00      -12345.00      -12345.00
      -12345.00      -12345.00      -12345.00      -12345.00      -12345.00
      -12345.00      -64.77440      -64.04890       40.00000       0.000000
      -42.72450       173.0647      -12345.00       22.00000      -12345.00
      -12345.00      -12345.00      -12345.00      -12345.00      -12345.00
      -12345.00      -12345.00      -12345.00      -12345.00      -12345.00
       7109.332       156.3851       223.5385       63.93859      -12345.00
      -12345.00      -12345.00       0.000000       0.000000      -12345.00
      -12345.00      -12345.00      -12345.00      -12345.00      -12345.00
      -12345.00      -12345.00      -12345.00      -12345.00      -12345.00
      2016       318        11        12        28
        19         6    -12345    -12345     74400
    -12345    -12345    -12345    -12345    -12345
         1    -12345    -12345    -12345    -12345
    -12345    -12345    -12345    -12345    -12345
    -12345    -12345    -12345    -12345    -12345
    -12345    -12345    -12345    -12345    -12345
         1    -12345    -12345    -12345    -12345
PMSA    South Island, Ne
10      -12345  -12345  
-12345  -12345  -12345  
-12345  -12345  -12345  
-12345  -12345  -12345  
-12345  -12345  -12345  
-12345  -12345  BHZ     
IU      -12345  Streckei
[...]
       9141.000       11720.00       14294.00       16846.00       19396.00
       21947.00       24510.00       27071.00       29619.00       32141.00
       34668.00       37220.00       39775.00       42316.00       44860.00
       47434.00       50005.00       52564.00       55126.00       57676.00
       60235.00       62803.00       65384.00       67976.00       70560.00
       73153.00       75734.00       78307.00       80868.00       83425.00
       86014.00       88600.00       91175.00       93754.00       96321.00
       98882.00       101454.0       104027.0       106589.0       109153.0
       111710.0       114247.0       116780.0       119328.0       121902.0
       124457.0       126998.0       129522.0       131983.0       134482.0
       137040.0       139544.0       142038.0       144555.0       147042.0
       149506.0       151968.0       154457.0       156958.0       159439.0
       161905.0       164376.0       166848.0       169303.0       171763.0
       174211.0       176640.0       179083.0       181512.0       183919.0
       186339.0       188751.0       191151.0       193535.0       195896.0
       198256.0       200606.0       202961.0       205326.0       207688.0
       210043.0       212363.0       214690.0       217011.0       219298.0
       221601.0       223868.0       226114.0       228387.0       230630.0
       232856.0       235068.0       237252.0       239430.0       241583.0
       243712.0       245836.0       247944.0       250047.0       252131.0
       254180.0       256229.0       258245.0       260222.0       262206.0
       264167.0       266115.0       268068.0       269985.0       271878.0
       273734.0       275561.0       277395.0       279202.0       281003.0
       282806.0       284600.0       286366.0       288080.0       289787.0
       291471.0       293117.0       294764.0       296391.0       297968.0
       299502.0       301028.0       302540.0       304015.0       305451.0
       306864.0       308251.0       309597.0       310924.0       312223.0
       313484.0       314725.0       315934.0       317100.0       318223.0
       319329.0       320411.0       321472.0       322503.0       323483.0
       324433.0       325348.0       326235.0       327086.0       327913.0
       328723.0       329474.0       330212.0       330916.0       331559.0
       332200.0       332810.0       333372.0       333906.0       334397.0
       334849.0       335266.0       335652.0       336011.0       336342.0
       336641.0       336892.0       337114.0       337301.0       337446.0
       337573.0       337665.0       337710.0       337723.0       337700.0
       337646.0       337570.0       337466.0       337338.0       337175.0
       336965.0       336710.0       336416.0       336117.0       335790.0
       335422.0       335034.0       334578.0       334099.0       333598.0
       333028.0       332459.0       331846.0       331191.0       330516.0
       329803.0       329078.0       328281.0       327459.0       326634.0
       325753.0       324854.0       323922.0       322976.0       322018.0
       321022.0       319996.0       318918.0       317813.0       316698.0
       315552.0       314378.0       313164.0       311929.0       310673.0
       309380.0       308082.0       306756.0       305386.0       303997.0
       302576.0       301129.0       299665.0       298179.0       296654.0
       295102.0       293525.0       291918.0       290287.0       288620.0
       286936.0       285239.0       283505.0       281743.0       279950.0
       278115.0       276259.0       274384.0       272485.0       270566.0
       268606.0       266614.0       264605.0       262561.0       260498.0
       258432.0       256340.0       254211.0       252041.0       249852.0
       247651.0       245424.0       243170.0       240900.0       238604.0
       236283.0       233956.0       231606.0       229220.0       226796.0
       224348.0       221899.0       219432.0       216935.0       214422.0
       211884.0       209281.0       206658.0       204050.0       201409.0
       198758.0       196085.0       193374.0       190656.0       187905.0
       185119.0       182326.0       179533.0       176733.0       173900.0
       171022.0       168149.0       165261.0       162358.0       159481.0
       156548.0       153588.0       150628.0       147638.0       144674.0
       141692.0       138696.0       135702.0       132673.0       129644.0
       126593.0       123522.0       120450.0       117356.0       114251.0
       111130.0       107985.0       104825.0       101637.0       98442.00
       95248.00       92023.00       88781.00       85534.00       82270.00
       78993.00       75708.00       72416.00       69110.00       65798.00
       62479.00       59142.00       55800.00       52455.00       49092.00
       45710.00       42320.00       38935.00       35536.00       32109.00
       28676.00       25234.00       21772.00       18288.00       14792.00
       11289.00       7759.000       4227.000       703.0000      -2847.000
      -6418.000      -9988.000      -13566.00      -17161.00      -20756.00
      -24355.00      -27966.00      -31566.00      -35163.00      -38779.00
      -42394.00      -46015.00      -49658.00      -53298.00      -56935.00
      -60572.00      -64214.00      -67869.00      -71504.00      -75148.00
      -78816.00      -82462.00      -86121.00      -89780.00      -93413.00
      -97055.00      -100699.0      -104339.0      -107983.0      -111632.0
      -115287.0      -118932.0      -122566.0      -126189.0      -129825.0
      -133477.0      -137095.0      -140678.0      -144270.0      -147864.0
      -151434.0      -154987.0      -158547.0      -162103.0      -165634.0
      -169159.0      -172679.0      -176172.0      -179655.0      -183122.0
      -186573.0      -190024.0      -193450.0      -196883.0      -200306.0
      -203681.0      -207077.0      -210453.0      -213778.0      -217110.0
      -220443.0      -223781.0      -227101.0      -230388.0      -233666.0
      -236916.0      -240154.0      -243392.0      -246591.0      -249763.0
      -252926.0      -256058.0      -259171.0      -262273.0      -265353.0
      -268407.0      -271430.0      -274450.0      -277458.0      -280440.0
      -283395.0      -286318.0      -289230.0      -292109.0      -294961.0
      -297810.0      -300631.0      -303432.0      -306215.0      -308987.0
      -311730.0      -314420.0      -317103.0      -319754.0      -322362.0
      -324969.0      -327536.0      -330069.0      -332608.0      -335095.0
      -337557.0      -340027.0      -342424.0      -344800.0      -347175.0
      -349480.0      -351765.0      -354016.0      -356234.0      -358444.0
      -360600.0      -362734.0      -364842.0      -366899.0      -368930.0
      -370923.0      -372892.0      -374845.0      -376752.0      -378614.0
      -380435.0      -382221.0      -383990.0      -385732.0      -387429.0
      -389100.0      -390739.0      -392332.0      -393895.0      -395418.0
      -396909.0      -398378.0      -399803.0      -401186.0      -402502.0
      -403784.0      -405061.0      -406260.0      -407449.0      -408616.0
      -409688.0      -410758.0      -411800.0      -412789.0      -413737.0
      -414626.0      -415505.0      -416356.0      -417176.0      -417934.0
      -418650.0      -419346.0      -419983.0      -420614.0      -421187.0
      -421725.0      -422231.0      -422634.0      -423027.0      -423395.0
      -423697.0      -423962.0      -424180.0      -424355.0      -424491.0
      -424614.0      -424667.0      -424630.0      -424595.0      -424523.0
      -424387.0      -424239.0      -424035.0      -423760.0      -423444.0
      -423095.0      -422725.0      -422305.0      -421836.0      -421347.0
      -420817.0      -420247.0      -419655.0      -419016.0      -418349.0
      -417653.0      -416912.0      -416139.0      -415310.0      -414454.0
      -413572.0      -412636.0      -411684.0      -410706.0      -409679.0
      -408621.0      -407543.0      -406433.0      -405283.0      -404106.0
      -402904.0      -401667.0      -400400.0      -399115.0      -397796.0
      -396438.0      -395059.0      -393635.0      -392159.0      -390675.0
      -389174.0      -387644.0      -386078.0      -384463.0      -382836.0
      -381194.0      -379506.0      -377769.0      -376001.0      -374224.0
      -372418.0      -370567.0      -368676.0      -366745.0      -364783.0
      -362802.0      -360799.0      -358773.0      -356709.0      -354596.0
      -352464.0      -350297.0      -348087.0      -345853.0      -343587.0
      -341280.0      -338931.0      -336562.0      -334157.0      -331709.0
      -329250.0      -326749.0      -324214.0      -321654.0      -319044.0
      -316401.0      -313722.0      -311006.0      -308258.0      -305480.0
      -302675.0      -299842.0      -296978.0      -294060.0      -291111.0
      -288158.0      -285175.0      -282155.0      -279115.0      -276027.0
      -272893.0      -269771.0      -266658.0      -263510.0      -260316.0
      -257099.0      -253871.0      -250632.0      -247382.0      -244100.0
      -240798.0      -237514.0      -234193.0      -230783.0      -227354.0
      -223945.0      -220543.0      -217117.0      -213600.0      -210014.0
      -206496.0      -203031.0      -199432.0      -195734.0      -192120.0
      -188525.0      -184767.0      -180974.0      -177305.0      -173582.0
      -169768.0      -166019.0      -162215.0      -158276.0      -154422.0
      -150635.0      -146699.0      -142764.0      -138898.0      -134926.0
      -130925.0      -126982.0      -123010.0      -118992.0      -114984.0
      -110980.0      -106936.0      -102901.0      -98892.00      -94849.00
      -90792.00      -86759.00      -82680.00      -78567.00      -74506.00
      -70464.00      -66412.00      -62298.00      -58116.00      -53936.00
      -49748.00      -45545.00      -41330.00      -37097.00      -32861.00
      -28659.00      -24471.00      -20248.00      -16002.00      -11748.00
      -7525.000      -3327.000       906.0000       5153.000       9371.000
       13600.00       17849.00       22104.00       26370.00       30621.00
       34871.00       39133.00       43396.00       47660.00       51885.00
       56103.00       60387.00       64692.00       68953.00       73150.00
       77329.00       81544.00       85793.00       90020.00       94209.00
       98422.00       102675.0       106918.0       111121.0       115288.0
       119476.0       123704.0       127925.0       132121.0       136302.0
       140485.0       144674.0       148868.0       153036.0       157167.0
       161286.0       165405.0       169542.0       173659.0       177748.0
       181824.0       185844.0       189857.0       193871.0       197848.0
       201836.0       205828.0       209801.0       213752.0       217665.0
       221540.0       225405.0       229261.0       233104.0       236959.0
       240790.0       244604.0       248409.0       252176.0       255933.0
       259674.0       263375.0       267059.0       270739.0       274398.0
       278010.0       281602.0       285199.0       288755.0       292284.0
       295813.0       299283.0       302734.0       306178.0       309569.0
       312958.0       316310.0       319601.0       322887.0       326143.0
       329360.0       332565.0       335754.0       338905.0       342004.0
       345075.0       348116.0       351151.0       354191.0       357174.0
       360122.0       363045.0       365905.0       368755.0       371603.0
       374408.0       377186.0       379937.0       382649.0       385326.0
       387986.0       390624.0       393221.0       395795.0       398341.0
       400835.0       403300.0       405762.0       408188.0       410576.0
       412949.0       415286.0       417577.0       419822.0       422035.0
       424220.0       426369.0       428486.0       430559.0       432596.0
       434602.0       436562.0       438464.0       440331.0       442168.0
       443957.0       445707.0       447420.0       449097.0       450724.0
       452296.0       453845.0       455357.0       456823.0       458247.0
       459617.0       460966.0       462287.0       463568.0       464816.0
       466015.0       467178.0       468307.0       469409.0       470477.0
       471508.0       472507.0       473458.0       474379.0       475274.0
       476126.0       476933.0       477693.0       478431.0       479156.0
       479833.0       480462.0       481074.0       481625.0       482137.0
       482639.0       483082.0       483508.0       483903.0       484233.0
       484530.0       484770.0       484967.0       485146.0       485273.0
       485349.0       485401.0       485412.0       485362.0       485263.0
       485109.0       484899.0       484675.0       484406.0       484067.0
       483696.0       483260.0       482781.0       482273.0       481705.0
       481105.0       480461.0       479779.0       479039.0       478242.0
       477421.0       476545.0       475615.0       474652.0       473653.0
       472606.0       471501.0       470353.0       469168.0       467939.0
       466664.0       465346.0       463987.0       462591.0       461145.0
       459656.0       458138.0       456584.0       454997.0       453356.0
       451675.0       449963.0       448212.0       446443.0       444610.0
       442742.0       440863.0       438904.0       436921.0       434916.0
       432852.0       430756.0       428614.0       426446.0       424238.0
       421978.0       419689.0       417366.0       415015.0       412626.0
       410205.0       407761.0       405285.0       402779.0       400247.0
       397674.0       395073.0       392454.0       389772.0       387069.0
       384351.0       381610.0       378856.0       376028.0       373187.0
       370315.0       367364.0       364431.0       361478.0       358454.0
       355410.0       352345.0       349259.0       346143.0       342970.0
       339758.0       336528.0       333271.0       330000.0       326703.0
       323370.0       320023.0       316623.0       313187.0       309750.0
       306266.0       302755.0       299238.0       295690.0       292118.0
       288512.0       284880.0       281231.0       277558.0       273863.0
       270149.0       266414.0       262661.0       258886.0       255081.0
       251255.0       247412.0       243544.0       239649.0       235744.0
       231809.0       227846.0       223875.0       219871.0       215849.0
       211835.0       207799.0       203732.0       199644.0       195561.0
       191481.0       187371.0       183238.0       179090.0       174944.0
       170801.0       166627.0       162429.0       158239.0       154053.0
       149862.0       145662.0       141450.0       137226.0       132994.0
       128749.0       124482.0       120189.0       115902.0       111642.0
       107364.0       103061.0       98757.00       94437.00       90122.00
       85811.00       81494.00       77176.00       72843.00       68501.00
       64172.00       59873.00       55580.00       51252.00       46916.00
       42601.00       38312.00       34035.00       29740.00       25437.00
       21148.00       16866.00       12625.00       8383.000       4094.000
      -167.0000      -4414.000      -8648.000      -12849.00      -17061.00
      -21282.00      -25517.00      -29741.00      -33962.00      -38177.00
      -42359.00      -46551.00      -50745.00      -54939.00      -59139.00
      -63297.00      -67431.00      -71600.00      -75742.00      -79843.00
      -83968.00      -88070.00      -92147.00      -96243.00      -100314.0
      -104354.0      -108398.0      -112424.0      -116424.0      -120424.0
      -124418.0      -128401.0      -132360.0      -136301.0      -140239.0
      -144169.0      -148084.0      -151975.0      -155835.0      -159673.0
      -163523.0      -167363.0      -171207.0      -175013.0      -178722.0
      -182481.0      -186272.0      -190010.0      -193732.0      -197437.0
      -201146.0      -204828.0      -208470.0      -212122.0      -215757.0
      -219358.0      -222951.0      -226526.0      -230088.0      -233656.0
      -237201.0      -240706.0      -244172.0      -247618.0      -251062.0
      -254465.0      -257850.0      -261223.0      -264534.0      -267802.0
      -271055.0      -274301.0      -277526.0      -280718.0      -283874.0
      -286988.0      -290090.0      -293181.0      -296215.0      -299183.0
      -302139.0      -305099.0      -308032.0      -310905.0      -313734.0
      -316543.0      -319303.0      -322032.0      -324750.0      -327427.0
      -330073.0      -332712.0      -335315.0      -337853.0      -340356.0
      -342849.0      -345314.0      -347772.0      -350204.0      -352553.0
      -354871.0      -357188.0      -359480.0      -361730.0      -363935.0
      -366126.0      -368284.0      -370414.0      -372523.0      -374598.0
      -376655.0      -378681.0      -380667.0      -382620.0      -384539.0
      -386434.0      -388303.0      -390137.0      -391934.0      -393697.0
      -395433.0      -397133.0      -398816.0      -400473.0      -402060.0
      -403633.0      -405177.0      -406650.0      -408113.0      -409568.0
      -410986.0      -412362.0      -413700.0      -415012.0      -416290.0
      -417527.0      -418735.0      -419908.0      -421035.0      -422131.0
      -423170.0      -424163.0      -425140.0      -426087.0      -427007.0
      -427902.0      -428753.0      -429565.0      -430336.0      -431054.0
      -431728.0      -432358.0      -432930.0      -433491.0      -434052.0
      -434553.0      -435020.0      -435457.0      -435865.0      -436260.0
      -436599.0      -436912.0      -437200.0      -437432.0      -437642.0
      -437820.0      -437953.0      -438061.0      -438148.0      -438200.0
      -438223.0      -438217.0      -438158.0      -438058.0      -437926.0
      -437769.0      -437572.0      -437330.0      -437050.0      -436727.0
      -436379.0      -435986.0      -435559.0      -435094.0      -434546.0
      -433996.0      -433444.0      -432804.0      -432129.0      -431441.0
      -430700.0      -429932.0      -429136.0      -428296.0      -427430.0
