     0.02500000      -12345.00      -12345.00   3.333970e+10      -12345.00
   0.0005380000       1859.976      -450.0196      -12345.00      -12345.00
      -12345.00      -12345.00      -12345.00      -12345.00      -12345.00
      -12345.00      -12345.00      -12345.00      -12345.00      -12345.00
      -12345.00      -12345.00      -12345.00      -12345.00      -12345.00
      -12345.00      -12345.00      -12345.00      -12345.00      -12345.00
      -12345.00      -89.92890       144.4382       2596.000       254.0000
      -42.72450       173.0647      -12345.00       22.00000      -12345.00
      -12345.00      -12345.00      -12345.00      -12345.00      -12345.00
      -12345.00      -12345.00      -12345.00      -12345.00      -12345.00
       5270.900       180.0466       28.65800       47.40445      -12345.00
      -12345.00      -12345.00       315.0000       90.00000      -12345.00
      -12345.00      -12345.00      -12345.00      -12345.00      -12345.00
      -12345.00      -12345.00      -12345.00      -12345.00      -12345.00
      2016       318        11        10        29
        19         6    -12345    -12345     74400
    -12345    -12345    -12345    -12345    -12345
         1    -12345    -12345    -12345    -12345
    -12345    -12345    -12345    -12345    -12345
    -12345    -12345    -12345    -12345    -12345
    -12345    -12345    -12345    -12345    -12345
         1    -12345    -12345    -12345    -12345
QSPA    South Island, Ne
10      -12345  -12345  
-12345  -12345  -12345  
-12345  -12345  -12345  
-12345  -12345  -12345  
-12345  -12345  -12345  
-12345  -12345  BH1     
IU      -12345  Guralp C
[...]
   1.738021e+07   1.741512e+07   1.744975e+07   1.748409e+07   1.751824e+07
   1.755213e+07   1.758579e+07   1.761924e+07   1.765240e+07   1.768534e+07
   1.771805e+07   1.775053e+07   1.778279e+07   1.781479e+07   1.784659e+07
   1.787818e+07   1.790956e+07   1.794075e+07   1.797170e+07   1.800245e+07
   1.803301e+07   1.806337e+07   1.809350e+07   1.812348e+07   1.815329e+07
   1.818285e+07   1.821220e+07   1.824133e+07   1.827022e+07   1.829887e+07
   1.832731e+07   1.835550e+07   1.838347e+07   1.841123e+07   1.843877e+07
   1.846606e+07   1.849312e+07   1.852001e+07   1.854668e+07   1.857314e+07
   1.859947e+07   1.862560e+07   1.865154e+07   1.867735e+07   1.870298e+07
   1.872843e+07   1.875378e+07   1.877898e+07   1.880400e+07   1.882891e+07
   1.885372e+07   1.887838e+07   1.890292e+07   1.892736e+07   1.895168e+07
   1.897592e+07   1.900002e+07   1.902400e+07   1.904788e+07   1.907161e+07
   1.909525e+07   1.911873e+07   1.914207e+07   1.916524e+07   1.918822e+07
   1.921106e+07   1.923365e+07   1.925605e+07   1.927826e+07   1.930022e+07
   1.932199e+07   1.934351e+07   1.936476e+07   1.938575e+07   1.940646e+07
   1.942689e+07   1.944705e+07   1.946688e+07   1.948637e+07   1.950556e+07
   1.952445e+07   1.954300e+07   1.956117e+07   1.957903e+07   1.959663e+07
   1.961386e+07   1.963073e+07   1.964726e+07   1.966341e+07   1.967919e+07
   1.969458e+07   1.970958e+07   1.972419e+07   1.973846e+07   1.975235e+07
   1.976582e+07   1.977892e+07   1.979164e+07   1.980392e+07   1.981580e+07
   1.982724e+07   1.983825e+07   1.984885e+07   1.985893e+07   1.986852e+07
   1.987767e+07   1.988633e+07   1.989452e+07   1.990222e+07   1.990939e+07
   1.991607e+07   1.992224e+07   1.992786e+07   1.993298e+07   1.993754e+07
   1.994157e+07   1.994507e+07   1.994802e+07   1.995046e+07   1.995232e+07
   1.995362e+07   1.995432e+07   1.995444e+07   1.995397e+07   1.995287e+07
   1.995119e+07   1.994894e+07   1.994607e+07   1.994261e+07   1.993854e+07
   1.993385e+07   1.992856e+07   1.992264e+07   1.991607e+07   1.990888e+07
   1.990108e+07   1.989266e+07   1.988366e+07   1.987405e+07   1.986383e+07
   1.985299e+07   1.984152e+07   1.982945e+07   1.981674e+07   1.980338e+07
   1.978941e+07   1.977478e+07   1.975954e+07   1.974365e+07   1.972705e+07
   1.970983e+07   1.969195e+07   1.967339e+07   1.965414e+07   1.963424e+07
   1.961367e+07   1.959235e+07   1.957031e+07   1.954755e+07   1.952408e+07
   1.949994e+07   1.947510e+07   1.944962e+07   1.942349e+07   1.939663e+07
   1.936906e+07   1.934075e+07   1.931172e+07   1.928198e+07   1.925150e+07
   1.922035e+07   1.918850e+07   1.915594e+07   1.912271e+07   1.908882e+07
   1.905425e+07   1.901900e+07   1.898313e+07   1.894662e+07   1.890947e+07
   1.887172e+07   1.883337e+07   1.879445e+07   1.875492e+07   1.871487e+07
   1.867427e+07   1.863310e+07   1.859147e+07   1.854928e+07   1.850660e+07
   1.846349e+07   1.841986e+07   1.837582e+07   1.833138e+07   1.828648e+07
   1.824121e+07   1.819554e+07   1.814944e+07   1.810298e+07   1.805618e+07
   1.800900e+07   1.796148e+07   1.791362e+07   1.786540e+07   1.781689e+07
   1.776811e+07   1.771904e+07   1.766968e+07   1.762005e+07   1.757016e+07
   1.752002e+07   1.746961e+07   1.741891e+07   1.736798e+07   1.731677e+07
   1.726528e+07   1.721355e+07   1.716152e+07   1.710924e+07   1.705670e+07
   1.700389e+07   1.695083e+07   1.689746e+07   1.684385e+07   1.678996e+07
   1.673574e+07   1.668124e+07   1.662644e+07   1.657135e+07   1.651597e+07
   1.646022e+07   1.640420e+07   1.634788e+07   1.629115e+07   1.623412e+07
   1.617680e+07   1.611911e+07   1.606111e+07   1.600279e+07   1.594409e+07
   1.588511e+07   1.582582e+07   1.576625e+07   1.570638e+07   1.564619e+07
   1.558576e+07   1.552505e+07   1.546408e+07   1.540290e+07   1.534132e+07
   1.527956e+07   1.521768e+07   1.515543e+07   1.509289e+07   1.503017e+07
   1.496731e+07   1.490421e+07   1.484095e+07   1.477755e+07   1.471397e+07
   1.465029e+07   1.458649e+07   1.452252e+07   1.445843e+07   1.439427e+07
   1.432996e+07   1.426556e+07   1.420112e+07   1.413659e+07   1.407203e+07
   1.400744e+07   1.394283e+07   1.387814e+07   1.381334e+07   1.374858e+07
   1.368385e+07   1.361908e+07   1.355431e+07   1.348954e+07   1.342482e+07
   1.336012e+07   1.329539e+07   1.323073e+07   1.316608e+07   1.310140e+07
   1.303679e+07   1.297216e+07   1.290755e+07   1.284294e+07   1.277828e+07
   1.271371e+07   1.264921e+07   1.258469e+07   1.252018e+07   1.245563e+07
   1.239106e+07   1.232651e+07   1.226191e+07   1.219726e+07   1.213259e+07
   1.206790e+07   1.200319e+07   1.193846e+07   1.187369e+07   1.180891e+07
   1.174410e+07   1.167925e+07   1.161433e+07   1.154940e+07   1.148447e+07
   1.141939e+07   1.135431e+07   1.128922e+07   1.122402e+07   1.115882e+07
   1.109352e+07   1.102815e+07   1.096274e+07   1.089716e+07   1.083158e+07
   1.076592e+07   1.070014e+07   1.063430e+07   1.056834e+07   1.050230e+07
   1.043611e+07   1.036986e+07   1.030362e+07   1.023723e+07   1.017073e+07
   1.010416e+07   1.003747e+07       9970656.       9903722.       9836719.
       9769594.       9702323.       9634968.       9567475.       9499829.
       9432005.       9364036.       9295915.       9227585.       9159111.
       9090473.       9021717.       8952850.       8883804.       8814635.
       8745297.       8675807.       8606184.       8536410.       8466512.
       8396422.       8326199.       8255840.       8185343.       8114767.
       8044051.       7973244.       7902323.       7831199.       7759934.
       7688587.       7617058.       7545362.       7473587.       7401628.
       7329512.       7257254.       7184807.       7112221.       7039456.
       6966505.       6893429.       6820117.       6746587.       6672895.
       6598958.       6524877.       6450543.       6375968.       6301281.
       6226334.       6151228.       6075908.       6000349.       5924635.
       5848657.       5772521.       5696215.       5619721.       5543044.
       5466128.       5389105.       5311936.       5234654.       5157293.
       5079653.       5001887.       4924079.       4846094.       4767981.
       4689764.       4611449.       4532990.       4454405.       4375702.
       4296885.       4217972.       4138858.       4059631.       3980374.
       3901066.       3821678.       3742185.       3662623.       3582971.
       3503209.       3423351.       3343393.       3263348.       3183185.
       3102916.       3022602.       2942211.       2861715.       2781100.
       2700388.       2619592.       2538612.       2457475.       2376234.
       2294840.       2213320.       2131677.       2049914.       1968022.
       1885992.       1803859.       1721564.       1639169.       1556687.
       1474075.       1391410.       1308650.       1225837.       1142976.
       1060055.       977135.0       894155.0       811138.0       728148.0
       645170.0       562198.0       479281.0       396419.0       313620.0
       230904.0       148290.0       65788.00      -16594.00      -98803.00
      -180854.0      -262695.0      -344231.0      -425405.0      -506221.0
      -586607.0      -666569.0      -746273.0      -826060.0      -906508.0
      -987564.0      -1068928.      -1150539.      -1232216.      -1313947.
      -1395725.      -1477517.      -1559323.      -1641135.      -1722976.
      -1804812.      -1886672.      -1968556.      -2050442.      -2132344.
      -2214264.      -2296214.      -2378183.      -2460189.      -2542258.
      -2624369.      -2706546.      -2788812.      -2871134.      -2953525.
      -3036022.      -3118632.      -3201324.      -3284082.      -3366966.
      -3449975.      -3533095.      -3616335.      -3699682.      -3783175.
      -3866812.      -3950585.      -4034494.      -4118528.      -4202699.
      -4286999.      -4371434.      -4456018.      -4540758.      -4625617.
      -4710617.      -4795803.      -4881110.      -4966541.      -5052127.
      -5137847.      -5223709.      -5309702.      -5395824.      -5482096.
      -5568488.      -5655033.      -5741730.      -5828495.      -5915369.
      -6002342.      -6089376.      -6176500.      -6263644.      -6350847.
      -6438119.      -6525379.      -6612695.      -6700002.      -6787283.
      -6874518.      -6961665.      -7048768.      -7135736.      -7222669.
      -7309546.      -7396256.      -7482885.      -7569394.      -7655776.
      -7742015.      -7828151.      -7914104.      -7999804.      -8085378.
      -8170766.      -8255952.      -8340937.      -8425680.      -8510182.
      -8594440.      -8678448.      -8762223.      -8845781.      -8929092.
      -9012175.      -9095038.      -9177667.      -9260040.      -9342176.
      -9424079.      -9505736.      -9587216.      -9668478.      -9749532.
      -9830434.      -9911117.      -9991595.  -1.007188e+07  -1.015195e+07
  -1.023181e+07  -1.031149e+07  -1.039096e+07  -1.047025e+07  -1.054943e+07
  -1.062844e+07  -1.070731e+07  -1.078605e+07  -1.086461e+07  -1.094302e+07
  -1.102124e+07  -1.109932e+07  -1.117725e+07  -1.125503e+07  -1.133279e+07
  -1.141035e+07  -1.148759e+07  -1.156470e+07  -1.164178e+07  -1.171875e+07
  -1.179555e+07  -1.187211e+07  -1.194843e+07  -1.202455e+07  -1.210040e+07
  -1.217598e+07  -1.225132e+07  -1.232639e+07  -1.240118e+07  -1.247570e+07
  -1.254993e+07  -1.262386e+07  -1.269749e+07  -1.277081e+07  -1.284386e+07
  -1.291650e+07  -1.298898e+07  -1.306105e+07  -1.313289e+07  -1.320445e+07
  -1.327547e+07  -1.334685e+07  -1.341646e+07  -1.348520e+07  -1.355562e+07
  -1.362527e+07  -1.369439e+07  -1.376359e+07  -1.383227e+07  -1.390092e+07
  -1.396928e+07  -1.403748e+07  -1.410553e+07  -1.417334e+07  -1.424105e+07
  -1.430857e+07  -1.437596e+07  -1.444328e+07  -1.451042e+07  -1.457745e+07
  -1.464449e+07  -1.471142e+07  -1.477823e+07  -1.484501e+07  -1.491173e+07
  -1.497842e+07  -1.504508e+07  -1.511174e+07  -1.517838e+07  -1.524503e+07
  -1.531175e+07  -1.537848e+07  -1.544517e+07  -1.551198e+07  -1.557886e+07
  -1.564578e+07  -1.571285e+07  -1.577995e+07  -1.584713e+07  -1.591448e+07
  -1.598196e+07  -1.604957e+07  -1.611732e+07  -1.618522e+07  -1.625332e+07
  -1.632153e+07  -1.638988e+07  -1.645847e+07  -1.652720e+07  -1.659610e+07
  -1.666518e+07  -1.673434e+07  -1.680369e+07  -1.687319e+07  -1.694277e+07
  -1.701248e+07  -1.708230e+07  -1.715224e+07  -1.722225e+07  -1.729230e+07
  -1.736247e+07  -1.743266e+07  -1.750288e+07  -1.757322e+07  -1.764356e+07
  -1.771395e+07  -1.778432e+07  -1.785468e+07  -1.792515e+07  -1.799553e+07
  -1.806586e+07  -1.813619e+07  -1.820641e+07  -1.827660e+07  -1.834668e+07
  -1.841662e+07  -1.848650e+07  -1.855622e+07  -1.862574e+07  -1.869506e+07
  -1.876413e+07  -1.883298e+07  -1.890161e+07  -1.896992e+07  -1.903799e+07
  -1.910577e+07  -1.917322e+07  -1.924040e+07  -1.930729e+07  -1.937385e+07
  -1.944002e+07  -1.950588e+07  -1.957136e+07  -1.963645e+07  -1.970119e+07
  -1.976559e+07  -1.982964e+07  -1.989335e+07  -1.995669e+07  -2.001968e+07
  -2.008232e+07  -2.014457e+07  -2.020644e+07  -2.026794e+07  -2.032910e+07
  -2.038987e+07  -2.045030e+07  -2.051038e+07  -2.057008e+07  -2.062943e+07
  -2.068838e+07  -2.074698e+07  -2.080522e+07  -2.086306e+07  -2.092057e+07
  -2.097768e+07  -2.103446e+07  -2.109086e+07  -2.114683e+07  -2.120249e+07
  -2.125779e+07  -2.131268e+07  -2.136717e+07  -2.142128e+07  -2.147499e+07
  -2.152825e+07  -2.158111e+07  -2.163355e+07  -2.168554e+07  -2.173711e+07
  -2.178824e+07  -2.183893e+07  -2.188918e+07  -2.193896e+07  -2.198828e+07
  -2.203710e+07  -2.208546e+07  -2.213334e+07  -2.218068e+07  -2.222757e+07
  -2.227395e+07  -2.231980e+07  -2.236516e+07  -2.241003e+07  -2.245439e+07
  -2.249822e+07  -2.254156e+07  -2.258436e+07  -2.262665e+07  -2.266844e+07
  -2.270967e+07  -2.275041e+07  -2.279064e+07  -2.283039e+07  -2.286966e+07
  -2.290839e+07  -2.294666e+07  -2.298442e+07  -2.302166e+07  -2.305837e+07
  -2.309457e+07  -2.313028e+07  -2.316540e+07  -2.320005e+07  -2.323419e+07
  -2.326771e+07  -2.330078e+07  -2.333332e+07  -2.336524e+07  -2.339667e+07
  -2.342749e+07  -2.345775e+07  -2.348748e+07  -2.351659e+07  -2.354514e+07
  -2.357309e+07  -2.360039e+07  -2.362711e+07  -2.365320e+07  -2.367860e+07
  -2.370340e+07  -2.372752e+07  -2.375097e+07  -2.377380e+07  -2.379595e+07
  -2.381742e+07  -2.383821e+07  -2.385833e+07  -2.387773e+07  -2.389647e+07
  -2.391452e+07  -2.393182e+07  -2.394846e+07  -2.396443e+07  -2.397968e+07
  -2.399425e+07  -2.400812e+07  -2.402131e+07  -2.403382e+07  -2.404564e+07
  -2.405679e+07  -2.406732e+07  -2.407720e+07  -2.408643e+07  -2.409505e+07
  -2.410304e+07  -2.411040e+07  -2.411712e+07  -2.412326e+07  -2.412882e+07
  -2.413378e+07  -2.413819e+07  -2.414210e+07  -2.414547e+07  -2.414830e+07
  -2.415060e+07  -2.415236e+07  -2.415362e+07  -2.415437e+07  -2.415462e+07
  -2.415439e+07  -2.415368e+07  -2.415249e+07  -2.415083e+07  -2.414869e+07
  -2.414607e+07  -2.414297e+07  -2.413935e+07  -2.413532e+07  -2.413081e+07
  -2.412579e+07  -2.412032e+07  -2.411440e+07  -2.410802e+07  -2.410116e+07
  -2.409382e+07  -2.408609e+07  -2.407789e+07  -2.406924e+07  -2.406015e+07
  -2.405059e+07  -2.404061e+07  -2.403019e+07  -2.401931e+07  -2.400802e+07
  -2.399629e+07  -2.398414e+07  -2.397158e+07  -2.395862e+07  -2.394523e+07
  -2.393142e+07  -2.391720e+07  -2.390259e+07  -2.388757e+07  -2.387214e+07
  -2.385628e+07  -2.384002e+07  -2.382337e+07  -2.380633e+07  -2.378892e+07
  -2.377110e+07  -2.375294e+07  -2.373443e+07  -2.371556e+07  -2.369637e+07
  -2.367679e+07  -2.365686e+07  -2.363648e+07  -2.361574e+07  -2.359472e+07
  -2.357333e+07  -2.355163e+07  -2.352960e+07  -2.350718e+07  -2.348443e+07
  -2.346130e+07  -2.343785e+07  -2.341411e+07  -2.339000e+07  -2.336555e+07
  -2.334080e+07  -2.331570e+07  -2.329024e+07  -2.326448e+07  -2.323839e+07
  -2.321200e+07  -2.318532e+07  -2.315829e+07  -2.313099e+07  -2.310337e+07
  -2.307544e+07  -2.304720e+07  -2.301866e+07  -2.298981e+07  -2.296064e+07
  -2.293123e+07  -2.290154e+07  -2.287156e+07  -2.284132e+07  -2.281082e+07
  -2.278005e+07  -2.274898e+07  -2.271767e+07  -2.268611e+07  -2.265427e+07
  -2.262218e+07  -2.258984e+07  -2.255727e+07  -2.252443e+07  -2.249138e+07
  -2.245809e+07  -2.242461e+07  -2.239087e+07  -2.235689e+07  -2.232274e+07
  -2.228820e+07  -2.225352e+07  -2.221857e+07  -2.218324e+07  -2.214775e+07
  -2.211190e+07  -2.207579e+07  -2.203944e+07  -2.200275e+07  -2.196583e+07
  -2.192857e+07  -2.189096e+07  -2.185305e+07  -2.181478e+07  -2.177616e+07
  -2.173718e+07  -2.169782e+07  -2.165805e+07  -2.161791e+07  -2.157734e+07
  -2.153633e+07  -2.149494e+07  -2.145308e+07  -2.141077e+07  -2.136803e+07
  -2.132482e+07  -2.128111e+07  -2.123691e+07  -2.119224e+07  -2.114710e+07
  -2.110144e+07  -2.105530e+07  -2.100870e+07  -2.096156e+07  -2.091391e+07
  -2.086575e+07  -2.081707e+07  -2.076786e+07  -2.071816e+07  -2.066790e+07
  -2.061711e+07  -2.056585e+07  -2.051399e+07  -2.046162e+07  -2.040877e+07
  -2.035532e+07  -2.030137e+07  -2.024693e+07  -2.019192e+07  -2.013640e+07
  -2.008037e+07  -2.002379e+07  -1.996668e+07  -1.990912e+07  -1.985103e+07
  -1.979245e+07  -1.973339e+07  -1.967383e+07  -1.961379e+07  -1.955329e+07
  -1.949231e+07  -1.943089e+07  -1.936904e+07  -1.930677e+07  -1.924407e+07
  -1.918094e+07  -1.911743e+07  -1.905352e+07  -1.898924e+07  -1.892460e+07
  -1.885959e+07  -1.879422e+07  -1.872848e+07  -1.866238e+07  -1.859592e+07
  -1.852910e+07  -1.846192e+07  -1.839441e+07  -1.832656e+07  -1.825839e+07
  -1.818992e+07  -1.812112e+07  -1.805200e+07  -1.798254e+07  -1.791274e+07
  -1.784266e+07  -1.777226e+07  -1.770156e+07  -1.763060e+07  -1.755936e+07
  -1.748781e+07  -1.741595e+07  -1.734376e+07  -1.727126e+07  -1.719846e+07
  -1.712535e+07  -1.705192e+07  -1.697821e+07  -1.690422e+07  -1.682991e+07
  -1.675531e+07  -1.668040e+07  -1.660519e+07  -1.652974e+07  -1.645401e+07
  -1.637800e+07  -1.630179e+07  -1.622532e+07  -1.614862e+07  -1.607170e+07
  -1.599456e+07  -1.591723e+07  -1.583974e+07  -1.576209e+07  -1.568430e+07
  -1.560643e+07  -1.552844e+07  -1.545041e+07  -1.537226e+07  -1.529399e+07
  -1.521570e+07  -1.513736e+07  -1.505898e+07  -1.498059e+07  -1.490217e+07
  -1.482380e+07  -1.474543e+07  -1.466711e+07  -1.458879e+07  -1.451052e+07
  -1.443237e+07  -1.435424e+07  -1.427621e+07  -1.419830e+07  -1.412043e+07
  -1.404270e+07  -1.396506e+07  -1.388752e+07  -1.381012e+07  -1.373284e+07
  -1.365573e+07  -1.357876e+07  -1.350192e+07  -1.342520e+07  -1.334859e+07
  -1.327211e+07  -1.319578e+07  -1.311963e+07  -1.304358e+07  -1.296769e+07
  -1.289195e+07  -1.281631e+07  -1.274078e+07  -1.266539e+07  -1.259011e+07
  -1.251491e+07  -1.243985e+07  -1.236486e+07  -1.228993e+07  -1.221512e+07
  -1.214033e+07  -1.206564e+07  -1.199109e+07  -1.191659e+07  -1.184216e+07
  -1.176786e+07  -1.169361e+07  -1.161935e+07  -1.154526e+07  -1.147133e+07
  -1.139739e+07  -1.132363e+07  -1.125010e+07  -1.117665e+07  -1.110318e+07
  -1.102976e+07  -1.095643e+07  -1.088320e+07  -1.081009e+07  -1.073710e+07
  -1.066424e+07  -1.059152e+07  -1.051896e+07  -1.044658e+07  -1.037427e+07
  -1.030204e+07  -1.022999e+07  -1.015806e+07  -1.008625e+07  -1.001457e+07
      -9942914.      -9871507.      -9800269.      -9728954.      -9657855.
      -9586884.      -9515996.      -9445278.      -9374638.      -9304084.
      -9233617.      -9163328.      -9093130.      -9023006.      -8953077.
      -8883276.      -8813620.      -8744139.      -8674824.      -8605656.
      -8536627.      -8467766.      -8399063.      -8330518.      -8262148.
      -8193964.      -8125939.      -8058097.      -7990448.      -7922950.
      -7855652.      -7788544.      -7721562.      -7654757.      -7588110.
      -7521600.      -7455271.      -7389077.      -7323061.      -7257218.
      -7191464.      -7125901.      -7060504.      -6995195.      -6930032.
      -6864988.      -6800047.      -6735233.      -6670513.      -6605881.
      -6541355.      -6476890.      -6412499.      -6348216.      -6283981.
      -6219817.      -6155754.      -6091725.      -6027746.      -5963838.
      -5899987.      -5836198.      -5772437.      -5708734.      -5645074.
      -5581445.      -5517861.      -5454326.      -5390865.      -5327422.
      -5264012.      -5200650.      -5137306.      -5073971.      -5010651.
