     0.05000000      -12345.00      -12345.00   3.164180e+09      -12345.00
   0.0005380000       1859.951      -450.0196      -12345.00      -12345.00
      -12345.00      -12345.00      -12345.00      -12345.00      -12345.00
      -12345.00      -12345.00      -12345.00      -12345.00      -12345.00
      -12345.00      -12345.00      -12345.00      -12345.00      -12345.00
      -12345.00      -12345.00      -12345.00      -12345.00      -12345.00
      -12345.00      -89.92890       144.4382       2580.000       270.0000
      -42.72450       173.0647      -12345.00       22.00000      -12345.00
      -12345.00      -12345.00      -12345.00      -12345.00      -12345.00
      -12345.00      -12345.00      -12345.00      -12345.00      -12345.00
       5270.900       180.0466       28.65800       47.40445      -12345.00
      -12345.00      -12345.00       176.0000       90.00000      -12345.00
      -12345.00      -12345.00      -12345.00      -12345.00      -12345.00
      -12345.00      -12345.00      -12345.00      -12345.00      -12345.00
      2016       318        11        10        29
        19         6    -12345    -12345     37200
    -12345    -12345    -12345    -12345    -12345
         1    -12345    -12345    -12345    -12345
    -12345    -12345    -12345    -12345    -12345
    -12345    -12345    -12345    -12345    -12345
    -12345    -12345    -12345    -12345    -12345
         1    -12345    -12345    -12345    -12345
QSPA    South Island, Ne
00      -12345  -12345  
-12345  -12345  -12345  
-12345  -12345  -12345  
-12345  -12345  -12345  
-12345  -12345  -12345  
-12345  -12345  BH1     
IU      -12345  Geotech 
[...]
      -2150263.      -2145366.      -2140690.      -2136229.      -2131978.
      -2127948.      -2124125.      -2120502.      -2117080.      -2113865.
      -2110862.      -2108062.      -2105471.      -2103090.      -2100920.
      -2098960.      -2097196.      -2095621.      -2094224.      -2092997.
      -2091930.      -2091018.      -2090260.      -2089645.      -2089179.
      -2088846.      -2088637.      -2088564.      -2088613.      -2088795.
      -2089116.      -2089559.      -2090125.      -2090821.      -2091643.
      -2092574.      -2093617.      -2094769.      -2096021.      -2097382.
      -2098860.      -2100460.      -2102179.      -2104016.      -2105980.
      -2108072.      -2110290.      -2112639.      -2115122.      -2117722.
      -2120436.      -2123261.      -2126192.      -2129225.      -2132349.
      -2135561.      -2138845.      -2142195.      -2145596.      -2149037.
      -2152510.      -2155996.      -2159480.      -2162955.      -2166408.
      -2169819.      -2173179.      -2176476.      -2179705.      -2182872.
      -2185973.      -2189007.      -2191972.      -2194869.      -2197707.
      -2200486.      -2203208.      -2205878.      -2208498.      -2211072.
      -2213609.      -2216124.      -2218621.      -2221106.      -2223593.
      -2226082.      -2228584.      -2231112.      -2233662.      -2236254.
      -2238897.      -2241584.      -2244326.      -2247119.      -2249966.
      -2252862.      -2255799.      -2258775.      -2261784.      -2264832.
      -2267908.      -2271009.      -2274129.      -2277255.      -2280379.
      -2283500.      -2286618.      -2289736.      -2292851.      -2295952.
      -2299051.      -2302161.      -2305292.      -2308452.      -2311642.
      -2314868.      -2318148.      -2321500.      -2324934.      -2328459.
      -2332071.      -2335770.      -2339570.      -2343475.      -2347488.
      -2351611.      -2355834.      -2360153.      -2364565.      -2369059.
      -2373627.      -2378275.      -2383004.      -2387802.      -2392657.
      -2397554.      -2402493.      -2407461.      -2412445.      -2417447.
      -2422456.      -2427456.      -2432454.      -2437455.      -2442460.
      -2447475.      -2452504.      -2457551.      -2462598.      -2467647.
      -2472713.      -2477793.      -2482887.      -2487988.      -2493099.
      -2498220.      -2503339.      -2508450.      -2513546.      -2518631.
      -2523707.      -2528774.      -2533846.      -2538910.      -2543953.
      -2548990.      -2554028.      -2559079.      -2564139.      -2569197.
      -2574267.      -2579357.      -2584440.      -2589492.      -2594499.
      -2599481.      -2604446.      -2609376.      -2614254.      -2619065.
      -2623821.      -2628517.      -2633140.      -2637681.      -2642133.
      -2646501.      -2650777.      -2654948.      -2659001.      -2662936.
      -2666749.      -2670424.      -2673972.      -2677400.      -2680709.
      -2683895.      -2686956.      -2689897.      -2692721.      -2695426.
      -2698003.      -2700454.      -2702775.      -2704954.      -2706981.
      -2708866.      -2710614.      -2712211.      -2713665.      -2714981.
      -2716164.      -2717208.      -2718111.      -2718898.      -2719570.
      -2720119.      -2720550.      -2720869.      -2721089.      -2721224.
      -2721281.      -2721260.      -2721178.      -2721049.      -2720877.
      -2720677.      -2720471.      -2720261.      -2720053.      -2719874.
      -2719724.      -2719602.      -2719522.      -2719495.      -2719532.
      -2719635.      -2719802.      -2720038.      -2720356.      -2720759.
      -2721248.      -2721840.      -2722534.      -2723317.      -2724199.
      -2725198.      -2726328.      -2727586.      -2728969.      -2730481.
      -2732130.      -2733919.      -2735851.      -2737927.      -2740130.
      -2742447.      -2744885.      -2747439.      -2750096.      -2752844.
      -2755684.      -2758619.      -2761642.      -2764751.      -2767934.
      -2771192.      -2774533.      -2777951.      -2781457.      -2785042.
      -2788683.      -2792390.      -2796176.      -2800049.      -2803998.
      -2808011.      -2812108.      -2816309.      -2820611.      -2825015.
      -2829528.      -2834171.      -2838947.      -2843833.      -2848846.
      -2854017.      -2859353.      -2864836.      -2870472.      -2876305.
      -2882342.      -2888561.      -2894964.      -2901580.      -2908405.
      -2915414.      -2922620.      -2930021.      -2937592.      -2945324.
      -2953221.      -2961273.      -2969459.      -2977776.      -2986223.
      -2994798.      -3003484.      -3012274.      -3021150.      -3030099.
      -3039122.      -3048204.      -3057339.      -3066511.      -3075710.
      -3084940.      -3094190.      -3103457.      -3112745.      -3122044.
      -3131355.      -3140678.      -3150006.      -3159342.      -3168686.
      -3178021.      -3187348.      -3196658.      -3205947.      -3215225.
      -3224480.      -3233704.      -3242903.      -3252078.      -3261219.
      -3270336.      -3279433.      -3288516.      -3297599.      -3306670.
      -3315737.      -3324802.      -3333864.      -3342919.      -3351970.
      -3361021.      -3370060.      -3379082.      -3388088.      -3397078.
      -3406056.      -3415021.      -3423974.      -3432914.      -3441842.
      -3450760.      -3459663.      -3468549.      -3477416.      -3486253.
      -3495066.      -3503854.      -3512626.      -3521395.      -3530153.
      -3538914.      -3547689.      -3556479.      -3565289.      -3574118.
      -3582975.      -3591872.      -3600805.      -3609766.      -3618758.
      -3627778.      -3636824.      -3645898.      -3654985.      -3664079.
      -3673172.      -3682253.      -3691308.      -3700326.      -3709290.
      -3718183.      -3726999.      -3735729.      -3744368.      -3752903.
      -3761323.      -3769624.      -3777795.      -3785844.      -3793777.
      -3801588.      -3809285.      -3816871.      -3824341.      -3831698.
      -3838947.      -3846084.      -3853102.      -3859998.      -3866778.
      -3873437.      -3879973.      -3886391.      -3892692.      -3898859.
      -3904891.      -3910805.      -3916582.      -3922226.      -3927755.
      -3933157.      -3938439.      -3943607.      -3948659.      -3953602.
      -3958445.      -3963195.      -3967856.      -3972436.      -3976933.
      -3981352.      -3985707.      -3990002.      -3994233.      -3998401.
      -4002514.      -4006575.      -4010587.      -4014541.      -4018445.
      -4022305.      -4026117.      -4029882.      -4033599.      -4037259.
      -4040850.      -4044367.      -4047809.      -4051175.      -4054458.
      -4057659.      -4060779.      -4063820.      -4066794.      -4069698.
      -4072516.      -4075262.      -4077944.      -4080558.      -4083109.
      -4085590.      -4087998.      -4090334.      -4092585.      -4094738.
      -4096789.      -4098729.      -4100549.      -4102242.      -4103795.
      -4105203.      -4106464.      -4107572.      -4108526.      -4109323.
      -4109969.      -4110461.      -4110788.      -4110951.      -4110948.
      -4110775.      -4110435.      -4109918.      -4109214.      -4108308.
      -4107203.      -4105893.      -4104363.      -4102612.      -4100636.
      -4098431.      -4095988.      -4093299.      -4090358.      -4087155.
      -4083696.      -4079973.      -4075981.      -4071724.      -4067208.
      -4062443.      -4057437.      -4052188.      -4046697.      -4040964.
      -4034992.      -4028786.      -4022340.      -4015641.      -4008676.
      -4001443.      -3993949.      -3986200.      -3978195.      -3969918.
      -3961364.      -3952544.      -3943464.      -3934137.      -3924571.
      -3914774.      -3904765.      -3894560.      -3884174.      -3873622.
      -3862911.      -3852060.      -3841095.      -3830023.      -3818855.
      -3807610.      -3796289.      -3784917.      -3773506.      -3762063.
      -3750610.      -3739155.      -3727700.      -3716249.      -3704808.
      -3693381.      -3681978.      -3670598.      -3659229.      -3647881.
      -3636552.      -3625242.      -3613947.      -3602658.      -3591378.
      -3580107.      -3568859.      -3557643.      -3546455.      -3535306.
      -3524198.      -3513134.      -3502123.      -3491166.      -3480262.
      -3469424.      -3458665.      -3447987.      -3437387.      -3426867.
      -3416435.      -3406097.      -3395863.      -3385725.      -3375685.
      -3365754.      -3355934.      -3346243.      -3336683.      -3327249.
      -3317939.      -3308764.      -3299723.      -3290819.      -3282058.
      -3273434.      -3264945.      -3256601.      -3248402.      -3240354.
      -3232449.      -3224683.      -3217057.      -3209566.      -3202199.
      -3194940.      -3187785.      -3180733.      -3173772.      -3166896.
      -3160098.      -3153371.      -3146707.      -3140098.      -3133542.
      -3127033.      -3120565.      -3114136.      -3107734.      -3101356.
      -3095006.      -3088674.      -3082345.      -3076017.      -3069681.
      -3063337.      -3056985.      -3050620.      -3044243.      -3037832.
      -3031385.      -3024912.      -3018406.      -3011868.      -3005288.
      -2998657.      -2991977.      -2985233.      -2978434.      -2971572.
      -2964640.      -2957642.      -2950565.      -2943418.      -2936206.
      -2928928.      -2921585.      -2914187.      -2906733.      -2899210.
      -2891632.      -2883993.      -2876294.      -2868549.      -2860749.
      -2852893.      -2844970.      -2836982.      -2828929.      -2820809.
      -2812625.      -2804363.      -2796016.      -2787565.      -2779007.
      -2770346.      -2761578.      -2752709.      -2743733.      -2734654.
      -2725486.      -2716238.      -2706909.      -2697503.      -2688036.
      -2678511.      -2668936.      -2659314.      -2649649.      -2639947.
      -2630211.      -2620445.      -2610651.      -2600837.      -2591009.
      -2581174.      -2571325.      -2561466.      -2551588.      -2541684.
      -2531767.      -2521834.      -2511878.      -2501884.      -2491847.
      -2481761.      -2471613.      -2461406.      -2451134.      -2440782.
      -2430337.      -2419801.      -2409172.      -2398442.      -2387612.
      -2376671.      -2365621.      -2354463.      -2343194.      -2331819.
      -2320339.      -2308760.      -2297091.      -2285343.      -2273529.
      -2261663.      -2249759.      -2237831.      -2225897.      -2213962.
      -2202053.      -2190179.      -2178344.      -2166573.      -2154877.
      -2143262.      -2131734.      -2120308.      -2109009.      -2097842.
      -2086808.      -2075908.      -2065146.      -2054534.      -2044081.
      -2033781.      -2023637.      -2013654.      -2003843.      -1994208.
      -1984742.      -1975435.      -1966276.      -1957272.      -1948422.
      -1939711.      -1931149.      -1922731.      -1914449.      -1906318.
      -1898340.      -1890526.      -1882876.      -1875391.      -1868077.
      -1860930.      -1853955.      -1847146.      -1840485.      -1833967.
      -1827589.      -1821335.      -1815203.      -1809177.      -1803244.
      -1797395.      -1791620.      -1785922.      -1780282.      -1774693.
      -1769148.      -1763639.      -1758153.      -1752672.      -1747193.
      -1741702.      -1736187.      -1730645.      -1725063.      -1719435.
      -1713749.      -1707998.      -1702183.      -1696292.      -1690332.
      -1684311.      -1678230.      -1672094.      -1665912.      -1659687.
      -1653404.      -1647070.      -1640697.      -1634281.      -1627820.
      -1621326.      -1614810.      -1608287.      -1601766.      -1595263.
      -1588790.      -1582349.      -1575944.      -1569593.      -1563307.
      -1557080.      -1550912.      -1544805.      -1538754.      -1532764.
      -1526838.      -1520967.      -1515156.      -1509406.      -1503709.
      -1498062.      -1492466.      -1486927.      -1481445.      -1476016.
      -1470646.      -1465347.      -1460127.      -1454976.      -1449894.
      -1444893.      -1439986.      -1435170.      -1430453.      -1425851.
      -1421364.      -1416999.      -1412765.      -1408673.      -1404721.
      -1400906.      -1397225.      -1393667.      -1390236.      -1386932.
      -1383756.      -1380703.      -1377766.      -1374949.      -1372251.
      -1369676.      -1367227.      -1364910.      -1362726.      -1360675.
      -1358766.      -1356999.      -1355376.      -1353898.      -1352572.
      -1351389.      -1350340.      -1349436.      -1348677.      -1348055.
      -1347569.      -1347210.      -1346970.      -1346861.      -1346875.
      -1346995.      -1347228.      -1347572.      -1348032.      -1348601.
      -1349275.      -1350066.      -1350977.      -1352020.      -1353194.
      -1354498.      -1355941.      -1357524.      -1359252.      -1361131.
      -1363168.      -1365358.      -1367700.      -1370189.      -1372829.
      -1375634.      -1378602.      -1381726.      -1385008.      -1388437.
      -1392015.      -1395739.      -1399593.      -1403575.      -1407678.
      -1411897.      -1416227.      -1420664.      -1425199.      -1429824.
      -1434547.      -1439362.      -1444264.      -1449264.      -1454367.
      -1459565.      -1464852.      -1470234.      -1475702.      -1481274.
      -1486953.      -1492734.      -1498615.      -1504587.      -1510646.
      -1516792.      -1523026.      -1529349.      -1535775.      -1542292.
      -1548887.      -1555572.      -1562347.      -1569214.      -1576175.
      -1583226.      -1590373.      -1597622.      -1604978.      -1612449.
      -1620032.      -1627724.      -1635521.      -1643430.      -1651461.
      -1659617.      -1667897.      -1676306.      -1684838.      -1693492.
      -1702279.      -1711202.      -1720265.      -1729467.      -1738808.
      -1748290.      -1757911.      -1767671.      -1777569.      -1787596.
      -1797745.      -1808018.      -1818414.      -1828931.      -1839574.
      -1850340.      -1861221.      -1872221.      -1883337.      -1894562.
      -1905889.      -1917318.      -1928854.      -1940493.      -1952230.
      -1964045.      -1975926.      -1987863.      -1999844.      -2011840.
      -2023833.      -2035812.      -2047748.      -2059618.      -2071403.
      -2083102.      -2094706.      -2106204.      -2117592.      -2128859.
      -2139998.      -2150999.      -2161860.      -2172574.      -2183136.
      -2193544.      -2203796.      -2213895.      -2223847.      -2233657.
      -2243312.      -2252810.      -2262170.      -2271400.      -2280501.
      -2289473.      -2298319.      -2307044.      -2315645.      -2324136.
      -2332514.      -2340777.      -2348924.      -2356953.      -2364860.
      -2372638.      -2380295.      -2387824.      -2395228.      -2402520.
      -2409698.      -2416764.      -2423729.      -2430594.      -2437367.
      -2444054.      -2450660.      -2457191.      -2463650.      -2470044.
      -2476375.      -2482641.      -2488851.      -2495010.      -2501118.
      -2507182.      -2513208.      -2519193.      -2525148.      -2531084.
      -2537002.      -2542900.      -2548783.      -2554655.      -2560528.
      -2566421.      -2572338.      -2578290.      -2584283.      -2590321.
      -2596408.      -2602544.      -2608734.      -2614980.      -2621282.
      -2627638.      -2634036.      -2640481.      -2646970.      -2653498.
      -2660073.      -2666676.      -2673300.      -2679954.      -2686638.
      -2693354.      -2700099.      -2706873.      -2713667.      -2720498.
      -2727381.      -2734317.      -2741310.      -2748348.      -2755425.
      -2762547.      -2769728.      -2776974.      -2784282.      -2791658.
      -2799100.      -2806623.      -2814234.      -2821926.      -2829711.
      -2837587.      -2845542.      -2853585.      -2861711.      -2869921.
      -2878208.      -2886571.      -2895001.      -2903495.      -2912065.
      -2920711.      -2929435.      -2938230.      -2947092.      -2956032.
      -2965050.      -2974148.      -2983328.      -2992589.      -3001926.
      -3011338.      -3020822.      -3030373.      -3039980.      -3049633.
      -3059324.      -3069051.      -3078813.      -3088605.      -3098409.
      -3108217.      -3118022.      -3127817.      -3137591.      -3147326.
      -3157019.      -3166683.      -3176314.      -3185910.      -3195475.
      -3205007.      -3214505.      -3223964.      -3233388.      -3242781.
      -3252145.      -3261467.      -3270729.      -3279936.      -3289090.
      -3298193.      -3307243.      -3316225.      -3325132.      -3333963.
      -3342720.      -3351395.      -3359992.      -3368502.      -3376921.
      -3385260.      -3393503.      -3401652.      -3409715.      -3417687.
      -3425568.      -3433333.      -3440977.      -3448515.      -3455953.
      -3463303.      -3470560.      -3477709.      -3484756.      -3491706.
      -3498570.      -3505350.      -3512032.      -3518610.      -3525085.
      -3531463.      -3537755.      -3543951.      -3550024.      -3555963.
      -3561768.      -3567447.      -3572999.      -3578417.      -3583696.
      -3588841.      -3593855.      -3598734.      -3603478.      -3608079.
      -3612544.      -3616891.      -3621117.      -3625218.      -3629196.
      -3633063.      -3636839.      -3640531.      -3644139.      -3647672.
      -3651127.      -3654513.      -3657831.      -3661079.      -3664265.
      -3667397.      -3670479.      -3673511.      -3676503.      -3679451.
      -3682361.      -3685237.      -3688086.      -3690912.      -3693720.
      -3696522.      -3699321.      -3702127.      -3704932.      -3707727.
      -3710515.      -3713301.      -3716089.      -3718872.      -3721646.
      -3724409.      -3727156.      -3729882.      -3732586.      -3735260.
      -3737900.      -3740498.      -3743040.      -3745513.      -3747918.
      -3750260.      -3752525.      -3754689.      -3756738.      -3758668.
      -3760479.      -3762163.      -3763719.      -3765146.      -3766436.
