     0.02500000      -12345.00      -12345.00   2.481350e+09      -12345.00
   0.0005360000       1859.976      -450.0195      -12345.00      -12345.00
      -12345.00      -12345.00      -12345.00      -12345.00      -12345.00
      -12345.00      -12345.00      -12345.00      -12345.00      -12345.00
      -12345.00      -12345.00      -12345.00      -12345.00      -12345.00
      -12345.00      -12345.00      -12345.00      -12345.00      -12345.00
      -12345.00      -89.92890       144.4382       2847.000       3.000000
      -42.72450       173.0647      -12345.00       22.00000      -12345.00
      -12345.00      -12345.00      -12345.00      -12345.00      -12345.00
      -12345.00      -12345.00      -12345.00      -12345.00      -12345.00
       5270.900       180.0466       28.65800       47.40445      -12345.00
      -12345.00      -12345.00       311.0000       90.00000      -12345.00
      -12345.00      -12345.00      -12345.00      -12345.00      -12345.00
      -12345.00      -12345.00      -12345.00      -12345.00      -12345.00
      2016       318        11        10        29
        19         6    -12345    -12345     74400
    -12345    -12345    -12345    -12345    -12345
         1    -12345    -12345    -12345    -12345
    -12345    -12345    -12345    -12345    -12345
    -12345    -12345    -12345    -12345    -12345
    -12345    -12345    -12345    -12345    -12345
         1    -12345    -12345    -12345    -12345
QSPA    South Island, Ne
60      -12345  -12345  
-12345  -12345  -12345  
-12345  -12345  -12345  
-12345  -12345  -12345  
-12345  -12345  -12345  
-12345  -12345  BH2     
IU      -12345  Streckei
[...]
   3.210556e+07   3.210661e+07   3.210767e+07   3.210868e+07   3.210967e+07
   3.211066e+07   3.211164e+07   3.211267e+07   3.211359e+07   3.211451e+07
   3.211544e+07   3.211630e+07   3.211714e+07   3.211802e+07   3.211888e+07
   3.211970e+07   3.212050e+07   3.212127e+07   3.212205e+07   3.212278e+07
   3.212351e+07   3.212429e+07   3.212504e+07   3.212573e+07   3.212643e+07
   3.212711e+07   3.212779e+07   3.212846e+07   3.212908e+07   3.212973e+07
   3.213036e+07   3.213096e+07   3.213157e+07   3.213213e+07   3.213271e+07
   3.213331e+07   3.213386e+07   3.213442e+07   3.213500e+07   3.213552e+07
   3.213604e+07   3.213659e+07   3.213709e+07   3.213763e+07   3.213816e+07
   3.213863e+07   3.213912e+07   3.213959e+07   3.214008e+07   3.214055e+07
   3.214101e+07   3.214150e+07   3.214191e+07   3.214227e+07   3.214273e+07
   3.214322e+07   3.214362e+07   3.214400e+07   3.214438e+07   3.214475e+07
   3.214511e+07   3.214546e+07   3.214583e+07   3.214616e+07   3.214645e+07
   3.214678e+07   3.214706e+07   3.214737e+07   3.214769e+07   3.214796e+07
   3.214822e+07   3.214851e+07   3.214878e+07   3.214898e+07   3.214924e+07
   3.214953e+07   3.214972e+07   3.214996e+07   3.215028e+07   3.215054e+07
   3.215074e+07   3.215095e+07   3.215119e+07   3.215143e+07   3.215163e+07
   3.215184e+07   3.215205e+07   3.215224e+07   3.215242e+07   3.215250e+07
   3.215253e+07   3.215262e+07   3.215271e+07   3.215281e+07   3.215297e+07
   3.215312e+07   3.215321e+07   3.215326e+07   3.215336e+07   3.215346e+07
   3.215348e+07   3.215350e+07   3.215356e+07   3.215357e+07   3.215356e+07
   3.215357e+07   3.215357e+07   3.215352e+07   3.215344e+07   3.215335e+07
   3.215326e+07   3.215316e+07   3.215306e+07   3.215292e+07   3.215276e+07
   3.215260e+07   3.215241e+07   3.215223e+07   3.215208e+07   3.215190e+07
   3.215165e+07   3.215140e+07   3.215119e+07   3.215093e+07   3.215063e+07
   3.215036e+07   3.215007e+07   3.214974e+07   3.214941e+07   3.214906e+07
   3.214870e+07   3.214832e+07   3.214791e+07   3.214749e+07   3.214705e+07
   3.214662e+07   3.214616e+07   3.214563e+07   3.214516e+07   3.214467e+07
   3.214410e+07   3.214355e+07   3.214302e+07   3.214241e+07   3.214174e+07
   3.214111e+07   3.214044e+07   3.213971e+07   3.213896e+07   3.213822e+07
   3.213747e+07   3.213664e+07   3.213580e+07   3.213495e+07   3.213408e+07
   3.213320e+07   3.213224e+07   3.213125e+07   3.213026e+07   3.212926e+07
   3.212819e+07   3.212710e+07   3.212607e+07   3.212510e+07   3.212413e+07
   3.212306e+07   3.212192e+07   3.212077e+07   3.211959e+07   3.211832e+07
   3.211703e+07   3.211578e+07   3.211445e+07   3.211309e+07   3.211177e+07
   3.211038e+07   3.210895e+07   3.210750e+07   3.210603e+07   3.210455e+07
   3.210302e+07   3.210144e+07   3.209988e+07   3.209825e+07   3.209656e+07
   3.209490e+07   3.209320e+07   3.209148e+07   3.208974e+07   3.208795e+07
   3.208614e+07   3.208433e+07   3.208248e+07   3.208055e+07   3.207864e+07
   3.207668e+07   3.207468e+07   3.207271e+07   3.207068e+07   3.206858e+07
   3.206647e+07   3.206436e+07   3.206227e+07   3.206013e+07   3.205794e+07
   3.205572e+07   3.205348e+07   3.205125e+07   3.204898e+07   3.204669e+07
   3.204439e+07   3.204204e+07   3.203969e+07   3.203734e+07   3.203498e+07
   3.203261e+07   3.203022e+07   3.202778e+07   3.202534e+07   3.202292e+07
   3.202044e+07   3.201793e+07   3.201545e+07   3.201295e+07   3.201042e+07
   3.200789e+07   3.200540e+07   3.200288e+07   3.200031e+07   3.199775e+07
   3.199520e+07   3.199265e+07   3.199006e+07   3.198750e+07   3.198492e+07
   3.198236e+07   3.197982e+07   3.197722e+07   3.197465e+07   3.197207e+07
   3.196944e+07   3.196686e+07   3.196427e+07   3.196165e+07   3.195905e+07
   3.195643e+07   3.195384e+07   3.195125e+07   3.194860e+07   3.194594e+07
   3.194331e+07   3.194065e+07   3.193797e+07   3.193532e+07   3.193268e+07
   3.193000e+07   3.192728e+07   3.192460e+07   3.192195e+07   3.191929e+07
   3.191661e+07   3.191389e+07   3.191119e+07   3.190846e+07   3.190574e+07
   3.190305e+07   3.190033e+07   3.189762e+07   3.189489e+07   3.189219e+07
   3.188948e+07   3.188671e+07   3.188394e+07   3.188119e+07   3.187848e+07
   3.187576e+07   3.187300e+07   3.187024e+07   3.186754e+07   3.186487e+07
   3.186214e+07   3.185940e+07   3.185665e+07   3.185391e+07   3.185120e+07
   3.184846e+07   3.184575e+07   3.184301e+07   3.184026e+07   3.183757e+07
   3.183484e+07   3.183216e+07   3.182947e+07   3.182673e+07   3.182404e+07
   3.182133e+07   3.181860e+07   3.181590e+07   3.181324e+07   3.181060e+07
   3.180791e+07   3.180520e+07   3.180251e+07   3.179986e+07   3.179719e+07
   3.179449e+07   3.179183e+07   3.178917e+07   3.178651e+07   3.178386e+07
   3.178121e+07   3.177858e+07   3.177595e+07   3.177330e+07   3.177068e+07
   3.176808e+07   3.176540e+07   3.176268e+07   3.176009e+07   3.175750e+07
   3.175488e+07   3.175229e+07   3.174974e+07   3.174717e+07   3.174454e+07
   3.174193e+07   3.173938e+07   3.173686e+07   3.173431e+07   3.173174e+07
   3.172919e+07   3.172666e+07   3.172412e+07   3.172158e+07   3.171906e+07
   3.171653e+07   3.171401e+07   3.171144e+07   3.170891e+07   3.170646e+07
   3.170394e+07   3.170144e+07   3.169900e+07   3.169650e+07   3.169398e+07
   3.169147e+07   3.168898e+07   3.168648e+07   3.168396e+07   3.168146e+07
   3.167899e+07   3.167648e+07   3.167398e+07   3.167152e+07   3.166902e+07
   3.166654e+07   3.166407e+07   3.166156e+07   3.165907e+07   3.165659e+07
   3.165408e+07   3.165158e+07   3.164909e+07   3.164661e+07   3.164410e+07
   3.164157e+07   3.163907e+07   3.163658e+07   3.163406e+07   3.163154e+07
   3.162903e+07   3.162649e+07   3.162392e+07   3.162138e+07   3.161887e+07
   3.161637e+07   3.161383e+07   3.161127e+07   3.160877e+07   3.160624e+07
   3.160369e+07   3.160112e+07   3.159856e+07   3.159604e+07   3.159348e+07
   3.159089e+07   3.158832e+07   3.158581e+07   3.158325e+07   3.158062e+07
   3.157803e+07   3.157543e+07   3.157281e+07   3.157019e+07   3.156758e+07
   3.156499e+07   3.156237e+07   3.155970e+07   3.155706e+07   3.155444e+07
   3.155178e+07   3.154914e+07   3.154650e+07   3.154381e+07   3.154113e+07
   3.153846e+07   3.153578e+07   3.153308e+07   3.153035e+07   3.152766e+07
   3.152500e+07   3.152229e+07   3.151959e+07   3.151690e+07   3.151416e+07
   3.151142e+07   3.150869e+07   3.150595e+07   3.150325e+07   3.150058e+07
   3.149780e+07   3.149501e+07   3.149231e+07   3.148955e+07   3.148677e+07
   3.148403e+07   3.148129e+07   3.147853e+07   3.147575e+07   3.147297e+07
   3.147019e+07   3.146741e+07   3.146461e+07   3.146181e+07   3.145906e+07
   3.145630e+07   3.145348e+07   3.145064e+07   3.144785e+07   3.144508e+07
   3.144226e+07   3.143948e+07   3.143672e+07   3.143387e+07   3.143101e+07
   3.142822e+07   3.142539e+07   3.142255e+07   3.141973e+07   3.141687e+07
   3.141402e+07   3.141117e+07   3.140830e+07   3.140541e+07   3.140256e+07
   3.139971e+07   3.139680e+07   3.139392e+07   3.139106e+07   3.138813e+07
   3.138519e+07   3.138225e+07   3.137934e+07   3.137641e+07   3.137342e+07
   3.137045e+07   3.136750e+07   3.136454e+07   3.136159e+07   3.135861e+07
   3.135566e+07   3.135267e+07   3.134966e+07   3.134663e+07   3.134359e+07
   3.134060e+07   3.133756e+07   3.133452e+07   3.133151e+07   3.132848e+07
   3.132544e+07   3.132238e+07   3.131933e+07   3.131630e+07   3.131323e+07
   3.131014e+07   3.130707e+07   3.130400e+07   3.130089e+07   3.129779e+07
   3.129470e+07   3.129161e+07   3.128850e+07   3.128540e+07   3.128235e+07
   3.127926e+07   3.127614e+07   3.127306e+07   3.126995e+07   3.126683e+07
   3.126372e+07   3.126063e+07   3.125758e+07   3.125446e+07   3.125129e+07
   3.124816e+07   3.124509e+07   3.124198e+07   3.123885e+07   3.123574e+07
   3.123260e+07   3.122946e+07   3.122635e+07   3.122323e+07   3.122012e+07
   3.121696e+07   3.121380e+07   3.121071e+07   3.120757e+07   3.120439e+07
   3.120120e+07   3.119809e+07   3.119496e+07   3.119174e+07   3.118853e+07
   3.118534e+07   3.118219e+07   3.117900e+07   3.117576e+07   3.117259e+07
   3.116938e+07   3.116614e+07   3.116290e+07   3.115963e+07   3.115635e+07
   3.115308e+07   3.114980e+07   3.114653e+07   3.114325e+07   3.113992e+07
   3.113660e+07   3.113330e+07   3.112998e+07   3.112663e+07   3.112325e+07
   3.111986e+07   3.111645e+07   3.111304e+07   3.110967e+07   3.110625e+07
   3.110279e+07   3.109937e+07   3.109599e+07   3.109260e+07   3.108919e+07
   3.108574e+07   3.108227e+07   3.107882e+07   3.107534e+07   3.107193e+07
   3.106851e+07   3.106504e+07   3.106163e+07   3.105820e+07   3.105474e+07
   3.105129e+07   3.104787e+07   3.104446e+07   3.104105e+07   3.103767e+07
   3.103430e+07   3.103092e+07   3.102759e+07   3.102423e+07   3.102084e+07
   3.101751e+07   3.101413e+07   3.101075e+07   3.100743e+07   3.100413e+07
   3.100083e+07   3.099756e+07   3.099428e+07   3.099102e+07   3.098776e+07
   3.098447e+07   3.098123e+07   3.097804e+07   3.097486e+07   3.097166e+07
   3.096849e+07   3.096535e+07   3.096224e+07   3.095915e+07   3.095604e+07
   3.095295e+07   3.094987e+07   3.094682e+07   3.094382e+07   3.094083e+07
   3.093782e+07   3.093486e+07   3.093193e+07   3.092897e+07   3.092602e+07
   3.092316e+07   3.092032e+07   3.091745e+07   3.091465e+07   3.091186e+07
   3.090907e+07   3.090635e+07   3.090360e+07   3.090088e+07   3.089820e+07
   3.089553e+07   3.089286e+07   3.089018e+07   3.088756e+07   3.088495e+07
   3.088235e+07   3.087980e+07   3.087724e+07   3.087468e+07   3.087214e+07
   3.086965e+07   3.086716e+07   3.086468e+07   3.086223e+07   3.085980e+07
   3.085739e+07   3.085500e+07   3.085267e+07   3.085032e+07   3.084796e+07
   3.084565e+07   3.084332e+07   3.084104e+07   3.083885e+07   3.083667e+07
   3.083450e+07   3.083230e+07   3.083012e+07   3.082798e+07   3.082587e+07
   3.082382e+07   3.082178e+07   3.081969e+07   3.081763e+07   3.081563e+07
   3.081367e+07   3.081168e+07   3.080970e+07   3.080776e+07   3.080582e+07
   3.080393e+07   3.080202e+07   3.080008e+07   3.079822e+07   3.079636e+07
   3.079444e+07   3.079256e+07   3.079071e+07   3.078889e+07   3.078709e+07
   3.078526e+07   3.078342e+07   3.078160e+07   3.077980e+07   3.077799e+07
   3.077617e+07   3.077439e+07   3.077262e+07   3.077085e+07   3.076908e+07
   3.076726e+07   3.076545e+07   3.076371e+07   3.076195e+07   3.076015e+07
   3.075837e+07   3.075660e+07   3.075480e+07   3.075299e+07   3.075116e+07
   3.074934e+07   3.074754e+07   3.074575e+07   3.074394e+07   3.074212e+07
   3.074034e+07   3.073847e+07   3.073655e+07   3.073473e+07   3.073287e+07
   3.073099e+07   3.072915e+07   3.072729e+07   3.072543e+07   3.072353e+07
   3.072164e+07   3.071974e+07   3.071784e+07   3.071597e+07   3.071405e+07
   3.071210e+07   3.071019e+07   3.070826e+07   3.070635e+07   3.070442e+07
   3.070247e+07   3.070060e+07   3.069870e+07   3.069680e+07   3.069488e+07
   3.069292e+07   3.069098e+07   3.068903e+07   3.068710e+07   3.068516e+07
   3.068320e+07   3.068126e+07   3.067934e+07   3.067740e+07   3.067548e+07
   3.067357e+07   3.067166e+07   3.066974e+07   3.066778e+07   3.066586e+07
   3.066401e+07   3.066212e+07   3.066020e+07   3.065832e+07   3.065644e+07
   3.065459e+07   3.065274e+07   3.065085e+07   3.064898e+07   3.064716e+07
   3.064532e+07   3.064347e+07   3.064169e+07   3.063990e+07   3.063810e+07
   3.063630e+07   3.063450e+07   3.063272e+07   3.063093e+07   3.062920e+07
   3.062745e+07   3.062566e+07   3.062391e+07   3.062219e+07   3.062052e+07
   3.061880e+07   3.061710e+07   3.061539e+07   3.061365e+07   3.061195e+07
   3.061024e+07   3.060856e+07   3.060692e+07   3.060529e+07   3.060362e+07
   3.060196e+07   3.060037e+07   3.059874e+07   3.059714e+07   3.059552e+07
   3.059390e+07   3.059235e+07   3.059077e+07   3.058921e+07   3.058767e+07
   3.058614e+07   3.058461e+07   3.058309e+07   3.058160e+07   3.058009e+07
   3.057861e+07   3.057713e+07   3.057568e+07   3.057430e+07   3.057285e+07
   3.057144e+07   3.057010e+07   3.056876e+07   3.056742e+07   3.056615e+07
   3.056489e+07   3.056362e+07   3.056236e+07   3.056112e+07   3.055993e+07
   3.055876e+07   3.055760e+07   3.055649e+07   3.055544e+07   3.055438e+07
   3.055326e+07   3.055221e+07   3.055121e+07   3.055027e+07   3.054935e+07
   3.054841e+07   3.054751e+07   3.054660e+07   3.054572e+07   3.054490e+07
   3.054409e+07   3.054328e+07   3.054252e+07   3.054179e+07   3.054102e+07
   3.054028e+07   3.053962e+07   3.053897e+07   3.053831e+07   3.053773e+07
   3.053717e+07   3.053660e+07   3.053611e+07   3.053557e+07   3.053499e+07
   3.053449e+07   3.053406e+07   3.053366e+07   3.053325e+07   3.053288e+07
   3.053255e+07   3.053224e+07   3.053191e+07   3.053164e+07   3.053140e+07
   3.053112e+07   3.053093e+07   3.053080e+07   3.053066e+07   3.053054e+07
   3.053044e+07   3.053033e+07   3.053027e+07   3.053024e+07   3.053021e+07
   3.053020e+07   3.053024e+07   3.053028e+07   3.053032e+07   3.053040e+07
   3.053050e+07   3.053062e+07   3.053075e+07   3.053094e+07   3.053117e+07
   3.053137e+07   3.053159e+07   3.053186e+07   3.053217e+07   3.053247e+07
   3.053279e+07   3.053312e+07   3.053344e+07   3.053383e+07   3.053424e+07
   3.053469e+07   3.053517e+07   3.053562e+07   3.053608e+07   3.053661e+07
   3.053717e+07   3.053774e+07   3.053832e+07   3.053887e+07   3.053945e+07
   3.054010e+07   3.054073e+07   3.054140e+07   3.054211e+07   3.054285e+07
   3.054358e+07   3.054428e+07   3.054506e+07   3.054587e+07   3.054668e+07
   3.054749e+07   3.054834e+07   3.054925e+07   3.055013e+07   3.055104e+07
   3.055199e+07   3.055292e+07   3.055391e+07   3.055489e+07   3.055589e+07
   3.055698e+07   3.055806e+07   3.055913e+07   3.056027e+07   3.056143e+07
   3.056260e+07   3.056375e+07   3.056490e+07   3.056610e+07   3.056735e+07
   3.056860e+07   3.056985e+07   3.057115e+07   3.057247e+07   3.057377e+07
   3.057510e+07   3.057649e+07   3.057788e+07   3.057923e+07   3.058062e+07
   3.058204e+07   3.058344e+07   3.058489e+07   3.058636e+07   3.058782e+07
   3.058925e+07   3.059071e+07   3.059221e+07   3.059376e+07   3.059536e+07
   3.059689e+07   3.059841e+07   3.059997e+07   3.060154e+07   3.060315e+07
   3.060476e+07   3.060636e+07   3.060803e+07   3.060970e+07   3.061136e+07
   3.061301e+07   3.061468e+07   3.061636e+07   3.061809e+07   3.061980e+07
   3.062150e+07   3.062320e+07   3.062493e+07   3.062672e+07   3.062850e+07
   3.063026e+07   3.063209e+07   3.063389e+07   3.063571e+07   3.063759e+07
   3.063943e+07   3.064127e+07   3.064313e+07   3.064499e+07   3.064692e+07
   3.064888e+07   3.065081e+07   3.065272e+07   3.065465e+07   3.065663e+07
   3.065858e+07   3.066056e+07   3.066258e+07   3.066455e+07   3.066655e+07
   3.066859e+07   3.067061e+07   3.067268e+07   3.067478e+07   3.067685e+07
   3.067895e+07   3.068108e+07   3.068320e+07   3.068532e+07   3.068746e+07
   3.068964e+07   3.069184e+07   3.069398e+07   3.069616e+07   3.069842e+07
   3.070064e+07   3.070287e+07   3.070515e+07   3.070742e+07   3.070967e+07
   3.071194e+07   3.071425e+07   3.071656e+07   3.071888e+07   3.072123e+07
   3.072358e+07   3.072598e+07   3.072842e+07   3.073083e+07   3.073328e+07
   3.073579e+07   3.073822e+07   3.074065e+07   3.074312e+07   3.074558e+07
   3.074810e+07   3.075066e+07   3.075323e+07   3.075582e+07   3.075840e+07
   3.076104e+07   3.076368e+07   3.076631e+07   3.076892e+07   3.077157e+07
   3.077429e+07   3.077697e+07   3.077965e+07   3.078238e+07   3.078513e+07
   3.078790e+07   3.079066e+07   3.079344e+07   3.079627e+07   3.079910e+07
   3.080194e+07   3.080475e+07   3.080762e+07   3.081052e+07   3.081338e+07
   3.081631e+07   3.081925e+07   3.082217e+07   3.082510e+07   3.082804e+07
   3.083099e+07   3.083392e+07   3.083688e+07   3.083985e+07   3.084280e+07
   3.084583e+07   3.084879e+07   3.085176e+07   3.085484e+07   3.085787e+07
   3.086088e+07   3.086390e+07   3.086698e+07   3.087004e+07   3.087307e+07
   3.087614e+07   3.087922e+07   3.088233e+07   3.088546e+07   3.088859e+07
   3.089175e+07   3.089491e+07   3.089806e+07   3.090121e+07   3.090437e+07
   3.090757e+07   3.091079e+07   3.091398e+07   3.091718e+07   3.092041e+07
   3.092363e+07   3.092685e+07   3.093010e+07   3.093342e+07   3.093670e+07
   3.093994e+07   3.094324e+07   3.094651e+07   3.094978e+07   3.095307e+07
   3.095634e+07   3.095960e+07   3.096288e+07   3.096620e+07   3.096951e+07
   3.097283e+07   3.097611e+07   3.097933e+07   3.098262e+07   3.098589e+07
   3.098913e+07   3.099238e+07   3.099560e+07   3.099890e+07   3.100218e+07
   3.100540e+07   3.100865e+07   3.101190e+07   3.101518e+07   3.101841e+07
   3.102164e+07   3.102489e+07   3.102809e+07   3.103129e+07   3.103450e+07
   3.103771e+07   3.104086e+07   3.104400e+07   3.104723e+07   3.105039e+07
   3.105348e+07   3.105660e+07   3.105972e+07   3.106289e+07   3.106604e+07
   3.106911e+07   3.107222e+07   3.107531e+07   3.107836e+07   3.108141e+07
   3.108446e+07   3.108748e+07   3.109049e+07   3.109348e+07   3.109647e+07
   3.109947e+07   3.110249e+07   3.110547e+07   3.110843e+07   3.111139e+07
   3.111429e+07   3.111719e+07   3.112014e+07   3.112302e+07   3.112588e+07
   3.112881e+07   3.113170e+07   3.113456e+07   3.113743e+07   3.114029e+07
   3.114313e+07   3.114598e+07   3.114881e+07   3.115163e+07   3.115442e+07
   3.115717e+07   3.115990e+07   3.116262e+07   3.116540e+07   3.116816e+07
   3.117083e+07   3.117348e+07   3.117617e+07   3.117885e+07   3.118147e+07
   3.118402e+07   3.118665e+07   3.118925e+07   3.119177e+07   3.119434e+07
   3.119689e+07   3.119943e+07   3.120195e+07   3.120443e+07   3.120689e+07
   3.120939e+07   3.121188e+07   3.121432e+07   3.121675e+07   3.121919e+07
   3.122161e+07   3.122404e+07   3.122644e+07   3.122883e+07   3.123121e+07
   3.123356e+07   3.123597e+07   3.123833e+07   3.124063e+07   3.124298e+07
   3.124534e+07   3.124763e+07   3.124991e+07   3.125217e+07   3.125449e+07
   3.125682e+07   3.125901e+07   3.126122e+07   3.126350e+07   3.126574e+07
   3.126796e+07   3.127018e+07   3.127240e+07   3.127455e+07   3.127670e+07
   3.127885e+07   3.128099e+07   3.128319e+07   3.128530e+07   3.128737e+07
   3.128952e+07   3.129167e+07   3.129378e+07   3.129586e+07   3.129799e+07
   3.130011e+07   3.130219e+07   3.130428e+07   3.130633e+07   3.130841e+07
   3.131051e+07   3.131259e+07   3.131465e+07   3.131670e+07   3.131879e+07
