     0.02500000      -12345.00      -12345.00   3.077610e+10      -12345.00
   0.0005360000       1859.976      -450.0195      -12345.00      -12345.00
      -12345.00      -12345.00      -12345.00      -12345.00      -12345.00
      -12345.00      -12345.00      -12345.00      -12345.00      -12345.00
      -12345.00      -12345.00      -12345.00      -12345.00      -12345.00
      -12345.00      -12345.00      -12345.00      -12345.00      -12345.00
      -12345.00      -89.92890       144.4382       2703.700       146.3000
      -42.72450       173.0647      -12345.00       22.00000      -12345.00
      -12345.00      -12345.00      -12345.00      -12345.00      -12345.00
      -12345.00      -12345.00      -12345.00      -12345.00      -12345.00
       5270.900       180.0466       28.65800       47.40445      -12345.00
      -12345.00      -12345.00       79.00000       90.00000      -12345.00
      -12345.00      -12345.00      -12345.00      -12345.00      -12345.00
      -12345.00      -12345.00      -12345.00      -12345.00      -12345.00
      2016       318        11        10        29
        19         6    -12345    -12345     74400
    -12345    -12345    -12345    -12345    -12345
         1    -12345    -12345    -12345    -12345
    -12345    -12345    -12345    -12345    -12345
    -12345    -12345    -12345    -12345    -12345
    -12345    -12345    -12345    -12345    -12345
         1    -12345    -12345    -12345    -12345
QSPA    South Island, Ne
70      -12345  -12345  
-12345  -12345  -12345  
-12345  -12345  -12345  
-12345  -12345  -12345  
-12345  -12345  -12345  
-12345  -12345  BH2     
IU      -12345  Guralp C
[...]
       7526158.       7531665.       7536597.       7540953.       7544719.
       7547953.       7550674.       7552843.       7554507.       7555676.
       7556295.       7556360.       7555928.       7554998.       7553545.
       7551586.       7549096.       7546112.       7542628.       7538612.
       7534135.       7529219.       7523851.       7518040.       7511817.
       7505171.       7498127.       7490693.       7482853.       7474657.
       7466053.       7457048.       7447687.       7437947.       7427832.
       7417384.       7406631.       7395609.       7384403.       7372936.
       7361232.       7349403.       7337381.       7325131.       7312651.
       7299964.       7287078.       7273999.       7260802.       7247526.
       7234195.       7220874.       7207592.       7194390.       7181203.
       7167945.       7154655.       7141308.       7127872.       7114357.
       7100809.       7087248.       7073701.       7060230.       7046795.
       7033394.       7020021.       7006684.       6993410.       6980176.
       6966973.       6953734.       6940421.       6927017.       6913465.
       6899744.       6885885.       6871900.       6857833.       6843742.
       6829609.       6815470.       6801254.       6786853.       6772322.
       6757649.       6742777.       6727692.       6712421.       6696983.
       6681316.       6665421.       6649308.       6632962.       6616400.
       6599631.       6582716.       6565603.       6548235.       6530666.
       6512885.       6494957.       6476889.       6458609.       6440137.
       6421490.       6402684.       6383754.       6364801.       6345872.
       6326959.       6308059.       6289086.       6270059.       6250997.
       6231903.       6212850.       6193870.       6174951.       6155992.
       6137002.       6118037.       6099090.       6080248.       6061533.
       6042933.       6024458.       6006059.       5987729.       5969478.
       5951315.       5933225.       5915209.       5897287.       5879484.
       5861783.       5844159.       5826683.       5809312.       5792008.
       5774865.       5757888.       5741046.       5724296.       5707607.
       5690985.       5674439.       5657961.       5641552.       5625210.
       5608871.       5592478.       5576096.       5559788.       5543496.
       5527248.       5511029.       5494764.       5478440.       5462023.
       5445601.       5429181.       5412732.       5396233.       5379610.
       5362906.       5346111.       5329272.       5312469.       5295651.
       5278785.       5261851.       5244840.       5227802.       5210805.
       5193808.       5176726.       5159573.       5142333.       5125002.
       5107639.       5090249.       5072742.       5055030.       5037191.
       5019283.       5001266.       4983056.       4964603.       4945907.
       4926979.       4907905.       4888656.       4869165.       4849426.
       4829424.       4809251.       4788972.       4768506.       4747766.
       4726752.       4705538.       4684135.       4662502.       4640607.
       4618451.       4596059.       4573493.       4550777.       4527853.
       4504761.       4481509.       4458113.       4434636.       4411039.
       4387288.       4363412.       4339465.       4315428.       4291287.
       4267059.       4242716.       4218291.       4193817.       4169284.
       4144735.       4120153.       4095507.       4070829.       4046121.
       4021386.       3996587.       3971700.       3946798.       3921867.
       3896854.       3871805.       3846716.       3821574.       3796399.
       3771162.       3745877.       3720558.       3695187.       3669816.
       3644446.       3619042.       3593611.       3568171.       3542746.
       3517308.       3491836.       3466336.       3440788.       3415208.
       3389607.       3363957.       3338299.       3312618.       3286890.
       3261118.       3235264.       3209307.       3183222.       3157007.
       3130669.       3104163.       3077449.       3050560.       3023510.
       2996265.       2968819.       2941166.       2913264.       2885126.
       2856754.       2828138.       2799323.       2770298.       2741023.
       2711511.       2681787.       2651858.       2621734.       2591405.
       2560888.       2530155.       2499147.       2467951.       2436573.
       2404998.       2373239.       2341265.       2309097.       2276722.
       2244123.       2211335.       2178404.       2145344.       2112130.
       2078810.       2045390.       2011816.       1978119.       1944319.
       1910426.       1876492.       1842489.       1808365.       1774197.
       1739990.       1705712.       1671416.       1637090.       1602710.
       1568290.       1533863.       1499404.       1464898.       1430378.
       1395805.       1361204.       1326631.       1292002.       1257293.
       1222538.       1187711.       1152864.       1118026.       1083178.
       1048342.       1013473.       978584.0       943721.0       908847.0
       873954.0       839071.0       804234.0       769428.0       734622.0
       699813.0       664954.0       630047.0       595115.0       560175.0
       525267.0       490323.0       455293.0       420170.0       385004.0
       349830.0       314605.0       279321.0       243984.0       208572.0
       173021.0       137373.0       101691.0       65947.00       30138.00
      -5753.000      -41742.00      -77845.00      -114091.0      -150446.0
      -186866.0      -223420.0      -260125.0      -296966.0      -333934.0
      -370977.0      -408138.0      -445423.0      -482820.0      -520395.0
      -558146.0      -596068.0      -634090.0      -672190.0      -710445.0
      -748846.0      -787387.0      -826069.0      -864872.0      -903805.0
      -942856.0      -982010.0      -1021273.      -1060614.      -1100013.
      -1139473.      -1179038.      -1218698.      -1258371.      -1298067.
      -1337789.      -1377528.      -1417292.      -1457023.      -1496721.
      -1536374.      -1575920.      -1615386.      -1654798.      -1694098.
      -1733271.      -1772342.      -1811319.      -1850211.      -1888990.
      -1927651.      -1966194.      -2004625.      -2042950.      -2081151.
      -2119278.      -2157337.      -2195287.      -2233172.      -2271038.
      -2308856.      -2346599.      -2384316.      -2422051.      -2459785.
      -2497471.      -2535111.      -2572715.      -2610278.      -2647810.
      -2685332.      -2722816.      -2760258.      -2797692.      -2835101.
      -2872512.      -2909959.      -2947416.      -2984869.      -3022360.
      -3059856.      -3097295.      -3134720.      -3172166.      -3209620.
      -3247058.      -3284500.      -3321985.      -3359500.      -3397038.
      -3434599.      -3472206.      -3509872.      -3547533.      -3585187.
      -3622905.      -3660628.      -3698310.      -3736026.      -3773754.
      -3811444.      -3849126.      -3886816.      -3924521.      -3962244.
      -3999958.      -4037665.      -4075358.      -4113027.      -4150675.
      -4188307.      -4225924.      -4263489.      -4300976.      -4338391.
      -4375761.      -4413072.      -4450318.      -4487521.      -4524681.
      -4561807.      -4598869.      -4635876.      -4672894.      -4709929.
      -4746927.      -4783926.      -4820986.      -4858038.      -4895079.
      -4932166.      -4969282.      -5006422.      -5043586.      -5080788.
      -5118034.      -5155308.      -5192627.      -5229985.      -5267362.
      -5304777.      -5342228.      -5379710.      -5417261.      -5454874.
      -5492515.      -5530234.      -5568057.      -5605937.      -5643873.
      -5681866.      -5719911.      -5758018.      -5796174.      -5834356.
      -5872588.      -5910890.      -5949222.      -5987587.      -6026012.
      -6064472.      -6102970.      -6141538.      -6180190.      -6218932.
      -6257735.      -6296594.      -6335572.      -6374643.      -6413795.
      -6453059.      -6492429.      -6531925.      -6571524.      -6611223.
      -6651060.      -6691031.      -6731112.      -6771313.      -6811667.
      -6852131.      -6892678.      -6933336.      -6974090.      -7014950.
      -7055908.      -7096939.      -7138079.      -7179326.      -7220633.
      -7262012.      -7303477.      -7344999.      -7386559.      -7428162.
      -7469845.      -7511571.      -7553287.      -7595060.      -7636876.
      -7678689.      -7720548.      -7762431.      -7804318.      -7846248.
      -7888199.      -7930177.      -7972220.      -8014305.      -8056418.
      -8098576.      -8140784.      -8183040.      -8225316.      -8267617.
      -8309980.      -8352412.      -8394885.      -8437379.      -8479945.
      -8522550.      -8565137.      -8607767.      -8650396.      -8692988.
      -8735580.      -8778108.      -8820571.      -8862982.      -8905289.
      -8947491.      -8989578.      -9031544.      -9073367.      -9114990.
      -9156460.      -9197807.      -9238945.      -9279904.      -9320734.
      -9361394.      -9401888.      -9442222.      -9482421.      -9522445.
      -9562278.      -9601983.      -9641548.      -9680969.      -9720259.
      -9759397.      -9798443.      -9837385.      -9876165.      -9914838.
      -9953392.      -9991816.  -1.003011e+07  -1.006826e+07  -1.010631e+07
  -1.014424e+07  -1.018203e+07  -1.021968e+07  -1.025722e+07  -1.029466e+07
  -1.033198e+07  -1.036918e+07  -1.040632e+07  -1.044338e+07  -1.048035e+07
  -1.051725e+07  -1.055407e+07  -1.059082e+07  -1.062748e+07  -1.066406e+07
  -1.070062e+07  -1.073712e+07  -1.077352e+07  -1.080988e+07  -1.084618e+07
  -1.088244e+07  -1.091868e+07  -1.095488e+07  -1.099106e+07  -1.102725e+07
  -1.106337e+07  -1.109950e+07  -1.113569e+07  -1.117188e+07  -1.120807e+07
  -1.124432e+07  -1.128062e+07  -1.131697e+07  -1.135338e+07  -1.138985e+07
  -1.142641e+07  -1.146306e+07  -1.149977e+07  -1.153656e+07  -1.157344e+07
  -1.161042e+07  -1.164746e+07  -1.168457e+07  -1.172177e+07  -1.175904e+07
  -1.179637e+07  -1.183377e+07  -1.187123e+07  -1.190873e+07  -1.194626e+07
  -1.198379e+07  -1.202133e+07  -1.205892e+07  -1.209651e+07  -1.213413e+07
  -1.217181e+07  -1.220953e+07  -1.224727e+07  -1.228507e+07  -1.232291e+07
  -1.236077e+07  -1.239865e+07  -1.243655e+07  -1.247445e+07  -1.251236e+07
  -1.255024e+07  -1.258808e+07  -1.262591e+07  -1.266376e+07  -1.270156e+07
  -1.273930e+07  -1.277703e+07  -1.281474e+07  -1.285239e+07  -1.289000e+07
  -1.292760e+07  -1.296516e+07  -1.300267e+07  -1.304012e+07  -1.307757e+07
  -1.311493e+07  -1.315224e+07  -1.318953e+07  -1.322671e+07  -1.326384e+07
  -1.330091e+07  -1.333785e+07  -1.337471e+07  -1.341148e+07  -1.344812e+07
  -1.348464e+07  -1.352109e+07  -1.355742e+07  -1.359366e+07  -1.362981e+07
  -1.366588e+07  -1.370186e+07  -1.373771e+07  -1.377344e+07  -1.380909e+07
  -1.384465e+07  -1.388011e+07  -1.391544e+07  -1.395067e+07  -1.398580e+07
  -1.402080e+07  -1.405566e+07  -1.409045e+07  -1.412513e+07  -1.415968e+07
  -1.419412e+07  -1.422846e+07  -1.426270e+07  -1.429682e+07  -1.433081e+07
  -1.436470e+07  -1.439852e+07  -1.443220e+07  -1.446570e+07  -1.449913e+07
  -1.453242e+07  -1.456556e+07  -1.459858e+07  -1.463148e+07  -1.466419e+07
  -1.469671e+07  -1.472904e+07  -1.476116e+07  -1.479310e+07  -1.482480e+07
  -1.485625e+07  -1.488750e+07  -1.491852e+07  -1.494928e+07  -1.497979e+07
  -1.501006e+07  -1.504008e+07  -1.506983e+07  -1.509930e+07  -1.512856e+07
  -1.515759e+07  -1.518633e+07  -1.521484e+07  -1.524311e+07  -1.527111e+07
  -1.529888e+07  -1.532642e+07  -1.535368e+07  -1.538076e+07  -1.540756e+07
  -1.543407e+07  -1.546034e+07  -1.548636e+07  -1.551210e+07  -1.553758e+07
  -1.556281e+07  -1.558782e+07  -1.561256e+07  -1.563701e+07  -1.566123e+07
  -1.568519e+07  -1.570887e+07  -1.573228e+07  -1.575542e+07  -1.577826e+07
  -1.580077e+07  -1.582299e+07  -1.584494e+07  -1.586659e+07  -1.588795e+07
  -1.590901e+07  -1.592979e+07  -1.595031e+07  -1.597051e+07  -1.599044e+07
  -1.601011e+07  -1.602942e+07  -1.604843e+07  -1.606715e+07  -1.608552e+07
  -1.610362e+07  -1.612141e+07  -1.613885e+07  -1.615601e+07  -1.617288e+07
  -1.618943e+07  -1.620567e+07  -1.622159e+07  -1.623720e+07  -1.625248e+07
  -1.626741e+07  -1.628201e+07  -1.629627e+07  -1.631016e+07  -1.632369e+07
  -1.633687e+07  -1.634970e+07  -1.636214e+07  -1.637421e+07  -1.638592e+07
  -1.639726e+07  -1.640820e+07  -1.641871e+07  -1.642884e+07  -1.643857e+07
  -1.644785e+07  -1.645668e+07  -1.646508e+07  -1.647303e+07  -1.648050e+07
  -1.648753e+07  -1.649410e+07  -1.650022e+07  -1.650588e+07  -1.651106e+07
  -1.651578e+07  -1.652002e+07  -1.652378e+07  -1.652706e+07  -1.652988e+07
  -1.653219e+07  -1.653399e+07  -1.653530e+07  -1.653609e+07  -1.653640e+07
  -1.653621e+07  -1.653549e+07  -1.653428e+07  -1.653256e+07  -1.653034e+07
  -1.652759e+07  -1.652435e+07  -1.652065e+07  -1.651645e+07  -1.651176e+07
  -1.650660e+07  -1.650094e+07  -1.649480e+07  -1.648818e+07  -1.648112e+07
  -1.647360e+07  -1.646563e+07  -1.645721e+07  -1.644834e+07  -1.643905e+07
  -1.642936e+07  -1.641923e+07  -1.640871e+07  -1.639782e+07  -1.638651e+07
  -1.637481e+07  -1.636276e+07  -1.635035e+07  -1.633757e+07  -1.632445e+07
  -1.631098e+07  -1.629719e+07  -1.628306e+07  -1.626859e+07  -1.625379e+07
  -1.623868e+07  -1.622325e+07  -1.620750e+07  -1.619147e+07  -1.617514e+07
  -1.615848e+07  -1.614149e+07  -1.612420e+07  -1.610660e+07  -1.608866e+07
  -1.607040e+07  -1.605180e+07  -1.603281e+07  -1.601346e+07  -1.599371e+07
  -1.597357e+07  -1.595305e+07  -1.593212e+07  -1.591078e+07  -1.588904e+07
  -1.586688e+07  -1.584427e+07  -1.582121e+07  -1.579772e+07  -1.577378e+07
  -1.574938e+07  -1.572453e+07  -1.569922e+07  -1.567342e+07  -1.564714e+07
  -1.562036e+07  -1.559306e+07  -1.556532e+07  -1.553708e+07  -1.550833e+07
  -1.547909e+07  -1.544938e+07  -1.541923e+07  -1.538859e+07  -1.535750e+07
  -1.532595e+07  -1.529392e+07  -1.526145e+07  -1.522852e+07  -1.519513e+07
  -1.516128e+07  -1.512698e+07  -1.509224e+07  -1.505710e+07  -1.502156e+07
  -1.498563e+07  -1.494934e+07  -1.491270e+07  -1.487568e+07  -1.483828e+07
  -1.480053e+07  -1.476246e+07  -1.472402e+07  -1.468521e+07  -1.464605e+07
  -1.460652e+07  -1.456663e+07  -1.452632e+07  -1.448564e+07  -1.444460e+07
  -1.440319e+07  -1.436136e+07  -1.431918e+07  -1.427668e+07  -1.423379e+07
  -1.419055e+07  -1.414700e+07  -1.410311e+07  -1.405890e+07  -1.401438e+07
  -1.396958e+07  -1.392453e+07  -1.387918e+07  -1.383356e+07  -1.378771e+07
  -1.374162e+07  -1.369531e+07  -1.364878e+07  -1.360206e+07  -1.355519e+07
  -1.350808e+07  -1.346077e+07  -1.341332e+07  -1.336567e+07  -1.331780e+07
  -1.326976e+07  -1.322153e+07  -1.317312e+07  -1.312453e+07  -1.307576e+07
  -1.302681e+07  -1.297772e+07  -1.292842e+07  -1.287895e+07  -1.282932e+07
  -1.277952e+07  -1.272951e+07  -1.267929e+07  -1.262888e+07  -1.257831e+07
  -1.252753e+07  -1.247655e+07  -1.242541e+07  -1.237414e+07  -1.232269e+07
  -1.227109e+07  -1.221938e+07  -1.216753e+07  -1.211553e+07  -1.206338e+07
  -1.201112e+07  -1.195873e+07  -1.190623e+07  -1.185362e+07  -1.180091e+07
  -1.174811e+07  -1.169520e+07  -1.164220e+07  -1.158914e+07  -1.153602e+07
  -1.148281e+07  -1.142950e+07  -1.137612e+07  -1.132270e+07  -1.126919e+07
  -1.121560e+07  -1.116197e+07  -1.110829e+07  -1.105455e+07  -1.100074e+07
  -1.094691e+07  -1.089304e+07  -1.083910e+07  -1.078513e+07  -1.073115e+07
  -1.067712e+07  -1.062303e+07  -1.056890e+07  -1.051472e+07  -1.046052e+07
  -1.040624e+07  -1.035192e+07  -1.029760e+07  -1.024324e+07  -1.018884e+07
  -1.013443e+07  -1.008004e+07  -1.002565e+07      -9971236.      -9916816.
      -9862396.      -9807957.      -9753503.      -9699049.      -9644590.
      -9590127.      -9535645.      -9481151.      -9426679.      -9372210.
      -9317737.      -9263294.      -9208846.      -9154415.      -9100036.
      -9045659.      -8991311.      -8937016.      -8882721.      -8828434.
      -8774181.      -8719949.      -8665739.      -8611537.      -8557352.
      -8503205.      -8449036.      -8394878.      -8340789.      -8286682.
      -8232581.      -8178524.      -8124452.      -8070416.      -8016420.
      -7962404.      -7908413.      -7854466.      -7800517.      -7746582.
      -7692690.      -7638853.      -7585039.      -7531216.      -7477453.
      -7423718.      -7369969.      -7316245.      -7262514.      -7208776.
      -7155018.      -7101223.      -7047425.      -6993603.      -6939714.
      -6885793.      -6831869.      -6777893.      -6723888.      -6669845.
      -6615732.      -6561598.      -6507434.      -6453202.      -6398909.
      -6344570.      -6290189.      -6235734.      -6181241.      -6126731.
      -6072152.      -6017524.      -5962869.      -5908166.      -5853423.
      -5798655.      -5743868.      -5689088.      -5634271.      -5579408.
      -5524560.      -5469685.      -5414779.      -5359873.      -5304961.
      -5250051.      -5195130.      -5140180.      -5085248.      -5030334.
      -4975393.      -4920455.      -4865537.      -4810637.      -4755723.
      -4700788.      -4645868.      -4590926.      -4535953.      -4480967.
      -4425935.      -4370862.      -4315742.      -4260580.      -4205397.
      -4150159.      -4094867.      -4039540.      -3984174.      -3928759.
      -3873276.      -3817735.      -3762142.      -3706512.      -3650830.
      -3595085.      -3539300.      -3483447.      -3427540.      -3371560.
      -3315517.      -3259429.      -3203261.      -3147043.      -3090775.
      -3034426.      -2977979.      -2921451.      -2864833.      -2808125.
      -2751345.      -2694463.      -2637499.      -2580502.      -2523424.
      -2466228.      -2408990.      -2351673.      -2294209.      -2236640.
      -2178951.      -2121125.      -2063165.      -2005060.      -1946804.
      -1888385.      -1829813.      -1771045.      -1712054.      -1652864.
      -1593424.      -1533725.      -1473810.      -1413656.      -1353224.
      -1292523.      -1231553.      -1170302.      -1108740.      -1046842.
      -984662.0      -922206.0      -859402.0      -796278.0      -732881.0
      -669189.0      -605165.0      -540857.0      -476305.0      -411480.0
