     0.05000000      -12345.00      -12345.00   3.232970e+09      -12345.00
   0.0005360000       1859.951      -450.0195      -12345.00      -12345.00
      -12345.00      -12345.00      -12345.00      -12345.00      -12345.00
      -12345.00      -12345.00      -12345.00      -12345.00      -12345.00
      -12345.00      -12345.00      -12345.00      -12345.00      -12345.00
      -12345.00      -12345.00      -12345.00      -12345.00      -12345.00
      -12345.00      -89.92890       144.4382       2580.000       270.0000
      -42.72450       173.0647      -12345.00       22.00000      -12345.00
      -12345.00      -12345.00      -12345.00      -12345.00      -12345.00
      -12345.00      -12345.00      -12345.00      -12345.00      -12345.00
       5270.900       180.0466       28.65800       47.40445      -12345.00
      -12345.00      -12345.00       0.000000       0.000000      -12345.00
      -12345.00      -12345.00      -12345.00      -12345.00      -12345.00
      -12345.00      -12345.00      -12345.00      -12345.00      -12345.00
      2016       318        11        10        29
        19         6    -12345    -12345     37200
    -12345    -12345    -12345    -12345    -12345
         1    -12345    -12345    -12345    -12345
    -12345    -12345    -12345    -12345    -12345
    -12345    -12345    -12345    -12345    -12345
    -12345    -12345    -12345    -12345    -12345
         1    -12345    -12345    -12345    -12345
QSPA    South Island, Ne
00      -12345  -12345  
-12345  -12345  -12345  
-12345  -12345  -12345  
-12345  -12345  -12345  
-12345  -12345  -12345  
-12345  -12345  BHZ     
IU      -12345  Geotech 
[...]
      -3741971.      -3733783.      -3725541.      -3717241.      -3708900.
      -3700499.      -3692034.      -3683522.      -3674967.      -3666383.
      -3657762.      -3649112.      -3640451.      -3631768.      -3623074.
      -3614387.      -3605691.      -3596959.      -3588207.      -3579438.
      -3570645.      -3561844.      -3553032.      -3544209.      -3535380.
      -3526556.      -3517719.      -3508881.      -3500055.      -3491222.
      -3482388.      -3473560.      -3464746.      -3455915.      -3447086.
      -3438264.      -3429402.      -3420579.      -3411761.      -3402895.
      -3394032.      -3385157.      -3376260.      -3367362.      -3358473.
      -3349597.      -3340730.      -3331857.      -3322992.      -3314147.
      -3305319.      -3296522.      -3287749.      -3278994.      -3270283.
      -3261625.      -3253004.      -3244401.      -3235847.      -3227344.
      -3218873.      -3210463.      -3202120.      -3193847.      -3185654.
      -3177514.      -3169458.      -3161521.      -3153640.      -3145864.
      -3138229.      -3130681.      -3123253.      -3115951.      -3108768.
      -3101722.      -3094793.      -3087987.      -3081314.      -3074764.
      -3068332.      -3062027.      -3055841.      -3049767.      -3043823.
      -3038015.      -3032334.      -3026781.      -3021366.      -3016103.
      -3010976.      -3005987.      -3001155.      -2996467.      -2991919.
      -2987512.      -2983250.      -2979158.      -2975196.      -2971379.
      -2967734.      -2964237.      -2960915.      -2957780.      -2954812.
      -2952019.      -2949422.      -2947000.      -2944745.      -2942686.
      -2940808.      -2939109.      -2937585.      -2936239.      -2935083.
      -2934117.      -2933339.      -2932730.      -2932303.      -2932049.
      -2931961.      -2932066.      -2932366.      -2932866.      -2933576.
      -2934482.      -2935584.      -2936908.      -2938442.      -2940149.
      -2942049.      -2944157.      -2946446.      -2948918.      -2951591.
      -2954475.      -2957550.      -2960821.      -2964299.      -2967976.
      -2971851.      -2975886.      -2980104.      -2984498.      -2989043.
      -2993763.      -2998635.      -3003654.      -3008828.      -3014165.
      -3019647.      -3025285.      -3031052.      -3036925.      -3042933.
      -3049071.      -3055338.      -3061731.      -3068272.      -3074929.
      -3081686.      -3088564.      -3095558.      -3102661.      -3109878.
      -3117231.      -3124673.      -3132218.      -3139863.      -3147607.
      -3155464.      -3163393.      -3171427.      -3179534.      -3187712.
      -3196003.      -3204372.      -3212828.      -3221391.      -3230068.
      -3238840.      -3247702.      -3256668.      -3265720.      -3274838.
      -3284027.      -3293269.      -3302557.      -3311915.      -3321310.
      -3330741.      -3340223.      -3349731.      -3359264.      -3368844.
      -3378478.      -3388137.      -3397829.      -3407526.      -3417248.
      -3427018.      -3436785.      -3446581.      -3456420.      -3466270.
      -3476134.      -3486008.      -3495883.      -3505743.      -3515580.
      -3525393.      -3535166.      -3544915.      -3554638.      -3564312.
      -3573962.      -3583573.      -3593127.      -3602654.      -3612124.
      -3621539.      -3630917.      -3640194.      -3649383.      -3658499.
      -3667541.      -3676529.      -3685441.      -3694299.      -3703089.
      -3711795.      -3720433.      -3728995.      -3737486.      -3745884.
      -3754195.      -3762414.      -3770529.      -3778542.      -3786436.
      -3794240.      -3801930.      -3809489.      -3816924.      -3824237.
      -3831431.      -3838473.      -3845389.      -3852163.      -3858802.
      -3865334.      -3871734.      -3878025.      -3884186.      -3890243.
      -3896199.      -3902026.      -3907726.      -3913277.      -3918710.
      -3924006.      -3929157.      -3934166.      -3939049.      -3943818.
      -3948454.      -3952987.      -3957410.      -3961727.      -3965934.
      -3970031.      -3974043.      -3977983.      -3981871.      -3985665.
      -3989366.      -3993029.      -3996619.      -4000116.      -4003562.
      -4006923.      -4010201.      -4013422.      -4016562.      -4019638.
      -4022630.      -4025543.      -4028410.      -4031233.      -4033995.
      -4036700.      -4039370.      -4041986.      -4044557.      -4047083.
      -4049552.      -4051965.      -4054303.      -4056559.      -4058728.
      -4060839.      -4062859.      -4064786.      -4066641.      -4068415.
      -4070136.      -4071755.      -4073305.      -4074776.      -4076159.
      -4077509.      -4078760.      -4079936.      -4081070.      -4082121.
      -4083082.      -4083963.      -4084770.      -4085508.      -4086189.
      -4086790.      -4087320.      -4087808.      -4088253.      -4088648.
      -4088978.      -4089281.      -4089561.      -4089762.      -4089922.
      -4090062.      -4090151.      -4090186.      -4090171.      -4090076.
      -4089931.      -4089752.      -4089511.      -4089234.      -4088899.
      -4088522.      -4088126.      -4087700.      -4087248.      -4086780.
      -4086294.      -4085787.      -4085304.      -4084792.      -4084251.
      -4083718.      -4083141.      -4082529.      -4081874.      -4081192.
      -4080487.      -4079727.      -4078937.      -4078129.      -4077292.
      -4076414.      -4075532.      -4074643.      -4073711.      -4072785.
      -4071853.      -4070888.      -4069902.      -4068885.      -4067870.
      -4066816.      -4065725.      -4064626.      -4063499.      -4062356.
      -4061166.      -4059977.      -4058800.      -4057569.      -4056322.
      -4055013.      -4053639.      -4052285.      -4050888.      -4049443.
      -4048001.      -4046538.      -4045052.      -4043567.      -4042059.
      -4040513.      -4038956.      -4037348.      -4035703.      -4034018.
      -4032302.      -4030576.      -4028796.      -4026996.      -4025171.
      -4023292.      -4021370.      -4019408.      -4017429.      -4015419.
      -4013366.      -4011275.      -4009173.      -4007058.      -4004888.
      -4002687.      -4000490.      -3998291.      -3996074.      -3993836.
      -3991588.      -3989344.      -3987092.      -3984815.      -3982550.
      -3980278.      -3977995.      -3975724.      -3973441.      -3971153.
      -3968864.      -3966593.      -3964284.      -3961957.      -3959662.
      -3957313.      -3954948.      -3952578.      -3950185.      -3947807.
      -3945414.      -3943000.      -3940577.      -3938152.      -3935711.
      -3933226.      -3930720.      -3928193.      -3925636.      -3923069.
      -3920484.      -3917854.      -3915195.      -3912509.      -3909785.
      -3907017.      -3904215.      -3901407.      -3898575.      -3895703.
      -3892802.      -3889885.      -3886922.      -3883913.      -3880862.
      -3877759.      -3874641.      -3871475.      -3868273.      -3865057.
      -3861820.      -3858560.      -3855258.      -3851936.      -3848571.
      -3845179.      -3841746.      -3838243.      -3834730.      -3831165.
      -3827555.      -3823924.      -3820223.      -3816471.      -3812681.
      -3808843.      -3804961.      -3801035.      -3797056.      -3793019.
      -3788937.      -3784799.      -3780617.      -3776388.      -3772097.
      -3767774.      -3763412.      -3759010.      -3754566.      -3750054.
      -3745495.      -3740880.      -3736199.      -3731475.      -3726720.
      -3721945.      -3717149.      -3712322.      -3707451.      -3702557.
      -3697645.      -3692691.      -3687717.      -3682741.      -3677736.
      -3672695.      -3667630.      -3662530.      -3657393.      -3652226.
      -3647020.      -3641777.      -3636489.      -3631162.      -3625807.
      -3620405.      -3614998.      -3609575.      -3604086.      -3598559.
      -3592989.      -3587376.      -3581717.      -3575990.      -3570228.
      -3564425.      -3558558.      -3552641.      -3546665.      -3540643.
      -3534564.      -3528410.      -3522187.      -3515912.      -3509612.
      -3503263.      -3496887.      -3490481.      -3484033.      -3477568.
      -3471076.      -3464573.      -3458034.      -3451467.      -3444874.
      -3438246.      -3431606.      -3424924.      -3418220.      -3411499.
      -3404767.      -3398046.      -3391315.      -3384600.      -3377929.
      -3371285.      -3364648.      -3358032.      -3351468.      -3344931.
      -3338408.      -3331923.      -3325499.      -3319102.      -3312743.
      -3306479.      -3300250.      -3294071.      -3287964.      -3281921.
      -3275955.      -3270029.      -3264171.      -3258406.      -3252722.
      -3247109.      -3241567.      -3236101.      -3230701.      -3225389.
      -3220133.      -3214924.      -3209802.      -3204740.      -3199721.
      -3194797.      -3189956.      -3185177.      -3180525.      -3175974.
      -3171515.      -3167165.      -3162892.      -3158724.      -3154612.
      -3150558.      -3146598.      -3142707.      -3138874.      -3135097.
      -3131392.      -3127735.      -3124138.      -3120591.      -3117109.
      -3113698.      -3110333.      -3107047.      -3103798.      -3100613.
      -3097514.      -3094448.      -3091432.      -3088480.      -3085588.
      -3082737.      -3079941.      -3077207.      -3074486.      -3071813.
      -3069210.      -3066643.      -3064143.      -3061706.      -3059343.
      -3057074.      -3054858.      -3052732.      -3050727.      -3048821.
      -3047018.      -3045347.      -3043741.      -3042230.      -3040857.
      -3039522.      -3038312.      -3037227.      -3036189.      -3035293.
      -3034540.      -3033892.      -3033370.      -3032982.      -3032725.
      -3032619.      -3032656.      -3032848.      -3033212.      -3033715.
      -3034374.      -3035179.      -3036136.      -3037241.      -3038462.
      -3039832.      -3041350.      -3043008.      -3044808.      -3046756.
      -3048849.      -3051107.      -3053540.      -3056105.      -3058836.
      -3061752.      -3064832.      -3068072.      -3071456.      -3075000.
      -3078702.      -3082527.      -3086509.      -3090634.      -3094887.
      -3099263.      -3103757.      -3108408.      -3113179.      -3118066.
      -3123108.      -3128284.      -3133596.      -3139066.      -3144684.
      -3150458.      -3156372.      -3162407.      -3168612.      -3174937.
      -3181386.      -3188004.      -3194755.      -3201658.      -3208688.
      -3215864.      -3223200.      -3230653.      -3238267.      -3246023.
      -3253898.      -3261934.      -3270118.      -3278453.      -3286954.
      -3295606.      -3304405.      -3313366.      -3322462.      -3331678.
      -3341037.      -3350533.      -3360141.      -3369864.      -3379730.
      -3389731.      -3399841.      -3410072.      -3420463.      -3430982.
      -3441599.      -3452332.      -3463168.      -3474106.      -3485126.
      -3496225.      -3507414.      -3518677.      -3530016.      -3541420.
      -3552890.      -3564418.      -3575986.      -3587603.      -3599256.
      -3610949.      -3622686.      -3634475.      -3646312.      -3658161.
      -3670041.      -3681956.      -3693892.      -3705841.      -3717781.
      -3729728.      -3741694.      -3753662.      -3765628.      -3777596.
      -3789551.      -3801508.      -3813458.      -3825386.      -3837314.
      -3849229.      -3861145.      -3873053.      -3884944.      -3896835.
      -3908694.      -3920511.      -3932305.      -3944055.      -3955757.
      -3967411.      -3979003.      -3990548.      -4002032.      -4013449.
      -4024805.      -4036086.      -4047311.      -4058468.      -4069556.
      -4080576.      -4091515.      -4102382.      -4113162.      -4123866.
      -4134494.      -4145037.      -4155480.      -4165832.      -4176094.
      -4186229.      -4196264.      -4206165.      -4215923.      -4225567.
      -4235054.      -4244400.      -4253612.      -4262664.      -4271584.
      -4280345.      -4288937.      -4297381.      -4305653.      -4313749.
      -4321657.      -4329377.      -4336906.      -4344247.      -4351394.
      -4358350.      -4365135.      -4371702.      -4378069.      -4384239.
      -4390191.      -4395937.      -4401445.      -4406725.      -4411786.
      -4416644.      -4421294.      -4425731.      -4429967.      -4433991.
      -4437827.      -4441441.      -4444833.      -4448033.      -4451008.
      -4453774.      -4456325.      -4458673.      -4460812.      -4462726.
      -4464443.      -4465937.      -4467199.      -4468259.      -4469083.
      -4469692.      -4470127.      -4470342.      -4470360.      -4470190.
      -4469823.      -4469268.      -4468514.      -4467571.      -4466441.
      -4465151.      -4463693.      -4462052.      -4460230.      -4458213.
      -4456013.      -4453625.      -4451057.      -4448309.      -4445359.
      -4442225.      -4438926.      -4435440.      -4431792.      -4427978.
      -4423966.      -4419796.      -4415450.      -4410931.      -4406237.
      -4401354.      -4396328.      -4391136.      -4385783.      -4380293.
      -4374655.      -4368851.      -4362872.      -4356741.      -4350450.
      -4343971.      -4337342.      -4330587.      -4323677.      -4316640.
      -4309463.      -4302135.      -4294705.      -4287142.      -4279447.
      -4271642.      -4263698.      -4255623.      -4247443.      -4239110.
      -4230621.      -4222002.      -4213230.      -4204312.      -4195253.
      -4186063.      -4176742.      -4167306.      -4157759.      -4148094.
      -4138337.      -4128471.      -4118499.      -4108422.      -4098232.
      -4087947.      -4077563.      -4067070.      -4056473.      -4045797.
      -4035032.      -4024164.      -4013231.      -4002205.      -3991075.
      -3979887.      -3968612.      -3957259.      -3945870.      -3934421.
      -3922929.      -3911415.      -3899861.      -3888268.      -3876668.
      -3865052.      -3853395.      -3841735.      -3830078.      -3818408.
      -3806736.      -3795067.      -3783403.      -3771756.      -3760123.
      -3748521.      -3736936.      -3725342.      -3713797.      -3702293.
      -3690812.      -3679366.      -3667961.      -3656614.      -3645303.
      -3634042.      -3622804.      -3611605.      -3600470.      -3589369.
      -3578324.      -3567351.      -3556425.      -3545522.      -3534684.
      -3523891.      -3513147.      -3502494.      -3491904.      -3481396.
      -3470961.      -3460617.      -3450359.      -3440169.      -3430055.
      -3420004.      -3410031.      -3400098.      -3390204.      -3380378.
      -3370621.      -3360928.      -3351313.      -3341809.      -3332395.
      -3323039.      -3313763.      -3304582.      -3295489.      -3286505.
      -3277612.      -3268817.      -3260158.      -3251600.      -3243141.
      -3234788.      -3226547.      -3218414.      -3210370.      -3202441.
      -3194599.      -3186839.      -3179196.      -3171670.      -3164235.
      -3156906.      -3149722.      -3142646.      -3135713.      -3128940.
      -3122277.      -3115739.      -3109315.      -3102986.      -3096773.
      -3090667.      -3084658.      -3078786.      -3073032.      -3067392.
      -3061886.      -3056493.      -3051235.      -3046078.      -3041038.
      -3036157.      -3031337.      -3026651.      -3022111.      -3017649.
      -3013327.      -3009120.      -3005043.      -3001094.      -2997250.
      -2993515.      -2989863.      -2986353.      -2982958.      -2979643.
      -2976455.      -2973396.      -2970476.      -2967680.      -2965007.
      -2962461.      -2960021.      -2957693.      -2955478.      -2953363.
      -2951378.      -2949504.      -2947728.      -2946095.      -2944587.
      -2943213.      -2941979.      -2940880.      -2939921.      -2939084.
      -2938375.      -2937793.      -2937336.      -2937017.      -2936837.
      -2936814.      -2936984.      -2937300.      -2937745.      -2938384.
      -2939205.      -2940161.      -2941281.      -2942606.      -2944093.
      -2945721.      -2947538.      -2949536.      -2951693.      -2954008.
      -2956487.      -2959155.      -2961996.      -2964982.      -2968137.
      -2971446.      -2974877.      -2978453.      -2982164.      -2986012.
      -2990030.      -2994180.      -2998458.      -3002894.      -3007472.
      -3012194.      -3017030.      -3021979.      -3027073.      -3032278.
      -3037607.      -3043055.      -3048619.      -3054314.      -3060126.
      -3066062.      -3072109.      -3078276.      -3084566.      -3090968.
      -3097492.      -3104114.      -3110871.      -3117760.      -3124737.
      -3131851.      -3139098.      -3146496.      -3154026.      -3161648.
      -3169412.      -3177311.      -3185332.      -3193471.      -3201731.
      -3210144.      -3218690.      -3227345.      -3236134.      -3245037.
      -3254053.      -3263228.      -3272524.      -3281951.      -3291515.
      -3301195.      -3311012.      -3320962.      -3331033.      -3341254.
      -3351624.      -3362117.      -3372750.      -3383518.      -3394421.
      -3405452.      -3416605.      -3427899.      -3439319.      -3450864.
      -3462558.      -3474385.      -3486331.      -3498400.      -3510593.
      -3522904.      -3535327.      -3547866.      -3560496.      -3573194.
      -3585977.      -3598851.      -3611796.      -3624800.      -3637857.
      -3650952.      -3664094.      -3677283.      -3690511.      -3703765.
      -3717049.      -3730378.      -3743747.      -3757164.      -3770594.
      -3784021.      -3797458.      -3810888.      -3824303.      -3837688.
      -3851051.      -3864387.      -3877657.      -3890856.      -3903988.
      -3917020.      -3929949.      -3942780.      -3955516.      -3968159.
      -3980737.      -3993242.      -4005643.      -4017983.      -4030249.
      -4042433.      -4054520.      -4066503.      -4078386.      -4090127.
      -4101749.      -4113232.      -4124570.      -4135795.      -4146861.
      -4157788.      -4168564.      -4179172.      -4189669.      -4200008.
