     0.02500000      -12345.00      -12345.00   2.504840e+09      -12345.00
   0.0005380000       1859.976      -450.0196      -12345.00      -12345.00
      -12345.00      -12345.00      -12345.00      -12345.00      -12345.00
      -12345.00      -12345.00      -12345.00      -12345.00      -12345.00
      -12345.00      -12345.00      -12345.00      -12345.00      -12345.00
      -12345.00      -12345.00      -12345.00      -12345.00      -12345.00
      -12345.00      -89.92890       144.4382       2847.000       3.000000
      -42.72450       173.0647      -12345.00       22.00000      -12345.00
      -12345.00      -12345.00      -12345.00      -12345.00      -12345.00
      -12345.00      -12345.00      -12345.00      -12345.00      -12345.00
       5270.900       180.0466       28.65800       47.40445      -12345.00
      -12345.00      -12345.00       0.000000       0.000000      -12345.00
      -12345.00      -12345.00      -12345.00      -12345.00      -12345.00
      -12345.00      -12345.00      -12345.00      -12345.00      -12345.00
      2016       318        11        10        29
        19         6    -12345    -12345     74400
    -12345    -12345    -12345    -12345    -12345
         1    -12345    -12345    -12345    -12345
    -12345    -12345    -12345    -12345    -12345
    -12345    -12345    -12345    -12345    -12345
    -12345    -12345    -12345    -12345    -12345
         1    -12345    -12345    -12345    -12345
QSPA    South Island, Ne
60      -12345  -12345  
-12345  -12345  -12345  
-12345  -12345  -12345  
-12345  -12345  -12345  
-12345  -12345  -12345  
-12345  -12345  BHZ     
IU      -12345  Streckei
[...]
   2.651444e+07   2.651361e+07   2.651281e+07   2.651203e+07   2.651126e+07
   2.651048e+07   2.650975e+07   2.650903e+07   2.650832e+07   2.650764e+07
   2.650698e+07   2.650633e+07   2.650567e+07   2.650504e+07   2.650442e+07
   2.650385e+07   2.650331e+07   2.650274e+07   2.650221e+07   2.650170e+07
   2.650120e+07   2.650070e+07   2.650025e+07   2.649980e+07   2.649939e+07
   2.649900e+07   2.649858e+07   2.649822e+07   2.649785e+07   2.649744e+07
   2.649710e+07   2.649676e+07   2.649644e+07   2.649609e+07   2.649575e+07
   2.649547e+07   2.649516e+07   2.649483e+07   2.649459e+07   2.649433e+07
   2.649402e+07   2.649375e+07   2.649350e+07   2.649324e+07   2.649298e+07
   2.649271e+07   2.649247e+07   2.649224e+07   2.649194e+07   2.649169e+07
   2.649152e+07   2.649133e+07   2.649111e+07   2.649086e+07   2.649064e+07
   2.649049e+07   2.649031e+07   2.649013e+07   2.648994e+07   2.648978e+07
   2.648962e+07   2.648943e+07   2.648928e+07   2.648913e+07   2.648896e+07
   2.648878e+07   2.648862e+07   2.648847e+07   2.648828e+07   2.648808e+07
   2.648793e+07   2.648775e+07   2.648755e+07   2.648740e+07   2.648724e+07
   2.648706e+07   2.648687e+07   2.648666e+07   2.648646e+07   2.648628e+07
   2.648607e+07   2.648583e+07   2.648561e+07   2.648540e+07   2.648510e+07
   2.648474e+07   2.648447e+07   2.648421e+07   2.648395e+07   2.648374e+07
   2.648353e+07   2.648331e+07   2.648307e+07   2.648283e+07   2.648262e+07
   2.648242e+07   2.648223e+07   2.648198e+07   2.648177e+07   2.648162e+07
   2.648144e+07   2.648125e+07   2.648105e+07   2.648086e+07   2.648068e+07
   2.648050e+07   2.648031e+07   2.648014e+07   2.647996e+07   2.647974e+07
   2.647952e+07   2.647933e+07   2.647914e+07   2.647894e+07   2.647877e+07
   2.647860e+07   2.647838e+07   2.647818e+07   2.647800e+07   2.647783e+07
   2.647766e+07   2.647745e+07   2.647726e+07   2.647713e+07   2.647694e+07
   2.647674e+07   2.647657e+07   2.647640e+07   2.647622e+07   2.647601e+07
   2.647583e+07   2.647566e+07   2.647547e+07   2.647529e+07   2.647514e+07
   2.647499e+07   2.647484e+07   2.647470e+07   2.647454e+07   2.647438e+07
   2.647425e+07   2.647411e+07   2.647396e+07   2.647385e+07   2.647378e+07
   2.647369e+07   2.647357e+07   2.647349e+07   2.647341e+07   2.647332e+07
   2.647327e+07   2.647324e+07   2.647315e+07   2.647309e+07   2.647307e+07
   2.647305e+07   2.647302e+07   2.647302e+07   2.647314e+07   2.647332e+07
   2.647340e+07   2.647344e+07   2.647355e+07   2.647364e+07   2.647370e+07
   2.647376e+07   2.647389e+07   2.647405e+07   2.647417e+07   2.647433e+07
   2.647449e+07   2.647465e+07   2.647483e+07   2.647500e+07   2.647522e+07
   2.647548e+07   2.647570e+07   2.647592e+07   2.647619e+07   2.647648e+07
   2.647674e+07   2.647704e+07   2.647739e+07   2.647775e+07   2.647812e+07
   2.647848e+07   2.647888e+07   2.647930e+07   2.647971e+07   2.648014e+07
   2.648056e+07   2.648106e+07   2.648157e+07   2.648204e+07   2.648253e+07
   2.648308e+07   2.648366e+07   2.648427e+07   2.648491e+07   2.648556e+07
   2.648618e+07   2.648684e+07   2.648754e+07   2.648822e+07   2.648894e+07
   2.648966e+07   2.649036e+07   2.649116e+07   2.649199e+07   2.649277e+07
   2.649363e+07   2.649454e+07   2.649541e+07   2.649631e+07   2.649726e+07
   2.649820e+07   2.649913e+07   2.650010e+07   2.650110e+07   2.650209e+07
   2.650312e+07   2.650418e+07   2.650523e+07   2.650631e+07   2.650739e+07
   2.650845e+07   2.650957e+07   2.651071e+07   2.651182e+07   2.651296e+07
   2.651415e+07   2.651537e+07   2.651656e+07   2.651778e+07   2.651902e+07
   2.652025e+07   2.652155e+07   2.652283e+07   2.652411e+07   2.652545e+07
   2.652680e+07   2.652816e+07   2.652952e+07   2.653092e+07   2.653232e+07
   2.653372e+07   2.653516e+07   2.653663e+07   2.653808e+07   2.653957e+07
   2.654107e+07   2.654260e+07   2.654415e+07   2.654571e+07   2.654731e+07
   2.654892e+07   2.655053e+07   2.655214e+07   2.655376e+07   2.655544e+07
   2.655716e+07   2.655886e+07   2.656059e+07   2.656236e+07   2.656416e+07
   2.656596e+07   2.656775e+07   2.656954e+07   2.657138e+07   2.657324e+07
   2.657510e+07   2.657702e+07   2.657890e+07   2.658079e+07   2.658280e+07
   2.658480e+07   2.658678e+07   2.658874e+07   2.659074e+07   2.659278e+07
   2.659481e+07   2.659685e+07   2.659888e+07   2.660093e+07   2.660301e+07
   2.660510e+07   2.660723e+07   2.660937e+07   2.661149e+07   2.661362e+07
   2.661579e+07   2.661796e+07   2.662014e+07   2.662235e+07   2.662461e+07
   2.662687e+07   2.662912e+07   2.663135e+07   2.663363e+07   2.663597e+07
   2.663825e+07   2.664056e+07   2.664288e+07   2.664525e+07   2.664764e+07
   2.664999e+07   2.665240e+07   2.665485e+07   2.665728e+07   2.665973e+07
   2.666224e+07   2.666473e+07   2.666716e+07   2.666969e+07   2.667228e+07
   2.667484e+07   2.667743e+07   2.668006e+07   2.668265e+07   2.668527e+07
   2.668789e+07   2.669054e+07   2.669324e+07   2.669598e+07   2.669869e+07
   2.670142e+07   2.670420e+07   2.670700e+07   2.670978e+07   2.671260e+07
   2.671543e+07   2.671824e+07   2.672109e+07   2.672396e+07   2.672686e+07
   2.672980e+07   2.673274e+07   2.673570e+07   2.673867e+07   2.674164e+07
   2.674464e+07   2.674761e+07   2.675060e+07   2.675364e+07   2.675668e+07
   2.675970e+07   2.676271e+07   2.676577e+07   2.676889e+07   2.677194e+07
   2.677501e+07   2.677817e+07   2.678132e+07   2.678444e+07   2.678759e+07
   2.679080e+07   2.679399e+07   2.679720e+07   2.680043e+07   2.680365e+07
   2.680687e+07   2.681010e+07   2.681338e+07   2.681670e+07   2.681997e+07
   2.682323e+07   2.682649e+07   2.682979e+07   2.683310e+07   2.683640e+07
   2.683974e+07   2.684310e+07   2.684645e+07   2.684979e+07   2.685315e+07
   2.685656e+07   2.685991e+07   2.686325e+07   2.686668e+07   2.687008e+07
   2.687347e+07   2.687685e+07   2.688028e+07   2.688375e+07   2.688714e+07
   2.689050e+07   2.689393e+07   2.689737e+07   2.690081e+07   2.690422e+07
   2.690767e+07   2.691116e+07   2.691460e+07   2.691803e+07   2.692152e+07
   2.692500e+07   2.692850e+07   2.693201e+07   2.693548e+07   2.693900e+07
   2.694253e+07   2.694603e+07   2.694952e+07   2.695303e+07   2.695654e+07
   2.696006e+07   2.696358e+07   2.696710e+07   2.697062e+07   2.697411e+07
   2.697760e+07   2.698110e+07   2.698461e+07   2.698811e+07   2.699161e+07
   2.699511e+07   2.699859e+07   2.700208e+07   2.700557e+07   2.700904e+07
   2.701252e+07   2.701601e+07   2.701949e+07   2.702298e+07   2.702643e+07
   2.702989e+07   2.703336e+07   2.703682e+07   2.704030e+07   2.704378e+07
   2.704724e+07   2.705070e+07   2.705415e+07   2.705757e+07   2.706102e+07
   2.706450e+07   2.706793e+07   2.707134e+07   2.707476e+07   2.707818e+07
   2.708159e+07   2.708496e+07   2.708837e+07   2.709179e+07   2.709519e+07
   2.709857e+07   2.710192e+07   2.710533e+07   2.710870e+07   2.711205e+07
   2.711547e+07   2.711884e+07   2.712223e+07   2.712562e+07   2.712896e+07
   2.713235e+07   2.713570e+07   2.713906e+07   2.714245e+07   2.714578e+07
   2.714911e+07   2.715247e+07   2.715584e+07   2.715921e+07   2.716258e+07
   2.716594e+07   2.716929e+07   2.717264e+07   2.717598e+07   2.717930e+07
   2.718264e+07   2.718596e+07   2.718930e+07   2.719265e+07   2.719596e+07
   2.719931e+07   2.720266e+07   2.720597e+07   2.720933e+07   2.721271e+07
   2.721603e+07   2.721936e+07   2.722274e+07   2.722609e+07   2.722942e+07
   2.723274e+07   2.723606e+07   2.723940e+07   2.724275e+07   2.724609e+07
   2.724942e+07   2.725279e+07   2.725613e+07   2.725944e+07   2.726279e+07
   2.726615e+07   2.726950e+07   2.727288e+07   2.727623e+07   2.727954e+07
   2.728288e+07   2.728625e+07   2.728961e+07   2.729296e+07   2.729634e+07
   2.729970e+07   2.730306e+07   2.730646e+07   2.730986e+07   2.731324e+07
   2.731659e+07   2.731998e+07   2.732338e+07   2.732671e+07   2.733006e+07
   2.733342e+07   2.733681e+07   2.734018e+07   2.734351e+07   2.734686e+07
   2.735022e+07   2.735359e+07   2.735693e+07   2.736028e+07   2.736370e+07
   2.736706e+07   2.737039e+07   2.737378e+07   2.737715e+07   2.738046e+07
   2.738382e+07   2.738722e+07   2.739059e+07   2.739395e+07   2.739732e+07
   2.740070e+07   2.740408e+07   2.740746e+07   2.741082e+07   2.741417e+07
   2.741753e+07   2.742086e+07   2.742420e+07   2.742761e+07   2.743099e+07
   2.743431e+07   2.743769e+07   2.744110e+07   2.744450e+07   2.744788e+07
   2.745123e+07   2.745458e+07   2.745793e+07   2.746128e+07   2.746466e+07
   2.746804e+07   2.747138e+07   2.747473e+07   2.747808e+07   2.748139e+07
   2.748467e+07   2.748799e+07   2.749132e+07   2.749461e+07   2.749790e+07
   2.750116e+07   2.750446e+07   2.750778e+07   2.751104e+07   2.751426e+07
   2.751751e+07   2.752073e+07   2.752393e+07   2.752714e+07   2.753035e+07
   2.753360e+07   2.753684e+07   2.754005e+07   2.754328e+07   2.754649e+07
   2.754967e+07   2.755287e+07   2.755607e+07   2.755927e+07   2.756245e+07
   2.756560e+07   2.756873e+07   2.757190e+07   2.757510e+07   2.757821e+07
   2.758131e+07   2.758444e+07   2.758754e+07   2.759062e+07   2.759371e+07
   2.759679e+07   2.759985e+07   2.760287e+07   2.760590e+07   2.760894e+07
   2.761198e+07   2.761498e+07   2.761798e+07   2.762103e+07   2.762405e+07
   2.762702e+07   2.763002e+07   2.763302e+07   2.763601e+07   2.763897e+07
   2.764193e+07   2.764492e+07   2.764788e+07   2.765082e+07   2.765378e+07
   2.765675e+07   2.765970e+07   2.766264e+07   2.766556e+07   2.766846e+07
   2.767138e+07   2.767429e+07   2.767717e+07   2.768004e+07   2.768292e+07
   2.768577e+07   2.768862e+07   2.769150e+07   2.769433e+07   2.769709e+07
   2.769987e+07   2.770266e+07   2.770544e+07   2.770821e+07   2.771099e+07
   2.771377e+07   2.771651e+07   2.771921e+07   2.772188e+07   2.772460e+07
   2.772732e+07   2.773000e+07   2.773262e+07   2.773523e+07   2.773788e+07
   2.774050e+07   2.774309e+07   2.774570e+07   2.774831e+07   2.775088e+07
   2.775344e+07   2.775605e+07   2.775861e+07   2.776113e+07   2.776367e+07
   2.776620e+07   2.776873e+07   2.777122e+07   2.777373e+07   2.777630e+07
   2.777881e+07   2.778126e+07   2.778375e+07   2.778627e+07   2.778875e+07
   2.779123e+07   2.779374e+07   2.779625e+07   2.779878e+07   2.780125e+07
   2.780371e+07   2.780621e+07   2.780873e+07   2.781121e+07   2.781370e+07
   2.781626e+07   2.781880e+07   2.782125e+07   2.782374e+07   2.782625e+07
   2.782876e+07   2.783128e+07   2.783376e+07   2.783630e+07   2.783887e+07
   2.784140e+07   2.784388e+07   2.784640e+07   2.784894e+07   2.785144e+07
   2.785401e+07   2.785658e+07   2.785915e+07   2.786169e+07   2.786423e+07
   2.786681e+07   2.786938e+07   2.787195e+07   2.787452e+07   2.787707e+07
   2.787960e+07   2.788212e+07   2.788464e+07   2.788720e+07   2.788973e+07
   2.789223e+07   2.789480e+07   2.789735e+07   2.789987e+07   2.790240e+07
   2.790488e+07   2.790738e+07   2.790990e+07   2.791240e+07   2.791490e+07
   2.791740e+07   2.791990e+07   2.792235e+07   2.792481e+07   2.792731e+07
   2.792978e+07   2.793222e+07   2.793463e+07   2.793704e+07   2.793951e+07
   2.794194e+07   2.794433e+07   2.794673e+07   2.794913e+07   2.795150e+07
   2.795385e+07   2.795625e+07   2.795860e+07   2.796090e+07   2.796325e+07
   2.796561e+07   2.796793e+07   2.797024e+07   2.797260e+07   2.797494e+07
   2.797722e+07   2.797948e+07   2.798175e+07   2.798401e+07   2.798628e+07
   2.798852e+07   2.799073e+07   2.799293e+07   2.799516e+07   2.799740e+07
   2.799959e+07   2.800181e+07   2.800398e+07   2.800607e+07   2.800819e+07
   2.801034e+07   2.801247e+07   2.801458e+07   2.801668e+07   2.801880e+07
   2.802092e+07   2.802299e+07   2.802506e+07   2.802716e+07   2.802922e+07
   2.803126e+07   2.803329e+07   2.803532e+07   2.803732e+07   2.803929e+07
   2.804126e+07   2.804319e+07   2.804512e+07   2.804704e+07   2.804891e+07
   2.805076e+07   2.805262e+07   2.805444e+07   2.805627e+07   2.805807e+07
   2.805982e+07   2.806156e+07   2.806328e+07   2.806499e+07   2.806666e+07
   2.806828e+07   2.806990e+07   2.807149e+07   2.807304e+07   2.807457e+07
   2.807607e+07   2.807760e+07   2.807910e+07   2.808055e+07   2.808196e+07
   2.808334e+07   2.808468e+07   2.808596e+07   2.808726e+07   2.808858e+07
   2.808984e+07   2.809106e+07   2.809224e+07   2.809340e+07   2.809456e+07
   2.809566e+07   2.809674e+07   2.809782e+07   2.809885e+07   2.809983e+07
   2.810079e+07   2.810174e+07   2.810264e+07   2.810349e+07   2.810438e+07
   2.810523e+07   2.810600e+07   2.810677e+07   2.810747e+07   2.810812e+07
   2.810879e+07   2.810942e+07   2.811002e+07   2.811060e+07   2.811118e+07
   2.811170e+07   2.811218e+07   2.811265e+07   2.811308e+07   2.811347e+07
   2.811381e+07   2.811416e+07   2.811448e+07   2.811475e+07   2.811501e+07
   2.811522e+07   2.811539e+07   2.811554e+07   2.811568e+07   2.811576e+07
   2.811586e+07   2.811592e+07   2.811590e+07   2.811590e+07   2.811584e+07
   2.811572e+07   2.811562e+07   2.811551e+07   2.811537e+07   2.811522e+07
   2.811503e+07   2.811481e+07   2.811459e+07   2.811433e+07   2.811401e+07
   2.811370e+07   2.811336e+07   2.811294e+07   2.811253e+07   2.811214e+07
   2.811173e+07   2.811126e+07   2.811075e+07   2.811023e+07   2.810971e+07
   2.810915e+07   2.810857e+07   2.810800e+07   2.810737e+07   2.810669e+07
   2.810602e+07   2.810534e+07   2.810466e+07   2.810395e+07   2.810322e+07
   2.810247e+07   2.810167e+07   2.810086e+07   2.810005e+07   2.809924e+07
   2.809838e+07   2.809749e+07   2.809664e+07   2.809574e+07   2.809484e+07
   2.809392e+07   2.809293e+07   2.809197e+07   2.809100e+07   2.808995e+07
   2.808891e+07   2.808790e+07   2.808687e+07   2.808579e+07   2.808471e+07
   2.808362e+07   2.808250e+07   2.808131e+07   2.808013e+07   2.807900e+07
   2.807782e+07   2.807660e+07   2.807540e+07   2.807419e+07   2.807295e+07
   2.807170e+07   2.807044e+07   2.806921e+07   2.806796e+07   2.806666e+07
   2.806537e+07   2.806409e+07   2.806282e+07   2.806152e+07   2.806019e+07
   2.805885e+07   2.805750e+07   2.805614e+07   2.805477e+07   2.805346e+07
   2.805210e+07   2.805064e+07   2.804922e+07   2.804779e+07   2.804634e+07
   2.804491e+07   2.804344e+07   2.804201e+07   2.804060e+07   2.803912e+07
   2.803762e+07   2.803615e+07   2.803469e+07   2.803318e+07   2.803165e+07
   2.803015e+07   2.802860e+07   2.802699e+07   2.802543e+07   2.802390e+07
   2.802231e+07   2.802071e+07   2.801912e+07   2.801756e+07   2.801599e+07
   2.801438e+07   2.801278e+07   2.801117e+07   2.800954e+07   2.800794e+07
   2.800632e+07   2.800468e+07   2.800302e+07   2.800134e+07   2.799965e+07
   2.799799e+07   2.799633e+07   2.799462e+07   2.799290e+07   2.799120e+07
   2.798947e+07   2.798775e+07   2.798601e+07   2.798427e+07   2.798252e+07
   2.798074e+07   2.797896e+07   2.797716e+07   2.797536e+07   2.797354e+07
   2.797170e+07   2.796987e+07   2.796800e+07   2.796610e+07   2.796424e+07
   2.796236e+07   2.796043e+07   2.795845e+07   2.795649e+07   2.795454e+07
   2.795256e+07   2.795055e+07   2.794852e+07   2.794654e+07   2.794451e+07
   2.794241e+07   2.794034e+07   2.793831e+07   2.793621e+07   2.793408e+07
   2.793199e+07   2.792983e+07   2.792763e+07   2.792541e+07   2.792316e+07
   2.792098e+07   2.791878e+07   2.791653e+07   2.791429e+07   2.791205e+07
   2.790979e+07   2.790748e+07   2.790514e+07   2.790279e+07   2.790044e+07
   2.789807e+07   2.789567e+07   2.789329e+07   2.789088e+07   2.788844e+07
   2.788602e+07   2.788357e+07   2.788114e+07   2.787869e+07   2.787622e+07
   2.787377e+07   2.787128e+07   2.786878e+07   2.786628e+07   2.786381e+07
   2.786133e+07   2.785881e+07   2.785631e+07   2.785380e+07   2.785129e+07
   2.784876e+07   2.784621e+07   2.784371e+07   2.784120e+07   2.783864e+07
   2.783610e+07   2.783358e+07   2.783103e+07   2.782853e+07   2.782601e+07
   2.782344e+07   2.782093e+07   2.781840e+07   2.781581e+07   2.781326e+07
   2.781069e+07   2.780810e+07   2.780556e+07   2.780303e+07   2.780046e+07
   2.779790e+07   2.779537e+07   2.779282e+07   2.779023e+07   2.778760e+07
   2.778503e+07   2.778247e+07   2.777983e+07   2.777718e+07   2.777455e+07
   2.777191e+07   2.776925e+07   2.776660e+07   2.776397e+07   2.776131e+07
   2.775862e+07   2.775594e+07   2.775323e+07   2.775052e+07   2.774781e+07
   2.774506e+07   2.774230e+07   2.773955e+07   2.773681e+07   2.773400e+07
   2.773122e+07   2.772839e+07   2.772548e+07   2.772263e+07   2.771976e+07
   2.771681e+07   2.771389e+07   2.771095e+07   2.770800e+07   2.770507e+07
   2.770212e+07   2.769910e+07   2.769606e+07   2.769309e+07   2.769009e+07
   2.768704e+07   2.768397e+07   2.768093e+07   2.767787e+07   2.767477e+07
   2.767169e+07   2.766860e+07   2.766549e+07   2.766239e+07   2.765927e+07
   2.765612e+07   2.765298e+07   2.764982e+07   2.764667e+07   2.764354e+07
   2.764038e+07   2.763722e+07   2.763401e+07   2.763080e+07   2.762764e+07
   2.762441e+07   2.762118e+07   2.761800e+07   2.761480e+07   2.761160e+07
   2.760840e+07   2.760521e+07   2.760202e+07   2.759881e+07   2.759558e+07
   2.759233e+07   2.758910e+07   2.758584e+07   2.758257e+07   2.757933e+07
   2.757609e+07   2.757283e+07   2.756952e+07   2.756626e+07   2.756303e+07
   2.755976e+07   2.755649e+07   2.755325e+07   2.755004e+07   2.754678e+07
   2.754349e+07   2.754028e+07   2.753707e+07   2.753386e+07   2.753067e+07
   2.752749e+07   2.752429e+07   2.752111e+07   2.751796e+07   2.751480e+07
   2.751164e+07   2.750849e+07   2.750533e+07   2.750218e+07   2.749908e+07
   2.749596e+07   2.749284e+07   2.748979e+07   2.748669e+07   2.748356e+07
   2.748050e+07   2.747747e+07   2.747439e+07   2.747133e+07   2.746827e+07
   2.746520e+07   2.746220e+07   2.745914e+07   2.745608e+07   2.745308e+07
   2.745006e+07   2.744707e+07   2.744407e+07   2.744106e+07   2.743813e+07
   2.743515e+07   2.743214e+07   2.742921e+07   2.742627e+07   2.742338e+07
   2.742052e+07   2.741760e+07   2.741470e+07   2.741186e+07   2.740899e+07
   2.740618e+07   2.740341e+07   2.740057e+07   2.739773e+07   2.739498e+07
   2.739221e+07   2.738944e+07   2.738674e+07   2.738400e+07   2.738127e+07
   2.737857e+07   2.737589e+07   2.737322e+07   2.737056e+07   2.736790e+07
   2.736526e+07   2.736267e+07   2.736007e+07   2.735743e+07   2.735484e+07
   2.735231e+07   2.734978e+07   2.734721e+07   2.734466e+07   2.734218e+07
   2.733969e+07   2.733715e+07   2.733464e+07   2.733216e+07   2.732967e+07
