     0.05000000      -12345.00      -12345.00   3.335310e+09      -12345.00
   0.0005360000       1859.951      -450.0195      -12345.00      -12345.00
      -12345.00      -12345.00      -12345.00      -12345.00      -12345.00
      -12345.00      -12345.00      -12345.00      -12345.00      -12345.00
      -12345.00      -12345.00      -12345.00      -12345.00      -12345.00
      -12345.00      -12345.00      -12345.00      -12345.00      -12345.00
      -12345.00      -89.92890       144.4382       2580.000       270.0000
      -42.72450       173.0647      -12345.00       22.00000      -12345.00
      -12345.00      -12345.00      -12345.00      -12345.00      -12345.00
      -12345.00      -12345.00      -12345.00      -12345.00      -12345.00
       5270.900       180.0466       28.65800       47.40445      -12345.00
      -12345.00      -12345.00       266.0000       90.00000      -12345.00
      -12345.00      -12345.00      -12345.00      -12345.00      -12345.00
      -12345.00      -12345.00      -12345.00      -12345.00      -12345.00
      2016       318        11        10        29
        19         6    -12345    -12345     37200
    -12345    -12345    -12345    -12345    -12345
         1    -12345    -12345    -12345    -12345
    -12345    -12345    -12345    -12345    -12345
    -12345    -12345    -12345    -12345    -12345
    -12345    -12345    -12345    -12345    -12345
         1    -12345    -12345    -12345    -12345
QSPA    South Island, Ne
00      -12345  -12345  
-12345  -12345  -12345  
-12345  -12345  -12345  
-12345  -12345  -12345  
-12345  -12345  -12345  
-12345  -12345  BH2     
IU      -12345  Geotech 
[...]
      -5456628.      -5458833.      -5461007.      -5463165.      -5465302.
      -5467428.      -5469540.      -5471641.      -5473729.      -5475807.
      -5477876.      -5479941.      -5482009.      -5484074.      -5486137.
      -5488192.      -5490242.      -5492299.      -5494353.      -5496398.
      -5498441.      -5500476.      -5502506.      -5504547.      -5506597.
      -5508657.      -5510733.      -5512822.      -5514939.      -5517088.
      -5519271.      -5521507.      -5523781.      -5526112.      -5528517.
      -5530993.      -5533553.      -5536202.      -5538956.      -5541820.
      -5544789.      -5547875.      -5551080.      -5554415.      -5557877.
      -5561462.      -5565179.      -5569031.      -5573022.      -5577148.
      -5581410.      -5585804.      -5590326.      -5594980.      -5599768.
      -5604680.      -5609715.      -5614882.      -5620178.      -5625613.
      -5631183.      -5636885.      -5642717.      -5648680.      -5654775.
      -5660980.      -5667286.      -5673682.      -5680154.      -5686709.
      -5693333.      -5700017.      -5706754.      -5713525.      -5720326.
      -5727152.      -5733997.      -5740851.      -5747679.      -5754473.
      -5761224.      -5767921.      -5774547.      -5781070.      -5787483.
      -5793774.      -5799925.      -5805915.      -5811735.      -5817377.
      -5822826.      -5828080.      -5833130.      -5837972.      -5842601.
      -5847011.      -5851198.      -5855152.      -5858868.      -5862326.
      -5865527.      -5868457.      -5871103.      -5873456.      -5875511.
      -5877265.      -5878710.      -5879846.      -5880673.      -5881192.
      -5881401.      -5881299.      -5880889.      -5880172.      -5879157.
      -5877837.      -5876224.      -5874326.      -5872143.      -5869685.
      -5866960.      -5863971.      -5860728.      -5857245.      -5853521.
      -5849562.      -5845392.      -5841031.      -5836484.      -5831755.
      -5826852.      -5821777.      -5816562.      -5811238.      -5805831.
      -5800340.      -5794759.      -5789095.      -5783367.      -5777625.
      -5771898.      -5766172.      -5760434.      -5754686.      -5748940.
      -5743203.      -5737491.      -5731809.      -5726146.      -5720489.
      -5714822.      -5709114.      -5703367.      -5697597.      -5691798.
      -5685962.      -5680060.      -5674077.      -5668004.      -5661842.
      -5655600.      -5649260.      -5642817.      -5636289.      -5629688.
      -5623016.      -5616285.      -5609510.      -5602708.      -5595908.
      -5589132.      -5582385.      -5575664.      -5568985.      -5562352.
      -5555776.      -5549279.      -5542865.      -5536539.      -5530300.
      -5524148.      -5518090.      -5512127.      -5506257.      -5500488.
      -5494812.      -5489213.      -5483686.      -5478221.      -5472804.
      -5467424.      -5462096.      -5456818.      -5451566.      -5446333.
      -5441111.      -5435901.      -5430714.      -5425544.      -5420392.
      -5415259.      -5410137.      -5405020.      -5399905.      -5394782.
      -5389643.      -5384472.      -5379253.      -5373985.      -5368643.
      -5363216.      -5357700.      -5352087.      -5346387.      -5340599.
      -5334713.      -5328735.      -5322661.      -5316495.      -5310246.
      -5303925.      -5297553.      -5291134.      -5284678.      -5278193.
      -5271669.      -5265117.      -5258550.      -5251974.      -5245390.
      -5238784.      -5232153.      -5225502.      -5218829.      -5212145.
      -5205451.      -5198746.      -5192029.      -5185295.      -5178546.
      -5171782.      -5165007.      -5158217.      -5151400.      -5144542.
      -5137637.      -5130664.      -5123617.      -5116493.      -5109276.
      -5101963.      -5094547.      -5087021.      -5079388.      -5071651.
      -5063813.      -5055871.      -5047839.      -5039721.      -5031509.
      -5023212.      -5014841.      -5006399.      -4997893.      -4989326.
      -4980716.      -4972070.      -4963387.      -4954676.      -4945941.
      -4937193.      -4928427.      -4919634.      -4910828.      -4902012.
      -4893178.      -4884323.      -4875452.      -4866561.      -4857660.
      -4848749.      -4839818.      -4830880.      -4821933.      -4812969.
      -4803984.      -4794977.      -4785941.      -4776874.      -4767775.
      -4758630.      -4749439.      -4740213.      -4730947.      -4721631.
      -4712262.      -4702837.      -4693356.      -4683816.      -4674223.
      -4664578.      -4654866.      -4645099.      -4635280.      -4625409.
      -4615494.      -4605530.      -4595537.      -4585526.      -4575493.
      -4565455.      -4555427.      -4545422.      -4535447.      -4525522.
      -4515658.      -4505866.      -4496145.      -4486503.      -4476951.
      -4467477.      -4458078.      -4448749.      -4439485.      -4430276.
      -4421120.      -4412018.      -4402958.      -4393948.      -4384973.
      -4376031.      -4367119.      -4358225.      -4349358.      -4340506.
      -4331672.      -4322852.      -4314040.      -4305250.      -4296466.
      -4287686.      -4278917.      -4270160.      -4261414.      -4252675.
      -4243957.      -4235260.      -4226577.      -4217923.      -4209299.
      -4200716.      -4192174.      -4183674.      -4175222.      -4166806.
      -4158414.      -4150037.      -4141673.      -4133323.      -4124972.
      -4116614.      -4108259.      -4099890.      -4091505.      -4083117.
      -4074715.      -4066295.      -4057861.      -4049407.      -4040930.
      -4032433.      -4023930.      -4015417.      -4006892.      -3998362.
      -3989819.      -3981269.      -3972704.      -3964130.      -3955548.
      -3946931.      -3938285.      -3929608.      -3920912.      -3912198.
      -3903462.      -3894717.      -3885953.      -3877167.      -3868374.
      -3859591.      -3850816.      -3842040.      -3833280.      -3824540.
      -3815813.      -3807101.      -3798405.      -3789727.      -3781055.
      -3772389.      -3763741.      -3755104.      -3746480.      -3737883.
      -3729313.      -3720784.      -3712314.      -3703911.      -3695588.
      -3687352.      -3679220.      -3671191.      -3663264.      -3655443.
      -3647719.      -3640098.      -3632578.      -3625144.      -3617796.
      -3610543.      -3603379.      -3596299.      -3589309.      -3582403.
      -3575567.      -3568807.      -3562118.      -3555496.      -3548935.
      -3542435.      -3535996.      -3529606.      -3523262.      -3516971.
      -3510719.      -3504500.      -3498309.      -3492137.      -3485967.
      -3479797.      -3473623.      -3467435.      -3461241.      -3455034.
      -3448805.      -3442565.      -3436324.      -3430082.      -3423842.
      -3417612.      -3411391.      -3405186.      -3399004.      -3392847.
      -3386723.      -3380626.      -3374568.      -3368548.      -3362577.
      -3356670.      -3350820.      -3345028.      -3339296.      -3333627.
      -3328031.      -3322520.      -3317102.      -3311773.      -3306539.
      -3301396.      -3296352.      -3291410.      -3286563.      -3281819.
      -3277174.      -3272630.      -3268200.      -3263872.      -3259650.
      -3255529.      -3251518.      -3247617.      -3243823.      -3240151.
      -3236602.      -3233185.      -3229909.      -3226781.      -3223805.
      -3220987.      -3218341.      -3215870.      -3213570.      -3211439.
      -3209475.      -3207682.      -3206058.      -3204605.      -3203332.
      -3202224.      -3201286.      -3200529.      -3199948.      -3199545.
      -3199308.      -3199251.      -3199374.      -3199668.      -3200142.
      -3200788.      -3201603.      -3202585.      -3203732.      -3205045.
      -3206521.      -3208158.      -3209961.      -3211940.      -3214081.
      -3216380.      -3218852.      -3221499.      -3224329.      -3227347.
      -3230560.      -3233975.      -3237586.      -3241403.      -3245433.
      -3249684.      -3254166.      -3258882.      -3263829.      -3269000.
      -3274409.      -3280069.      -3285974.      -3292111.      -3298467.
      -3305055.      -3311872.      -3318905.      -3326155.      -3333608.
      -3341254.      -3349089.      -3357102.      -3365281.      -3373620.
      -3382107.      -3390723.      -3399476.      -3408352.      -3417343.
      -3426463.      -3435696.      -3445042.      -3454515.      -3464111.
      -3473838.      -3483708.      -3493722.      -3503887.      -3514218.
      -3524723.      -3535403.      -3546261.      -3557303.      -3568534.
      -3579956.      -3591570.      -3603379.      -3615377.      -3627558.
      -3639920.      -3652456.      -3665167.      -3678041.      -3691073.
      -3704257.      -3717578.      -3731044.      -3744647.      -3758387.
      -3772268.      -3786285.      -3800458.      -3814771.      -3829210.
      -3843780.      -3858457.      -3873240.      -3888119.      -3903080.
      -3918114.      -3933215.      -3948379.      -3963600.      -3978874.
      -3994191.      -4009566.      -4024996.      -4040480.      -4056023.
      -4071616.      -4087265.      -4102963.      -4118707.      -4134499.
      -4150327.      -4166186.      -4182068.      -4197969.      -4213887.
      -4229824.      -4245775.      -4261730.      -4277687.      -4293639.
      -4309589.      -4325540.      -4341484.      -4357433.      -4373379.
      -4389310.      -4405231.      -4421141.      -4437049.      -4452942.
      -4468812.      -4484665.      -4500499.      -4516314.      -4532101.
      -4547868.      -4563610.      -4579319.      -4594998.      -4610638.
      -4626239.      -4641800.      -4657313.      -4672788.      -4688221.
      -4703606.      -4718951.      -4734255.      -4749516.      -4764738.
      -4779913.      -4795041.      -4810129.      -4825175.      -4840185.
      -4855164.      -4870110.      -4885029.      -4899921.      -4914794.
      -4929661.      -4944521.      -4959370.      -4974204.      -4989031.
      -5003856.      -5018676.      -5033490.      -5048300.      -5063102.
      -5077885.      -5092662.      -5107435.      -5122187.      -5136920.
      -5151630.      -5166319.      -5180993.      -5195646.      -5210278.
      -5224899.      -5239508.      -5254111.      -5268708.      -5283297.
      -5297881.      -5312462.      -5327042.      -5341614.      -5356173.
      -5370715.      -5385248.      -5399771.      -5414290.      -5428805.
      -5443308.      -5457800.      -5472275.      -5486745.      -5501211.
      -5515671.      -5530139.      -5544613.      -5559107.      -5573637.
      -5588209.      -5602840.      -5617533.      -5632300.      -5647145.
      -5662069.      -5677092.      -5692210.      -5707424.      -5722732.
      -5738120.      -5753588.      -5769122.      -5784711.      -5800348.
      -5816016.      -5831708.      -5847420.      -5863142.      -5878864.
      -5894585.      -5910299.      -5925995.      -5941675.      -5957324.
      -5972945.      -5988540.      -6004106.      -6019648.      -6035168.
      -6050678.      -6066181.      -6081687.      -6097205.      -6112737.
      -6128287.      -6143855.      -6159452.      -6175083.      -6190747.
      -6206447.      -6222179.      -6237953.      -6253781.      -6269658.
      -6285593.      -6301589.      -6317642.      -6333743.      -6349888.
      -6366080.      -6382311.      -6398570.      -6414852.      -6431143.
      -6447422.      -6463684.      -6479929.      -6496142.      -6512295.
      -6528381.      -6544392.      -6560320.      -6576147.      -6591856.
      -6607427.      -6622857.      -6638152.      -6653301.      -6668296.
      -6683121.      -6697780.      -6712276.      -6726605.      -6740775.
      -6754772.      -6768589.      -6782240.      -6795722.      -6809025.
      -6822140.      -6835074.      -6847836.      -6860416.      -6872811.
      -6885021.      -6897044.      -6908872.      -6920495.      -6931915.
      -6943129.      -6954135.      -6964925.      -6975505.      -6985876.
      -6996050.      -7006034.      -7015824.      -7025432.      -7034861.
      -7044119.      -7053197.      -7062095.      -7070807.      -7079320.
      -7087630.      -7095728.      -7103607.      -7111262.      -7118682.
      -7125861.      -7132788.      -7139454.      -7145849.      -7151965.
      -7157803.      -7163361.      -7168623.      -7173588.      -7178259.
      -7182625.      -7186686.      -7190448.      -7193919.      -7197105.
      -7200014.      -7202647.      -7205005.      -7207114.      -7208980.
      -7210614.      -7212033.      -7213231.      -7214228.      -7215029.
      -7215639.      -7216068.      -7216330.      -7216429.      -7216361.
      -7216155.      -7215804.      -7215318.      -7214719.      -7214001.
      -7213179.      -7212255.      -7211236.      -7210119.      -7208914.
      -7207638.      -7206277.      -7204835.      -7203322.      -7201737.
      -7200089.      -7198375.      -7196584.      -7194721.      -7192786.
      -7190767.      -7188654.      -7186452.      -7184153.      -7181752.
      -7179254.      -7176653.      -7173961.      -7171190.      -7168344.
      -7165413.      -7162403.      -7159332.      -7156202.      -7153023.
      -7149801.      -7146540.      -7143238.      -7139898.      -7136521.
      -7133106.      -7129648.      -7126136.      -7122564.      -7118915.
      -7115187.      -7111373.      -7107455.      -7103421.      -7099257.
      -7094944.      -7090471.      -7085831.      -7081015.      -7076022.
      -7070837.      -7065451.      -7059860.      -7054062.      -7048062.
      -7041854.      -7035438.      -7028817.      -7021983.      -7014937.
      -7007691.      -7000255.      -6992633.      -6984834.      -6976863.
      -6968729.      -6960450.      -6952029.      -6943481.      -6934811.
      -6926022.      -6917141.      -6908164.      -6899089.      -6889920.
      -6880674.      -6871356.      -6861955.      -6852482.      -6842929.
      -6833305.      -6823616.      -6813846.      -6803991.      -6794048.
      -6784001.      -6773838.      -6763547.      -6753124.      -6742555.
      -6731826.      -6720934.      -6709879.      -6698661.      -6687274.
      -6675730.      -6664031.      -6652184.      -6640209.      -6628110.
      -6615896.      -6603570.      -6591140.      -6578609.      -6565987.
      -6553280.      -6540490.      -6527633.      -6514707.      -6501713.
      -6488650.      -6475511.      -6462306.      -6449034.      -6435697.
      -6422278.      -6408777.      -6395203.      -6381549.      -6367821.
      -6354018.      -6340152.      -6326231.      -6312249.      -6298214.
      -6284127.      -6269991.      -6255812.      -6241589.      -6227330.
      -6213032.      -6198691.      -6184323.      -6169933.      -6155523.
      -6141099.      -6126663.      -6112221.      -6097792.      -6083394.
      -6069038.      -6054732.      -6040474.      -6026266.      -6012131.
      -5998077.      -5984101.      -5970215.      -5956407.      -5942685.
      -5929057.      -5915518.      -5902074.      -5888714.      -5875442.
      -5862274.      -5849202.      -5836234.      -5823371.      -5810607.
      -5797956.      -5785410.      -5772962.      -5760616.      -5748368.
      -5736217.      -5724147.      -5712158.      -5700242.      -5688373.
      -5676558.      -5664781.      -5653041.      -5641335.      -5629644.
      -5617965.      -5606288.      -5594601.      -5582889.      -5571155.
      -5559402.      -5547617.      -5535786.      -5523895.      -5511958.
      -5499971.      -5487923.      -5475815.      -5463636.      -5451385.
      -5439064.      -5426674.      -5414219.      -5401705.      -5389134.
      -5376511.      -5363848.      -5351151.      -5338439.      -5325701.
      -5312920.      -5300114.      -5287273.      -5274398.      -5261499.
      -5248567.      -5235612.      -5222632.      -5209629.      -5196608.
      -5183570.      -5170513.      -5157442.      -5144371.      -5131303.
      -5118243.      -5105184.      -5092128.      -5079085.      -5066058.
      -5053039.      -5040025.      -5027032.      -5014057.      -5001092.
      -4988137.      -4975195.      -4962264.      -4949338.      -4936414.
      -4923495.      -4910596.      -4897715.      -4884846.      -4871995.
      -4859159.      -4846332.      -4833534.      -4820763.      -4808022.
      -4795316.      -4782627.      -4769951.      -4757301.      -4744690.
      -4732107.      -4719546.      -4707023.      -4694537.      -4682099.
      -4669721.      -4657403.      -4645143.      -4632944.      -4620832.
      -4608824.      -4596916.      -4585108.      -4573409.      -4561824.
      -4550361.      -4539017.      -4527799.      -4516707.      -4505729.
      -4494879.      -4484146.      -4473515.      -4463002.      -4452616.
      -4442348.      -4432204.      -4422177.      -4412254.      -4402445.
      -4392763.      -4383206.      -4373755.      -4364393.      -4355126.
      -4345968.      -4336919.      -4327964.      -4319094.      -4310299.
      -4301590.      -4292965.      -4284401.      -4275893.      -4267432.
      -4259022.      -4250659.      -4242340.      -4234068.      -4225846.
      -4217691.      -4209613.      -4201619.      -4193722.      -4185926.
      -4178237.      -4170660.      -4163191.      -4155829.      -4148573.
      -4141421.      -4134367.      -4127412.      -4120557.      -4113793.
      -4107114.      -4100512.      -4093981.      -4087528.      -4081155.
      -4074857.      -4068631.      -4062481.      -4056411.      -4050416.
      -4044502.      -4038682.      -4032953.      -4027315.      -4021775.
      -4016338.      -4010997.      -4005750.      -4000607.      -3995554.
      -3990584.      -3985689.      -3980867.      -3976126.      -3971460.
      -3966849.      -3962282.      -3957748.      -3953250.      -3948787.
      -3944345.      -3939918.      -3935492.      -3931065.      -3926644.
      -3922237.      -3917844.      -3913455.      -3909083.      -3904736.
      -3900407.      -3896098.      -3891806.      -3887542.      -3883314.
