     0.02500000      -12345.00      -12345.00   3.349400e+10      -12345.00
   0.0005380000       1859.976      -450.0196      -12345.00      -12345.00
      -12345.00      -12345.00      -12345.00      -12345.00      -12345.00
      -12345.00      -12345.00      -12345.00      -12345.00      -12345.00
      -12345.00      -12345.00      -12345.00      -12345.00      -12345.00
      -12345.00      -12345.00      -12345.00      -12345.00      -12345.00
      -12345.00      -89.92890       144.4382       2596.000       254.0000
      -42.72450       173.0647      -12345.00       22.00000      -12345.00
      -12345.00      -12345.00      -12345.00      -12345.00      -12345.00
      -12345.00      -12345.00      -12345.00      -12345.00      -12345.00
       5270.900       180.0466       28.65800       47.40445      -12345.00
      -12345.00      -12345.00       45.00000       90.00000      -12345.00
      -12345.00      -12345.00      -12345.00      -12345.00      -12345.00
      -12345.00      -12345.00      -12345.00      -12345.00      -12345.00
      2016       318        11        10        29
        19         6    -12345    -12345     74400
    -12345    -12345    -12345    -12345    -12345
         1    -12345    -12345    -12345    -12345
    -12345    -12345    -12345    -12345    -12345
    -12345    -12345    -12345    -12345    -12345
    -12345    -12345    -12345    -12345    -12345
         1    -12345    -12345    -12345    -12345
QSPA    South Island, Ne
10      -12345  -12345  
-12345  -12345  -12345  
-12345  -12345  -12345  
-12345  -12345  -12345  
-12345  -12345  -12345  
-12345  -12345  BH2     
IU      -12345  Guralp C
[...]
       4414367.       4417259.       4420254.       4423428.       4426717.
       4430089.       4433614.       4437234.       4440963.       4444827.
       4448800.       4452856.       4456987.       4461236.       4465582.
       4469985.       4474435.       4478948.       4483507.       4488096.
       4492714.       4497362.       4502012.       4506638.       4511254.
       4515818.       4520391.       4524926.       4529362.       4533828.
       4538221.       4542516.       4546785.       4550925.       4554992.
       4558979.       4562829.       4566639.       4570361.       4573965.
       4577468.       4580839.       4584115.       4587263.       4590255.
       4593120.       4595884.       4598504.       4600935.       4603272.
       4605509.       4607572.       4609488.       4611269.       4612875.
       4614322.       4615659.       4616830.       4617847.       4618746.
       4619461.       4620010.       4620420.       4620656.       4620721.
       4620627.       4620352.       4619884.       4619212.       4618379.
       4617388.       4616174.       4614797.       4613277.       4611537.
       4609618.       4607545.       4605249.       4602762.       4600058.
       4597153.       4594113.       4590830.       4587357.       4583700.
       4579861.       4575857.       4571541.       4567030.       4562351.
       4557405.       4552269.       4546883.       4541276.       4535511.
       4529519.       4523284.       4516808.       4510144.       4503195.
       4496013.       4488700.       4481101.       4473262.       4465187.
       4456880.       4448415.       4439630.       4430587.       4421382.
       4411899.       4402170.       4392213.       4381996.       4371516.
       4360818.       4349906.       4338704.       4327260.       4315591.
       4303720.       4291651.       4279302.       4266772.       4254066.
       4241101.       4227981.       4214658.       4201092.       4187378.
       4173510.       4159465.       4145254.       4130901.       4116356.
       4101684.       4086809.       4071747.       4056670.       4041319.
       4025821.       4010308.       3994570.       3978703.       3962715.
       3946577.       3930328.       3913967.       3897516.       3880932.
       3864262.       3847509.       3830559.       3813563.       3796527.
       3779327.       3762130.       3744906.       3727591.       3710242.
       3692830.       3675330.       3657789.       3640254.       3622669.
       3605061.       3587430.       3569744.       3552035.       3534308.
       3516602.       3498905.       3481190.       3463471.       3445743.
       3427975.       3410152.       3392342.       3374588.       3356845.
       3339109.       3321369.       3303589.       3285829.       3268070.
       3250344.       3232659.       3214909.       3197158.       3179426.
       3161675.       3143900.       3126084.       3108289.       3090496.
       3072666.       3054819.       3036882.       3018917.       3000934.
       2982860.       2964808.       2946741.       2928601.       2910439.
       2892211.       2873959.       2855683.       2837358.       2819018.
       2800636.       2782174.       2763678.       2745205.       2726682.
       2708107.       2689497.       2670844.       2652156.       2633394.
       2614596.       2595755.       2576880.       2557992.       2539039.
       2520009.       2500943.       2481801.       2462529.       2443226.
       2423839.       2404362.       2384852.       2365215.       2345489.
       2325664.       2305728.       2285676.       2265469.       2245164.
       2224746.       2204265.       2183698.       2163016.       2142288.
       2121452.       2100476.       2079418.       2058275.       2037012.
       2015692.       1994306.       1972830.       1951239.       1929660.
       1908245.       1886476.       1864420.       1842706.       1821032.
       1799070.       1776993.       1754861.       1732648.       1710407.
       1688074.       1665625.       1643163.       1620614.       1597976.
       1575284.       1552534.       1529701.       1506769.       1483852.
       1460803.       1437660.       1414615.       1391462.       1368221.
       1344918.       1321515.       1298151.       1274730.       1251168.
       1227519.       1203868.       1180155.       1156266.       1132362.
       1108448.       1084422.       1060321.       1036118.       1011834.
       987451.0       962994.0       938504.0       913983.0       889444.0
       864763.0       839969.0       815114.0       790158.0       765165.0
       740242.0       715324.0       690313.0       665233.0       640073.0
       614883.0       589642.0       564420.0       539213.0       514032.0
       488883.0       463453.0       438016.0       412712.0       387332.0
       362005.0       336699.0       311418.0       286099.0       260729.0
       235309.0       209873.0       184584.0       159274.0       133914.0
       108613.0       83261.00       57865.00       32517.00       7122.000
      -18280.00      -43613.00      -68959.00      -94361.00      -119840.0
      -145296.0      -170765.0      -196306.0      -221809.0      -247288.0
      -272690.0      -298063.0      -323534.0      -349009.0      -374437.0
      -399883.0      -425371.0      -450830.0      -476224.0      -501623.0
      -526981.0      -552311.0      -577616.0      -602797.0      -627969.0
      -653098.0      -678090.0      -703059.0      -728005.0      -752875.0
      -777663.0      -802380.0      -827026.0      -851582.0      -876031.0
      -900403.0      -924752.0      -949036.0      -973275.0      -997432.0
      -1021463.      -1045432.      -1069276.      -1093050.      -1116793.
      -1140437.      -1164023.      -1187499.      -1210881.      -1234214.
      -1257441.      -1280556.      -1303564.      -1326528.      -1349442.
      -1372252.      -1394976.      -1417621.      -1440162.      -1462562.
      -1484918.      -1507253.      -1529496.      -1551690.      -1573765.
      -1595736.      -1617634.      -1639426.      -1661218.      -1682969.
      -1704654.      -1726309.      -1747848.      -1769324.      -1790802.
      -1812182.      -1833489.      -1854814.      -1876124.      -1897322.
      -1918421.      -1939505.      -1960528.      -1981458.      -2002362.
      -2023221.      -2044005.      -2064757.      -2085431.      -2106047.
      -2126624.      -2147158.      -2167690.      -2188156.      -2208578.
      -2228971.      -2249283.      -2269604.      -2289916.      -2310122.
      -2330323.      -2350560.      -2370728.      -2390889.      -2411078.
      -2431230.      -2451381.      -2471565.      -2491745.      -2511911.
      -2532075.      -2552201.      -2572308.      -2592412.      -2612474.
      -2632564.      -2652671.      -2672733.      -2692824.      -2712864.
      -2732827.      -2752797.      -2772694.      -2792581.      -2812471.
      -2832270.      -2852034.      -2871742.      -2891395.      -2910994.
      -2930481.      -2949963.      -2969379.      -2988662.      -3007945.
      -3027123.      -3046227.      -3065284.      -3084224.      -3103079.
      -3121795.      -3140450.      -3158941.      -3177420.      -3195944.
      -3214176.      -3232374.      -3250543.      -3268551.      -3286499.
      -3304321.      -3322121.      -3339852.      -3357493.      -3375131.
      -3392705.      -3410258.      -3427763.      -3445208.      -3462621.
      -3479947.      -3497271.      -3514527.      -3531744.      -3549034.
      -3566248.      -3583445.      -3600641.      -3617762.      -3634848.
      -3651853.      -3668829.      -3685844.      -3702817.      -3719723.
      -3736594.      -3753402.      -3770120.      -3786769.      -3803367.
      -3819960.      -3836548.      -3853082.      -3869604.      -3886099.
      -3902542.      -3918979.      -3935434.      -3951949.      -3968538.
      -3985141.      -4001768.      -4018454.      -4035174.      -4051954.
      -4068868.      -4085946.      -4103109.      -4120347.      -4137688.
      -4155106.      -4172643.      -4190343.      -4208222.      -4226285.
      -4244482.      -4262802.      -4281286.      -4299914.      -4318736.
      -4337776.      -4356979.      -4376385.      -4395940.      -4415603.
      -4435464.      -4455534.      -4475809.      -4496291.      -4516993.
      -4537869.      -4558874.      -4580127.      -4601592.      -4623205.
      -4645092.      -4667208.      -4689518.      -4712064.      -4734845.
      -4757881.      -4781102.      -4804566.      -4828299.      -4852208.
      -4876392.      -4900827.      -4925460.      -4950328.      -4975373.
      -5000631.      -5026107.      -5051769.      -5077674.      -5103785.
      -5130062.      -5156552.      -5183202.      -5210001.      -5236978.
      -5264105.      -5291380.      -5318762.      -5346289.      -5373934.
      -5401652.      -5429516.      -5457452.      -5485448.      -5513559.
      -5541726.      -5569947.      -5598211.      -5626486.      -5654797.
      -5683131.      -5711474.      -5739836.      -5768195.      -5796552.
      -5824901.      -5853204.      -5881477.      -5909704.      -5937850.
      -5965931.      -5993941.      -6021864.      -6049692.      -6077444.
      -6105107.      -6132662.      -6160068.      -6187350.      -6214629.
      -6241748.      -6268670.      -6295532.      -6322222.      -6348757.
      -6375211.      -6401506.      -6427712.      -6453819.      -6479746.
      -6505569.      -6531286.      -6556902.      -6582396.      -6607736.
      -6632994.      -6658142.      -6683140.      -6708027.      -6732804.
      -6757437.      -6781948.      -6806382.      -6830693.      -6854877.
      -6878965.      -6902917.      -6926800.      -6950538.      -6974113.
      -6997662.      -7021029.      -7044276.      -7067414.      -7090324.
      -7113210.      -7135926.      -7158467.      -7180965.      -7203268.
      -7225449.      -7247509.      -7269404.      -7291155.      -7312761.
      -7334228.      -7355548.      -7376735.      -7397761.      -7418625.
      -7439332.      -7459900.      -7480304.      -7500554.      -7520653.
      -7540576.      -7560345.      -7579914.      -7599308.      -7618567.
      -7637674.      -7656650.      -7675449.      -7694060.      -7712555.
      -7730897.      -7749071.      -7767110.      -7784991.      -7802737.
      -7820315.      -7837720.      -7854992.      -7872112.      -7889094.
      -7905924.      -7922567.      -7939044.      -7955343.      -7971480.
      -7987458.      -8003222.      -8018840.      -8034293.      -8049501.
      -8064564.      -8079460.      -8094145.      -8108656.      -8122969.
      -8137106.      -8151034.      -8164793.      -8178397.      -8191764.
      -8204974.      -8217997.      -8230820.      -8243505.      -8255981.
      -8268250.      -8280322.      -8292188.      -8303867.      -8315345.
      -8326647.      -8337784.      -8348733.      -8359523.      -8370146.
      -8380597.      -8390919.      -8401086.      -8411135.      -8421062.
      -8430853.      -8440581.      -8450214.      -8459752.      -8469241.
      -8478660.      -8487990.      -8497276.      -8506556.      -8515819.
      -8525037.      -8534248.      -8543466.      -8552673.      -8561909.
      -8571130.      -8580367.      -8589626.      -8598879.      -8608164.
      -8617443.      -8626730.      -8636024.      -8645348.      -8654679.
      -8664031.      -8673417.      -8682766.      -8692170.      -8701614.
      -8711074.      -8720571.      -8730066.      -8739635.      -8749184.
      -8758730.      -8768407.      -8778057.      -8787710.      -8797486.
      -8807319.      -8817116.      -8826978.      -8836937.      -8846889.
      -8856900.      -8866958.      -8877070.      -8887237.      -8897446.
      -8907709.      -8918030.      -8928423.      -8938815.      -8949237.
      -8959667.      -8970113.      -8980600.      -8991060.      -9001524.
      -9012013.      -9022540.      -9033017.      -9043433.      -9053851.
      -9064195.      -9074395.      -9084525.      -9094628.      -9104599.
      -9114466.      -9124271.      -9133997.      -9143590.      -9153041.
      -9162359.      -9171482.      -9180442.      -9189266.      -9197907.
      -9206334.      -9214609.      -9222702.      -9230524.      -9238145.
      -9245553.      -9252714.      -9259578.      -9266142.      -9272567.
      -9278771.      -9284606.      -9290172.      -9295505.      -9300525.
      -9305232.      -9309655.      -9313800.      -9317604.      -9321105.
      -9324340.      -9327202.      -9329733.      -9331917.      -9333774.
      -9335361.      -9336541.      -9337365.      -9337831.      -9337936.
      -9337770.      -9337188.      -9336242.      -9334979.      -9333316.
      -9331340.      -9328970.      -9326271.      -9323267.      -9319748.
      -9315922.      -9311795.      -9307232.      -9302446.      -9297276.
      -9291721.      -9285988.      -9279836.      -9273336.      -9266544.
      -9259381.      -9251967.      -9244193.      -9236172.      -9227880.
      -9219182.      -9210290.      -9201149.      -9191761.      -9182121.
      -9172188.      -9162053.      -9151617.      -9140954.      -9130075.
      -9118935.      -9107597.      -9096014.      -9084225.      -9072272.
      -9060131.      -9047758.      -9035179.      -9022443.      -9009472.
      -8996263.      -8982880.      -8969284.      -8955526.      -8941587.
      -8927410.      -8913074.      -8898525.      -8883726.      -8868687.
      -8853418.      -8837909.      -8822131.      -8806125.      -8789874.
      -8773318.      -8756504.      -8739417.      -8722002.      -8704372.
      -8686440.      -8668209.      -8649734.      -8630919.      -8611864.
      -8592482.      -8572762.      -8552776.      -8532456.      -8511857.
      -8490918.      -8469669.      -8448110.      -8426170.      -8403935.
      -8381333.      -8358347.      -8335021.      -8311318.      -8287249.
      -8262797.      -8237997.      -8212828.      -8187250.      -8161223.
      -8134782.      -8107971.      -8080663.      -8052945.      -8024842.
      -7996273.      -7967330.      -7937939.      -7908094.      -7877847.
      -7847142.      -7815979.      -7784380.      -7752348.      -7719867.
      -7686969.      -7653653.      -7619915.      -7585782.      -7551208.
      -7516231.      -7480863.      -7445057.      -7408834.      -7372210.
      -7335205.      -7297789.      -7259992.      -7221812.      -7183223.
      -7144291.      -7104946.      -7065226.      -7025167.      -6984694.
      -6943851.      -6902681.      -6861178.      -6819288.      -6777078.
      -6734581.      -6691749.      -6648627.      -6605188.      -6561452.
      -6517436.      -6473103.      -6428476.      -6383576.      -6338414.
      -6292995.      -6247332.      -6201419.      -6155290.      -6108919.
      -6062290.      -6015438.      -5968337.      -5920998.      -5873443.
      -5825660.      -5777674.      -5729469.      -5681033.      -5632397.
      -5583535.      -5534473.      -5485215.      -5435747.      -5386122.
      -5336283.      -5286251.      -5236050.      -5185635.      -5135084.
      -5084356.      -5033401.      -4982298.      -4931001.      -4879510.
      -4827883.      -4776056.      -4724066.      -4671924.      -4619597.
      -4567142.      -4514533.      -4461748.      -4408833.      -4355813.
      -4302633.      -4249280.      -4195824.      -4142241.      -4088544.
      -4034743.      -3980818.      -3926806.      -3872668.      -3818398.
      -3764051.      -3709577.      -3654960.      -3600281.      -3545528.
      -3490699.      -3435808.      -3380839.      -3325847.      -3270820.
      -3215716.      -3160586.      -3105456.      -3050334.      -2995220.
      -2940112.      -2885083.      -2830093.      -2775138.      -2720255.
      -2665416.      -2610661.      -2555935.      -2501285.      -2446755.
      -2392256.      -2337881.      -2283638.      -2229480.      -2175453.
      -2121559.      -2067795.      -2014193.      -1960791.      -1907559.
      -1854517.      -1801684.      -1749048.      -1696631.      -1644416.
      -1592431.      -1540722.      -1489286.      -1438137.      -1387256.
      -1336658.      -1286415.      -1236445.      -1186755.      -1137464.
      -1088476.      -1039769.      -991441.0      -943466.0      -895843.0
      -848603.0      -801768.0      -755318.0      -709232.0      -663542.0
      -618316.0      -573590.0      -528982.0      -484614.0      -441151.0
      -398329.0      -355935.0      -314108.0      -272474.0      -230949.0
      -189653.0      -148563.0      -108137.0      -68415.00      -28891.00
       10249.00       48855.00       87136.00       125197.0       162982.0
       200391.0       237577.0       274370.0       310654.0       346621.0
       382242.0       417469.0       452347.0       486963.0       521222.0
       555092.0       588660.0       621913.0       654857.0       687499.0
       719814.0       751796.0       783470.0       814807.0       845870.0
       876576.0       906910.0       937098.0       967028.0       996610.0
       1025885.       1054798.       1083392.       1111730.       1139781.
       1167527.       1195076.       1222322.       1249305.       1276102.
       1302584.       1328884.       1354585.       1380055.       1405918.
       1431448.       1456647.       1481624.       1506287.       1530852.
       1555146.       1579329.       1603388.       1626999.       1650513.
       1674106.       1697403.       1720328.       1743244.       1766180.
       1788800.       1811244.       1833796.       1856100.       1877450.
       1898219.       1919166.       1940185.       1961259.       1982404.
       2003550.       2024790.       2046045.       2067262.       2088413.
       2109451.       2130326.       2151027.       2171634.       2192099.
       2212467.       2232756.       2252942.       2273068.       2293077.
       2313074.       2332980.       2352781.       2372545.       2392120.
       2411661.       2431151.       2450569.       2469939.       2489171.
