     0.02500000      -12345.00      -12345.00   3.300410e+10      -12345.00
   0.0005380000       1859.976      -450.0196      -12345.00      -12345.00
      -12345.00      -12345.00      -12345.00      -12345.00      -12345.00
      -12345.00      -12345.00      -12345.00      -12345.00      -12345.00
      -12345.00      -12345.00      -12345.00      -12345.00      -12345.00
      -12345.00      -12345.00      -12345.00      -12345.00      -12345.00
      -12345.00      -89.92890       144.4382       2596.000       254.0000
      -42.72450       173.0647      -12345.00       22.00000      -12345.00
      -12345.00      -12345.00      -12345.00      -12345.00      -12345.00
      -12345.00      -12345.00      -12345.00      -12345.00      -12345.00
       5270.900       180.0466       28.65800       47.40445      -12345.00
      -12345.00      -12345.00       0.000000       0.000000      -12345.00
      -12345.00      -12345.00      -12345.00      -12345.00      -12345.00
      -12345.00      -12345.00      -12345.00      -12345.00      -12345.00
      2016       318        11        10        29
        19         6    -12345    -12345     74400
    -12345    -12345    -12345    -12345    -12345
         1    -12345    -12345    -12345    -12345
    -12345    -12345    -12345    -12345    -12345
    -12345    -12345    -12345    -12345    -12345
    -12345    -12345    -12345    -12345    -12345
         1    -12345    -12345    -12345    -12345
QSPA    South Island, Ne
10      -12345  -12345  
-12345  -12345  -12345  
-12345  -12345  -12345  
-12345  -12345  -12345  
-12345  -12345  -12345  
-12345  -12345  BHZ     
IU      -12345  Guralp C
[...]
      -3021279.      -3009862.      -2998450.      -2987026.      -2975559.
      -2964129.      -2952676.      -2941206.      -2929783.      -2918317.
      -2906850.      -2895401.      -2883906.      -2872373.      -2860847.
      -2849298.      -2837655.      -2825995.      -2814302.      -2802533.
      -2790754.      -2778915.      -2767029.      -2755157.      -2743261.
      -2731349.      -2719467.      -2707567.      -2695619.      -2683664.
      -2671661.      -2659624.      -2647607.      -2635527.      -2623415.
      -2611302.      -2599080.      -2586833.      -2574570.      -2562210.
      -2549820.      -2537364.      -2524839.      -2512288.      -2499680.
      -2487016.      -2474307.      -2461547.      -2448722.      -2435854.
      -2422913.      -2409882.      -2396817.      -2383643.      -2370367.
      -2357063.      -2343648.      -2330129.      -2316575.      -2302952.
      -2289249.      -2275527.      -2261744.      -2247880.      -2234024.
      -2220082.      -2206067.      -2192050.      -2177927.      -2163736.
      -2149495.      -2135148.      -2120714.      -2106193.      -2091557.
      -2076831.      -2061997.      -2047032.      -2031999.      -2016906.
      -2001727.      -1986486.      -1971168.      -1955755.      -1940299.
      -1924795.      -1909242.      -1893685.      -1878085.      -1862407.
      -1846674.      -1830873.      -1814975.      -1799027.      -1783002.
      -1766891.      -1750717.      -1734446.      -1718099.      -1701670.
      -1685150.      -1668535.      -1651837.      -1635042.      -1618147.
      -1601163.      -1584075.      -1566922.      -1549674.      -1532316.
      -1514863.      -1497293.      -1479627.      -1461866.      -1444024.
      -1426064.      -1407990.      -1389851.      -1371578.      -1353200.
      -1334731.      -1316111.      -1297409.      -1278599.      -1259656.
      -1240639.      -1221507.      -1202250.      -1182896.      -1163422.
      -1143824.      -1124133.      -1104321.      -1084381.      -1064386.
      -1044278.      -1024045.      -1003751.      -983347.0      -962872.0
      -942350.0      -921721.0      -901017.0      -880250.0      -859357.0
      -838350.0      -817242.0      -795975.0      -774578.0      -753060.0
      -731422.0      -709721.0      -687909.0      -666042.0      -644169.0
      -622235.0      -600292.0      -578417.0      -556547.0      -534622.0
      -512748.0      -490796.0      -468756.0      -446743.0      -424575.0
      -402323.0      -380026.0      -357607.0      -335130.0      -312558.0
      -289875.0      -267134.0      -244312.0      -221367.0      -198370.0
      -175296.0      -152081.0      -128821.0      -105528.0      -82098.00
      -58562.00      -34976.00      -11241.00       12595.00       36481.00
       60519.00       84622.00       108791.0       133144.0       157560.0
       182068.0       206761.0       231505.0       256372.0       281380.0
       306396.0       331544.0       356781.0       382016.0       407344.0
       432653.0       458132.0       483871.0       509544.0       535238.0
       561122.0       587136.0       613227.0       639472.0       665868.0
       692326.0       718913.0       745590.0       772380.0       799305.0
       826289.0       853411.0       880725.0       908144.0       935630.0
       963317.0       991114.0       1018948.       1047049.       1075199.
       1103342.       1131826.       1160411.       1189080.       1218010.
       1246988.       1276170.       1305580.       1334989.       1364521.
       1394170.       1423869.       1453685.       1483536.       1513456.
       1543482.       1573518.       1603620.       1633861.       1664189.
       1694553.       1725040.       1755582.       1786025.       1816519.
       1847109.       1877732.       1908437.       1939217.       1970052.
       2000957.       2031971.       2063115.       2094318.       2125514.
       2156809.       2188197.       2219583.       2251016.       2282496.
       2313979.       2345479.       2377087.       2408720.       2440284.
       2471929.       2503474.       2534908.       2566434.       2597732.
       2629008.       2660398.       2691470.       2722482.       2753504.
       2784406.       2815332.       2846198.       2876977.       2907735.
       2938392.       2968963.       2999497.       3029849.       3060124.
       3090409.       3120497.       3150475.       3180468.       3210260.
       3239857.       3269430.       3298817.       3328014.       3357145.
       3386119.       3414931.       3443616.       3472097.       3500427.
       3528669.       3556743.       3584711.       3612472.       3639970.
       3667427.       3694662.       3721662.       3748600.       3775291.
       3801681.       3828003.       3854181.       3880007.       3905813.
       3931423.       3956694.       3982000.       4007026.       4031777.
       4056514.       4081011.       4105314.       4129526.       4153524.
       4177392.       4201183.       4224705.       4248089.       4271434.
       4294525.       4317428.       4340211.       4362782.       4385147.
       4407318.       4429243.       4450936.       4472449.       4493697.
       4514688.       4535475.       4555952.       4576166.       4596145.
       4615846.       4635366.       4654675.       4673815.       4692835.
       4711622.       4730231.       4748686.       4766939.       4785069.
       4803061.       4820832.       4838397.       4855783.       4873027.
       4890156.       4907095.       4923873.       4940543.       4957065.
       4973488.       4989757.       5005907.       5021914.       5037722.
       5053431.       5068971.       5084380.       5099566.       5114603.
       5129607.       5144317.       5158871.       5173388.       5187735.
       5201929.       5216026.       5229976.       5243789.       5257513.
       5271047.       5284457.       5297783.       5310891.       5323839.
       5336698.       5349406.       5361989.       5374506.       5386859.
       5399060.       5411199.       5423176.       5435103.       5446973.
       5458652.       5470283.       5481768.       5493021.       5504195.
       5515281.       5526168.       5536920.       5547587.       5558045.
       5568352.       5578519.       5588383.       5598115.       5607704.
       5616976.       5626113.       5635015.       5643641.       5652175.
       5660381.       5668237.       5675963.       5683467.       5690677.
       5697632.       5704310.       5710789.       5717038.       5723057.
       5728934.       5734537.       5739932.       5745113.       5750045.
       5754846.       5759349.       5763622.       5767677.       5771360.
       5774848.       5778097.       5781087.       5783809.       5786136.
       5788243.       5789987.       5791319.       5792536.       5793164.
       5793252.       5793539.       5794099.       5794644.       5794078.
       5792192.       5790183.       5788685.       5787544.       5786012.
       5783823.       5780770.       5777165.       5773480.       5768942.
       5764011.       5759169.       5753938.       5748510.       5742678.
       5736409.       5729846.       5722901.       5715674.       5708055.
       5700262.       5692231.       5683651.       5674823.       5665756.
       5656316.       5646467.       5636258.       5625775.       5614788.
       5603624.       5591897.       5580115.       5567999.       5554869.
       5542391.       5528297.       5515173.       5500436.       5485725.
       5482458.       5473801.       5455882.       5441077.       5424319.
       5407417.       5390468.       5372400.       5355177.       5336961.
       5318581.       5299843.       5280377.       5261038.       5241278.
       5221142.       5200822.       5180177.       5159289.       5137973.
       5116331.       5094553.       5072598.       5050120.       5027259.
       5004309.       4980897.       4957279.       4933456.       4909100.
       4884539.       4859523.       4834110.       4808555.       4782491.
       4756286.       4729597.       4702532.       4675328.       4647248.
       4619633.       4590781.       4562538.       4533603.       4503358.
       4475935.       4439366.       4406469.       4384283.       4352837.
       4320752.       4290112.       4257223.       4225620.       4192512.
       4159516.       4126265.       4092503.       4058664.       4024173.
       3989520.       3954533.       3919199.       3883516.       3847524.
       3811186.       3774391.       3737361.       3700088.       3662384.
       3624273.       3585811.       3547077.       3508003.       3468465.
       3428657.       3388491.       3347862.       3306846.       3265482.
       3223838.       3181762.       3139317.       3096576.       3053522.
       3010214.       2966527.       2922619.       2878404.       2833687.
       2788862.       2743802.       2698466.       2652671.       2606210.
       2560102.       2513715.       2466505.       2419331.       2371725.
       2323726.       2275621.       2227184.       2178381.       2129235.
       2079800.       2030112.       1980148.       1929797.       1879453.
       1829011.       1778295.       1727025.       1675281.       1623907.
       1572542.       1520201.       1467793.       1415766.       1362595.
       1310590.       1257133.       1204268.       1151977.       1087766.
       1026288.       974830.0       920497.0       866880.0       813354.0
       759099.0       705573.0       651277.0       597434.0       543377.0
       489333.0       435428.0       381218.0       327373.0       273355.0
       219886.0       167407.0       113076.0       57317.00       2445.000
      -53578.00      -110793.0      -166427.0      -221643.0      -276871.0
      -332020.0      -387293.0      -442097.0      -497408.0      -548966.0
      -597698.0      -650236.0      -704243.0      -758360.0      -813210.0
      -867896.0      -922890.0      -977846.0      -1032868.      -1088056.
      -1143166.      -1198322.      -1253500.      -1308729.      -1363990.
      -1419167.      -1474630.      -1530153.      -1585023.      -1639733.
      -1694518.      -1749167.      -1803826.      -1858470.      -1913115.
      -1967790.      -2022467.      -2077151.      -2131811.      -2186416.
      -2240990.      -2295539.      -2350038.      -2404535.      -2459026.
      -2513430.      -2567750.      -2621974.      -2676163.      -2730403.
      -2784440.      -2838200.      -2891959.      -2945470.      -2998733.
      -3052161.      -3105407.      -3158351.      -3211269.      -3264033.
      -3316596.      -3369032.      -3421305.      -3473401.      -3525350.
      -3577158.      -3628802.      -3680279.      -3731615.      -3782784.
      -3833774.      -3884611.      -3935283.      -3985791.      -4036132.
      -4086301.      -4136279.      -4186049.      -4235632.      -4285009.
      -4334189.      -4383205.      -4432022.      -4480625.      -4529028.
      -4577232.      -4625234.      -4673038.      -4720608.      -4767917.
      -4815024.      -4861876.      -4908446.      -4954811.      -5000874.
      -5046630.      -5092133.      -5137288.      -5182142.      -5226714.
      -5270950.      -5314860.      -5358449.      -5401707.      -5444612.
      -5487211.      -5529495.      -5571414.      -5613019.      -5654277.
      -5695172.      -5735735.      -5775934.      -5815804.      -5855292.
      -5894377.      -5933119.      -5971450.      -6009416.      -6047025.
      -6084193.      -6120946.      -6157263.      -6193144.      -6228597.
      -6263589.      -6298152.      -6332282.      -6365984.      -6399239.
      -6432030.      -6464411.      -6496344.      -6527864.      -6558952.
      -6589539.      -6619702.      -6649435.      -6678697.      -6707480.
      -6735765.      -6763558.      -6790888.      -6817713.      -6844009.
      -6869794.      -6895034.      -6919758.      -6943993.      -6967719.
      -6990964.      -7013717.      -7035932.      -7057658.      -7078940.
      -7099735.      -7120051.      -7139929.      -7159320.      -7178208.
      -7196641.      -7214589.      -7232074.      -7249101.      -7265618.
      -7281650.      -7297189.      -7312260.      -7326838.      -7340919.
      -7354561.      -7367675.      -7380267.      -7392365.      -7403975.
      -7415123.      -7425756.      -7435934.      -7445643.      -7454825.
      -7463539.      -7471803.      -7479586.      -7486847.      -7493554.
      -7499764.      -7505515.      -7510731.      -7515450.      -7519665.
      -7523326.      -7526536.      -7529237.      -7531458.      -7533276.
      -7534598.      -7535480.      -7535904.      -7535856.      -7535351.
      -7534382.      -7533019.      -7531211.      -7528920.      -7526177.
      -7523013.      -7519395.      -7515278.      -7510727.      -7505809.
      -7500464.      -7494687.      -7488560.      -7482015.      -7475061.
      -7467733.      -7460011.      -7451878.      -7443263.      -7434250.
      -7424815.      -7414912.      -7404602.      -7393817.      -7382609.
      -7371011.      -7358967.      -7346472.      -7333547.      -7320224.
      -7306434.      -7292209.      -7277604.      -7262565.      -7247115.
      -7231263.      -7214995.      -7198318.      -7181260.      -7163795.
      -7145915.      -7127662.      -7109018.      -7089975.      -7070507.
      -7050608.      -7030313.      -7009611.      -6988498.      -6966974.
      -6945081.      -6922792.      -6900056.      -6876988.      -6853537.
      -6829648.      -6805445.      -6780887.      -6755949.      -6730691.
      -6705089.      -6679119.      -6652818.      -6626164.      -6599108.
      -6571693.      -6543890.      -6515667.      -6487085.      -6458115.
      -6428767.      -6399065.      -6368975.      -6338512.      -6307677.
      -6276495.      -6245009.      -6213178.      -6180978.      -6148472.
      -6115637.      -6082471.      -6049038.      -6015285.      -5981226.
      -5946901.      -5912257.      -5877304.      -5842070.      -5806555.
      -5770750.      -5734663.      -5698273.      -5661584.      -5624638.
      -5587400.      -5549850.      -5512020.      -5473886.      -5435441.
      -5396693.      -5357608.      -5318185.      -5278456.      -5238380.
      -5197967.      -5157246.      -5116133.      -5074673.      -5032944.
      -4990865.      -4948460.      -4905770.      -4862744.      -4819432.
      -4775852.      -4731974.      -4687866.      -4643496.      -4598840.
      -4553981.      -4508861.      -4463486.      -4417931.      -4372134.
      -4326070.      -4279768.      -4233233.      -4186416.      -4139368.
      -4092141.      -4044648.      -3996929.      -3948988.      -3900776.
      -3852323.      -3803637.      -3754734.      -3705605.      -3656279.
      -3606745.      -3556976.      -3507035.      -3456896.      -3406544.
      -3356008.      -3305282.      -3254370.      -3203267.      -3151952.
      -3100442.      -3048726.      -2996805.      -2944718.      -2892442.
      -2840027.      -2787452.      -2734714.      -2681907.      -2628967.
      -2575911.      -2522775.      -2469550.      -2416240.      -2362826.
      -2309368.      -2255828.      -2202199.      -2148554.      -2094837.
      -2041063.      -1987262.      -1933393.      -1879489.      -1825547.
      -1771591.      -1717621.      -1663591.      -1609580.      -1555569.
      -1501528.      -1447522.      -1393500.      -1339434.      -1285377.
      -1231344.      -1177345.      -1123393.      -1069515.      -1015681.
      -961911.0      -908243.0      -854652.0      -801179.0      -747866.0
      -694723.0      -641767.0      -589116.0      -536837.0      -484845.0
      -433033.0      -381226.0      -329336.0      -277361.0      -225322.0
      -173238.0      -121115.0      -68975.00      -16813.00       35337.00
       87495.00       139691.0       191857.0       244019.0       296180.0
       348287.0       400363.0       452305.0       504282.0       556296.0
       608068.0       659798.0       711420.0       762876.0       814356.0
       865707.0       916879.0       968010.0       1019124.       1070115.
       1121002.       1171802.       1222478.       1273060.       1323515.
       1373847.       1423958.       1473905.       1523730.       1573259.
       1622620.       1671865.       1721011.       1770001.       1818667.
       1867101.       1915332.       1963421.       2011429.       2059291.
       2106960.       2154418.       2201694.       2248847.       2295870.
       2342711.       2389413.       2436043.       2482513.       2528805.
       2575021.       2621064.       2666923.       2712554.       2757950.
       2803262.       2848366.       2893230.       2937913.       2982399.
       3026651.       3070771.       3114747.       3158370.       3201853.
       3245158.       3288137.       3330959.       3373634.       3416037.
       3458117.       3500017.       3541668.       3583024.       3624100.
       3664916.       3705493.       3745799.       3785883.       3825594.
       3865038.       3904312.       3943326.       3982009.       4020379.
       4058591.       4096466.       4134079.       4171556.       4208736.
       4245717.       4282443.       4318836.       4355131.       4391294.
       4427062.       4462549.       4497827.       4532816.       4567549.
       4602077.       4636489.       4670438.       4704007.       4737455.
       4770347.       4803014.       4835414.       4867315.       4899147.
       4930463.       4961391.       4992187.       5022563.       5052773.
       5082596.       5112119.       5141546.       5170577.       5199417.
       5228074.       5256450.       5284578.       5312376.       5339911.
       5367257.       5394364.       5421142.       5447666.       5473805.
       5499611.       5525273.       5550567.       5575613.       5600355.
       5624713.       5648931.       5672755.       5696258.       5719558.
       5742507.       5765239.       5787647.       5809793.       5831777.
       5853375.       5874698.       5895790.       5916551.       5937047.
