     0.02500000      -12345.00      -12345.00   3.065360e+10      -12345.00
   0.0005380000       1859.976      -450.0196      -12345.00      -12345.00
      -12345.00      -12345.00      -12345.00      -12345.00      -12345.00
      -12345.00      -12345.00      -12345.00      -12345.00      -12345.00
      -12345.00      -12345.00      -12345.00      -12345.00      -12345.00
      -12345.00      -12345.00      -12345.00      -12345.00      -12345.00
      -12345.00      -89.92890       144.4382       2703.700       146.3000
      -42.72450       173.0647      -12345.00       22.00000      -12345.00
      -12345.00      -12345.00      -12345.00      -12345.00      -12345.00
      -12345.00      -12345.00      -12345.00      -12345.00      -12345.00
       5270.900       180.0466       28.65800       47.40445      -12345.00
      -12345.00      -12345.00       349.0000       90.00000      -12345.00
      -12345.00      -12345.00      -12345.00      -12345.00      -12345.00
      -12345.00      -12345.00      -12345.00      -12345.00      -12345.00
      2016       318        11        10        29
        19         6    -12345    -12345     74400
    -12345    -12345    -12345    -12345    -12345
         1    -12345    -12345    -12345    -12345
    -12345    -12345    -12345    -12345    -12345
    -12345    -12345    -12345    -12345    -12345
    -12345    -12345    -12345    -12345    -12345
         1    -12345    -12345    -12345    -12345
QSPA    South Island, Ne
70      -12345  -12345  
-12345  -12345  -12345  
-12345  -12345  -12345  
-12345  -12345  -12345  
-12345  -12345  -12345  
-12345  -12345  BH1     
IU      -12345  Guralp C
[...]
      -6552930.      -6550063.      -6547336.      -6544757.      -6542340.
      -6540053.      -6537902.      -6535925.      -6534081.      -6532372.
      -6530817.      -6529387.      -6528078.      -6526897.      -6525839.
      -6524827.      -6523874.      -6523032.      -6522226.      -6521456.
      -6520748.      -6520061.      -6519398.      -6518759.      -6518118.
      -6517474.      -6516831.      -6516177.      -6515492.      -6514782.
      -6514020.      -6513189.      -6512294.      -6511324.      -6510262.
      -6509061.      -6507736.      -6506293.      -6504721.      -6502996.
      -6501104.      -6499076.      -6496875.      -6494532.      -6492050.
      -6489409.      -6486627.      -6483706.      -6480656.      -6477460.
      -6474109.      -6470604.      -6466970.      -6463191.      -6459276.
      -6455243.      -6451051.      -6446772.      -6442397.      -6437892.
      -6433307.      -6428638.      -6423848.      -6418937.      -6413947.
      -6408861.      -6403723.      -6398549.      -6393296.      -6387984.
      -6382610.      -6377210.      -6371780.      -6366271.      -6360703.
      -6355083.      -6349383.      -6343615.      -6337767.      -6331812.
      -6325767.      -6319624.      -6313359.      -6306965.      -6300434.
      -6293731.      -6286860.      -6279809.      -6272531.      -6265034.
      -6257293.      -6249302.      -6241097.      -6232634.      -6223884.
      -6214890.      -6205641.      -6196122.      -6186304.      -6176153.
      -6165709.      -6154970.      -6143917.      -6132541.      -6120818.
      -6108778.      -6096418.      -6083728.      -6070730.      -6057420.
      -6043815.      -6029933.      -6015759.      -6001304.      -5986572.
      -5971537.      -5956230.      -5940671.      -5924834.      -5908754.
      -5892456.      -5875899.      -5859085.      -5842055.      -5824805.
      -5807317.      -5789603.      -5771717.      -5753657.      -5735405.
      -5717003.      -5698456.      -5679792.      -5661044.      -5642218.
      -5623322.      -5604325.      -5585264.      -5566112.      -5546879.
      -5527602.      -5508235.      -5488810.      -5469280.      -5449643.
      -5429961.      -5410232.      -5390436.      -5370586.      -5350643.
      -5330589.      -5310490.      -5290283.      -5269989.      -5249625.
      -5229171.      -5208714.      -5188208.      -5167632.      -5147013.
      -5126330.      -5105620.      -5084877.      -5064072.      -5043208.
      -5022274.      -5001296.      -4980267.      -4959183.      -4938081.
      -4916971.      -4895875.      -4874800.      -4853715.      -4832630.
      -4811547.      -4790463.      -4769390.      -4748327.      -4727271.
      -4706225.      -4685176.      -4664113.      -4643039.      -4621936.
      -4600799.      -4579640.      -4558460.      -4537268.      -4516024.
      -4494708.      -4473297.      -4451730.      -4430050.      -4408279.
      -4386445.      -4364602.      -4342694.      -4320730.      -4298677.
      -4276536.      -4254357.      -4232111.      -4209886.      -4187647.
      -4165404.      -4143184.      -4120916.      -4098680.      -4076443.
      -4054250.      -4032116.      -4010008.      -3987992.      -3966015.
      -3944112.      -3922286.      -3900565.      -3878932.      -3857363.
      -3835938.      -3814632.      -3793475.      -3772481.      -3751676.
      -3731031.      -3710514.      -3690163.      -3669948.      -3649894.
      -3630056.      -3610437.      -3591042.      -3571901.      -3552992.
      -3534309.      -3515857.      -3497654.      -3479708.      -3462007.
      -3444592.      -3427455.      -3410585.      -3393958.      -3377574.
      -3361442.      -3345536.      -3329882.      -3314487.      -3299314.
      -3284369.      -3269637.      -3255068.      -3240677.      -3226481.
      -3212492.      -3198740.      -3185268.      -3172090.      -3159135.
      -3146393.      -3133874.      -3121608.      -3109681.      -3098126.
      -3086921.      -3075966.      -3065223.      -3054734.      -3044556.
      -3034741.      -3025282.      -3016123.      -3007192.      -2998509.
      -2990115.      -2982019.      -2974214.      -2966669.      -2959361.
      -2952331.      -2945610.      -2939149.      -2932941.      -2926978.
      -2921262.      -2915813.      -2910655.      -2905771.      -2901079.
      -2896584.      -2892299.      -2888204.      -2884320.      -2880632.
      -2877091.      -2873696.      -2870457.      -2867353.      -2864360.
      -2861465.      -2858684.      -2856018.      -2853415.      -2850867.
      -2848402.      -2846002.      -2843624.      -2841217.      -2838804.
      -2836385.      -2833952.      -2831506.      -2828987.      -2826413.
      -2823772.      -2821056.      -2818273.      -2815380.      -2812377.
      -2809248.      -2806003.      -2802652.      -2799205.      -2795654.
      -2791943.      -2788057.      -2784044.      -2779922.      -2775672.
      -2771272.      -2766684.      -2761944.      -2757055.      -2751982.
      -2746720.      -2741248.      -2735574.      -2729725.      -2723673.
      -2717389.      -2710874.      -2704121.      -2697126.      -2689896.
      -2682431.      -2674714.      -2666762.      -2658573.      -2650147.
      -2641470.      -2632490.      -2623230.      -2613689.      -2603857.
      -2593712.      -2583216.      -2572395.      -2561271.      -2549819.
      -2538039.      -2525963.      -2513558.      -2500839.      -2487848.
      -2474571.      -2461014.      -2447158.      -2433005.      -2418544.
      -2403800.      -2388816.      -2373545.      -2358040.      -2342297.
      -2326279.      -2310023.      -2293522.      -2276807.      -2259890.
      -2242749.      -2225379.      -2207792.      -2189975.      -2171971.
      -2153765.      -2135332.      -2116681.      -2097773.      -2078633.
      -2059280.      -2039734.      -2020030.      -2000144.      -1980046.
      -1959718.      -1939144.      -1918335.      -1897325.      -1876178.
      -1854916.      -1833494.      -1811869.      -1790010.      -1767895.
      -1745551.      -1723016.      -1700320.      -1677481.      -1654435.
      -1631125.      -1607541.      -1583682.      -1559563.      -1535211.
      -1510634.      -1485851.      -1460883.      -1435632.      -1410030.
      -1384082.      -1357802.      -1331222.      -1304374.      -1277280.
      -1249932.      -1222262.      -1194210.      -1165757.      -1136898.
      -1107666.      -1078102.      -1048241.      -1018079.      -987522.0
      -956498.0      -924989.0      -893030.0      -860674.0      -827953.0
      -794869.0      -761367.0      -727365.0      -692812.0      -657744.0
      -622200.0      -586250.0      -549899.0      -513129.0      -475910.0
      -438161.0      -399919.0      -361239.0      -322177.0      -282774.0
      -243007.0      -202854.0      -162297.0      -121330.0      -79979.00
      -38284.00       3720.000       46026.00       88684.00       131690.0
       175022.0       218682.0       262628.0       306869.0       351444.0
       396306.0       441426.0       486793.0       532385.0       578241.0
       624357.0       670682.0       717195.0       763866.0       810676.0
       857644.0       904795.0       952140.0       999620.0       1047206.
       1094898.       1142690.       1190641.       1238728.       1286900.
       1335168.       1383525.       1431954.       1480464.       1529090.
       1577804.       1626607.       1675498.       1724470.       1773546.
       1822717.       1871942.       1921194.       1970516.       2019914.
       2069359.       2118846.       2168355.       2217879.       2267445.
       2317056.       2366715.       2416386.       2466045.       2515716.
       2565390.       2615064.       2664696.       2714283.       2763854.
       2813421.       2862954.       2912422.       2961874.       3011337.
       3060815.       3110298.       3159791.       3209299.       3258826.
       3308378.       3357952.       3407575.       3457211.       3506864.
       3556602.       3606371.       3656141.       3705952.       3755824.
       3805749.       3855716.       3905704.       3955731.       4005804.
       4055891.       4106030.       4156183.       4206373.       4256607.
       4306838.       4357100.       4407358.       4457617.       4507892.
       4558172.       4608446.       4658713.       4708992.       4759283.
       4809568.       4859866.       4910195.       4960546.       5010941.
       5061361.       5111779.       5162222.       5212705.       5263181.
       5313615.       5364060.       5414499.       5464905.       5515288.
       5565674.       5616056.       5666385.       5716696.       5767004.
       5817296.       5867578.       5917860.       5968147.       6018452.
       6068779.       6119126.       6169505.       6219933.       6270418.
       6320965.       6371580.       6422255.       6473034.       6523917.
       6574878.       6625945.       6677123.       6728407.       6779817.
       6831345.       6882966.       6934692.       6986554.       7038548.
       7090637.       7142830.       7195140.       7247559.       7300081.
       7352701.       7405422.       7458245.       7511159.       7564188.
       7617302.       7670455.       7723691.       7776975.       7830277.
       7883609.       7936949.       7990256.       8043496.       8096687.
       8149814.       8202850.       8255813.       8308696.       8361446.
       8414045.       8466530.       8518884.       8571051.       8623037.
       8674831.       8726413.       8777822.       8829046.       8880069.
       8930905.       8981546.       9031999.       9082236.       9132274.
       9182101.       9231692.       9281097.       9330311.       9379318.
       9428127.       9476754.       9525225.       9573516.       9621610.
       9669528.       9717258.       9764810.       9812187.       9859347.
       9906309.       9953072.       9999609.   1.004595e+07   1.009209e+07
   1.013800e+07   1.018374e+07   1.022928e+07   1.027460e+07   1.031973e+07
   1.036462e+07   1.040932e+07   1.045380e+07   1.049801e+07   1.054197e+07
   1.058570e+07   1.062920e+07   1.067244e+07   1.071543e+07   1.075820e+07
   1.080073e+07   1.084303e+07   1.088512e+07   1.092696e+07   1.096858e+07
   1.100996e+07   1.105111e+07   1.109204e+07   1.113271e+07   1.117316e+07
   1.121337e+07   1.125331e+07   1.129305e+07   1.133256e+07   1.137185e+07
   1.141095e+07   1.144982e+07   1.148845e+07   1.152690e+07   1.156511e+07
   1.160313e+07   1.164097e+07   1.167859e+07   1.171605e+07   1.175333e+07
   1.179041e+07   1.182736e+07   1.186416e+07   1.190080e+07   1.193730e+07
   1.197365e+07   1.200988e+07   1.204598e+07   1.208194e+07   1.211778e+07
   1.215349e+07   1.218906e+07   1.222451e+07   1.225984e+07   1.229501e+07
   1.233007e+07   1.236502e+07   1.239985e+07   1.243458e+07   1.246922e+07
   1.250373e+07   1.253815e+07   1.257254e+07   1.260684e+07   1.264103e+07
   1.267515e+07   1.270916e+07   1.274307e+07   1.277692e+07   1.281063e+07
   1.284423e+07   1.287772e+07   1.291107e+07   1.294428e+07   1.297736e+07
   1.301032e+07   1.304313e+07   1.307580e+07   1.310831e+07   1.314065e+07
   1.317282e+07   1.320481e+07   1.323666e+07   1.326833e+07   1.329980e+07
   1.333111e+07   1.336226e+07   1.339327e+07   1.342411e+07   1.345480e+07
   1.348535e+07   1.351577e+07   1.354605e+07   1.357622e+07   1.360626e+07
   1.363618e+07   1.366600e+07   1.369570e+07   1.372524e+07   1.375466e+07
   1.378396e+07   1.381313e+07   1.384218e+07   1.387111e+07   1.389988e+07
   1.392852e+07   1.395704e+07   1.398540e+07   1.401359e+07   1.404163e+07
   1.406950e+07   1.409718e+07   1.412469e+07   1.415200e+07   1.417907e+07
   1.420589e+07   1.423248e+07   1.425881e+07   1.428485e+07   1.431062e+07
   1.433610e+07   1.436127e+07   1.438613e+07   1.441069e+07   1.443491e+07
   1.445877e+07   1.448233e+07   1.450554e+07   1.452842e+07   1.455097e+07
   1.457319e+07   1.459510e+07   1.461667e+07   1.463791e+07   1.465880e+07
   1.467937e+07   1.469959e+07   1.471946e+07   1.473898e+07   1.475818e+07
   1.477700e+07   1.479547e+07   1.481361e+07   1.483137e+07   1.484879e+07
   1.486583e+07   1.488248e+07   1.489873e+07   1.491455e+07   1.492998e+07
   1.494498e+07   1.495955e+07   1.497369e+07   1.498737e+07   1.500059e+07
   1.501336e+07   1.502565e+07   1.503747e+07   1.504880e+07   1.505965e+07
   1.507002e+07   1.507986e+07   1.508919e+07   1.509803e+07   1.510633e+07
   1.511408e+07   1.512131e+07   1.512798e+07   1.513407e+07   1.513959e+07
   1.514452e+07   1.514884e+07   1.515256e+07   1.515568e+07   1.515818e+07
   1.516008e+07   1.516139e+07   1.516210e+07   1.516222e+07   1.516176e+07
   1.516072e+07   1.515910e+07   1.515692e+07   1.515417e+07   1.515083e+07
   1.514693e+07   1.514247e+07   1.513744e+07   1.513184e+07   1.512570e+07
   1.511901e+07   1.511173e+07   1.510391e+07   1.509553e+07   1.508656e+07
   1.507702e+07   1.506690e+07   1.505619e+07   1.504486e+07   1.503293e+07
   1.502040e+07   1.500722e+07   1.499342e+07   1.497898e+07   1.496388e+07
   1.494817e+07   1.493179e+07   1.491475e+07   1.489705e+07   1.487870e+07
   1.485972e+07   1.484008e+07   1.481980e+07   1.479888e+07   1.477733e+07
   1.475513e+07   1.473229e+07   1.470880e+07   1.468469e+07   1.465999e+07
   1.463466e+07   1.460871e+07   1.458220e+07   1.455511e+07   1.452747e+07
   1.449930e+07   1.447063e+07   1.444147e+07   1.441184e+07   1.438177e+07
   1.435123e+07   1.432029e+07   1.428895e+07   1.425720e+07   1.422507e+07
   1.419256e+07   1.415966e+07   1.412641e+07   1.409283e+07   1.405892e+07
   1.402467e+07   1.399012e+07   1.395529e+07   1.392019e+07   1.388486e+07
   1.384928e+07   1.381349e+07   1.377753e+07   1.374136e+07   1.370500e+07
   1.366847e+07   1.363180e+07   1.359498e+07   1.355803e+07   1.352098e+07
   1.348382e+07   1.344655e+07   1.340918e+07   1.337171e+07   1.333417e+07
   1.329653e+07   1.325878e+07   1.322094e+07   1.318301e+07   1.314498e+07
   1.310688e+07   1.306868e+07   1.303040e+07   1.299206e+07   1.295361e+07
   1.291510e+07   1.287653e+07   1.283786e+07   1.279908e+07   1.276022e+07
   1.272124e+07   1.268216e+07   1.264296e+07   1.260365e+07   1.256422e+07
   1.252470e+07   1.248505e+07   1.244532e+07   1.240550e+07   1.236558e+07
   1.232559e+07   1.228553e+07   1.224540e+07   1.220519e+07   1.216492e+07
   1.212462e+07   1.208426e+07   1.204387e+07   1.200344e+07   1.196300e+07
   1.192252e+07   1.188202e+07   1.184151e+07   1.180098e+07   1.176046e+07
   1.171995e+07   1.167942e+07   1.163893e+07   1.159844e+07   1.155798e+07
   1.151759e+07   1.147725e+07   1.143699e+07   1.139679e+07   1.135666e+07
   1.131661e+07   1.127667e+07   1.123681e+07   1.119701e+07   1.115730e+07
   1.111768e+07   1.107813e+07   1.103865e+07   1.099927e+07   1.095998e+07
   1.092078e+07   1.088170e+07   1.084275e+07   1.080388e+07   1.076516e+07
   1.072658e+07   1.068815e+07   1.064990e+07   1.061177e+07   1.057381e+07
   1.053605e+07   1.049844e+07   1.046102e+07   1.042379e+07   1.038672e+07
   1.034983e+07   1.031310e+07   1.027654e+07   1.024013e+07   1.020387e+07
   1.016780e+07   1.013190e+07   1.009615e+07   1.006059e+07   1.002522e+07
       9990044.       9955100.       9920354.       9885814.       9851489.
       9817335.       9783394.       9749663.       9716119.       9682792.
       9649646.       9616673.       9583873.       9551220.       9518757.
       9486459.       9454291.       9422310.       9390451.       9358680.
       9327051.       9295530.       9264108.       9232759.       9201493.
       9170307.       9139160.       9108096.       9077090.       9046139.
       9015248.       8984388.       8953588.       8922828.       8892102.
       8861399.       8830689.       8799984.       8769284.       8738565.
       8707829.       8677069.       8646298.       8615545.       8584766.
       8553962.       8523152.       8492311.       8461441.       8430531.
       8399561.       8368536.       8337469.       8306349.       8275148.
       8243862.       8212495.       8181049.       8149522.       8117901.
       8086176.       8054352.       8022441.       7990425.       7958313.
       7926120.       7893810.       7861394.       7828887.       7796244.
       7763469.       7730560.       7697488.       7664290.       7630955.
       7597447.       7563787.       7529968.       7495993.       7461860.
       7427543.       7393050.       7358369.       7323485.       7288400.
       7253109.       7217617.       7181921.       7146001.       7109879.
       7073585.       7037095.       7000414.       6963543.       6926471.
       6889230.       6851805.       6814185.       6776376.       6738371.
       6700194.       6661835.       6623294.       6584562.       6545656.
       6506609.       6467380.       6427986.       6388422.       6348686.
       6308781.       6268692.       6228458.       6188056.       6147486.
       6106745.       6065825.       6024749.       5983497.       5942100.
       5900543.       5858803.       5816914.       5774847.       5732594.
       5690133.       5647452.       5604564.       5561467.       5518157.
       5474606.       5430836.       5386820.       5342537.       5298022.
       5253235.       5208163.       5162842.       5117259.       5071374.
       5025206.       4978784.       4932076.       4885105.       4837884.
       4790385.       4742632.       4694632.       4646388.       4597910.
       4549182.       4500252.       4451109.       4401752.       4352236.
       4302557.       4252714.       4202707.       4152596.       4102306.
       4051842.       4001289.       3950565.       3899716.       3848731.
       3797576.       3746307.       3694910.       3643407.       3591796.
       3540079.       3488260.       3436338.       3384355.       3332268.
       3280075.       3227817.       3175481.       3123065.       3070548.
       3017965.       2965319.       2912598.       2859836.       2806992.
       2754060.       2701057.       2647965.       2594755.       2541421.
       2487999.       2434453.       2380777.       2326983.       2273056.
