     0.05000000      -12345.00      -12345.00   1.137910e+09      -12345.00
   0.0005380000       1859.951      -450.0196      -12345.00      -12345.00
      -12345.00      -12345.00      -12345.00      -12345.00      -12345.00
      -12345.00      -12345.00      -12345.00      -12345.00      -12345.00
      -12345.00      -12345.00      -12345.00      -12345.00      -12345.00
      -12345.00      -12345.00      -12345.00      -12345.00      -12345.00
      -12345.00      -89.92890       144.4382       2847.000       3.000000
      -42.72450       173.0647      -12345.00       22.00000      -12345.00
      -12345.00      -12345.00      -12345.00      -12345.00      -12345.00
      -12345.00      -12345.00      -12345.00      -12345.00      -12345.00
       5270.900       180.0466       28.65800       47.40445      -12345.00
      -12345.00      -12345.00       0.000000       0.000000      -12345.00
      -12345.00      -12345.00      -12345.00      -12345.00      -12345.00
      -12345.00      -12345.00      -12345.00      -12345.00      -12345.00
      2016       318        11        10        29
        19         6    -12345    -12345     37200
    -12345    -12345    -12345    -12345    -12345
         1    -12345    -12345    -12345    -12345
    -12345    -12345    -12345    -12345    -12345
    -12345    -12345    -12345    -12345    -12345
    -12345    -12345    -12345    -12345    -12345
         1    -12345    -12345    -12345    -12345
QSPA    South Island, Ne
80      -12345  -12345  
-12345  -12345  -12345  
-12345  -12345  -12345  
-12345  -12345  -12345  
-12345  -12345  -12345  
-12345  -12345  BHZ     
IU      -12345  Streckei
[...]
      -2056.000      -2424.000      -2818.000      -3232.000      -3662.000
      -4133.000      -4605.000      -5114.000      -5596.000      -6113.000
      -6669.000      -7186.000      -7762.000      -8314.000      -8904.000
      -9495.000      -10058.00      -10696.00      -11299.00      -11895.00
      -12543.00      -13152.00      -13788.00      -14440.00      -15048.00
      -15688.00      -16320.00      -16956.00      -17591.00      -18231.00
      -18868.00      -19505.00      -20153.00      -20786.00      -21443.00
      -22063.00      -22703.00      -23347.00      -23971.00      -24595.00
      -25232.00      -25872.00      -26485.00      -27139.00      -27758.00
      -28414.00      -29079.00      -29737.00      -30428.00      -31087.00
      -31772.00      -32471.00      -33206.00      -33936.00      -34676.00
      -35439.00      -36178.00      -36954.00      -37728.00      -38509.00
      -39314.00      -40098.00      -40898.00      -41693.00      -42500.00
      -43316.00      -44122.00      -44934.00      -45731.00      -46554.00
      -47350.00      -48134.00      -48935.00      -49704.00      -50449.00
      -51180.00      -51911.00      -52602.00      -53295.00      -53964.00
      -54597.00      -55216.00      -55791.00      -56360.00      -56901.00
      -57433.00      -57916.00      -58368.00      -58798.00      -59190.00
      -59578.00      -59927.00      -60259.00      -60542.00      -60799.00
      -61047.00      -61234.00      -61399.00      -61536.00      -61642.00
      -61702.00      -61735.00      -61762.00      -61738.00      -61692.00
      -61607.00      -61476.00      -61354.00      -61191.00      -61006.00
      -60811.00      -60559.00      -60319.00      -60070.00      -59787.00
      -59495.00      -59192.00      -58882.00      -58558.00      -58206.00
      -57836.00      -57458.00      -57071.00      -56693.00      -56273.00
      -55857.00      -55439.00      -54985.00      -54563.00      -54129.00
      -53689.00      -53249.00      -52840.00      -52443.00      -52023.00
      -51652.00      -51288.00      -50928.00      -50613.00      -50305.00
      -50046.00      -49800.00      -49572.00      -49393.00      -49212.00
      -49091.00      -48976.00      -48863.00      -48798.00      -48732.00
      -48689.00      -48669.00      -48656.00      -48627.00      -48619.00
      -48627.00      -48607.00      -48607.00      -48608.00      -48595.00
      -48573.00      -48543.00      -48488.00      -48407.00      -48317.00
      -48191.00      -48064.00      -47890.00      -47699.00      -47496.00
      -47225.00      -46957.00      -46634.00      -46271.00      -45893.00
      -45481.00      -45040.00      -44564.00      -44063.00      -43527.00
      -42973.00      -42377.00      -41785.00      -41163.00      -40482.00
      -39813.00      -39067.00      -38277.00      -37495.00      -36631.00
      -35731.00      -34822.00      -33855.00      -32856.00      -31839.00
      -30790.00      -29722.00      -28644.00      -27533.00      -26407.00
      -25256.00      -24094.00      -22926.00      -21748.00      -20591.00
      -19405.00      -18220.00      -17041.00      -15832.00      -14627.00
      -13414.00      -12176.00      -10942.00      -9695.000      -8443.000
      -7201.000      -5925.000      -4673.000      -3435.000      -2189.000
      -959.0000       262.0000       1471.000       2676.000       3870.000
       5069.000       6239.000       7404.000       8553.000       9689.000
       10845.00       11973.00       13086.00       14187.00       15278.00
       16366.00       17438.00       18516.00       19592.00       20655.00
       21729.00       22806.00       23866.00       24926.00       25986.00
       27063.00       28146.00       29219.00       30301.00       31388.00
       32500.00       33597.00       34709.00       35836.00       36949.00
       38105.00       39237.00       40389.00       41567.00       42720.00
       43900.00       45091.00       46297.00       47485.00       48687.00
       49910.00       51115.00       52340.00       53570.00       54801.00
       56023.00       57233.00       58446.00       59679.00       60903.00
       62088.00       63293.00       64502.00       65696.00       66908.00
       68119.00       69324.00       70555.00       71792.00       73030.00
       74282.00       75545.00       76829.00       78124.00       79416.00
       80716.00       82013.00       83333.00       84672.00       85977.00
       87302.00       88620.00       89931.00       91245.00       92550.00
       93856.00       95106.00       96367.00       97619.00       98842.00
       100061.0       101273.0       102454.0       103603.0       104757.0
       105874.0       106980.0       108069.0       109114.0       110141.0
       111142.0       112118.0       113060.0       113983.0       114895.0
       115786.0       116649.0       117470.0       118280.0       119052.0
       119801.0       120546.0       121244.0       121933.0       122601.0
       123238.0       123877.0       124494.0       125090.0       125687.0
       126289.0       126879.0       127450.0       128014.0       128568.0
       129110.0       129660.0       130215.0       130750.0       131302.0
       131861.0       132394.0       132957.0       133518.0       134075.0
       134655.0       135221.0       135821.0       136408.0       137006.0
       137634.0       138227.0       138849.0       139454.0       140062.0
       140683.0       141276.0       141900.0       142467.0       143032.0
       143616.0       144151.0       144693.0       145209.0       145726.0
       146203.0       146647.0       147090.0       147506.0       147908.0
       148261.0       148599.0       148938.0       149242.0       149516.0
       149786.0       150009.0       150249.0       150447.0       150547.0
       150707.0       150836.0       150882.0       150927.0       150939.0
       150907.0       150860.0       150775.0       150669.0       150534.0
       150359.0       150152.0       149907.0       149635.0       149309.0
       148964.0       148552.0       148111.0       147662.0       147137.0
       146620.0       146034.0       145400.0       144740.0       144019.0
       143293.0       142494.0       141674.0       140831.0       139939.0
       139042.0       138107.0       137159.0       136179.0       135173.0
       134148.0       133110.0       132067.0       130990.0       129930.0
       128841.0       127734.0       126633.0       125488.0       124352.0
       123224.0       122079.0       120926.0       119762.0       118594.0
       117431.0       116269.0       115109.0       113936.0       112767.0
       111605.0       110426.0       109255.0       108089.0       106912.0
       105730.0       104572.0       103401.0       102221.0       101071.0
       99933.00       98783.00       97651.00       96562.00       95457.00
       94382.00       93323.00       92273.00       91241.00       90205.00
       89227.00       88243.00       87259.00       86317.00       85394.00
       84484.00       83606.00       82746.00       81881.00       81045.00
       80216.00       79393.00       78578.00       77768.00       76983.00
       76205.00       75428.00       74675.00       73933.00       73181.00
       72440.00       71697.00       70956.00       70226.00       69471.00
       68716.00       67963.00       67194.00       66436.00       65672.00
       64894.00       64120.00       63340.00       62554.00       61763.00
       60976.00       60191.00       59398.00       58608.00       57813.00
       57043.00       56284.00       55502.00       54736.00       53979.00
       53219.00       52455.00       51692.00       50948.00       50199.00
       49446.00       48693.00       47938.00       47190.00       46440.00
       45689.00       44937.00       44170.00       43409.00       42656.00
       41895.00       41134.00       40383.00       39622.00       38822.00
       38050.00       37264.00       36432.00       35611.00       34750.00
       33863.00       32961.00       32012.00       31056.00       30092.00
       29088.00       28051.00       27002.00       25955.00       24845.00
       23726.00       22618.00       21441.00       20272.00       19080.00
       17868.00       16636.00       15362.00       14103.00       12784.00
       11446.00       10105.00       8720.000       7330.000       5913.000
       4489.000       3056.000       1586.000       117.0000      -1375.000
      -2888.000      -4399.000      -5922.000      -7445.000      -8996.000
      -10534.00      -12086.00      -13642.00      -15176.00      -16748.00
      -18296.00      -19855.00      -21415.00      -22963.00      -24533.00
      -26075.00      -27624.00      -29160.00      -30699.00      -32238.00
      -33748.00      -35267.00      -36782.00      -38283.00      -39772.00
      -41256.00      -42726.00      -44190.00      -45664.00      -47119.00
      -48575.00      -50037.00      -51465.00      -52884.00      -54304.00
      -55713.00      -57102.00      -58490.00      -59864.00      -61221.00
      -62584.00      -63922.00      -65248.00      -66547.00      -67829.00
      -69103.00      -70347.00      -71578.00      -72782.00      -73977.00
      -75146.00      -76304.00      -77455.00      -78575.00      -79690.00
      -80772.00      -81860.00      -82938.00      -83986.00      -85049.00
      -86075.00      -87107.00      -88139.00      -89143.00      -90168.00
      -91176.00      -92183.00      -93197.00      -94212.00      -95236.00
      -96237.00      -97251.00      -98255.00      -99259.00      -100269.0
      -101264.0      -102270.0      -103283.0      -104304.0      -105306.0
      -106323.0      -107355.0      -108366.0      -109376.0      -110387.0
      -111388.0      -112363.0      -113341.0      -114308.0      -115257.0
      -116203.0      -117141.0      -118076.0      -119001.0      -119918.0
      -120823.0      -121726.0      -122602.0      -123457.0      -124318.0
      -125147.0      -125974.0      -126783.0      -127547.0      -128312.0
      -129055.0      -129774.0      -130470.0      -131151.0      -131825.0
      -132467.0      -133103.0      -133747.0      -134370.0      -134997.0
      -135624.0      -136236.0      -136879.0      -137518.0      -138166.0
      -138825.0      -139479.0      -140161.0      -140834.0      -141533.0
      -142226.0      -142921.0      -143650.0      -144360.0      -145096.0
      -145826.0      -146568.0      -147337.0      -148101.0      -148882.0
      -149655.0      -150452.0      -151269.0      -152095.0      -152941.0
      -153813.0      -154708.0      -155597.0      -156491.0      -157407.0
      -158354.0      -159342.0      -160331.0      -161318.0      -162330.0
      -163326.0      -164356.0      -165425.0      -166464.0      -167508.0
      -168567.0      -169664.0      -170765.0      -171846.0      -172965.0
      -174099.0      -175206.0      -176285.0      -177411.0      -178565.0
      -179696.0      -180787.0      -181896.0      -183094.0      -184212.0
      -185252.0      -186379.0      -187565.0      -188637.0      -189661.0
      -190805.0      -191930.0      -192930.0      -193957.0      -195080.0
      -196126.0      -197092.0      -198136.0      -199188.0      -200139.0
      -201107.0      -202074.0      -203011.0      -203956.0      -204841.0
      -205716.0      -206597.0      -207463.0      -208270.0      -209085.0
      -209905.0      -210663.0      -211453.0      -212214.0      -212952.0
      -213706.0      -214416.0      -215122.0      -215855.0      -216544.0
      -217230.0      -217954.0      -218623.0      -219310.0      -220004.0
      -220636.0      -221298.0      -221961.0      -222584.0      -223200.0
      -223813.0      -224419.0      -225022.0      -225605.0      -226204.0
      -226820.0      -227414.0      -228021.0      -228630.0      -229239.0
      -229867.0      -230474.0      -231057.0      -231666.0      -232286.0
      -232887.0      -233500.0      -234118.0      -234743.0      -235374.0
      -235995.0      -236618.0      -237234.0      -237865.0      -238486.0
      -239083.0      -239675.0      -240258.0      -240864.0      -241438.0
      -241999.0      -242550.0      -243079.0      -243603.0      -244090.0
      -244593.0      -245072.0      -245516.0      -245955.0      -246362.0
      -246763.0      -247158.0      -247545.0      -247927.0      -248275.0
      -248624.0      -248978.0      -249344.0      -249706.0      -250028.0
      -250338.0      -250660.0      -251011.0      -251316.0      -251593.0
      -251897.0      -252221.0      -252523.0      -252743.0      -252991.0
      -253268.0      -253479.0      -253619.0      -253782.0      -253962.0
      -254045.0      -254058.0      -254135.0      -254208.0      -254155.0
      -254085.0      -254036.0      -253965.0      -253796.0      -253613.0
      -253479.0      -253241.0      -252975.0      -252729.0      -252414.0
      -252065.0      -251713.0      -251318.0      -250882.0      -250425.0
      -249926.0      -249387.0      -248840.0      -248259.0      -247622.0
      -246975.0      -246296.0      -245568.0      -244813.0      -244034.0
      -243218.0      -242378.0      -241526.0      -240621.0      -239696.0
      -238754.0      -237774.0      -236779.0      -235748.0      -234706.0
      -233640.0      -232540.0      -231422.0      -230286.0      -229130.0
      -227950.0      -226779.0      -225567.0      -224334.0      -223097.0
      -221812.0      -220525.0      -219194.0      -217842.0      -216465.0
      -215054.0      -213620.0      -212146.0      -210649.0      -209104.0
      -207566.0      -205967.0      -204336.0      -202702.0      -201000.0
      -199306.0      -197563.0      -195790.0      -194023.0      -192210.0
      -190398.0      -188563.0      -186713.0      -184873.0      -183002.0
      -181119.0      -179237.0      -177346.0      -175427.0      -173514.0
      -171601.0      -169652.0      -167727.0      -165768.0      -163815.0
      -161864.0      -159836.0      -157853.0      -155846.0      -153813.0
      -151808.0      -149770.0      -147749.0      -145725.0      -143680.0
      -141644.0      -139620.0      -137596.0      -135560.0      -133520.0
      -131501.0      -129466.0      -127421.0      -125380.0      -123332.0
      -121278.0      -119190.0      -117112.0      -115030.0      -112936.0
      -110841.0      -108719.0      -106620.0      -104506.0      -102388.0
      -100287.0      -98168.00      -96055.00      -93954.00      -91838.00
      -89728.00      -87633.00      -85511.00      -83417.00      -81351.00
      -79247.00      -77152.00      -75058.00      -72945.00      -70848.00
      -68752.00      -66641.00      -64530.00      -62411.00      -60306.00
      -58221.00      -56112.00      -54020.00      -51935.00      -49839.00
      -47765.00      -45672.00      -43577.00      -41509.00      -39433.00
      -37347.00      -35279.00      -33206.00      -31107.00      -29028.00
      -26936.00      -24829.00      -22759.00      -20664.00      -18571.00
      -16503.00      -14420.00      -12370.00      -10331.00      -8291.000
      -6265.000      -4266.000      -2282.000      -298.0000       1673.000
       3626.000       5582.000       7536.000       9454.000       11401.00
       13330.00       15230.00       17138.00       19005.00       20871.00
       22713.00       24513.00       26314.00       28093.00       29856.00
       31610.00       33341.00       35066.00       36771.00       38461.00
       40138.00       41816.00       43458.00       45088.00       46751.00
       48327.00       49913.00       51518.00       53052.00       54597.00
       56108.00       57621.00       59120.00       60594.00       62083.00
       63517.00       64976.00       66412.00       67833.00       69269.00
       70688.00       72143.00       73551.00       74968.00       76404.00
       77802.00       79214.00       80610.00       82008.00       83384.00
       84733.00       86115.00       87459.00       88804.00       90127.00
       91438.00       92758.00       94027.00       95317.00       96597.00
       97877.00       99132.00       100395.0       101662.0       102874.0
       104130.0       105335.0       106515.0       107704.0       108852.0
       110017.0       111152.0       112264.0       113371.0       114449.0
       115509.0       116546.0       117567.0       118578.0       119587.0
       120587.0       121573.0       122549.0       123519.0       124465.0
       125415.0       126366.0       127279.0       128211.0       129136.0
       130063.0       130984.0       131886.0       132841.0       133755.0
       134674.0       135621.0       136558.0       137518.0       138468.0
       139439.0       140422.0       141415.0       142421.0       143422.0
       144434.0       145442.0       146457.0       147470.0       148481.0
       149512.0       150543.0       151574.0       152619.0       153681.0
       154742.0       155788.0       156853.0       157909.0       158962.0
       160002.0       161034.0       162092.0       163099.0       164118.0
       165147.0       166147.0       167127.0       168117.0       169118.0
       170058.0       171001.0       171929.0       172846.0       173759.0
       174655.0       175552.0       176437.0       177315.0       178163.0
       179021.0       179875.0       180716.0       181553.0       182378.0
       183195.0       183987.0       184781.0       185576.0       186354.0
       187131.0       187911.0       188665.0       189431.0       190212.0
       190971.0       191763.0       192516.0       193287.0       194109.0
       194882.0       195686.0       196489.0       197287.0       198129.0
       198947.0       199756.0       200590.0       201424.0       202228.0
       203054.0       203861.0       204663.0       205492.0       206278.0
       207068.0       207854.0       208618.0       209370.0       210116.0
       210825.0       211529.0       212238.0       212900.0       213560.0
       214223.0       214872.0       215490.0       216110.0       216707.0
       217283.0       217851.0       218378.0       218886.0       219368.0
       219837.0       220261.0       220674.0       221048.0       221369.0
