     0.02500000      -12345.00      -12345.00   3.177270e+10      -12345.00
   0.0005360000       1859.976      -450.0195      -12345.00      -12345.00
      -12345.00      -12345.00      -12345.00      -12345.00      -12345.00
      -12345.00      -12345.00      -12345.00      -12345.00      -12345.00
      -12345.00      -12345.00      -12345.00      -12345.00      -12345.00
      -12345.00      -12345.00      -12345.00      -12345.00      -12345.00
      -12345.00      -89.92890       144.4382       2703.700       146.3000
      -42.72450       173.0647      -12345.00       22.00000      -12345.00
      -12345.00      -12345.00      -12345.00      -12345.00      -12345.00
      -12345.00      -12345.00      -12345.00      -12345.00      -12345.00
       5270.900       180.0466       28.65800       47.40445      -12345.00
      -12345.00      -12345.00       0.000000       0.000000      -12345.00
      -12345.00      -12345.00      -12345.00      -12345.00      -12345.00
      -12345.00      -12345.00      -12345.00      -12345.00      -12345.00
      2016       318        11        10        29
        19         6    -12345    -12345     74400
    -12345    -12345    -12345    -12345    -12345
         1    -12345    -12345    -12345    -12345
    -12345    -12345    -12345    -12345    -12345
    -12345    -12345    -12345    -12345    -12345
    -12345    -12345    -12345    -12345    -12345
         1    -12345    -12345    -12345    -12345
QSPA    South Island, Ne
70      -12345  -12345  
-12345  -12345  -12345  
-12345  -12345  -12345  
-12345  -12345  -12345  
-12345  -12345  -12345  
-12345  -12345  BHZ     
IU      -12345  Guralp C
[...]
       3831220.       3816212.       3801158.       3786040.       3770809.
       3755486.       3740048.       3724487.       3708887.       3693162.
       3677333.       3661501.       3645602.       3629654.       3613707.
       3597688.       3581589.       3565459.       3549279.       3533002.
       3516654.       3500281.       3483906.       3467530.       3451079.
       3434640.       3418244.       3401829.       3385432.       3368979.
       3352506.       3336040.       3319537.       3303004.       3286462.
       3269929.       3253355.       3236794.       3220213.       3203575.
       3186951.       3170292.       3153617.       3136967.       3120307.
       3103654.       3087052.       3070431.       3053794.       3037190.
       3020596.       3004065.       2987535.       2971039.       2954677.
       2938367.       2922128.       2905985.       2889897.       2873925.
       2858099.       2842328.       2826666.       2811136.       2795656.
       2780272.       2765011.       2749842.       2734733.       2719748.
       2704874.       2690069.       2675367.       2660746.       2646263.
       2631907.       2617634.       2603481.       2589474.       2575556.
       2561755.       2548134.       2534627.       2521282.       2508084.
       2495017.       2482117.       2469341.       2456665.       2444033.
       2431468.       2419046.       2406694.       2394372.       2382195.
       2370088.       2357984.       2345980.       2334038.       2322108.
       2310254.       2298506.       2286821.       2275260.       2263780.
       2252354.       2241035.       2229747.       2218553.       2207405.
       2196289.       2185272.       2174228.       2163184.       2152208.
       2141236.       2130229.       2119248.       2108296.       2097314.
       2086330.       2075303.       2064200.       2053089.       2041933.
       2030699.       2019492.       2008246.       1996951.       1985701.
       1974409.       1963081.       1951735.       1940327.       1928895.
       1917473.       1905977.       1894414.       1882882.       1871278.
       1859648.       1848068.       1836446.       1824828.       1813194.
       1801517.       1789872.       1778201.       1766494.       1754823.
       1743149.       1731501.       1719944.       1708413.       1696930.
       1685540.       1674148.       1662752.       1651399.       1640038.
       1628676.       1617380.       1606106.       1594819.       1583580.
       1572334.       1561081.       1549897.       1538680.       1527482.
       1516357.       1505193.       1494086.       1482972.       1471792.
       1460677.       1449489.       1438261.       1427155.       1416016.
       1404844.       1393757.       1382581.       1371359.       1360215.
       1348958.       1337705.       1326502.       1315180.       1303894.
       1292701.       1281412.       1270114.       1258878.       1247524.
       1236205.       1224918.       1213526.       1202217.       1190916.
       1179440.       1167945.       1156437.       1144769.       1133106.
       1121338.       1109441.       1097592.       1085526.       1073303.
       1061041.       1048518.       1035813.       1023010.       1009940.
       996669.0       983307.0       969688.0       955913.0       942103.0
       928044.0       913818.0       899562.0       885021.0       870290.0
       855510.0       840413.0       825228.0       809981.0       794402.0
       778824.0       763160.0       747228.0       731305.0       715197.0
       698789.0       682339.0       665683.0       648810.0       631942.0
       614857.0       597576.0       580322.0       562883.0       545205.0
       527524.0       509657.0       491560.0       473415.0       454992.0
       436423.0       417833.0       398923.0       379831.0       360698.0
       341288.0       321748.0       302112.0       282139.0       262146.0
       242101.0       221780.0       201485.0       181095.0       160482.0
       139895.0       119191.0       98255.00       77292.00       56185.00
       34905.00       13620.00      -7878.000      -29519.00      -51079.00
      -72774.00      -94590.00      -116383.0      -138273.0      -160251.0
      -182215.0      -204300.0      -226460.0      -248528.0      -270725.0
      -293001.0      -315197.0      -337533.0      -359878.0      -382132.0
      -404498.0      -426836.0      -449136.0      -471571.0      -493944.0
      -516264.0      -538743.0      -561154.0      -583512.0      -605974.0
      -628285.0      -650634.0      -673077.0      -695352.0      -717706.0
      -740068.0      -762271.0      -784501.0      -806721.0      -828825.0
      -850919.0      -872997.0      -894971.0      -917003.0      -938987.0
      -960808.0      -982709.0      -1004576.      -1026253.      -1047966.
      -1069648.      -1091125.      -1112647.      -1134119.      -1155396.
      -1176792.      -1198125.      -1219278.      -1240550.      -1261740.
      -1282835.      -1304004.      -1325024.      -1346027.      -1367056.
      -1387920.      -1408823.      -1429677.      -1450351.      -1471039.
      -1491640.      -1512081.      -1532479.      -1552804.      -1573009.
      -1593205.      -1613382.      -1633396.      -1653400.      -1673371.
      -1693122.      -1712876.      -1732608.      -1752190.      -1771806.
      -1791307.      -1810636.      -1829967.      -1849085.      -1868012.
      -1886910.      -1905599.      -1924160.      -1942661.      -1961013.
      -1979254.      -1997338.      -2015274.      -2033063.      -2050730.
      -2068289.      -2085698.      -2103019.      -2120182.      -2137236.
      -2154197.      -2170960.      -2187742.      -2204396.      -2220803.
      -2237251.      -2253525.      -2269591.      -2285691.      -2301663.
      -2317510.      -2333321.      -2349049.      -2364704.      -2380325.
      -2395826.      -2411169.      -2426479.      -2441706.      -2456864.
      -2472022.      -2487093.      -2502147.      -2517208.      -2532119.
      -2547014.      -2561922.      -2576706.      -2591518.      -2606331.
      -2621116.      -2635963.      -2650813.      -2665665.      -2680513.
      -2695379.      -2710238.      -2725096.      -2739982.      -2754769.
      -2769589.      -2784415.      -2799157.      -2814002.      -2828730.
      -2843384.      -2858130.      -2872767.      -2887393.      -2902093.
      -2916817.      -2931561.      -2946350.      -2961161.      -2975952.
      -2990784.      -3005603.      -3020421.      -3035267.      -3050081.
      -3064980.      -3079932.      -3094817.      -3109700.      -3124523.
      -3139289.      -3154076.      -3168808.      -3183421.      -3198016.
      -3212579.      -3226957.      -3241336.      -3255666.      -3269811.
      -3284006.      -3298103.      -3312123.      -3326182.      -3340065.
      -3353921.      -3367772.      -3381490.      -3395195.      -3408900.
      -3422553.      -3436149.      -3449693.      -3463127.      -3476478.
      -3489790.      -3502974.      -3516064.      -3529083.      -3542012.
      -3554789.      -3567450.      -3580084.      -3592554.      -3604929.
      -3617200.      -3629318.      -3641394.      -3653250.      -3664963.
      -3676531.      -3687860.      -3699149.      -3710257.      -3721193.
      -3732100.      -3742844.      -3753400.      -3763862.      -3774205.
      -3784349.      -3794394.      -3804340.      -3814156.      -3823890.
      -3833522.      -3843089.      -3852572.      -3862011.      -3871456.
      -3880849.      -3890254.      -3899621.      -3908917.      -3918225.
      -3927534.      -3936879.      -3946213.      -3955627.      -3965159.
      -3974658.      -3984191.      -3993772.      -4003367.      -4013041.
      -4022810.      -4032627.      -4042511.      -4052464.      -4062431.
      -4072487.      -4082616.      -4092729.      -4102917.      -4113186.
      -4123465.      -4133811.      -4144217.      -4154633.      -4165123.
      -4175688.      -4186211.      -4196785.      -4207526.      -4218270.
      -4229018.      -4239900.      -4250906.      -4261926.      -4272914.
      -4284050.      -4295284.      -4306493.      -4317833.      -4329290.
      -4340709.      -4352193.      -4363824.      -4375484.      -4387298.
      -4399287.      -4411311.      -4423556.      -4436046.      -4448614.
      -4461278.      -4474156.      -4487120.      -4499971.      -4512893.
      -4525886.      -4538895.      -4552015.      -4565236.      -4578769.
      -4592617.      -4606607.      -4620833.      -4635219.      -4649635.
      -4664067.      -4678398.      -4692607.      -4706907.      -4721368.
      -4735917.      -4750782.      -4765951.      -4781134.      -4796312.
      -4811427.      -4826472.      -4841478.      -4856465.      -4871670.
      -4887113.      -4902700.      -4918442.      -4934210.      -4949936.
      -4965641.      -4981351.      -4997168.      -5013217.      -5029363.
      -5045453.      -5061464.      -5077280.      -5092990.      -5108661.
      -5124501.      -5140700.      -5157038.      -5173398.      -5189645.
      -5205641.      -5221378.      -5237127.      -5253154.      -5269486.
      -5286134.      -5302661.      -5318768.      -5334526.      -5349878.
      -5365258.      -5381055.      -5397237.      -5413661.      -5429817.
      -5445528.      -5460808.      -5475780.      -5491002.      -5506684.
      -5522724.      -5538692.      -5554145.      -5569096.      -5583656.
      -5598201.      -5613148.      -5628487.      -5643942.      -5659138.
      -5673795.      -5688061.      -5702334.      -5716768.      -5731386.
      -5746160.      -5760704.      -5774805.      -5788634.      -5802283.
      -5815958.      -5829724.      -5843387.      -5856966.      -5870444.
      -5883643.      -5896687.      -5909631.      -5922292.      -5934855.
      -5947406.      -5959904.      -5972433.      -5984744.      -5996699.
      -6008498.      -6020202.      -6031843.      -6043545.      -6055212.
      -6066651.      -6077793.      -6088709.      -6099792.      -6111000.
      -6121983.      -6132830.      -6143483.      -6154039.      -6164642.
      -6175203.      -6185731.      -6196044.      -6206164.      -6216292.
      -6226514.      -6236762.      -6246837.      -6256824.      -6266750.
      -6276763.      -6286912.      -6296919.      -6306852.      -6316646.
      -6326309.      -6336047.      -6345848.      -6355583.      -6365034.
      -6374338.      -6383678.      -6393051.      -6402408.      -6411622.
      -6420709.      -6429695.      -6438652.      -6447592.      -6456409.
      -6465158.      -6473899.      -6482579.      -6491165.      -6499769.
      -6508359.      -6516871.      -6525547.      -6534270.      -6542894.
      -6551564.      -6560162.      -6568764.      -6577476.      -6586204.
      -6594962.      -6603777.      -6612579.      -6621318.      -6630127.
      -6638892.      -6647579.      -6656265.      -6664827.      -6673454.
      -6682127.      -6690761.      -6699481.      -6708195.      -6716915.
      -6725637.      -6734357.      -6743104.      -6751878.      -6760774.
      -6769698.      -6778639.      -6787556.      -6796389.      -6805332.
      -6814268.      -6823152.      -6832097.      -6840967.      -6849786.
      -6858604.      -6867351.      -6876055.      -6884829.      -6893561.
      -6902152.      -6910723.      -6919195.      -6927653.      -6936162.
      -6944511.      -6952838.      -6961191.      -6969393.      -6977478.
      -6985451.      -6993261.      -7001016.      -7008758.      -7016316.
      -7023758.      -7031064.      -7038125.      -7045195.      -7052242.
      -7059183.      -7066100.      -7072841.      -7079373.      -7085841.
      -7092138.      -7098191.      -7104213.      -7110079.      -7115680.
      -7121311.      -7126887.      -7132426.      -7138089.      -7143604.
      -7149054.      -7154452.      -7159583.      -7164588.      -7169447.
      -7174323.      -7179441.      -7184589.      -7189706.      -7194878.
      -7199985.      -7204881.      -7209640.      -7214246.      -7218703.
      -7223156.      -7227683.      -7232353.      -7237152.      -7241904.
      -7246367.      -7250634.      -7254727.      -7258712.      -7262949.
      -7267360.      -7271871.      -7276360.      -7280492.      -7284306.
      -7287837.      -7291108.      -7294495.      -7298139.      -7301794.
      -7305312.      -7308500.      -7311155.      -7313418.      -7315471.
      -7317539.      -7319819.      -7322094.      -7324100.      -7325622.
      -7326555.      -7327102.      -7327572.      -7328229.      -7329058.
      -7329855.      -7330251.      -7330029.      -7329336.      -7328319.
      -7327301.      -7326461.      -7325561.      -7324399.      -7322844.
      -7320786.      -7318401.      -7315975.      -7313616.      -7311269.
      -7308675.      -7305605.      -7302154.      -7298488.      -7294701.
      -7290920.      -7287055.      -7282868.      -7278362.      -7273547.
      -7268447.      -7263317.      -7258068.      -7252477.      -7246696.
      -7240596.      -7234186.      -7227726.      -7221037.      -7214049.
      -7206799.      -7199271.      -7191583.      -7183797.      -7175836.
      -7167605.      -7159136.      -7150357.      -7141290.      -7132108.
      -7122758.      -7113138.      -7103235.      -7093009.      -7082534.
      -7071982.      -7061205.      -7050145.      -7038931.      -7027456.
      -7015802.      -7003997.      -6991951.      -6979729.      -6967249.
      -6954532.      -6941713.      -6928670.      -6915401.      -6902033.
      -6888437.      -6874648.      -6860723.      -6846559.      -6832193.
      -6817675.      -6802978.      -6788113.      -6773140.      -6757951.
      -6742545.      -6727026.      -6711307.      -6695417.      -6679373.
      -6663138.      -6646812.      -6630403.      -6613843.      -6597173.
      -6580370.      -6563410.      -6546399.      -6529240.      -6511840.
      -6494309.      -6476660.      -6458856.      -6440912.      -6422725.
      -6404285.      -6385750.      -6367010.      -6347992.      -6328828.
      -6309452.      -6289896.      -6270193.      -6250241.      -6230058.
      -6209703.      -6189118.      -6168259.      -6147202.      -6125894.
      -6104367.      -6082672.      -6060736.      -6038600.      -6016255.
      -5993684.      -5970908.      -5947904.      -5924631.      -5901158.
      -5877493.      -5853588.      -5829454.      -5805052.      -5780478.
      -5755771.      -5730851.      -5705741.      -5680507.      -5655116.
      -5629546.      -5603849.      -5578009.      -5552032.      -5525961.
      -5499799.      -5473518.      -5447184.      -5420779.      -5394239.
      -5367673.      -5341008.      -5314167.      -5287257.      -5260276.
      -5233218.      -5206102.      -5178856.      -5151574.      -5124282.
      -5096808.      -5069251.      -5041678.      -5014018.      -4986353.
      -4958621.      -4930751.      -4902870.      -4874929.      -4846846.
      -4818753.      -4790613.      -4762348.      -4734015.      -4705548.
      -4676942.      -4648239.      -4619421.      -4590509.      -4561573.
      -4532562.      -4503440.      -4474319.      -4445147.      -4415876.
      -4386592.      -4357297.      -4327964.      -4298590.      -4269165.
      -4239714.      -4210299.      -4180866.      -4151396.      -4121934.
      -4092463.      -4063031.      -4033577.      -4004091.      -3974675.
      -3945233.      -3915697.      -3886170.      -3856640.      -3827055.
      -3797496.      -3767945.      -3738324.      -3708678.      -3678989.
      -3649260.      -3619511.      -3589674.      -3559756.      -3529787.
      -3499727.      -3469540.      -3439234.      -3408899.      -3378514.
      -3348058.      -3317602.      -3287076.      -3256555.      -3225994.
      -3195282.      -3164598.      -3133875.      -3103066.      -3072284.
      -3041454.      -3010613.      -2979820.      -2948984.      -2918162.
      -2887355.      -2856512.      -2825709.      -2794889.      -2764044.
      -2733217.      -2702365.      -2671554.      -2640810.      -2610022.
      -2579245.      -2548543.      -2517776.      -2487028.      -2456341.
      -2425659.      -2395076.      -2364527.      -2333957.      -2303340.
      -2272737.      -2242117.      -2211407.      -2180737.      -2150026.
      -2119316.      -2088642.      -2057886.      -2027173.      -1996453.
      -1965655.      -1934908.      -1904108.      -1873175.      -1842288.
      -1811414.      -1780534.      -1749756.      -1719024.      -1688322.
      -1657664.      -1627023.      -1596320.      -1565627.      -1535016.
      -1504397.      -1473806.      -1443263.      -1412735.      -1382233.
      -1351736.      -1321216.      -1290683.      -1260117.      -1229570.
      -1199103.      -1168649.      -1138271.      -1107951.      -1077583.
      -1047231.      -1016802.      -986266.0      -955785.0      -925277.0
      -894688.0      -864109.0      -833499.0      -802880.0      -772298.0
      -741679.0      -711015.0      -680384.0      -649785.0      -619149.0
      -588549.0      -558004.0      -527415.0      -496871.0      -466435.0
      -436035.0      -405711.0      -375517.0      -345377.0      -315309.0
      -285346.0      -255428.0      -225604.0      -195869.0      -166201.0
      -136634.0      -107211.0      -77922.00      -48683.00      -19499.00
       9598.000       38566.00       67471.00       96319.00       125089.0
       153847.0       182532.0       211209.0       239873.0       268411.0
       296904.0       325351.0       353707.0       382069.0       410413.0
       438618.0       466740.0       494808.0       522751.0       550581.0
       578292.0       605808.0       633171.0       660448.0       687543.0
       714458.0       741232.0       767859.0       794371.0       820738.0
       847044.0       873269.0       899332.0       925328.0       951210.0
       976937.0       1002583.       1028102.       1053509.       1078921.
       1104218.       1129350.       1154426.       1179345.       1204102.
