     0.02500000      -12345.00      -12345.00   2.489740e+09      -12345.00
   0.0005360000       1859.976      -450.0195      -12345.00      -12345.00
      -12345.00      -12345.00      -12345.00      -12345.00      -12345.00
      -12345.00      -12345.00      -12345.00      -12345.00      -12345.00
      -12345.00      -12345.00      -12345.00      -12345.00      -12345.00
      -12345.00      -12345.00      -12345.00      -12345.00      -12345.00
      -12345.00      -89.92890       144.4382       2847.000       3.000000
      -42.72450       173.0647      -12345.00       22.00000      -12345.00
      -12345.00      -12345.00      -12345.00      -12345.00      -12345.00
      -12345.00      -12345.00      -12345.00      -12345.00      -12345.00
       5270.900       180.0466       28.65800       47.40445      -12345.00
      -12345.00      -12345.00       221.0000       90.00000      -12345.00
      -12345.00      -12345.00      -12345.00      -12345.00      -12345.00
      -12345.00      -12345.00      -12345.00      -12345.00      -12345.00
      2016       318        11        10        29
        19         6    -12345    -12345     74400
    -12345    -12345    -12345    -12345    -12345
         1    -12345    -12345    -12345    -12345
    -12345    -12345    -12345    -12345    -12345
    -12345    -12345    -12345    -12345    -12345
    -12345    -12345    -12345    -12345    -12345
         1    -12345    -12345    -12345    -12345
QSPA    South Island, Ne
60      -12345  -12345  
-12345  -12345  -12345  
-12345  -12345  -12345  
-12345  -12345  -12345  
-12345  -12345  -12345  
-12345  -12345  BH1     
IU      -12345  Streckei
[...]
   1.778659e+07   1.778559e+07   1.778461e+07   1.778367e+07   1.778272e+07
   1.778180e+07   1.778084e+07   1.777990e+07   1.777903e+07   1.777811e+07
   1.777721e+07   1.777635e+07   1.777552e+07   1.777467e+07   1.777384e+07
   1.777306e+07   1.777228e+07   1.777154e+07   1.777076e+07   1.777005e+07
   1.776933e+07   1.776858e+07   1.776793e+07   1.776723e+07   1.776651e+07
   1.776582e+07   1.776520e+07   1.776460e+07   1.776395e+07   1.776335e+07
   1.776276e+07   1.776219e+07   1.776167e+07   1.776115e+07   1.776064e+07
   1.776015e+07   1.775969e+07   1.775922e+07   1.775877e+07   1.775839e+07
   1.775799e+07   1.775762e+07   1.775726e+07   1.775695e+07   1.775665e+07
   1.775632e+07   1.775608e+07   1.775583e+07   1.775558e+07   1.775537e+07
   1.775519e+07   1.775503e+07   1.775485e+07   1.775472e+07   1.775461e+07
   1.775455e+07   1.775452e+07   1.775447e+07   1.775449e+07   1.775452e+07
   1.775457e+07   1.775464e+07   1.775473e+07   1.775489e+07   1.775503e+07
   1.775520e+07   1.775541e+07   1.775563e+07   1.775591e+07   1.775618e+07
   1.775650e+07   1.775681e+07   1.775717e+07   1.775756e+07   1.775798e+07
   1.775845e+07   1.775888e+07   1.775939e+07   1.775995e+07   1.776053e+07
   1.776111e+07   1.776171e+07   1.776235e+07   1.776302e+07   1.776377e+07
   1.776449e+07   1.776527e+07   1.776609e+07   1.776693e+07   1.776779e+07
   1.776869e+07   1.776961e+07   1.777057e+07   1.777155e+07   1.777256e+07
   1.777364e+07   1.777471e+07   1.777582e+07   1.777698e+07   1.777815e+07
   1.777930e+07   1.778047e+07   1.778174e+07   1.778302e+07   1.778431e+07
   1.778566e+07   1.778709e+07   1.778854e+07   1.779002e+07   1.779154e+07
   1.779308e+07   1.779466e+07   1.779628e+07   1.779788e+07   1.779954e+07
   1.780128e+07   1.780301e+07   1.780480e+07   1.780659e+07   1.780843e+07
   1.781033e+07   1.781223e+07   1.781418e+07   1.781618e+07   1.781819e+07
   1.782025e+07   1.782235e+07   1.782446e+07   1.782659e+07   1.782877e+07
   1.783097e+07   1.783326e+07   1.783553e+07   1.783784e+07   1.784023e+07
   1.784261e+07   1.784501e+07   1.784745e+07   1.784993e+07   1.785249e+07
   1.785502e+07   1.785757e+07   1.786018e+07   1.786284e+07   1.786553e+07
   1.786822e+07   1.787094e+07   1.787373e+07   1.787653e+07   1.787934e+07
   1.788220e+07   1.788509e+07   1.788799e+07   1.789094e+07   1.789391e+07
   1.789692e+07   1.789998e+07   1.790305e+07   1.790618e+07   1.790934e+07
   1.791250e+07   1.791567e+07   1.791892e+07   1.792217e+07   1.792541e+07
   1.792871e+07   1.793204e+07   1.793538e+07   1.793874e+07   1.794214e+07
   1.794555e+07   1.794900e+07   1.795247e+07   1.795594e+07   1.795944e+07
   1.796298e+07   1.796656e+07   1.797010e+07   1.797366e+07   1.797728e+07
   1.798092e+07   1.798455e+07   1.798820e+07   1.799189e+07   1.799557e+07
   1.799930e+07   1.800304e+07   1.800678e+07   1.801055e+07   1.801432e+07
   1.801812e+07   1.802194e+07   1.802579e+07   1.802966e+07   1.803355e+07
   1.803748e+07   1.804136e+07   1.804528e+07   1.804923e+07   1.805320e+07
   1.805718e+07   1.806116e+07   1.806515e+07   1.806917e+07   1.807319e+07
   1.807718e+07   1.808124e+07   1.808534e+07   1.808940e+07   1.809348e+07
   1.809761e+07   1.810169e+07   1.810581e+07   1.810999e+07   1.811415e+07
   1.811835e+07   1.812256e+07   1.812675e+07   1.813097e+07   1.813519e+07
   1.813944e+07   1.814370e+07   1.814794e+07   1.815224e+07   1.815653e+07
   1.816081e+07   1.816513e+07   1.816943e+07   1.817373e+07   1.817806e+07
   1.818238e+07   1.818669e+07   1.819107e+07   1.819542e+07   1.819977e+07
   1.820415e+07   1.820854e+07   1.821289e+07   1.821727e+07   1.822166e+07
   1.822603e+07   1.823044e+07   1.823485e+07   1.823928e+07   1.824368e+07
   1.824809e+07   1.825252e+07   1.825698e+07   1.826146e+07   1.826589e+07
   1.827036e+07   1.827486e+07   1.827928e+07   1.828368e+07   1.828814e+07
   1.829259e+07   1.829703e+07   1.830145e+07   1.830589e+07   1.831034e+07
   1.831477e+07   1.831920e+07   1.832360e+07   1.832806e+07   1.833248e+07
   1.833691e+07   1.834135e+07   1.834577e+07   1.835021e+07   1.835462e+07
   1.835906e+07   1.836349e+07   1.836787e+07   1.837224e+07   1.837665e+07
   1.838108e+07   1.838542e+07   1.838979e+07   1.839415e+07   1.839853e+07
   1.840290e+07   1.840720e+07   1.841159e+07   1.841593e+07   1.842026e+07
   1.842460e+07   1.842892e+07   1.843323e+07   1.843751e+07   1.844182e+07
   1.844609e+07   1.845042e+07   1.845467e+07   1.845890e+07   1.846322e+07
   1.846744e+07   1.847168e+07   1.847595e+07   1.848020e+07   1.848440e+07
   1.848861e+07   1.849281e+07   1.849700e+07   1.850120e+07   1.850531e+07
   1.850950e+07   1.851366e+07   1.851778e+07   1.852196e+07   1.852607e+07
   1.853017e+07   1.853430e+07   1.853840e+07   1.854244e+07   1.854654e+07
   1.855061e+07   1.855462e+07   1.855866e+07   1.856268e+07   1.856670e+07
   1.857068e+07   1.857466e+07   1.857859e+07   1.858246e+07   1.858636e+07
   1.859023e+07   1.859411e+07   1.859803e+07   1.860188e+07   1.860573e+07
   1.860955e+07   1.861338e+07   1.861721e+07   1.862098e+07   1.862477e+07
   1.862852e+07   1.863227e+07   1.863601e+07   1.863975e+07   1.864344e+07
   1.864710e+07   1.865083e+07   1.865445e+07   1.865808e+07   1.866170e+07
   1.866531e+07   1.866892e+07   1.867246e+07   1.867599e+07   1.867946e+07
   1.868297e+07   1.868648e+07   1.868994e+07   1.869334e+07   1.869671e+07
   1.870013e+07   1.870349e+07   1.870683e+07   1.871016e+07   1.871346e+07
   1.871673e+07   1.871992e+07   1.872314e+07   1.872634e+07   1.872949e+07
   1.873262e+07   1.873572e+07   1.873882e+07   1.874188e+07   1.874490e+07
   1.874789e+07   1.875082e+07   1.875376e+07   1.875670e+07   1.875956e+07
   1.876241e+07   1.876524e+07   1.876801e+07   1.877074e+07   1.877347e+07
   1.877611e+07   1.877873e+07   1.878141e+07   1.878399e+07   1.878650e+07
   1.878895e+07   1.879142e+07   1.879384e+07   1.879619e+07   1.879856e+07
   1.880086e+07   1.880314e+07   1.880538e+07   1.880754e+07   1.880969e+07
   1.881182e+07   1.881393e+07   1.881594e+07   1.881793e+07   1.881992e+07
   1.882183e+07   1.882368e+07   1.882550e+07   1.882731e+07   1.882906e+07
   1.883076e+07   1.883242e+07   1.883404e+07   1.883561e+07   1.883711e+07
   1.883859e+07   1.884006e+07   1.884147e+07   1.884283e+07   1.884416e+07
   1.884546e+07   1.884670e+07   1.884793e+07   1.884909e+07   1.885019e+07
   1.885128e+07   1.885231e+07   1.885329e+07   1.885421e+07   1.885512e+07
   1.885598e+07   1.885678e+07   1.885754e+07   1.885822e+07   1.885890e+07
   1.885956e+07   1.886017e+07   1.886072e+07   1.886130e+07   1.886188e+07
   1.886235e+07   1.886277e+07   1.886313e+07   1.886350e+07   1.886379e+07
   1.886402e+07   1.886422e+07   1.886437e+07   1.886452e+07   1.886461e+07
   1.886464e+07   1.886462e+07   1.886460e+07   1.886454e+07   1.886443e+07
   1.886428e+07   1.886407e+07   1.886384e+07   1.886360e+07   1.886329e+07
   1.886300e+07   1.886263e+07   1.886222e+07   1.886181e+07   1.886134e+07
   1.886082e+07   1.886027e+07   1.885972e+07   1.885910e+07   1.885845e+07
   1.885776e+07   1.885703e+07   1.885629e+07   1.885547e+07   1.885463e+07
   1.885375e+07   1.885284e+07   1.885189e+07   1.885088e+07   1.884985e+07
   1.884878e+07   1.884771e+07   1.884658e+07   1.884543e+07   1.884425e+07
   1.884301e+07   1.884174e+07   1.884042e+07   1.883909e+07   1.883767e+07
   1.883624e+07   1.883478e+07   1.883326e+07   1.883174e+07   1.883014e+07
   1.882855e+07   1.882692e+07   1.882522e+07   1.882350e+07   1.882176e+07
   1.882000e+07   1.881816e+07   1.881632e+07   1.881446e+07   1.881252e+07
   1.881054e+07   1.880855e+07   1.880651e+07   1.880446e+07   1.880237e+07
   1.880020e+07   1.879802e+07   1.879584e+07   1.879360e+07   1.879132e+07
   1.878900e+07   1.878668e+07   1.878431e+07   1.878186e+07   1.877944e+07
   1.877697e+07   1.877442e+07   1.877185e+07   1.876933e+07   1.876676e+07
   1.876411e+07   1.876141e+07   1.875872e+07   1.875602e+07   1.875324e+07
   1.875040e+07   1.874756e+07   1.874468e+07   1.874178e+07   1.873886e+07
   1.873590e+07   1.873288e+07   1.872985e+07   1.872682e+07   1.872375e+07
   1.872064e+07   1.871747e+07   1.871429e+07   1.871110e+07   1.870789e+07
   1.870463e+07   1.870130e+07   1.869803e+07   1.869471e+07   1.869133e+07
   1.868792e+07   1.868450e+07   1.868108e+07   1.867760e+07   1.867411e+07
   1.867059e+07   1.866706e+07   1.866351e+07   1.865989e+07   1.865625e+07
   1.865262e+07   1.864896e+07   1.864525e+07   1.864149e+07   1.863772e+07
   1.863394e+07   1.863010e+07   1.862631e+07   1.862248e+07   1.861859e+07
   1.861473e+07   1.861083e+07   1.860689e+07   1.860293e+07   1.859896e+07
   1.859498e+07   1.859098e+07   1.858691e+07   1.858285e+07   1.857880e+07
   1.857471e+07   1.857060e+07   1.856646e+07   1.856233e+07   1.855816e+07
   1.855397e+07   1.854980e+07   1.854560e+07   1.854136e+07   1.853711e+07
   1.853284e+07   1.852856e+07   1.852429e+07   1.851996e+07   1.851563e+07
   1.851127e+07   1.850690e+07   1.850254e+07   1.849811e+07   1.849369e+07
   1.848918e+07   1.848467e+07   1.848017e+07   1.847566e+07   1.847121e+07
   1.846669e+07   1.846216e+07   1.845760e+07   1.845305e+07   1.844850e+07
   1.844390e+07   1.843932e+07   1.843471e+07   1.843009e+07   1.842541e+07
   1.842071e+07   1.841607e+07   1.841139e+07   1.840667e+07   1.840197e+07
   1.839726e+07   1.839251e+07   1.838773e+07   1.838299e+07   1.837820e+07
   1.837342e+07   1.836863e+07   1.836383e+07   1.835905e+07   1.835423e+07
   1.834938e+07   1.834449e+07   1.833970e+07   1.833486e+07   1.832994e+07
   1.832505e+07   1.832012e+07   1.831521e+07   1.831026e+07   1.830531e+07
   1.830037e+07   1.829540e+07   1.829044e+07   1.828548e+07   1.828047e+07
   1.827545e+07   1.827046e+07   1.826544e+07   1.826040e+07   1.825536e+07
   1.825033e+07   1.824530e+07   1.824024e+07   1.823515e+07   1.823008e+07
   1.822502e+07   1.821997e+07   1.821488e+07   1.820976e+07   1.820471e+07
   1.819963e+07   1.819453e+07   1.818946e+07   1.818441e+07   1.817936e+07
   1.817428e+07   1.816918e+07   1.816404e+07   1.815891e+07   1.815379e+07
   1.814866e+07   1.814353e+07   1.813836e+07   1.813326e+07   1.812813e+07
   1.812297e+07   1.811782e+07   1.811264e+07   1.810749e+07   1.810235e+07
   1.809718e+07   1.809200e+07   1.808685e+07   1.808168e+07   1.807651e+07
   1.807134e+07   1.806618e+07   1.806103e+07   1.805591e+07   1.805076e+07
   1.804558e+07   1.804044e+07   1.803530e+07   1.803017e+07   1.802500e+07
   1.801990e+07   1.801481e+07   1.800966e+07   1.800456e+07   1.799946e+07
   1.799438e+07   1.798929e+07   1.798422e+07   1.797919e+07   1.797412e+07
   1.796909e+07   1.796404e+07   1.795904e+07   1.795406e+07   1.794905e+07
   1.794406e+07   1.793906e+07   1.793413e+07   1.792920e+07   1.792424e+07
   1.791934e+07   1.791444e+07   1.790955e+07   1.790465e+07   1.789978e+07
   1.789494e+07   1.789010e+07   1.788527e+07   1.788046e+07   1.787570e+07
   1.787092e+07   1.786620e+07   1.786150e+07   1.785673e+07   1.785204e+07
   1.784735e+07   1.784266e+07   1.783801e+07   1.783341e+07   1.782882e+07
   1.782421e+07   1.781968e+07   1.781511e+07   1.781057e+07   1.780612e+07
   1.780165e+07   1.779722e+07   1.779276e+07   1.778837e+07   1.778403e+07
   1.777968e+07   1.777537e+07   1.777108e+07   1.776686e+07   1.776264e+07
   1.775840e+07   1.775421e+07   1.775006e+07   1.774596e+07   1.774184e+07
   1.773778e+07   1.773378e+07   1.772975e+07   1.772576e+07   1.772183e+07
   1.771793e+07   1.771407e+07   1.771022e+07   1.770640e+07   1.770264e+07
   1.769889e+07   1.769512e+07   1.769141e+07   1.768777e+07   1.768418e+07
   1.768062e+07   1.767712e+07   1.767363e+07   1.767017e+07   1.766672e+07
   1.766329e+07   1.765995e+07   1.765663e+07   1.765336e+07   1.765014e+07
   1.764692e+07   1.764374e+07   1.764058e+07   1.763746e+07   1.763441e+07
   1.763143e+07   1.762847e+07   1.762553e+07   1.762265e+07   1.761980e+07
   1.761698e+07   1.761424e+07   1.761153e+07   1.760884e+07   1.760617e+07
   1.760359e+07   1.760106e+07   1.759853e+07   1.759603e+07   1.759361e+07
   1.759126e+07   1.758894e+07   1.758665e+07   1.758439e+07   1.758222e+07
   1.758010e+07   1.757798e+07   1.757596e+07   1.757400e+07   1.757202e+07
   1.757009e+07   1.756824e+07   1.756643e+07   1.756468e+07   1.756298e+07
   1.756136e+07   1.755979e+07   1.755822e+07   1.755668e+07   1.755520e+07
   1.755378e+07   1.755243e+07   1.755115e+07   1.754991e+07   1.754868e+07
   1.754752e+07   1.754636e+07   1.754526e+07   1.754428e+07   1.754325e+07
   1.754233e+07   1.754149e+07   1.754064e+07   1.753982e+07   1.753906e+07
   1.753841e+07   1.753778e+07   1.753718e+07   1.753662e+07   1.753610e+07
   1.753565e+07   1.753522e+07   1.753486e+07   1.753460e+07   1.753437e+07
   1.753417e+07   1.753399e+07   1.753390e+07   1.753386e+07   1.753387e+07
   1.753393e+07   1.753399e+07   1.753415e+07   1.753437e+07   1.753462e+07
   1.753492e+07   1.753527e+07   1.753563e+07   1.753603e+07   1.753652e+07
   1.753708e+07   1.753770e+07   1.753832e+07   1.753900e+07   1.753970e+07
   1.754048e+07   1.754134e+07   1.754220e+07   1.754310e+07   1.754410e+07
   1.754515e+07   1.754623e+07   1.754731e+07   1.754842e+07   1.754962e+07
   1.755084e+07   1.755217e+07   1.755351e+07   1.755480e+07   1.755619e+07
   1.755766e+07   1.755922e+07   1.756089e+07   1.756259e+07   1.756431e+07
   1.756605e+07   1.756786e+07   1.756968e+07   1.757159e+07   1.757358e+07
   1.757561e+07   1.757764e+07   1.757975e+07   1.758197e+07   1.758423e+07
   1.758655e+07   1.758887e+07   1.759119e+07   1.759357e+07   1.759612e+07
   1.759874e+07   1.760135e+07   1.760394e+07   1.760657e+07   1.760940e+07
   1.761227e+07   1.761511e+07   1.761796e+07   1.762089e+07   1.762391e+07
   1.762703e+07   1.763020e+07   1.763330e+07   1.763643e+07   1.763969e+07
   1.764308e+07   1.764649e+07   1.764984e+07   1.765323e+07   1.765673e+07
   1.766034e+07   1.766402e+07   1.766759e+07   1.767120e+07   1.767496e+07
   1.767879e+07   1.768265e+07   1.768649e+07   1.769033e+07   1.769428e+07
   1.769832e+07   1.770241e+07   1.770652e+07   1.771061e+07   1.771476e+07
   1.771900e+07   1.772328e+07   1.772759e+07   1.773194e+07   1.773633e+07
   1.774078e+07   1.774530e+07   1.774983e+07   1.775444e+07   1.775906e+07
   1.776369e+07   1.776837e+07   1.777314e+07   1.777798e+07   1.778278e+07
   1.778761e+07   1.779251e+07   1.779746e+07   1.780245e+07   1.780749e+07
   1.781254e+07   1.781760e+07   1.782272e+07   1.782789e+07   1.783310e+07
   1.783833e+07   1.784356e+07   1.784885e+07   1.785422e+07   1.785964e+07
   1.786505e+07   1.787043e+07   1.787586e+07   1.788135e+07   1.788694e+07
   1.789253e+07   1.789805e+07   1.790364e+07   1.790929e+07   1.791500e+07
   1.792076e+07   1.792645e+07   1.793216e+07   1.793795e+07   1.794383e+07
   1.794976e+07   1.795560e+07   1.796141e+07   1.796735e+07   1.797338e+07
   1.797938e+07   1.798532e+07   1.799127e+07   1.799734e+07   1.800348e+07
   1.800959e+07   1.801569e+07   1.802180e+07   1.802794e+07   1.803412e+07
   1.804037e+07   1.804661e+07   1.805275e+07   1.805894e+07   1.806528e+07
   1.807165e+07   1.807787e+07   1.808410e+07   1.809046e+07   1.809682e+07
   1.810310e+07   1.810946e+07   1.811588e+07   1.812224e+07   1.812863e+07
   1.813503e+07   1.814146e+07   1.814787e+07   1.815421e+07   1.816062e+07
   1.816708e+07   1.817351e+07   1.817990e+07   1.818635e+07   1.819280e+07
   1.819923e+07   1.820571e+07   1.821215e+07   1.821855e+07   1.822499e+07
   1.823146e+07   1.823794e+07   1.824438e+07   1.825084e+07   1.825726e+07
   1.826372e+07   1.827021e+07   1.827660e+07   1.828302e+07   1.828946e+07
   1.829586e+07   1.830226e+07   1.830867e+07   1.831504e+07   1.832138e+07
   1.832780e+07   1.833420e+07   1.834051e+07   1.834683e+07   1.835316e+07
   1.835949e+07   1.836580e+07   1.837208e+07   1.837836e+07   1.838462e+07
   1.839086e+07   1.839708e+07   1.840331e+07   1.840950e+07   1.841563e+07
   1.842178e+07   1.842795e+07   1.843408e+07   1.844014e+07   1.844619e+07
   1.845227e+07   1.845832e+07   1.846432e+07   1.847030e+07   1.847626e+07
   1.848221e+07   1.848814e+07   1.849404e+07   1.849992e+07   1.850578e+07
   1.851158e+07   1.851736e+07   1.852314e+07   1.852890e+07   1.853458e+07
   1.854021e+07   1.854591e+07   1.855160e+07   1.855711e+07   1.856263e+07
   1.856826e+07   1.857378e+07   1.857915e+07   1.858459e+07   1.859004e+07
   1.859536e+07   1.860064e+07   1.860596e+07   1.861125e+07   1.861644e+07
   1.862158e+07   1.862673e+07   1.863187e+07   1.863693e+07   1.864192e+07
   1.864693e+07   1.865190e+07   1.865679e+07   1.866164e+07   1.866648e+07
   1.867130e+07   1.867603e+07   1.868073e+07   1.868542e+07   1.869006e+07
   1.869464e+07   1.869916e+07   1.870368e+07   1.870817e+07   1.871256e+07
   1.871692e+07   1.872125e+07   1.872552e+07   1.872975e+07   1.873391e+07
   1.873803e+07   1.874215e+07   1.874620e+07   1.875016e+07   1.875414e+07
   1.875808e+07   1.876190e+07   1.876568e+07   1.876944e+07   1.877315e+07
   1.877677e+07   1.878037e+07   1.878396e+07   1.878746e+07   1.879089e+07
   1.879431e+07   1.879768e+07   1.880098e+07   1.880423e+07   1.880741e+07
   1.881054e+07   1.881365e+07   1.881672e+07   1.881969e+07   1.882260e+07
   1.882552e+07   1.882838e+07   1.883114e+07   1.883388e+07   1.883659e+07
   1.883924e+07   1.884179e+07   1.884431e+07   1.884681e+07   1.884920e+07
   1.885153e+07   1.885384e+07   1.885608e+07   1.885828e+07   1.886042e+07
   1.886249e+07   1.886454e+07   1.886654e+07   1.886845e+07   1.887031e+07
   1.887214e+07   1.887391e+07   1.887562e+07   1.887726e+07   1.887887e+07
   1.888043e+07   1.888190e+07   1.888331e+07   1.888469e+07   1.888604e+07
   1.888726e+07   1.888843e+07   1.888963e+07   1.889078e+07   1.889180e+07
   1.889276e+07   1.889372e+07   1.889464e+07   1.889544e+07   1.889622e+07
   1.889699e+07   1.889763e+07   1.889819e+07   1.889874e+07   1.889925e+07
   1.889970e+07   1.890007e+07   1.890040e+07   1.890065e+07   1.890088e+07
   1.890105e+07   1.890113e+07   1.890118e+07   1.890115e+07   1.890106e+07
   1.890094e+07   1.890076e+07   1.890050e+07   1.890019e+07   1.889986e+07
   1.889945e+07   1.889900e+07   1.889845e+07   1.889786e+07   1.889729e+07
   1.889659e+07   1.889585e+07   1.889510e+07   1.889424e+07   1.889332e+07
