     0.05000000      -12345.00      -12345.00   3.408960e+09      -12345.00
   0.0005360000       1859.951      -318.0195      -12345.00      -12345.00
      -12345.00      -12345.00      -12345.00      -12345.00      -12345.00
      -12345.00      -12345.00      -12345.00      -12345.00      -12345.00
      -12345.00      -12345.00      -12345.00      -12345.00      -12345.00
      -12345.00      -12345.00      -12345.00      -12345.00      -12345.00
      -12345.00      -21.21250      -159.7733      -73.00000       101.0000
      -42.72450       173.0647      -12345.00       22.00000      -12345.00
      -12345.00      -12345.00      -12345.00      -12345.00      -12345.00
      -12345.00      -12345.00      -12345.00      -12345.00      -12345.00
       3474.664       55.19260       220.4249       31.24979      -12345.00
      -12345.00      -12345.00       347.0000       90.00000      -12345.00
      -12345.00      -12345.00      -12345.00      -12345.00      -12345.00
      -12345.00      -12345.00      -12345.00      -12345.00      -12345.00
      2016       318        11         8        17
        19         6    -12345    -12345     37200
    -12345    -12345    -12345    -12345    -12345
         1    -12345    -12345    -12345    -12345
    -12345    -12345    -12345    -12345    -12345
    -12345    -12345    -12345    -12345    -12345
    -12345    -12345    -12345    -12345    -12345
         1    -12345    -12345    -12345    -12345
RAR     South Island, Ne
00      -12345  -12345  
-12345  -12345  -12345  
-12345  -12345  -12345  
-12345  -12345  -12345  
-12345  -12345  -12345  
-12345  -12345  BH1     
IU      -12345  Geotech 
[...]
      -3940800.      -3872399.      -3803494.      -3734130.      -3664383.
      -3594269.      -3523809.      -3453100.      -3382233.      -3311256.
      -3240205.      -3169105.      -3097973.      -3026861.      -2955808.
      -2884850.      -2814017.      -2743327.      -2672819.      -2602506.
      -2532414.      -2462593.      -2393067.      -2323843.      -2254915.
      -2186283.      -2117961.      -2049974.      -1982382.      -1915223.
      -1848496.      -1782307.      -1716724.      -1651732.      -1587320.
      -1523429.      -1460067.      -1397268.      -1334973.      -1273177.
      -1211864.      -1151005.      -1090608.      -1030630.      -971060.0
      -911913.0      -853163.0      -794754.0      -736647.0      -678846.0
      -621310.0      -564006.0      -506945.0      -450130.0      -393573.0
      -337290.0      -281291.0      -225571.0      -170044.0      -114653.0
      -59478.00      -4581.000       50039.00       104412.0       158536.0
       212375.0       265939.0       319226.0       372195.0       424851.0
       477211.0       529251.0       580928.0       632158.0       682908.0
       733195.0       782963.0       832169.0       880769.0       928731.0
       976038.0       1022634.       1068500.       1113657.       1158156.
       1202020.       1245264.       1287953.       1330100.       1371726.
       1412837.       1453383.       1493323.       1532626.       1571270.
       1609276.       1646679.       1683449.       1719550.       1754915.
       1789482.       1823264.       1856226.       1888359.       1919619.
       1949928.       1979270.       2007627.       2034975.       2061266.
       2086432.       2110429.       2133189.       2154626.       2174690.
       2193345.       2210577.       2226372.       2240697.       2253558.
       2264916.       2274757.       2283056.       2289822.       2295129.
       2298932.       2301221.       2301992.       2301207.       2298909.
       2295091.       2289797.       2283087.       2274959.       2265479.
       2254680.       2242598.       2229276.       2214710.       2198976.
       2182135.       2164203.       2145215.       2125165.       2104167.
       2082285.       2059448.       2035716.       2011122.       1985632.
       1959266.       1932057.       1904020.       1875128.       1845374.
       1814754.       1783328.       1751136.       1718161.       1684427.
       1649948.       1614772.       1578936.       1542409.       1505202.
       1467312.       1428672.       1389265.       1349128.       1308230.
       1266542.       1224087.       1180843.       1136786.       1091878.
       1046154.       999704.0       952528.0       904616.0       855994.0
       806695.0       756716.0       706088.0       654858.0       602982.0
       550486.0       497436.0       443871.0       389802.0       335234.0
       280243.0       224866.0       169164.0       113220.0       57080.00
       749.0000      -55790.00      -112546.0      -169578.0      -226862.0
      -284355.0      -342102.0      -400117.0      -458428.0      -517012.0
      -575813.0      -634845.0      -694056.0      -753398.0      -812883.0
      -872496.0      -932210.0      -992021.0      -1051945.      -1111950.
      -1172008.      -1232087.      -1292140.      -1352146.      -1412085.
      -1471957.      -1531703.      -1591302.      -1650758.      -1710003.
      -1769039.      -1827889.      -1886517.      -1944895.      -2003007.
      -2060840.      -2118409.      -2175702.      -2232666.      -2289301.
      -2345636.      -2401670.      -2457419.      -2512921.      -2568234.
      -2623375.      -2678341.      -2733134.      -2787767.      -2842283.
      -2896667.      -2950883.      -3004935.      -3058824.      -3112509.
      -3165985.      -3219284.      -3272391.      -3325332.      -3378093.
      -3430663.      -3483058.      -3535266.      -3587311.      -3639162.
      -3690771.      -3742115.      -3793179.      -3843906.      -3894203.
      -3944041.      -3993406.      -4042240.      -4090471.      -4138070.
      -4184990.      -4231191.      -4276644.      -4321264.      -4364965.
      -4407682.      -4449344.      -4489879.      -4529245.      -4567433.
      -4604428.      -4640199.      -4674700.      -4707914.      -4739864.
      -4770557.      -4799995.      -4828215.      -4855223.      -4881029.
      -4905695.      -4929225.      -4951576.      -4972744.      -4992791.
      -5011759.      -5029634.      -5046471.      -5062363.      -5077364.
      -5091519.      -5104863.      -5117433.      -5129267.      -5140363.
      -5150691.      -5160247.      -5169066.      -5177148.      -5184446.
      -5190956.      -5196708.      -5201699.      -5205952.      -5209509.
      -5212377.      -5214567.      -5216077.      -5216927.      -5217170.
      -5216767.      -5215594.      -5213622.      -5210886.      -5207410.
      -5203217.      -5198282.      -5192571.      -5186092.      -5178828.
      -5170741.      -5161807.      -5152048.      -5141487.      -5130125.
      -5117989.      -5105067.      -5091311.      -5076709.      -5061276.
      -5045037.      -5028049.      -5010309.      -4991790.      -4972543.
      -4952590.      -4931936.      -4910577.      -4888500.      -4865742.
      -4842323.      -4818260.      -4793568.      -4768258.      -4742349.
      -4715819.      -4688651.      -4660874.      -4632487.      -4603449.
      -4573751.      -4543425.      -4512482.      -4480883.      -4448564.
      -4415482.      -4381610.      -4346937.      -4311510.      -4275314.
      -4238270.      -4200353.      -4161547.      -4121838.      -4081254.
      -4039822.      -3997544.      -3954393.      -3910320.      -3865294.
      -3819320.      -3772420.      -3724596.      -3675880.      -3626323.
      -3575983.      -3524921.      -3473135.      -3420648.      -3367471.
      -3313635.      -3259204.      -3204176.      -3148552.      -3092350.
      -3035629.      -2978435.      -2920791.      -2862722.      -2804250.
      -2745365.      -2686030.      -2626284.      -2566133.      -2505590.
      -2444694.      -2383466.      -2321916.      -2259983.      -2197683.
      -2135061.      -2072130.      -2008924.      -1945472.      -1881835.
      -1818057.      -1754164.      -1690199.      -1626219.      -1562241.
      -1498259.      -1434356.      -1370596.      -1307002.      -1243678.
      -1180696.      -1118067.      -1055841.      -994042.0      -932708.0
      -871911.0      -811663.0      -751965.0      -692869.0      -634415.0
      -576574.0      -519358.0      -462859.0      -407105.0      -352056.0
      -297748.0      -244244.0      -191546.0      -139672.0      -88649.00
      -38490.00       10741.00       58988.00       106255.0       152530.0
       197771.0       241942.0       285031.0       327025.0       367857.0
       407500.0       445918.0       483076.0       518949.0       553485.0
       586655.0       618388.0       648658.0       677477.0       704823.0
       730676.0       755043.0       777931.0       799314.0       819212.0
       837646.0       854632.0       870192.0       884310.0       896936.0
       908078.0       917751.0       925930.0       932632.0       937839.0
       941537.0       943723.0       944406.0       943560.0       941144.0
       937137.0       931522.0       924346.0       915573.0       905156.0
       893116.0       879445.0       864162.0       847254.0       828687.0
       808449.0       786596.0       763175.0       738143.0       711496.0
       683230.0       653308.0       621770.0       588690.0       554106.0
       518068.0       480623.0       441778.0       401589.0       360087.0
       317265.0       273133.0       227679.0       180936.0       132947.0
       83752.00       33381.00      -18120.00      -70697.00      -124315.0
      -178895.0      -234395.0      -290805.0      -348144.0      -406419.0
      -465571.0      -525518.0      -586177.0      -647526.0      -709561.0
      -772241.0      -835494.0      -899270.0      -963547.0      -1028289.
      -1093463.      -1159061.      -1225098.      -1291565.      -1358437.
      -1425698.      -1493320.      -1561289.      -1629589.      -1698198.
      -1767109.      -1836295.      -1905743.      -1975493.      -2045515.
      -2115750.      -2186198.      -2256838.      -2327640.      -2398587.
      -2469658.      -2540814.      -2611995.      -2683165.      -2754297.
      -2825421.      -2896556.      -2967655.      -3038679.      -3109611.
      -3180452.      -3251192.      -3321827.      -3392369.      -3462838.
      -3533267.      -3603645.      -3673983.      -3744284.      -3814488.
      -3884605.      -3954695.      -4024755.      -4094789.      -4164812.
      -4234777.      -4304683.      -4374560.      -4444381.      -4514114.
      -4583712.      -4653143.      -4722446.      -4791637.      -4860701.
      -4929628.      -4998425.      -5067105.      -5135651.      -5204029.
      -5272262.      -5340372.      -5408351.      -5476261.      -5544128.
      -5611944.      -5679761.      -5747588.      -5815432.      -5883273.
      -5951048.      -6018729.      -6086308.      -6153757.      -6221051.
      -6288169.      -6355068.      -6421735.      -6488112.      -6554115.
      -6619717.      -6684855.      -6749419.      -6813327.      -6876535.
      -6939022.      -7000752.      -7061670.      -7121682.      -7180704.
      -7238683.      -7295519.      -7351124.      -7405451.      -7458455.
      -7510074.      -7560258.      -7608969.      -7656093.      -7701528.
      -7745194.      -7787017.      -7826925.      -7864810.      -7900596.
      -7934264.      -7965834.      -7995298.      -8022601.      -8047710.
      -8070584.      -8091198.      -8109539.      -8125566.      -8139307.
      -8150753.      -8159859.      -8166599.      -8170921.      -8172865.
      -8172459.      -8169720.      -8164695.      -8157441.      -8148014.
      -8136413.      -8122668.      -8106815.      -8088881.      -8068901.
      -8046873.      -8022860.      -7996898.      -7969028.      -7939350.
      -7907906.      -7874768.      -7840033.      -7803803.      -7766168.
      -7727154.      -7686792.      -7645112.      -7602152.      -7557985.
      -7512661.      -7466238.      -7418726.      -7370126.      -7320501.
      -7269880.      -7218234.      -7165526.      -7111795.      -7057071.
      -7001347.      -6944655.      -6886999.      -6828371.      -6768785.
      -6708291.      -6646913.      -6584589.      -6521296.      -6457057.
      -6391899.      -6325849.      -6258874.      -6190932.      -6122003.
      -6052063.      -5981117.      -5909187.      -5836287.      -5762418.
      -5687546.      -5611655.      -5534772.      -5456948.      -5378243.
      -5298678.      -5218260.      -5137019.      -5054947.      -4972014.
      -4888254.      -4803743.      -4718556.      -4632761.      -4546390.
      -4459462.      -4372047.      -4284174.      -4195829.      -4107066.
      -4017914.      -3928379.      -3838456.      -3748135.      -3657454.
      -3566439.      -3475110.      -3383502.      -3291631.      -3199456.
      -3106962.      -3014127.      -2920868.      -2827231.      -2733258.
      -2638959.      -2544386.      -2449500.      -2354266.      -2258715.
      -2162871.      -2066725.      -1970273.      -1873469.      -1776273.
      -1678747.      -1580901.      -1482711.      -1384220.      -1285470.
      -1186486.      -1087256.      -987775.0      -888049.0      -788107.0
      -688014.0      -587758.0      -487349.0      -386846.0      -286308.0
      -185763.0      -85191.00       15347.00       115792.0       216100.0
       316218.0       416148.0       515868.0       615325.0       714482.0
       813358.0       911988.0       1010286.       1108168.       1205615.
       1302569.       1399008.       1494844.       1590004.       1684482.
       1778246.       1871241.       1963349.       2054517.       2144723.
       2233947.       2322179.       2409369.       2495477.       2580424.
       2664162.       2746674.       2827924.       2907897.       2986595.
       3063990.       3140014.       3214616.       3287740.       3359293.
       3429248.       3497607.       3564330.       3629362.       3692667.
       3754210.       3813900.       3871681.       3927562.       3981546.
       4033606.       4083709.       4131835.       4177930.       4221966.
       4263956.       4303863.       4341652.       4377300.       4410823.
       4442231.       4471416.       4498293.       4522866.       4545098.
       4564963.       4582475.       4597644.       4610430.       4620785.
       4628697.       4634169.       4637163.       4637668.       4635671.
       4631083.       4623849.       4613929.       4601295.       4585954.
       4567911.       4547185.       4523784.       4497740.       4469096.
       4437824.       4403903.       4367418.       4328373.       4286744.
       4242633.       4196089.       4147144.       4095828.       4042171.
       3986239.       3928097.       3867844.       3805517.       3741143.
       3674776.       3606478.       3536369.       3464525.       3390977.
       3315758.       3238861.       3160311.       3080119.       2998294.
       2914917.       2829999.       2743544.       2655555.       2566024.
       2475022.       2382601.       2288743.       2193463.       2096863.
       1999007.       1899905.       1799600.       1698116.       1595458.
       1491652.       1386743.       1280743.       1173656.       1065522.
       956374.0       846221.0       735092.0       622998.0       509930.0
       395901.0       280953.0       165127.0       48427.00      -69110.00
      -187411.0      -306429.0      -426153.0      -546597.0      -667684.0
      -789334.0      -911476.0      -1034007.      -1156898.      -1280062.
      -1403427.      -1526957.      -1650603.      -1774327.      -1898092.
      -2021929.      -2145840.      -2269793.      -2393719.      -2517497.
      -2641016.      -2764210.      -2887074.      -3009563.      -3131619.
      -3253206.      -3374262.      -3494713.      -3614541.      -3733700.
      -3852131.      -3969803.      -4086626.      -4202548.      -4317543.
      -4431569.      -4544605.      -4656632.      -4767557.      -4877238.
      -4985651.      -5092786.      -5198580.      -5302986.      -5405948.
      -5507453.      -5607507.      -5706138.      -5803362.      -5899135.
      -5993392.      -6086108.      -6177287.      -6266818.      -6354644.
      -6440776.      -6525176.      -6607867.      -6688803.      -6767902.
      -6845105.      -6920343.      -6993667.      -7065108.      -7134652.
      -7202267.      -7267871.      -7331434.      -7392952.      -7452432.
      -7509807.      -7564982.      -7617981.      -7668833.      -7717548.
      -7764133.      -7808573.      -7850800.      -7890809.      -7928635.
      -7964266.      -7997728.      -8029035.      -8058215.      -8085322.
      -8110361.      -8133342.      -8154256.      -8173093.      -8189815.
      -8204369.      -8216844.      -8227330.      -8235801.      -8242307.
      -8246914.      -8249648.      -8250520.      -8249519.      -8246732.
      -8242259.      -8236119.      -8228298.      -8218772.      -8207537.
      -8194593.      -8179979.      -8163724.      -8145862.      -8126431.
      -8105431.      -8082907.      -8058873.      -8033320.      -8006297.
      -7977826.      -7947942.      -7916687.      -7884080.      -7850150.
      -7814909.      -7778426.      -7740745.      -7701864.      -7661822.
      -7620656.      -7578433.      -7535220.      -7491054.      -7445996.
      -7400139.      -7353579.      -7306348.      -7258449.      -7209898.
      -7160740.      -7111046.      -7060827.      -7010076.      -6958808.
      -6906987.      -6854627.      -6801779.      -6748458.      -6694640.
      -6640310.      -6585586.      -6530512.      -6475077.      -6419313.
      -6363185.      -6306687.      -6249834.      -6192605.      -6134977.
      -6076969.      -6018603.      -5959823.      -5900586.      -5840947.
      -5780889.      -5720347.      -5659378.      -5597955.      -5536008.
      -5473577.      -5410691.      -5347358.      -5283581.      -5219358.
      -5154662.      -5089477.      -5023776.      -4957514.      -4890701.
      -4823344.      -4755454.      -4687003.      -4617959.      -4548374.
      -4478293.      -4407758.      -4336812.      -4265486.      -4193853.
      -4121944.      -4049791.      -3977474.      -3905010.      -3832414.
      -3759687.      -3686841.      -3613887.      -3540785.      -3467539.
      -3394109.      -3320420.      -3246478.      -3172350.      -3098024.
      -3023413.      -2948528.      -2873399.      -2798031.      -2722436.
      -2646598.      -2570513.      -2494168.      -2417521.      -2340564.
      -2263305.      -2185769.      -2108018.      -2030075.      -1951951.
      -1873664.      -1795240.      -1716822.      -1638535.      -1560424.
      -1482507.      -1404812.      -1327432.      -1250434.      -1173848.
      -1097702.      -1022060.      -946957.0      -872414.0      -798478.0
      -725168.0      -652538.0      -580629.0      -509486.0      -439190.0
      -369798.0      -301363.0      -233904.0      -167445.0      -102056.0
      -37787.00       25317.00       87200.00       147824.0       207180.0
       265233.0       321952.0       377387.0       431536.0       484324.0
       535765.0       585941.0       634929.0       682802.0       729567.0
       775186.0       819661.0       863001.0       905223.0       946395.0
       986511.0       1025533.       1063499.       1100378.       1136179.
       1170948.       1204711.       1237512.       1269352.       1300234.
       1330181.       1359223.       1387378.       1414640.       1441054.
       1466618.       1491341.       1515238.       1538280.       1560463.
       1581752.       1602143.       1621658.       1640275.       1657972.
       1674732.       1690540.       1705362.       1719191.       1731992.
       1743690.       1754279.       1763729.       1771932.       1778854.
