     0.05000000      -12345.00      -12345.00   3.374900e+09      -12345.00
   0.0005360000       1859.951      -318.0195      -12345.00      -12345.00
      -12345.00      -12345.00      -12345.00      -12345.00      -12345.00
      -12345.00      -12345.00      -12345.00      -12345.00      -12345.00
      -12345.00      -12345.00      -12345.00      -12345.00      -12345.00
      -12345.00      -12345.00      -12345.00      -12345.00      -12345.00
      -12345.00      -21.21250      -159.7733      -73.00000       101.0000
      -42.72450       173.0647      -12345.00       22.00000      -12345.00
      -12345.00      -12345.00      -12345.00      -12345.00      -12345.00
      -12345.00      -12345.00      -12345.00      -12345.00      -12345.00
       3474.664       55.19260       220.4249       31.24979      -12345.00
      -12345.00      -12345.00       77.00000       90.00000      -12345.00
      -12345.00      -12345.00      -12345.00      -12345.00      -12345.00
      -12345.00      -12345.00      -12345.00      -12345.00      -12345.00
      2016       318        11         8        17
        19         6    -12345    -12345     37200
    -12345    -12345    -12345    -12345    -12345
         1    -12345    -12345    -12345    -12345
    -12345    -12345    -12345    -12345    -12345
    -12345    -12345    -12345    -12345    -12345
    -12345    -12345    -12345    -12345    -12345
         1    -12345    -12345    -12345    -12345
RAR     South Island, Ne
00      -12345  -12345  
-12345  -12345  -12345  
-12345  -12345  -12345  
-12345  -12345  -12345  
-12345  -12345  -12345  
-12345  -12345  BH2     
IU      -12345  Geotech 
[...]
      -679628.0      -631485.0      -583627.0      -536088.0      -488959.0
      -442318.0      -396179.0      -350559.0      -305507.0      -261087.0
      -217341.0      -174331.0      -132092.0      -90688.00      -50165.00
      -10538.00       28111.00       65765.00       102423.0       138087.0
       172762.0       206405.0       239043.0       270746.0       301553.0
       331462.0       360552.0       388940.0       416612.0       443610.0
       470022.0       495871.0       521182.0       545986.0       570325.0
       594257.0       617821.0       641035.0       663938.0       686566.0
       708982.0       731251.0       753399.0       775464.0       797452.0
       819380.0       841287.0       863190.0       885084.0       906948.0
       928758.0       950506.0       972228.0       993964.0       1015680.
       1037332.       1058930.       1080452.       1101841.       1123092.
       1144193.       1165101.       1185790.       1206236.       1226406.
       1246301.       1265952.       1285379.       1304577.       1323514.
       1342172.       1360586.       1378791.       1396788.       1414577.
       1432193.       1449657.       1466992.       1484237.       1501379.
       1518444.       1535452.       1552393.       1569280.       1586120.
       1602935.       1619742.       1636568.       1653426.       1670372.
       1687457.       1704646.       1721928.       1739328.       1756859.
       1774539.       1792421.       1810510.       1828784.       1847243.
       1865887.       1884699.       1903630.       1922649.       1941735.
       1960859.       1980014.       1999179.       2018317.       2037375.
       2056319.       2075121.       2093729.       2112133.       2130315.
       2148202.       2165761.       2182969.       2199816.       2216296.
       2232359.       2247959.       2263028.       2277515.       2291371.
       2304574.       2317141.       2329040.       2340224.       2350633.
       2360200.       2368859.       2376576.       2383360.       2389162.
       2393970.       2397816.       2400690.       2402607.       2403600.
       2403660.       2402765.       2400894.       2398025.       2394133.
       2389203.       2383233.       2376235.       2368218.       2359188.
       2349172.       2338215.       2326349.       2313591.       2299966.
       2285509.       2270227.       2254130.       2237237.       2219569.
       2201197.       2182150.       2162401.       2141930.       2120731.
       2098851.       2076335.       2053222.       2029505.       2005176.
       1980238.       1954708.       1928592.       1901830.       1874412.
       1846310.       1817468.       1787860.       1757448.       1726248.
       1694285.       1661527.       1627936.       1593496.       1558229.
       1522144.       1485192.       1447385.       1408723.       1369158.
       1328742.       1287509.       1245453.       1202597.       1158987.
       1114703.       1069793.       1024299.       978269.0       931729.0
       884738.0       837363.0       789631.0       741583.0       693283.0
       644778.0       596094.0       547292.0       498431.0       449594.0
       400857.0       352235.0       303789.0       255560.0       207591.0
       159973.0       112729.0       65872.00       19444.00      -26511.00
      -71965.00      -116931.0      -161383.0      -205246.0      -248476.0
      -291119.0      -333237.0      -374820.0      -415831.0      -456262.0
      -496134.0      -535431.0      -574137.0      -612211.0      -649591.0
      -686295.0      -722329.0      -757676.0      -792329.0      -826276.0
      -859511.0      -892028.0      -923813.0      -954864.0      -985198.0
      -1014800.      -1043670.      -1071863.      -1099376.      -1126166.
      -1152183.      -1177392.      -1201791.      -1225359.      -1248103.
      -1270003.      -1291044.      -1311237.      -1330593.      -1349144.
      -1366897.      -1383854.      -1400031.      -1415454.      -1430095.
      -1443934.      -1456996.      -1469291.      -1480810.      -1491515.
      -1501410.      -1510533.      -1518902.      -1526492.      -1533293.
      -1539354.      -1544708.      -1549349.      -1553293.      -1556595.
      -1559273.      -1561317.      -1562724.      -1563466.      -1563532.
      -1562899.      -1561604.      -1559668.      -1557003.      -1553614.
      -1549522.      -1544705.      -1539195.      -1532987.      -1526070.
      -1518457.      -1510177.      -1501262.      -1491739.      -1481617.
      -1470877.      -1459548.      -1447653.      -1435251.      -1422398.
      -1409092.      -1395401.      -1381358.      -1366969.      -1352312.
      -1337412.      -1322258.      -1306886.      -1291276.      -1275437.
      -1259439.      -1243238.      -1226827.      -1210256.      -1193563.
      -1176809.      -1160004.      -1143192.      -1126392.      -1109568.
      -1092742.      -1075948.      -1059202.      -1042511.      -1025822.
      -1009104.      -992395.0      -975761.0      -959231.0      -942784.0
      -926401.0      -910060.0      -893742.0      -877423.0      -861058.0
      -844645.0      -828221.0      -811794.0      -795345.0      -778811.0
      -762168.0      -745464.0      -728646.0      -711647.0      -694449.0
      -677037.0      -659440.0      -641612.0      -623487.0      -605030.0
      -586177.0      -566927.0      -547294.0      -527282.0      -506897.0
      -486125.0      -464958.0      -443362.0      -421319.0      -398868.0
      -376014.0      -352753.0      -329064.0      -304885.0      -280227.0
      -255070.0      -229390.0      -203214.0      -176524.0      -149350.0
      -121741.0      -93713.00      -65260.00      -36352.00      -6975.000
       22843.00       53085.00       83742.00       114747.0       146066.0
       177661.0       209508.0       241578.0       273840.0       306295.0
       338912.0       371712.0       404699.0       437842.0       471145.0
       504583.0       538113.0       571707.0       605336.0       638967.0
       672589.0       706216.0       739861.0       773465.0       806963.0
       840346.0       873595.0       906688.0       939625.0       972437.0
       1005111.       1037615.       1069947.       1102116.       1134157.
       1166096.       1197911.       1229577.       1261100.       1292467.
       1323665.       1354699.       1385564.       1416284.       1446877.
       1477370.       1507776.       1538090.       1568334.       1598490.
       1628558.       1658587.       1688588.       1718533.       1748417.
       1778236.       1807984.       1837663.       1867221.       1896619.
       1925855.       1954899.       1983707.       2012187.       2040294.
       2068039.       2095418.       2122347.       2148720.       2174501.
       2199623.       2224022.       2247653.       2270448.       2292386.
       2313430.       2333508.       2352574.       2370552.       2387402.
       2403120.       2417649.       2430912.       2442864.       2453475.
       2462704.       2470513.       2476852.       2481713.       2485097.
       2486963.       2487337.       2486244.       2483667.       2479647.
       2474210.       2467394.       2459265.       2449807.       2439055.
       2427085.       2413906.       2399548.       2384043.       2367435.
       2349784.       2331182.       2311678.       2291300.       2270120.
       2248165.       2225429.       2201932.       2177661.       2152598.
       2126805.       2100350.       2073251.       2045553.       2017276.
       1988415.       1958992.       1929048.       1898635.       1867789.
       1836502.       1804772.       1772641.       1740083.       1707054.
       1673612.       1639800.       1605655.       1571166.       1536299.
       1501105.       1465574.       1429705.       1393529.       1357018.
       1320157.       1282907.       1245231.       1207102.       1168471.
       1129307.       1089599.       1049370.       1008643.       967395.0
       925555.0       883123.0       840088.0       796356.0       751934.0
       706809.0       660928.0       614294.0       566876.0       518667.0
       469689.0       419953.0       369451.0       318192.0       266184.0
       213399.0       159849.0       105556.0       50561.00      -5084.000
      -61304.00      -118002.0      -175117.0      -232572.0      -290311.0
      -348284.0      -406463.0      -464869.0      -523499.0      -582311.0
      -641233.0      -700192.0      -759143.0      -818039.0      -876831.0
      -935454.0      -993823.0      -1051896.      -1109634.      -1167046.
      -1224144.      -1280890.      -1337271.      -1393277.      -1448915.
      -1504193.      -1559061.      -1613501.      -1667500.      -1721044.
      -1774156.      -1826820.      -1879058.      -1930894.      -1982327.
      -2033386.      -2084084.      -2134484.      -2184614.      -2234475.
      -2284073.      -2333389.      -2382477.      -2431334.      -2479966.
      -2528458.      -2576870.      -2625239.      -2673541.      -2721768.
      -2769920.      -2818003.      -2866074.      -2914163.      -2962275.
      -3010387.      -3058488.      -3106609.      -3154762.      -3202995.
      -3251321.      -3299712.      -3348174.      -3396732.      -3445390.
      -3494111.      -3542837.      -3591470.      -3639966.      -3688344.
      -3736599.      -3784706.      -3832641.      -3880380.      -3927882.
      -3975097.      -4021984.      -4068477.      -4114487.      -4159952.
      -4204820.      -4249028.      -4292521.      -4335279.      -4377258.
      -4418402.      -4458650.      -4497936.      -4536168.      -4573269.
      -4609205.      -4643931.      -4677394.      -4709515.      -4740239.
      -4769519.      -4797310.      -4823562.      -4848222.      -4871277.
      -4892691.      -4912451.      -4930576.      -4947045.      -4961799.
      -4974776.      -4985959.      -4995319.      -5002822.      -5008481.
      -5012297.      -5014280.      -5014426.      -5012728.      -5009249.
      -5004010.      -4997017.      -4988305.      -4977890.      -4965794.
      -4952021.      -4936614.      -4919583.      -4900927.      -4880736.
      -4859045.      -4835850.      -4811156.      -4784991.      -4757412.
      -4728462.      -4698174.      -4666618.      -4633895.      -4600020.
      -4565000.      -4528866.      -4491596.      -4453164.      -4413577.
      -4372873.      -4331080.      -4288217.      -4244276.      -4199278.
      -4153285.      -4106312.      -4058353.      -4009391.      -3959441.
      -3908564.      -3856813.      -3804188.      -3750647.      -3696173.
      -3640750.      -3584335.      -3526885.      -3468410.      -3408926.
      -3348405.      -3286860.      -3224330.      -3160870.      -3096502.
      -3031201.      -2964967.      -2897774.      -2829647.      -2760639.
      -2690786.      -2620096.      -2548568.      -2476263.      -2403243.
      -2329540.      -2255163.      -2180130.      -2104468.      -2028184.
      -1951295.      -1873846.      -1795895.      -1717413.      -1638437.
      -1559063.      -1479320.      -1399255.      -1318843.      -1238088.
      -1157047.      -1075727.      -994119.0      -912209.0      -830056.0
      -747706.0      -665193.0      -582543.0      -499687.0      -416626.0
      -333434.0      -250118.0      -166702.0      -83211.00       385.0000
       84082.00       167878.0       251736.0       335587.0       419420.0
       503231.0       587041.0       670862.0       754637.0       838314.0
       921876.0       1005327.       1088619.       1171743.       1254739.
       1337599.       1420306.       1502812.       1585065.       1667024.
       1748641.       1829855.       1910669.       1991092.       2071095.
       2150682.       2229793.       2308409.       2386550.       2464160.
       2541240.       2617741.       2693599.       2768824.       2843348.
       2917133.       2990153.       3062369.       3133759.       3204281.
       3273909.       3342612.       3410371.       3477176.       3543000.
       3607808.       3671546.       3734176.       3795708.       3856159.
       3915477.       3973574.       4030424.       4085994.       4140252.
       4193195.       4244801.       4295098.       4344063.       4391651.
       4437859.       4482652.       4526026.       4568008.       4608590.
       4647721.       4685361.       4721504.       4756167.       4789358.
       4821040.       4851190.       4879786.       4906800.       4932207.
       4955982.       4978116.       4998589.       5017357.       5034401.
       5049714.       5063258.       5075039.       5085079.       5093387.
       5100006.       5104960.       5108282.       5110013.       5110165.
       5108777.       5105916.       5101585.       5095743.       5088334.
       5079393.       5069017.       5057218.       5044018.       5029505.
       5013743.       4996796.       4978747.       4959572.       4939245.
       4917812.       4895278.       4871684.       4847063.       4821406.
       4794743.       4767073.       4738393.       4708746.       4678137.
       4646564.       4614076.       4580705.       4546461.       4511373.
       4475435.       4438630.       4400944.       4362344.       4322801.
       4282307.       4240865.       4198444.       4155005.       4110510.
       4064912.       4018193.       3970355.       3921402.       3871305.
       3820048.       3767618.       3713959.       3659062.       3602895.
       3545387.       3486528.       3426316.       3364743.       3301785.
       3237470.       3171789.       3104676.       3036182.       2966328.
       2895109.       2822558.       2748645.       2673319.       2596573.
       2518459.       2439073.       2358455.       2276592.       2193538.
       2109324.       2023897.       1937238.       1849376.       1760363.
       1670252.       1579090.       1486945.       1393881.       1299970.
       1205240.       1109727.       1013520.       916662.0       819238.0
       721338.0       622992.0       524242.0       425155.0       325777.0
       226124.0       126274.0       26297.00      -73830.00      -174081.0
      -274420.0      -374816.0      -475183.0      -575479.0      -675641.0
      -775580.0      -875285.0      -974709.0      -1073766.      -1172456.
      -1270741.      -1368583.      -1465942.      -1562740.      -1658939.
      -1754513.      -1849446.      -1943650.      -2037011.      -2129451.
      -2220921.      -2311405.      -2400892.      -2489406.      -2576969.
      -2663534.      -2749076.      -2833590.      -2917008.      -2999310.
      -3080479.      -3160481.      -3239312.      -3316929.      -3393300.
      -3468367.      -3542120.      -3614544.      -3685538.      -3755090.
      -3823215.      -3889862.      -3954953.      -4018443.      -4080349.
      -4140603.      -4199152.      -4255969.      -4310999.      -4364240.
      -4415658.      -4465260.      -4513038.      -4558965.      -4603077.
      -4645314.      -4685625.      -4724022.      -4760486.      -4795041.
      -4827687.      -4858389.      -4887161.      -4914004.      -4938896.
      -4961871.      -4982944.      -5002120.      -5019446.      -5034922.
      -5048590.      -5060531.      -5070741.      -5079255.      -5086150.
      -5091467.      -5095231.      -5097479.      -5098246.      -5097571.
      -5095485.      -5092028.      -5087274.      -5081281.      -5074114.
      -5065838.      -5056483.      -5046066.      -5034586.      -5022047.
      -5008508.      -4994040.      -4978674.      -4962445.      -4945380.
      -4927495.      -4908871.      -4889516.      -4869401.      -4848542.
      -4826954.      -4804654.      -4781587.      -4757754.      -4733154.
      -4707788.      -4681731.      -4655011.      -4627646.      -4599629.
      -4570930.      -4541525.      -4511415.      -4480660.      -4449309.
      -4417386.      -4384919.      -4351905.      -4318322.      -4284199.
      -4249554.      -4214399.      -4178733.      -4142530.      -4105765.
      -4068410.      -4030481.      -3991984.      -3952934.      -3913342.
      -3873173.      -3832420.      -3791090.      -3749239.      -3706855.
      -3663867.      -3620300.      -3576170.      -3531480.      -3486190.
      -3440273.      -3393733.      -3346551.      -3298743.      -3250264.
      -3201088.      -3151232.      -3100640.      -3049338.      -2997343.
      -2944574.      -2890999.      -2836569.      -2781277.      -2725133.
      -2668053.      -2609981.      -2550848.      -2490633.      -2429354.
      -2366995.      -2303559.      -2239051.      -2173509.      -2106983.
      -2039474.      -1970979.      -1901566.      -1831262.      -1760062.
      -1687957.      -1614905.      -1540928.      -1466065.      -1390336.
      -1313751.      -1236327.      -1158116.      -1079173.      -999567.0
      -919308.0      -838452.0      -757135.0      -675404.0      -593260.0
      -510720.0      -427836.0      -344671.0      -261266.0      -177633.0
      -93802.00      -9865.000       74080.00       157956.0       241729.0
       325328.0       408605.0       491446.0       573810.0       655707.0
       737085.0       817866.0       897990.0       977372.0       1055979.
       1133763.       1210666.       1286674.       1361735.       1435812.
       1508812.       1580664.       1651357.       1720837.       1789061.
       1855952.       1921466.       1985559.       2048198.       2109373.
       2169025.       2227116.       2283585.       2338384.       2391485.
       2442850.       2492493.       2540417.       2586589.       2630956.
       2673490.       2714202.       2753107.       2790198.       2825447.
       2858859.       2890456.       2920225.       2948135.       2974179.
       2998363.       3020730.       3041326.       3060155.       3077195.
       3092402.       3105771.       3117363.       3127209.       3135287.
       3141645.       3146346.       3149431.       3150952.       3150990.
       3149656.       3147019.       3143095.       3137921.       3131527.
       3123925.       3115129.       3105134.       3094010.       3081793.
