     0.05000000      -12345.00      -12345.00   3.441670e+09      -12345.00
   0.0005380000       1859.951      -318.0196      -12345.00      -12345.00
      -12345.00      -12345.00      -12345.00      -12345.00      -12345.00
      -12345.00      -12345.00      -12345.00      -12345.00      -12345.00
      -12345.00      -12345.00      -12345.00      -12345.00      -12345.00
      -12345.00      -12345.00      -12345.00      -12345.00      -12345.00
      -12345.00      -21.21250      -159.7733      -73.00000       101.0000
      -42.72450       173.0647      -12345.00       22.00000      -12345.00
      -12345.00      -12345.00      -12345.00      -12345.00      -12345.00
      -12345.00      -12345.00      -12345.00      -12345.00      -12345.00
       3474.664       55.19260       220.4249       31.24979      -12345.00
      -12345.00      -12345.00       0.000000       0.000000      -12345.00
      -12345.00      -12345.00      -12345.00      -12345.00      -12345.00
      -12345.00      -12345.00      -12345.00      -12345.00      -12345.00
      2016       318        11         8        17
        19         6    -12345    -12345     37200
    -12345    -12345    -12345    -12345    -12345
         1    -12345    -12345    -12345    -12345
    -12345    -12345    -12345    -12345    -12345
    -12345    -12345    -12345    -12345    -12345
    -12345    -12345    -12345    -12345    -12345
         1    -12345    -12345    -12345    -12345
RAR     South Island, Ne
00      -12345  -12345  
-12345  -12345  -12345  
-12345  -12345  -12345  
-12345  -12345  -12345  
-12345  -12345  -12345  
-12345  -12345  BHZ     
IU      -12345  Geotech 
[...]
      -276040.0      -238708.0      -201157.0      -163384.0      -125368.0
      -87137.00      -48737.00      -10184.00       28470.00       67146.00
       105825.0       144564.0       183367.0       222245.0       261237.0
       300269.0       339302.0       378378.0       417517.0       456697.0
       495812.0       534772.0       573604.0       612364.0       651071.0
       689731.0       728282.0       766590.0       804606.0       842387.0
       879936.0       917176.0       954051.0       990534.0       1026613.
       1062271.       1097427.       1131984.       1165945.       1199346.
       1232148.       1264304.       1295784.       1326546.       1356590.
       1385895.       1414402.       1442037.       1468780.       1494715.
       1519947.       1544508.       1568405.       1591565.       1613759.
       1634840.       1654892.       1674059.       1692339.       1709668.
       1726029.       1741353.       1755653.       1769039.       1781576.
       1793284.       1804087.       1813886.       1822635.       1830380.
       1837230.       1843206.       1848276.       1852428.       1855651.
       1857952.       1859302.       1859658.       1859023.       1857412.
       1854885.       1851558.       1847534.       1842811.       1837267.
       1830795.       1823440.       1815343.       1806559.       1797022.
       1786656.       1775477.       1763620.       1751247.       1738375.
       1724821.       1710453.       1695275.       1679379.       1662870.
       1645745.       1627944.       1609424.       1590204.       1570280.
       1549643.       1528371.       1506454.       1483859.       1460601.
       1436678.       1412069.       1386702.       1360532.       1333575.
       1305918.       1277675.       1248886.       1219543.       1189598.
       1159025.       1127849.       1096132.       1063932.       1031197.
       997865.0       963979.0       929590.0       894708.0       859370.0
       823602.0       787412.0       750886.0       714080.0       676956.0
       639521.0       601808.0       563939.0       526095.0       488252.0
       450271.0       412108.0       373808.0       335383.0       296767.0
       257930.0       218913.0       179822.0       140726.0       101627.0
       62492.00       23331.00      -15778.00      -54710.00      -93372.00
      -131789.0      -169965.0      -207812.0      -245311.0      -282568.0
      -319653.0      -356508.0      -393093.0      -429414.0      -465485.0
      -501373.0      -537098.0      -572582.0      -607766.0      -642591.0
      -677020.0      -711045.0      -744698.0      -777992.0      -810833.0
      -843161.0      -875022.0      -906499.0      -937592.0      -968225.0
      -998385.0      -1028077.      -1057321.      -1086118.      -1114448.
      -1142310.      -1169655.      -1196434.      -1222645.      -1248286.
      -1273376.      -1297938.      -1322018.      -1345671.      -1368893.
      -1391641.      -1413840.      -1435411.      -1456388.      -1476866.
      -1496803.      -1516094.      -1534712.      -1552661.      -1569893.
      -1586392.      -1602181.      -1617249.      -1631621.      -1645386.
      -1658599.      -1671189.      -1683070.      -1694262.      -1704844.
      -1714822.      -1724135.      -1732771.      -1740732.      -1748003.
      -1754615.      -1760604.      -1765998.      -1770805.      -1775005.
      -1778578.      -1781501.      -1783764.      -1785384.      -1786394.
      -1786821.      -1786627.      -1785713.      -1784023.      -1781605.
      -1778544.      -1774896.      -1770630.      -1765647.      -1759858.
      -1753230.      -1745773.      -1737498.      -1728395.      -1718489.
      -1707828.      -1696462.      -1684438.      -1671768.      -1658478.
      -1644617.      -1630200.      -1615223.      -1599702.      -1583633.
      -1566995.      -1549788.      -1532020.      -1513733.      -1494949.
      -1475650.      -1455771.      -1435234.      -1413988.      -1392037.
      -1369442.      -1346254.      -1322525.      -1298261.      -1273478.
      -1248210.      -1222380.      -1195844.      -1168536.      -1140561.
      -1112046.      -1083113.      -1053844.      -1024206.      -994162.0
      -963650.0      -932613.0      -901064.0      -869041.0      -836631.0
      -803867.0      -770737.0      -737228.0      -703263.0      -668838.0
      -634024.0      -598829.0      -563278.0      -527413.0      -491197.0
      -454623.0      -417738.0      -380511.0      -342922.0      -305027.0
      -266875.0      -228488.0      -189819.0      -150823.0      -111536.0
      -71982.00      -32175.00       7886.000       48142.00       88460.00
       128790.0       169107.0       209398.0       249680.0       290006.0
       330397.0       370847.0       411358.0       451841.0       492198.0
       532379.0       572400.0       612335.0       652230.0       692098.0
       731796.0       771147.0       810088.0       848608.0       886718.0
       924421.0       961762.0       998823.0       1035665.       1072284.
       1108594.       1144483.       1179930.       1215066.       1249959.
       1284526.       1318691.       1352383.       1385600.       1418446.
       1450966.       1483085.       1514700.       1545777.       1576310.
       1606296.       1635766.       1664706.       1693068.       1720778.
       1747759.       1773950.       1799288.       1823781.       1847477.
       1870403.       1892589.       1914092.       1934922.       1955001.
       1974267.       1992680.       2010193.       2026774.       2042458.
       2057245.       2071104.       2083996.       2095813.       2106518.
       2116144.       2124709.       2132199.       2138622.       2144048.
       2148448.       2151728.       2153867.       2154860.       2154719.
       2153486.       2151174.       2147760.       2143256.       2137631.
       2130776.       2122684.       2113420.       2103080.       2091717.
       2079303.       2065831.       2051316.       2035854.       2019533.
       2002287.       1984016.       1964730.       1944482.       1923274.
       1901062.       1877909.       1853979.       1829328.       1803940.
       1777721.       1750590.       1722518.       1693517.       1663721.
       1633273.       1602274.       1570639.       1538209.       1505012.
       1471148.       1436720.       1401769.       1366280.       1330303.
       1293868.       1257014.       1219824.       1182295.       1144387.
       1106051.       1067281.       1028168.       988765.0       949053.0
       908954.0       868428.0       827571.0       786557.0       745493.0
       704365.0       663110.0       621683.0       580092.0       538404.0
       496698.0       455017.0       413374.0       371746.0       330088.0
       288405.0       246741.0       205053.0       163312.0       121621.0
       80038.00       38555.00      -2795.000      -43964.00      -84989.00
      -125928.0      -166748.0      -207394.0      -247819.0      -287999.0
      -327951.0      -367702.0      -407283.0      -446670.0      -485800.0
      -524640.0      -563276.0      -601763.0      -639972.0      -677823.0
      -715398.0      -752825.0      -790119.0      -827197.0      -864009.0
      -900518.0      -936711.0      -972596.0      -1008154.      -1043354.
      -1078158.      -1112545.      -1146568.      -1180278.      -1213621.
      -1246532.      -1279026.      -1311099.      -1342678.      -1373744.
      -1404321.      -1434405.      -1463972.      -1492952.      -1521331.
      -1549191.      -1576566.      -1603382.      -1629522.      -1654877.
      -1679423.      -1703248.      -1726411.      -1748937.      -1770894.
      -1792303.      -1813111.      -1833247.      -1852683.      -1871423.
      -1889435.      -1906740.      -1923410.      -1939447.      -1954832.
      -1969567.      -1983590.      -1996858.      -2009320.      -2020896.
      -2031598.      -2041465.      -2050540.      -2058869.      -2066465.
      -2073344.      -2079495.      -2084866.      -2089384.      -2093010.
      -2095749.      -2097663.      -2098815.      -2099202.      -2098816.
      -2097668.      -2095758.      -2093053.      -2089488.      -2084968.
      -2079428.      -2072882.      -2065489.      -2057377.      -2048483.
      -2038694.      -2027868.      -2015979.      -2003132.      -1989416.
      -1974870.      -1959501.      -1943323.      -1926277.      -1908347.
      -1889575.      -1869959.      -1849509.      -1828209.      -1806110.
      -1783309.      -1759867.      -1735807.      -1711132.      -1685863.
      -1659928.      -1633224.      -1605747.      -1577583.      -1548854.
      -1519596.      -1489804.      -1459418.      -1428349.      -1396641.
      -1364414.      -1331736.      -1298617.      -1265051.      -1231035.
      -1196538.      -1161502.      -1125879.      -1089750.      -1053274.
      -1016514.      -979469.0      -942185.0      -904602.0      -866569.0
      -828087.0      -789271.0      -750266.0      -711143.0      -671814.0
      -632169.0      -592240.0      -552166.0      -512001.0      -471743.0
      -431367.0      -390808.0      -350062.0      -309133.0      -268002.0
      -226646.0      -185023.0      -143157.0      -101178.0      -59219.00
      -17299.00       24689.00       66779.00       108952.0       151194.0
       193427.0       235571.0       277617.0       319520.0       361197.0
       402686.0       444149.0       485654.0       527107.0       568423.0
       609539.0       650436.0       691206.0       731903.0       772482.0
       812920.0       853265.0       893536.0       933645.0       973415.0
       1012753.       1051754.       1090492.       1128914.       1166942.
       1204542.       1241683.       1278275.       1314306.       1349918.
       1385173.       1420035.       1454482.       1488450.       1521855.
       1554617.       1586671.       1618037.       1648809.       1679017.
       1708600.       1737510.       1765704.       1793157.       1819870.
       1845813.       1870994.       1895450.       1919218.       1942319.
       1964655.       1986118.       2006650.       2026261.       2045012.
       2062921.       2080049.       2096416.       2111998.       2126764.
       2140625.       2153591.       2165726.       2177014.       2187380.
       2196836.       2205498.       2213401.       2220449.       2226530.
       2231663.       2235917.       2239315.       2241847.       2243506.
       2244329.       2244338.       2243509.       2241800.       2239193.
       2235664.       2231242.       2226020.       2219988.       2213068.
       2205257.       2196577.       2186996.       2176517.       2165149.
       2152910.       2139855.       2125942.       2111100.       2095329.
       2078637.       2061005.       2042419.       2022908.       2002498.
       1981145.       1958802.       1935486.       1911285.       1886268.
       1860440.       1833772.       1806241.       1777920.       1748847.
       1718980.       1688303.       1656818.       1624514.       1591412.
       1557588.       1523089.       1487930.       1452037.       1415315.
       1377796.       1339539.       1300563.       1260837.       1220308.
       1178992.       1136914.       1094049.       1050392.       1005979.
       960857.0       915028.0       868486.0       821296.0       773518.0
       725194.0       676349.0       626933.0       576992.0       526690.0
       476119.0       425263.0       374116.0       322698.0       270999.0
       219011.0       166676.0       114048.0       61292.00       8500.000
      -44266.00      -96988.00      -149706.0      -202465.0      -255271.0
      -308048.0      -360698.0      -413147.0      -465324.0      -517165.0
      -568611.0      -619702.0      -670485.0      -720935.0      -770994.0
      -820628.0      -869840.0      -918549.0      -966727.0      -1014435.
      -1061645.      -1108303.      -1154338.      -1199660.      -1244220.
      -1288083.      -1331320.      -1373908.      -1415779.      -1456777.
      -1496782.      -1535835.      -1574084.      -1611647.      -1648550.
      -1684665.      -1719797.      -1753900.      -1786998.      -1819114.
      -1850307.      -1880634.      -1910099.      -1938689.      -1966397.
      -1993126.      -2018732.      -2043164.      -2066509.      -2088906.
      -2110408.      -2130879.      -2150229.      -2168569.      -2185924.
      -2202212.      -2217398.      -2231508.      -2244657.      -2256897.
      -2268230.      -2278682.      -2288215.      -2296772.      -2304303.
      -2310884.      -2316655.      -2321615.      -2325695.      -2328800.
      -2330889.      -2332009.      -2332263.      -2331763.      -2330483.
      -2328261.      -2325016.      -2320825.      -2315722.      -2309579.
      -2302371.      -2294201.      -2285064.      -2274972.      -2263914.
      -2251796.      -2238656.      -2224604.      -2209639.      -2193707.
      -2176801.      -2158875.      -2139902.      -2119933.      -2098990.
      -2077058.      -2054166.      -2030409.      -2005879.      -1980603.
      -1954503.      -1927512.      -1899602.      -1870759.      -1841056.
      -1810566.      -1779347.      -1747456.      -1714901.      -1681617.
      -1647504.      -1612546.      -1576799.      -1540372.      -1503398.
      -1465906.      -1427790.      -1388951.      -1349370.      -1309070.
      -1268105.      -1226535.      -1184480.      -1142018.      -1099093.
      -1055623.      -1011502.      -966735.0      -921425.0      -875635.0
      -829420.0      -782810.0      -735855.0      -688614.0      -641135.0
      -593453.0      -545551.0      -497466.0      -449360.0      -401398.0
      -353608.0      -305900.0      -258180.0      -210432.0      -162749.0
      -115198.0      -67812.00      -20676.00       26143.00       72607.00
       118706.0       164452.0       209868.0       254955.0       299619.0
       343799.0       387501.0       430755.0       473628.0       516094.0
       558123.0       599719.0       640813.0       681353.0       721369.0
       760924.0       800030.0       838673.0       876833.0       914479.0
       951635.0       988336.0       1024579.       1060370.       1095698.
       1130567.       1164998.       1198914.       1232253.       1264971.
       1297011.       1328417.       1359279.       1389661.       1419550.
       1448856.       1477521.       1505546.       1532912.       1559619.
       1585682.       1611104.       1635966.       1660314.       1684140.
       1707406.       1730038.       1752036.       1773448.       1794306.
       1814469.       1833804.       1852370.       1870194.       1887295.
       1903709.       1919470.       1934593.       1948999.       1962550.
       1975173.       1986932.       1997895.       2008081.       2017500.
       2026172.       2034143.       2041388.       2047824.       2053428.
       2058220.       2062240.       2065494.       2067976.       2069734.
       2070841.       2071298.       2070981.       2069780.       2067670.
       2064712.       2060997.       2056572.       2051472.       2045679.
       2039150.       2031839.       2023796.       2015108.       2005792.
       1995871.       1985322.       1974115.       1962244.       1949681.
       1936429.       1922509.       1907951.       1892775.       1876946.
       1860448.       1843271.       1825431.       1807004.       1787977.
       1768297.       1747942.       1726891.       1705168.       1682868.
       1660112.       1636962.       1613315.       1588994.       1563956.
       1538318.       1512233.       1485766.       1458862.       1431381.
       1403249.       1374576.       1345446.       1315850.       1285865.
       1255554.       1224852.       1193671.       1161913.       1129536.
       1096571.       1063126.       1029299.       995017.0       960172.0
       924755.0       888846.0       852554.0       815880.0       778759.0
       741153.0       703056.0       664445.0       625326.0       585789.0
       545888.0       505617.0       464964.0       423903.0       382366.0
       340315.0       297774.0       254788.0       211445.0       167775.0
       123689.0       79134.00       34162.00      -11176.00      -56851.00
      -102775.0      -148772.0      -194688.0      -240552.0      -286497.0
      -332549.0      -378574.0      -424480.0      -470261.0      -515858.0
      -561202.0      -606210.0      -650835.0      -695115.0      -739068.0
      -782595.0      -825588.0      -868112.0      -910201.0      -951740.0
      -992651.0      -1032895.      -1072443.      -1111351.      -1149734.
      -1187612.      -1224895.      -1261524.      -1297517.      -1332915.
      -1367712.      -1401892.      -1435481.      -1468477.      -1500812.
      -1532468.      -1563553.      -1594160.      -1624292.      -1653913.
      -1682970.      -1711413.      -1739076.      -1765804.      -1791672.
      -1816900.      -1841657.      -1865895.      -1889480.      -1912323.
      -1934339.      -1955447.      -1975681.      -1995143.      -2013919.
      -2032085.      -2049538.      -2066133.      -2081825.      -2096590.
      -2110434.      -2123375.      -2135436.      -2146618.      -2156921.
      -2166368.      -2174945.      -2182573.      -2189185.      -2194732.
      -2199179.      -2202535.      -2204851.      -2206164.      -2206492.
      -2205861.      -2204224.      -2201498.      -2197669.      -2192769.
      -2186769.      -2179642.      -2171449.      -2162264.      -2152133.
      -2141055.      -2129067.      -2116171.      -2102315.      -2087486.
      -2071673.      -2054893.      -2037266.      -2018896.      -1999738.
      -1979749.      -1958929.      -1937232.      -1914617.      -1891103.
      -1866779.      -1841689.      -1815873.      -1789402.      -1762313.
      -1734597.      -1706167.      -1676954.      -1646957.      -1616257.
      -1584975.      -1553158.      -1520803.      -1487902.      -1454447.
      -1420427.      -1385859.      -1350745.      -1315011.      -1278658.
      -1241775.      -1204451.      -1166745.      -1128587.      -1089865.
