     0.02500000      -12345.00      -12345.00   3.262830e+10      -12345.00
   0.0005380000       1859.976      -318.0196      -12345.00      -12345.00
      -12345.00      -12345.00      -12345.00      -12345.00      -12345.00
      -12345.00      -12345.00      -12345.00      -12345.00      -12345.00
      -12345.00      -12345.00      -12345.00      -12345.00      -12345.00
      -12345.00      -12345.00      -12345.00      -12345.00      -12345.00
      -12345.00      -21.21250      -159.7733       28.00000       0.000000
      -42.72450       173.0647      -12345.00       22.00000      -12345.00
      -12345.00      -12345.00      -12345.00      -12345.00      -12345.00
      -12345.00      -12345.00      -12345.00      -12345.00      -12345.00
       3474.664       55.19260       220.4249       31.24979      -12345.00
      -12345.00      -12345.00       1.000000       90.00000      -12345.00
      -12345.00      -12345.00      -12345.00      -12345.00      -12345.00
      -12345.00      -12345.00      -12345.00      -12345.00      -12345.00
      2016       318        11         8        17
        19         6    -12345    -12345     74400
    -12345    -12345    -12345    -12345    -12345
         1    -12345    -12345    -12345    -12345
    -12345    -12345    -12345    -12345    -12345
    -12345    -12345    -12345    -12345    -12345
    -12345    -12345    -12345    -12345    -12345
         1    -12345    -12345    -12345    -12345
RAR     South Island, Ne
10      -12345  -12345  
-12345  -12345  -12345  
-12345  -12345  -12345  
-12345  -12345  -12345  
-12345  -12345  -12345  
-12345  -12345  BH1     
IU      -12345  Streckei
[...]
   1.454802e+07   1.467588e+07   1.480151e+07   1.492542e+07   1.504729e+07
   1.516662e+07   1.528358e+07   1.539874e+07   1.551138e+07   1.562144e+07
   1.572958e+07   1.583490e+07   1.593806e+07   1.603941e+07   1.613788e+07
   1.623397e+07   1.632793e+07   1.641885e+07   1.650706e+07   1.659325e+07
   1.667685e+07   1.675768e+07   1.683554e+07   1.691072e+07   1.698404e+07
   1.705481e+07   1.712263e+07   1.718765e+07   1.724976e+07   1.730932e+07
   1.736649e+07   1.742106e+07   1.747298e+07   1.752229e+07   1.756892e+07
   1.761324e+07   1.765540e+07   1.769452e+07   1.773154e+07   1.776695e+07
   1.779967e+07   1.783024e+07   1.785860e+07   1.788455e+07   1.790841e+07
   1.792972e+07   1.794878e+07   1.796546e+07   1.797958e+07   1.799155e+07
   1.800108e+07   1.800876e+07   1.801430e+07   1.801724e+07   1.801846e+07
   1.801692e+07   1.801279e+07   1.800718e+07   1.799940e+07   1.798925e+07
   1.797669e+07   1.796180e+07   1.794474e+07   1.792528e+07   1.790335e+07
   1.787906e+07   1.785244e+07   1.782378e+07   1.779287e+07   1.775910e+07
   1.772364e+07   1.768622e+07   1.764537e+07   1.760284e+07   1.755895e+07
   1.751211e+07   1.746254e+07   1.741083e+07   1.735680e+07   1.730009e+07
   1.724089e+07   1.717937e+07   1.711558e+07   1.704987e+07   1.698211e+07
   1.691146e+07   1.683763e+07   1.676152e+07   1.668308e+07   1.660199e+07
   1.651910e+07   1.643364e+07   1.634557e+07   1.625549e+07   1.616259e+07
   1.606722e+07   1.596958e+07   1.586921e+07   1.576620e+07   1.566119e+07
   1.555372e+07   1.544303e+07   1.533028e+07   1.521537e+07   1.509785e+07
   1.497853e+07   1.485679e+07   1.473245e+07   1.460599e+07   1.447736e+07
   1.434703e+07   1.421458e+07   1.408011e+07   1.394392e+07   1.380474e+07
   1.366364e+07   1.352151e+07   1.337693e+07   1.323025e+07   1.308178e+07
   1.293107e+07   1.277842e+07   1.262391e+07   1.246712e+07   1.230805e+07
   1.214746e+07   1.198470e+07   1.181966e+07   1.165346e+07   1.148528e+07
   1.131502e+07   1.114344e+07   1.096980e+07   1.079397e+07   1.061686e+07
   1.043851e+07   1.025863e+07   1.007731e+07       9894813.       9711403.
       9526784.       9340330.       9152631.       8963729.       8773284.
       8581457.       8387615.       8192704.       7997191.       7800041.
       7601965.       7403484.       7203838.       7003325.       6802279.
       6599855.       6396604.       6192635.       5987414.       5781750.
       5575386.       5368503.       5161299.       4953291.       4744870.
       4536116.       4327307.       4117967.       3907763.       3697423.
       3486861.       3276055.       3064909.       2853801.       2642577.
       2430461.       2218167.       2005395.       1792312.       1579700.
       1366942.       1153893.       940705.0       727363.0       513454.0
       299371.0       85340.00      -128816.0      -342911.0      -557641.0
      -772415.0      -986914.0      -1201767.      -1416653.      -1631659.
      -1846931.      -2062524.      -2278413.      -2493621.      -2708282.
      -2923523.      -3139026.      -3354534.      -3569955.      -3785452.
      -4000837.      -4216150.      -4431860.      -4646634.      -4861463.
      -5076959.      -5291519.      -5505923.      -5720155.      -5933915.
      -6147429.      -6360109.      -6572224.      -6784111.      -6995899.
      -7207781.      -7419549.      -7630785.      -7841874.      -8052801.
      -8262802.      -8472408.      -8681834.      -8890618.      -9099348.
      -9308007.      -9515841.      -9723375.      -9930967.  -1.013814e+07
  -1.034510e+07  -1.055194e+07  -1.075810e+07  -1.096419e+07  -1.117060e+07
  -1.137606e+07  -1.158118e+07  -1.178643e+07  -1.199120e+07  -1.219626e+07
  -1.240071e+07  -1.260472e+07  -1.280885e+07  -1.301252e+07  -1.321662e+07
  -1.342052e+07  -1.362376e+07  -1.382714e+07  -1.403051e+07  -1.423363e+07
  -1.443613e+07  -1.463850e+07  -1.484104e+07  -1.504356e+07  -1.524579e+07
  -1.544756e+07  -1.564995e+07  -1.585243e+07  -1.605431e+07  -1.625633e+07
  -1.645768e+07  -1.665857e+07  -1.685978e+07  -1.706035e+07  -1.726036e+07
  -1.746030e+07  -1.765954e+07  -1.785850e+07  -1.805765e+07  -1.825619e+07
  -1.845472e+07  -1.865305e+07  -1.885088e+07  -1.904878e+07  -1.924600e+07
  -1.944306e+07  -1.964011e+07  -1.983667e+07  -2.003322e+07  -2.022939e+07
  -2.042492e+07  -2.062044e+07  -2.081599e+07  -2.101067e+07  -2.120512e+07
  -2.139974e+07  -2.159408e+07  -2.178839e+07  -2.198271e+07  -2.217694e+07
  -2.237109e+07  -2.256559e+07  -2.275987e+07  -2.295345e+07  -2.314726e+07
  -2.334127e+07  -2.353608e+07  -2.373097e+07  -2.392511e+07  -2.412004e+07
  -2.431493e+07  -2.450987e+07  -2.470526e+07  -2.489983e+07  -2.509488e+07
  -2.529000e+07  -2.548445e+07  -2.567967e+07  -2.587511e+07  -2.606993e+07
  -2.626474e+07  -2.645990e+07  -2.665429e+07  -2.684849e+07  -2.704288e+07
  -2.723611e+07  -2.742962e+07  -2.762321e+07  -2.781596e+07  -2.800902e+07
  -2.820175e+07  -2.839343e+07  -2.858436e+07  -2.877497e+07  -2.896498e+07
  -2.915398e+07  -2.934242e+07  -2.953001e+07  -2.971621e+07  -2.990132e+07
  -3.008555e+07  -3.026831e+07  -3.044981e+07  -3.063093e+07  -3.081098e+07
  -3.098955e+07  -3.116695e+07  -3.134260e+07  -3.151670e+07  -3.169006e+07
  -3.186166e+07  -3.203093e+07  -3.219914e+07  -3.236535e+07  -3.252901e+07
  -3.269137e+07  -3.285154e+07  -3.300913e+07  -3.316484e+07  -3.331842e+07
  -3.346963e+07  -3.361842e+07  -3.376495e+07  -3.390925e+07  -3.405114e+07
  -3.419073e+07  -3.432800e+07  -3.446276e+07  -3.459483e+07  -3.472384e+07
  -3.484928e+07  -3.497182e+07  -3.509206e+07  -3.520900e+07  -3.532278e+07
  -3.543343e+07  -3.553997e+07  -3.564323e+07  -3.574386e+07  -3.584055e+07
  -3.593299e+07  -3.602209e+07  -3.610756e+07  -3.618960e+07  -3.626819e+07
  -3.634274e+07  -3.641378e+07  -3.648141e+07  -3.654524e+07  -3.660550e+07
  -3.666193e+07  -3.671418e+07  -3.676289e+07  -3.680750e+07  -3.684811e+07
  -3.688524e+07  -3.691787e+07  -3.694702e+07  -3.697292e+07  -3.699368e+07
  -3.701001e+07  -3.702270e+07  -3.703120e+07  -3.703648e+07  -3.703797e+07
  -3.703468e+07  -3.702760e+07  -3.701658e+07  -3.700122e+07  -3.698162e+07
  -3.695747e+07  -3.692944e+07  -3.689784e+07  -3.686207e+07  -3.682265e+07
  -3.677901e+07  -3.673085e+07  -3.667996e+07  -3.662538e+07  -3.656620e+07
  -3.650377e+07  -3.643725e+07  -3.636677e+07  -3.629449e+07  -3.621848e+07
  -3.613753e+07  -3.605392e+07  -3.596708e+07  -3.587647e+07  -3.578298e+07
  -3.568610e+07  -3.558548e+07  -3.548201e+07  -3.537570e+07  -3.526513e+07
  -3.515096e+07  -3.503444e+07  -3.491531e+07  -3.479310e+07  -3.466740e+07
  -3.453859e+07  -3.440695e+07  -3.427301e+07  -3.413670e+07  -3.399707e+07
  -3.385464e+07  -3.370982e+07  -3.356289e+07  -3.341403e+07  -3.326271e+07
  -3.310927e+07  -3.295396e+07  -3.279652e+07  -3.263651e+07  -3.247471e+07
  -3.231165e+07  -3.214628e+07  -3.197875e+07  -3.180920e+07  -3.163764e+07
  -3.146500e+07  -3.129122e+07  -3.111562e+07  -3.093827e+07  -3.075921e+07
  -3.057813e+07  -3.039548e+07  -3.021225e+07  -3.002748e+07  -2.984058e+07
  -2.965252e+07  -2.946290e+07  -2.927190e+07  -2.908006e+07  -2.888672e+07
  -2.869174e+07  -2.849476e+07  -2.829597e+07  -2.809601e+07  -2.789416e+07
  -2.769048e+07  -2.748566e+07  -2.727955e+07  -2.707205e+07  -2.686316e+07
  -2.665245e+07  -2.644024e+07  -2.622669e+07  -2.601126e+07  -2.579447e+07
  -2.557606e+07  -2.535625e+07  -2.513534e+07  -2.491278e+07  -2.468927e+07
  -2.446471e+07  -2.423873e+07  -2.401097e+07  -2.378192e+07  -2.355168e+07
  -2.331941e+07  -2.308623e+07  -2.285155e+07  -2.261495e+07  -2.237740e+07
  -2.213826e+07  -2.189765e+07  -2.165568e+07  -2.141200e+07  -2.116665e+07
  -2.091984e+07  -2.067145e+07  -2.042139e+07  -2.016998e+07  -1.991654e+07
  -1.966134e+07  -1.940515e+07  -1.914735e+07  -1.888799e+07  -1.862725e+07
  -1.836501e+07  -1.810108e+07  -1.783531e+07  -1.756775e+07  -1.729893e+07
  -1.702882e+07  -1.675643e+07  -1.648247e+07  -1.620780e+07  -1.593205e+07
  -1.565511e+07  -1.537669e+07  -1.509684e+07  -1.481557e+07  -1.453303e+07
  -1.424955e+07  -1.396452e+07  -1.367845e+07  -1.339174e+07  -1.310316e+07
  -1.281300e+07  -1.252224e+07  -1.223015e+07  -1.193640e+07  -1.164231e+07
  -1.134752e+07  -1.105202e+07  -1.075653e+07  -1.046010e+07  -1.016232e+07
      -9863833.      -9565178.      -9266107.      -8966724.      -8667079.
      -8366816.      -8066306.      -7765541.      -7464932.      -7164051.
      -6862511.      -6561250.      -6259859.      -5958234.      -5656605.
      -5354220.      -5051617.      -4749450.      -4446797.      -4143864.
      -3841264.      -3538424.      -3235679.      -2933050.      -2629835.
      -2326693.      -2023943.      -1721059.      -1418542.      -1116424.
      -814334.0      -512501.0      -210598.0       91605.00       394251.0
       696915.0       999421.0       1302578.       1606303.       1910132.
       2213547.       2517097.       2820970.       3124267.       3427677.
       3731351.       4034949.       4338601.       4642900.       4947296.
       5251105.       5555687.       5859997.       6164250.       6468992.
       6773239.       7078483.       7383703.       7687943.       7993109.
       8299377.       8606022.       8912764.       9219426.       9526381.
       9833858.   1.014192e+07   1.045041e+07   1.075859e+07   1.106693e+07
   1.137600e+07   1.168524e+07   1.199456e+07   1.230416e+07   1.261388e+07
   1.292345e+07   1.323385e+07   1.354524e+07   1.385652e+07   1.416824e+07
   1.447971e+07   1.479141e+07   1.510458e+07   1.541727e+07   1.572975e+07
   1.604286e+07   1.635583e+07   1.666904e+07   1.698243e+07   1.729576e+07
   1.760945e+07   1.792352e+07   1.823764e+07   1.855153e+07   1.886542e+07
   1.917952e+07   1.949366e+07   1.980740e+07   2.012065e+07   2.043392e+07
   2.074680e+07   2.105941e+07   2.137235e+07   2.168433e+07   2.199574e+07
   2.230775e+07   2.261934e+07   2.293064e+07   2.324165e+07   2.355144e+07
   2.386132e+07   2.417144e+07   2.448053e+07   2.478916e+07   2.509725e+07
   2.540499e+07   2.571305e+07   2.602046e+07   2.632678e+07   2.663233e+07
   2.693730e+07   2.724211e+07   2.754615e+07   2.784897e+07   2.815099e+07
   2.845236e+07   2.875312e+07   2.905315e+07   2.935212e+07   2.964965e+07
   2.994631e+07   3.024216e+07   3.053679e+07   3.083058e+07   3.112365e+07
   3.141589e+07   3.170679e+07   3.199615e+07   3.228345e+07   3.256886e+07
   3.285357e+07   3.313646e+07   3.341743e+07   3.369726e+07   3.397496e+07
   3.425167e+07   3.452725e+07   3.480048e+07   3.507234e+07   3.534254e+07
   3.561074e+07   3.587697e+07   3.614099e+07   3.640320e+07   3.666343e+07
   3.692174e+07   3.717845e+07   3.743287e+07   3.768531e+07   3.793608e+07
   3.818499e+07   3.843170e+07   3.867556e+07   3.891958e+07   3.915932e+07
   3.939847e+07   3.963590e+07   3.986631e+07   4.010425e+07   4.032551e+07
   4.056181e+07   4.075606e+07   4.078972e+07   4.078920e+07   4.078857e+07
   4.079584e+07   4.079706e+07   4.078486e+07   4.087627e+07   4.085870e+07
   4.078330e+07   4.081003e+07   4.080427e+07   4.080484e+07   4.080687e+07
   4.081106e+07   4.080325e+07   4.081659e+07   4.080838e+07   4.080548e+07
   4.083576e+07   4.076151e+07   4.094860e+07   4.103406e+07   4.078945e+07
   4.081013e+07   4.083100e+07   4.079964e+07   4.082995e+07   4.080843e+07
   4.082056e+07   4.081751e+07   4.081531e+07   4.082032e+07   4.081577e+07
   4.081948e+07   4.081732e+07   4.081680e+07   4.082017e+07   4.081646e+07
   4.082074e+07   4.081828e+07   4.081692e+07   4.082460e+07   4.080799e+07
   4.083349e+07   4.080441e+07   4.082754e+07   4.082819e+07   4.077097e+07
   4.103872e+07   4.101810e+07   4.078045e+07   4.081557e+07   4.084041e+07
   4.079992e+07   4.081052e+07   4.104699e+07   4.096289e+07   4.075993e+07
   4.084531e+07   4.081390e+07   4.081310e+07   4.083230e+07   4.081598e+07
   4.082406e+07   4.081552e+07   4.082175e+07   4.081915e+07   4.081887e+07
   4.082037e+07   4.081864e+07   4.081953e+07   4.081968e+07   4.081965e+07
   4.081944e+07   4.081952e+07   4.081944e+07   4.081948e+07   4.082024e+07
   4.081878e+07   4.081698e+07   4.082208e+07   4.081513e+07   4.082224e+07
   4.081947e+07   4.081239e+07   4.083374e+07   4.079706e+07   4.084408e+07
   4.079907e+07   4.081986e+07   4.085572e+07   4.070442e+07   4.126758e+07
   4.135782e+07   4.073918e+07   4.082524e+07   4.083898e+07   4.078811e+07
   4.084373e+07   4.079806e+07   4.082729e+07   4.080854e+07   4.085867e+07
   4.084344e+07   4.079654e+07   4.082841e+07   4.080131e+07   4.082263e+07
   4.080665e+07   4.080788e+07   4.082841e+07   4.076060e+07   4.097082e+07
   4.099713e+07   4.075536e+07   4.082795e+07   4.079480e+07   4.079999e+07
   4.081825e+07   4.075849e+07   4.086887e+07   4.067090e+07   4.104823e+07
   4.143319e+07   4.080046e+07   4.056015e+07   4.039404e+07   4.002440e+07
   3.982848e+07   3.950660e+07   3.924449e+07   3.896564e+07   3.866714e+07
   3.839387e+07   3.809018e+07   3.780182e+07   3.750176e+07   3.719974e+07
   3.689915e+07   3.659184e+07   3.628267e+07   3.597109e+07   3.565647e+07
   3.533868e+07   3.501751e+07   3.469435e+07   3.436845e+07   3.403901e+07
   3.370678e+07   3.337157e+07   3.303406e+07   3.269381e+07   3.235073e+07
   3.200527e+07   3.165699e+07   3.130596e+07   3.095227e+07   3.059607e+07
   3.023710e+07   2.987568e+07   2.951192e+07   2.914589e+07   2.877774e+07
   2.840705e+07   2.803426e+07   2.765931e+07   2.728189e+07   2.690270e+07
   2.652158e+07   2.613801e+07   2.575234e+07   2.536461e+07   2.497494e+07
   2.458363e+07   2.419018e+07   2.379417e+07   2.339659e+07   2.299723e+07
   2.259527e+07   2.219232e+07   2.178781e+07   2.138063e+07   2.097214e+07
   2.056208e+07   2.014952e+07   1.973518e+07   1.931984e+07   1.890274e+07
   1.848350e+07   1.806237e+07   1.763962e+07   1.721557e+07   1.678974e+07
   1.636198e+07   1.593273e+07   1.550228e+07   1.506997e+07   1.463593e+07
   1.420087e+07   1.376439e+07   1.332654e+07   1.288722e+07   1.244734e+07
   1.200653e+07   1.156387e+07   1.112102e+07   1.067675e+07   1.023076e+07
       9784673.       9337154.       8888521.       8440080.       7990209.
       7539385.       7089197.       6637787.       6185804.       5734339.
       5281754.       4829110.       4376799.       3923950.       3471799.
       3019968.       2567250.       2115491.       1664650.       1213027.
       762293.0       311770.0      -139615.0      -589752.0      -1039413.
      -1489253.      -1938174.      -2386689.      -2835401.      -3283587.
      -3730118.      -4175574.      -4620416.      -5063988.      -5506015.
      -5946480.      -6386060.      -6824627.      -7262000.      -7698600.
      -8133588.      -8566802.      -8999152.      -9429826.      -9858255.
  -1.028545e+07  -1.071056e+07  -1.113389e+07  -1.155606e+07  -1.197626e+07
  -1.239545e+07  -1.281270e+07  -1.322743e+07  -1.364088e+07  -1.405204e+07
  -1.446056e+07  -1.486725e+07  -1.527148e+07  -1.567296e+07  -1.607299e+07
  -1.647130e+07  -1.686624e+07  -1.725912e+07  -1.765013e+07  -1.803803e+07
  -1.842373e+07  -1.880705e+07  -1.918743e+07  -1.956566e+07  -1.994143e+07
  -2.031376e+07  -2.068348e+07  -2.105073e+07  -2.141472e+07  -2.177541e+07
  -2.213325e+07  -2.248822e+07  -2.283983e+07  -2.318904e+07  -2.353588e+07
  -2.387947e+07  -2.421940e+07  -2.455605e+07  -2.488948e+07  -2.521899e+07
  -2.554600e+07  -2.587010e+07  -2.619112e+07  -2.651074e+07  -2.682691e+07
  -2.713891e+07  -2.744816e+07  -2.775392e+07  -2.805634e+07  -2.835585e+07
  -2.865176e+07  -2.894505e+07  -2.923587e+07  -2.952320e+07  -2.980753e+07
  -3.008856e+07  -3.036574e+07  -3.063922e+07  -3.090937e+07  -3.117631e+07
  -3.143956e+07  -3.169992e+07  -3.195793e+07  -3.221291e+07  -3.246424e+07
  -3.271127e+07  -3.295483e+07  -3.319494e+07  -3.343107e+07  -3.366394e+07
  -3.389278e+07  -3.411772e+07  -3.433967e+07  -3.455805e+07  -3.477336e+07
  -3.498556e+07  -3.519377e+07  -3.539845e+07  -3.559960e+07  -3.579738e+07
  -3.599183e+07  -3.618252e+07  -3.636925e+07  -3.655164e+07  -3.673085e+07
  -3.690691e+07  -3.707867e+07  -3.724564e+07  -3.741050e+07  -3.757144e+07
  -3.772495e+07  -3.788294e+07  -3.802618e+07  -3.817782e+07  -3.831622e+07
  -3.844292e+07  -3.860187e+07  -3.869366e+07  -3.886754e+07  -3.894880e+07
  -3.908201e+07  -3.948072e+07  -3.938252e+07  -3.940486e+07  -3.970346e+07
  -3.958587e+07  -3.977378e+07  -3.996398e+07  -3.988880e+07  -3.999809e+07
  -4.007118e+07  -4.016222e+07  -4.015659e+07  -4.011533e+07  -4.013099e+07
  -4.010546e+07  -4.013622e+07  -4.003703e+07  -4.022420e+07  -4.037040e+07
  -4.009156e+07  -4.009221e+07  -4.011493e+07  -4.006430e+07  -4.011238e+07
  -4.008256e+07  -4.008402e+07  -4.011669e+07  -4.006854e+07  -4.017147e+07
  -4.034298e+07  -4.015327e+07  -4.005269e+07  -4.014169e+07  -4.004523e+07
  -4.014662e+07  -4.031345e+07  -4.014246e+07  -4.004609e+07  -4.012431e+07
  -4.011855e+07  -4.015882e+07  -4.019791e+07  -4.011677e+07  -4.008397e+07
  -4.012114e+07  -4.008110e+07  -4.008936e+07  -4.021878e+07  -4.015587e+07
  -4.006786e+07  -4.009854e+07  -4.007957e+07  -4.010696e+07  -4.008749e+07
  -4.009276e+07  -4.013266e+07  -4.013656e+07  -4.019153e+07  -4.013119e+07
  -4.005411e+07  -3.998826e+07  -3.990213e+07  -3.991198e+07  -3.979894e+07
  -3.965538e+07  -3.960039e+07  -3.950125e+07  -3.941651e+07  -3.932860e+07
  -3.923054e+07  -3.914037e+07  -3.903902e+07  -3.894185e+07  -3.883929e+07
  -3.873400e+07  -3.862815e+07  -3.851830e+07  -3.840766e+07  -3.829465e+07
  -3.817857e+07  -3.806069e+07  -3.794079e+07  -3.781848e+07  -3.769404e+07
  -3.756723e+07  -3.743849e+07  -3.730803e+07  -3.717545e+07  -3.704080e+07
  -3.690406e+07  -3.676516e+07  -3.662456e+07  -3.648250e+07  -3.633820e+07
  -3.619168e+07  -3.604363e+07  -3.589354e+07  -3.574158e+07  -3.558821e+07
  -3.543315e+07  -3.527656e+07  -3.511843e+07  -3.495907e+07  -3.479827e+07
  -3.463512e+07  -3.447036e+07  -3.430471e+07  -3.413760e+07  -3.396988e+07
  -3.380141e+07  -3.363140e+07  -3.346075e+07  -3.328898e+07  -3.311595e+07
  -3.294263e+07  -3.276815e+07  -3.259215e+07  -3.241555e+07  -3.223824e+07
  -3.206040e+07  -3.188212e+07  -3.170290e+07  -3.152318e+07  -3.134291e+07
  -3.116121e+07  -3.097856e+07  -3.079551e+07  -3.061177e+07  -3.042745e+07
  -3.024187e+07  -3.005535e+07  -2.986871e+07  -2.968120e+07  -2.949256e+07
