     0.02500000      -12345.00      -12345.00   3.262830e+10      -12345.00
   0.0005380000       1859.976      -318.0196      -12345.00      -12345.00
      -12345.00      -12345.00      -12345.00      -12345.00      -12345.00
      -12345.00      -12345.00      -12345.00      -12345.00      -12345.00
      -12345.00      -12345.00      -12345.00      -12345.00      -12345.00
      -12345.00      -12345.00      -12345.00      -12345.00      -12345.00
      -12345.00      -21.21250      -159.7733       28.00000       0.000000
      -42.72450       173.0647      -12345.00       22.00000      -12345.00
      -12345.00      -12345.00      -12345.00      -12345.00      -12345.00
      -12345.00      -12345.00      -12345.00      -12345.00      -12345.00
       3474.664       55.19260       220.4249       31.24979      -12345.00
      -12345.00      -12345.00       0.000000       0.000000      -12345.00
      -12345.00      -12345.00      -12345.00      -12345.00      -12345.00
      -12345.00      -12345.00      -12345.00      -12345.00      -12345.00
      2016       318        11         8        17
        19         6    -12345    -12345     74400
    -12345    -12345    -12345    -12345    -12345
         1    -12345    -12345    -12345    -12345
    -12345    -12345    -12345    -12345    -12345
    -12345    -12345    -12345    -12345    -12345
    -12345    -12345    -12345    -12345    -12345
         1    -12345    -12345    -12345    -12345
RAR     South Island, Ne
10      -12345  -12345  
-12345  -12345  -12345  
-12345  -12345  -12345  
-12345  -12345  -12345  
-12345  -12345  -12345  
-12345  -12345  BHZ     
IU      -12345  Streckei
[...]
   1.288610e+07   1.273480e+07   1.258217e+07   1.242814e+07   1.227212e+07
   1.211544e+07   1.195835e+07   1.179940e+07   1.163952e+07   1.147884e+07
   1.131696e+07   1.115451e+07   1.099128e+07   1.082740e+07   1.066282e+07
   1.049773e+07   1.033141e+07   1.016349e+07       9994381.       9823934.
       9652945.       9481316.       9309262.       9136878.       8963549.
       8789367.       8614837.       8439546.       8262710.       8084637.
       7904943.       7725143.       7545825.       7364977.       7183962.
       7003417.       6822012.       6640852.       6459522.       6277396.
       6095736.       5912908.       5729304.       5546932.       5363541.
       5178765.       4993921.       4808872.       4624645.       4440214.
       4255296.       4071733.       3887973.       3703217.       3518532.
       3333954.       3149276.       2964822.       2780312.       2595387.
       2411102.       2226480.       2041321.       1856536.       1670975.
       1485654.       1301024.       1116326.       932011.0       747473.0
       563047.0       379253.0       196205.0       13473.00      -169372.0
      -351531.0      -533975.0      -716380.0      -898107.0      -1079779.
      -1260955.      -1442305.      -1623043.      -1802389.      -1982243.
      -2161987.      -2340014.      -2517786.      -2695489.      -2872273.
      -3049329.      -3225952.      -3401547.      -3577575.      -3753370.
      -3927927.      -4102254.      -4275829.      -4448132.      -4620666.
      -4792541.      -4963838.      -5135350.      -5305712.      -5475176.
      -5643739.      -5811268.      -5979214.      -6147293.      -6314527.
      -6481886.      -6648653.      -6814277.      -6980487.      -7146202.
      -7310686.      -7474920.      -7637868.      -7799883.      -7962098.
      -8123545.      -8283925.      -8443715.      -8602724.      -8761116.
      -8918965.      -9076189.      -9232446.      -9387804.      -9542365.
      -9695488.      -9847976.      -9999771.  -1.015147e+07  -1.030272e+07
  -1.045208e+07  -1.060098e+07  -1.074860e+07  -1.089520e+07  -1.104187e+07
  -1.118718e+07  -1.133158e+07  -1.147543e+07  -1.161765e+07  -1.175832e+07
  -1.189872e+07  -1.203850e+07  -1.217653e+07  -1.231353e+07  -1.244955e+07
  -1.258461e+07  -1.271864e+07  -1.285088e+07  -1.298234e+07  -1.311259e+07
  -1.324089e+07  -1.336823e+07  -1.349457e+07  -1.362052e+07  -1.374551e+07
  -1.386864e+07  -1.399074e+07  -1.411162e+07  -1.423089e+07  -1.434860e+07
  -1.446489e+07  -1.457911e+07  -1.469103e+07  -1.480148e+07  -1.491064e+07
  -1.501830e+07  -1.512454e+07  -1.522918e+07  -1.533235e+07  -1.543480e+07
  -1.553530e+07  -1.563418e+07  -1.573317e+07  -1.583098e+07  -1.592654e+07
  -1.602048e+07  -1.611314e+07  -1.620431e+07  -1.629421e+07  -1.638282e+07
  -1.646963e+07  -1.655512e+07  -1.663905e+07  -1.672062e+07  -1.680082e+07
  -1.687972e+07  -1.695726e+07  -1.703373e+07  -1.710856e+07  -1.718194e+07
  -1.725372e+07  -1.732410e+07  -1.739325e+07  -1.746089e+07  -1.752705e+07
  -1.759133e+07  -1.765349e+07  -1.771445e+07  -1.777420e+07  -1.783120e+07
  -1.788648e+07  -1.794022e+07  -1.799134e+07  -1.804070e+07  -1.808804e+07
  -1.813396e+07  -1.817885e+07  -1.822128e+07  -1.826174e+07  -1.830109e+07
  -1.833838e+07  -1.837395e+07  -1.840889e+07  -1.844181e+07  -1.847231e+07
  -1.850156e+07  -1.852955e+07  -1.855554e+07  -1.857907e+07  -1.860062e+07
  -1.862099e+07  -1.863951e+07  -1.865533e+07  -1.866907e+07  -1.868120e+07
  -1.869180e+07  -1.870093e+07  -1.870872e+07  -1.871444e+07  -1.871791e+07
  -1.871984e+07  -1.871988e+07  -1.871885e+07  -1.871633e+07  -1.871101e+07
  -1.870463e+07  -1.869706e+07  -1.868701e+07  -1.867553e+07  -1.866167e+07
  -1.864601e+07  -1.862858e+07  -1.860751e+07  -1.858486e+07  -1.855955e+07
  -1.853130e+07  -1.850224e+07  -1.847148e+07  -1.843956e+07  -1.840672e+07
  -1.837150e+07  -1.833385e+07  -1.829495e+07  -1.825415e+07  -1.821043e+07
  -1.816398e+07  -1.811503e+07  -1.806390e+07  -1.801044e+07  -1.795508e+07
  -1.789862e+07  -1.784031e+07  -1.777920e+07  -1.771645e+07  -1.765219e+07
  -1.758598e+07  -1.751868e+07  -1.744920e+07  -1.737772e+07  -1.730422e+07
  -1.722790e+07  -1.715020e+07  -1.707106e+07  -1.699007e+07  -1.690700e+07
  -1.682198e+07  -1.673544e+07  -1.664677e+07  -1.655603e+07  -1.646312e+07
  -1.636834e+07  -1.627243e+07  -1.617469e+07  -1.607584e+07  -1.597591e+07
  -1.587384e+07  -1.577030e+07  -1.566530e+07  -1.555866e+07  -1.545082e+07
  -1.534214e+07  -1.523218e+07  -1.512052e+07  -1.500733e+07  -1.489247e+07
  -1.477548e+07  -1.465628e+07  -1.453515e+07  -1.441254e+07  -1.428899e+07
  -1.416455e+07  -1.403906e+07  -1.391220e+07  -1.378414e+07  -1.365474e+07
  -1.352348e+07  -1.339118e+07  -1.325766e+07  -1.312208e+07  -1.298546e+07
  -1.284746e+07  -1.270786e+07  -1.256688e+07  -1.242450e+07  -1.228190e+07
  -1.213821e+07  -1.199341e+07  -1.184764e+07  -1.170034e+07  -1.155215e+07
  -1.140267e+07  -1.125290e+07  -1.110233e+07  -1.095007e+07  -1.079697e+07
  -1.064239e+07  -1.048611e+07  -1.032795e+07  -1.016883e+07  -1.000915e+07
      -9848641.      -9687746.      -9525762.      -9362966.      -9199236.
      -9034971.      -8870832.      -8705901.      -8540319.      -8374333.
      -8207062.      -8037987.      -7868070.      -7697590.      -7526350.
      -7354565.      -7181376.      -7007710.      -6835020.      -6662194.
      -6488557.      -6314012.      -6138315.      -5961794.      -5784972.
      -5607843.      -5430002.      -5252228.      -5074672.      -4896457.
      -4717998.      -4539476.      -4360648.      -4181478.      -4001351.
      -3820623.      -3639590.      -3458111.      -3276448.      -3094150.
      -2911718.      -2728929.      -2545146.      -2361426.      -2177115.
      -1991696.      -1805524.      -1618506.      -1431640.      -1244791.
      -1058335.      -872700.0      -686284.0      -499840.0      -313564.0
      -126173.0       60890.00       247814.0       436050.0       624036.0
       811539.0       1000168.       1188489.       1375940.       1563768.
       1751526.       1939000.       2126105.       2312607.       2498784.
       2685267.       2870702.       3055201.       3240246.       3424576.
       3609057.       3794408.       3979746.       4164904.       4349631.
       4534198.       4718744.       4902497.       5085506.       5268572.
       5451585.       5634270.       5816304.       5998408.       6180443.
       6362197.       6543964.       6724540.       6905043.       7085748.
       7266070.       7447173.       7627860.       7807989.       7988202.
       8166618.       8343774.       8521162.       8697349.       8872310.
       9047008.       9220955.       9394197.       9567077.       9739250.
       9910138.   1.008010e+07   1.024955e+07   1.041796e+07   1.058535e+07
   1.075235e+07   1.091809e+07   1.108163e+07   1.124383e+07   1.140553e+07
   1.156662e+07   1.172670e+07   1.188610e+07   1.204411e+07   1.220091e+07
   1.235719e+07   1.251212e+07   1.266701e+07   1.282116e+07   1.297293e+07
   1.312371e+07   1.327398e+07   1.342300e+07   1.357001e+07   1.371563e+07
   1.385980e+07   1.400144e+07   1.414201e+07   1.428192e+07   1.442061e+07
   1.455791e+07   1.469361e+07   1.482824e+07   1.496078e+07   1.509172e+07
   1.522207e+07   1.535040e+07   1.547706e+07   1.560244e+07   1.572568e+07
   1.584730e+07   1.596788e+07   1.608634e+07   1.620264e+07   1.631749e+07
   1.643061e+07   1.654274e+07   1.665317e+07   1.676137e+07   1.686868e+07
   1.697416e+07   1.707775e+07   1.718055e+07   1.728144e+07   1.737969e+07
   1.747617e+07   1.757101e+07   1.766347e+07   1.775361e+07   1.784174e+07
   1.792810e+07   1.801240e+07   1.809494e+07   1.817641e+07   1.825560e+07
   1.833225e+07   1.840770e+07   1.848197e+07   1.855383e+07   1.862435e+07
   1.869327e+07   1.875962e+07   1.882476e+07   1.888749e+07   1.894749e+07
   1.900569e+07   1.906246e+07   1.911777e+07   1.917108e+07   1.922250e+07
   1.927116e+07   1.931769e+07   1.936249e+07   1.940533e+07   1.944687e+07
   1.948649e+07   1.952456e+07   1.956115e+07   1.959511e+07   1.962685e+07
   1.965723e+07   1.968547e+07   1.971092e+07   1.973489e+07   1.975683e+07
   1.977642e+07   1.979493e+07   1.981106e+07   1.982558e+07   1.983879e+07
   1.984892e+07   1.985729e+07   1.986360e+07   1.986793e+07   1.987116e+07
   1.987246e+07   1.987192e+07   1.986929e+07   1.986488e+07   1.985818e+07
   1.984971e+07   1.983969e+07   1.982687e+07   1.981296e+07   1.979701e+07
   1.977796e+07   1.975765e+07   1.973570e+07   1.971234e+07   1.968718e+07
   1.965889e+07   1.962895e+07   1.959746e+07   1.956353e+07   1.952822e+07
   1.949131e+07   1.945167e+07   1.941044e+07   1.936743e+07   1.932158e+07
   1.927452e+07   1.922543e+07   1.917371e+07   1.912050e+07   1.906569e+07
   1.900914e+07   1.895069e+07   1.888993e+07   1.882680e+07   1.876221e+07
   1.869495e+07   1.862551e+07   1.855499e+07   1.848171e+07   1.840600e+07
   1.832858e+07   1.824913e+07   1.816728e+07   1.808317e+07   1.799744e+07
   1.791036e+07   1.782122e+07   1.772956e+07   1.763587e+07   1.753992e+07
   1.744169e+07   1.734112e+07   1.723823e+07   1.713369e+07   1.702751e+07
   1.691936e+07   1.680919e+07   1.669762e+07   1.658430e+07   1.646841e+07
   1.635086e+07   1.623180e+07   1.611037e+07   1.598770e+07   1.586338e+07
   1.573721e+07   1.560951e+07   1.547917e+07   1.534750e+07   1.521397e+07
   1.507837e+07   1.494181e+07   1.480284e+07   1.466187e+07   1.451933e+07
   1.437473e+07   1.422838e+07   1.408053e+07   1.393099e+07   1.378032e+07
   1.362880e+07   1.347500e+07   1.331958e+07   1.316306e+07   1.300441e+07
   1.284365e+07   1.268118e+07   1.251654e+07   1.234990e+07   1.218258e+07
   1.201354e+07   1.184285e+07   1.167050e+07   1.149552e+07   1.131958e+07
   1.114207e+07   1.096223e+07   1.078101e+07   1.059776e+07   1.041297e+07
   1.022732e+07   1.003921e+07       9848783.       9657103.       9463099.
       9267421.       9070922.       8872265.       8672278.       8471745.
       8268926.       8064287.       7858408.       7650466.       7441269.
       7230433.       7018385.       6806076.       6592215.       6377196.
       6160901.       5942664.       5723764.       5503529.       5281488.
       5059854.       4837986.       4614580.       4390710.       4166010.
       3940536.       3714800.       3488266.       3261314.       3034113.
       2806244.       2577433.       2348064.       2117996.       1886658.
       1654714.       1421867.       1188458.       955478.0       722208.0
       488675.0       254833.0       21239.00      -211899.0      -446006.0
      -679525.0      -912204.0      -1145487.      -1378635.      -1612291.
      -1846670.      -2080328.      -2313611.      -2547698.      -2781266.
      -3013564.      -3246080.      -3478425.      -3709823.      -3940463.
      -4170439.      -4399785.      -4628141.      -4855731.      -5082739.
      -5308756.      -5534063.      -5759345.      -5983645.      -6206550.
      -6428893.      -6650161.      -6870854.      -7090833.      -7309668.
      -7528099.      -7744855.      -7960197.      -8174702.      -8387692.
      -8600034.      -8811146.      -9021246.      -9230584.      -9438182.
      -9644822.      -9849891.  -1.005332e+07  -1.025585e+07  -1.045658e+07
  -1.065524e+07  -1.085258e+07  -1.104856e+07  -1.124272e+07  -1.143592e+07
  -1.162772e+07  -1.181784e+07  -1.200712e+07  -1.219473e+07  -1.238072e+07
  -1.256538e+07  -1.274729e+07  -1.292644e+07  -1.310378e+07  -1.327862e+07
  -1.345166e+07  -1.362362e+07  -1.379380e+07  -1.396284e+07  -1.412936e+07
  -1.429393e+07  -1.445874e+07  -1.462160e+07  -1.478211e+07  -1.494083e+07
  -1.509651e+07  -1.524990e+07  -1.540176e+07  -1.555123e+07  -1.569845e+07
  -1.584381e+07  -1.598658e+07  -1.612722e+07  -1.626633e+07  -1.640383e+07
  -1.653984e+07  -1.667325e+07  -1.680414e+07  -1.693398e+07  -1.706157e+07
  -1.718723e+07  -1.731180e+07  -1.743312e+07  -1.755230e+07  -1.766895e+07
  -1.778252e+07  -1.789493e+07  -1.800413e+07  -1.811017e+07  -1.821440e+07
  -1.831688e+07  -1.841772e+07  -1.851648e+07  -1.861402e+07  -1.870798e+07
  -1.879868e+07  -1.888848e+07  -1.897475e+07  -1.905904e+07  -1.914214e+07
  -1.922282e+07  -1.930182e+07  -1.937743e+07  -1.945042e+07  -1.952145e+07
  -1.958962e+07  -1.965593e+07  -1.971966e+07  -1.978135e+07  -1.984160e+07
  -1.989938e+07  -1.995528e+07  -2.000915e+07  -2.006134e+07  -2.011135e+07
  -2.015895e+07  -2.020540e+07  -2.024953e+07  -2.029156e+07  -2.033164e+07
  -2.036838e+07  -2.040327e+07  -2.043634e+07  -2.046695e+07  -2.049703e+07
  -2.052486e+07  -2.055065e+07  -2.057495e+07  -2.059599e+07  -2.061598e+07
  -2.063402e+07  -2.064969e+07  -2.066354e+07  -2.067408e+07  -2.068267e+07
  -2.068972e+07  -2.069529e+07  -2.069870e+07  -2.069997e+07  -2.070007e+07
  -2.069863e+07  -2.069544e+07  -2.068936e+07  -2.068081e+07  -2.067055e+07
  -2.065832e+07  -2.064403e+07  -2.062814e+07  -2.061020e+07  -2.058947e+07
  -2.056656e+07  -2.054098e+07  -2.051311e+07  -2.048353e+07  -2.045147e+07
  -2.041723e+07  -2.038139e+07  -2.034317e+07  -2.030212e+07  -2.025962e+07
  -2.021587e+07  -2.016914e+07  -2.011931e+07  -2.006733e+07  -2.001356e+07
  -1.995792e+07  -1.989988e+07  -1.984042e+07  -1.977960e+07  -1.971553e+07
  -1.964905e+07  -1.958079e+07  -1.951038e+07  -1.943808e+07  -1.936326e+07
  -1.928576e+07  -1.920595e+07  -1.912418e+07  -1.903983e+07  -1.895322e+07
  -1.886481e+07  -1.877437e+07  -1.868258e+07  -1.858798e+07  -1.849058e+07
  -1.839160e+07  -1.829051e+07  -1.818802e+07  -1.808393e+07  -1.797738e+07
  -1.786951e+07  -1.776075e+07  -1.764933e+07  -1.753560e+07  -1.742072e+07
  -1.730314e+07  -1.718351e+07  -1.706257e+07  -1.693889e+07  -1.681346e+07
  -1.668603e+07  -1.655667e+07  -1.642625e+07  -1.629340e+07  -1.615909e+07
  -1.602343e+07  -1.588536e+07  -1.574628e+07  -1.560608e+07  -1.546410e+07
  -1.532090e+07  -1.517544e+07  -1.502749e+07  -1.487824e+07  -1.472717e+07
  -1.457433e+07  -1.441971e+07  -1.426292e+07  -1.410502e+07  -1.394596e+07
  -1.378568e+07  -1.362409e+07  -1.346152e+07  -1.329788e+07  -1.313191e+07
  -1.296480e+07  -1.279615e+07  -1.262602e+07  -1.245477e+07  -1.228065e+07
  -1.210540e+07  -1.192923e+07  -1.175085e+07  -1.157089e+07  -1.138922e+07
  -1.120646e+07  -1.102265e+07  -1.083792e+07  -1.065302e+07  -1.046708e+07
  -1.027962e+07  -1.009067e+07      -9900913.      -9710402.      -9517935.
      -9323777.      -9127937.      -8930564.      -8732783.      -8534029.
      -8334102.      -8133391.      -7930903.      -7727478.      -7523753.
      -7319214.      -7113947.      -6907241.      -6699988.      -6492605.
      -6284122.      -6075008.      -5866267.      -5657213.      -5446734.
      -5236060.      -5025032.      -4813554.      -4602332.      -4390529.
      -4179181.      -3969002.      -3758929.      -3548869.      -3339058.
      -3128946.      -2918385.      -2708005.      -2497484.      -2287012.
      -2076722.      -1866327.      -1656719.      -1447006.      -1237050.
      -1028054.      -819678.0      -611876.0      -405054.0      -198835.0
       7298.000       211859.0       415588.0       619928.0       822910.0
       1025002.       1226477.       1427190.       1628028.       1827653.
       2026262.       2224127.       2420661.       2616176.       2811162.
       3004887.       3197099.       3389458.       3580567.       3770433.
       3960195.       4148840.       4336742.       4523546.       4709516.
       4894951.       5079223.       5262511.       5444038.       5623559.
       5802338.       5981099.       6158886.       6335282.       6511252.
       6685497.       6858636.       7032312.       7204596.       7375018.
       7544133.       7712429.       7879777.       8046021.       8211616.
       8376495.       8540427.       8702764.       8864479.       9025513.
       9184961.       9343540.       9501159.       9657594.       9813645.
       9968564.   1.012185e+07   1.027459e+07   1.042568e+07   1.057549e+07
   1.072465e+07   1.087188e+07   1.101752e+07   1.116168e+07   1.130414e+07
   1.144563e+07   1.158603e+07   1.172507e+07   1.186348e+07   1.200115e+07
   1.213758e+07   1.227262e+07   1.240601e+07   1.253786e+07   1.266873e+07
   1.279824e+07   1.292646e+07   1.305365e+07   1.317896e+07   1.330258e+07
   1.342449e+07   1.354508e+07   1.366518e+07   1.378342e+07   1.389952e+07
   1.401508e+07   1.412942e+07   1.424186e+07   1.435358e+07   1.446457e+07
   1.457444e+07   1.468271e+07   1.478970e+07   1.489565e+07   1.500000e+07
   1.510311e+07   1.520436e+07   1.530416e+07   1.540348e+07   1.550128e+07
   1.559745e+07   1.569215e+07   1.578528e+07   1.587725e+07   1.596732e+07
   1.605511e+07   1.614137e+07   1.622617e+07   1.630958e+07   1.639138e+07
   1.647044e+07   1.654792e+07   1.662504e+07   1.670041e+07   1.677402e+07
   1.684663e+07   1.691814e+07   1.698795e+07   1.705614e+07   1.712273e+07
   1.718726e+07   1.725007e+07   1.731063e+07   1.736896e+07   1.742554e+07
   1.748033e+07   1.753338e+07   1.758466e+07   1.763452e+07   1.768306e+07
   1.772949e+07   1.777365e+07   1.781653e+07   1.785788e+07   1.789756e+07
   1.793609e+07   1.797327e+07   1.800879e+07   1.804179e+07   1.807241e+07
   1.810188e+07   1.812973e+07   1.815489e+07   1.817887e+07   1.820178e+07
   1.822231e+07   1.824160e+07   1.825952e+07   1.827525e+07   1.828940e+07
   1.830156e+07   1.831174e+07   1.832101e+07   1.832909e+07   1.833557e+07
   1.834038e+07   1.834355e+07   1.834483e+07   1.834357e+07   1.834024e+07
   1.833546e+07   1.832929e+07   1.832064e+07   1.830928e+07   1.829637e+07
   1.828215e+07   1.826727e+07   1.825049e+07   1.823135e+07   1.821165e+07
   1.819056e+07   1.816716e+07   1.814262e+07   1.811647e+07   1.808771e+07
   1.805744e+07   1.802578e+07   1.799242e+07   1.795810e+07   1.792193e+07
   1.788376e+07   1.784479e+07   1.780438e+07   1.776286e+07   1.771986e+07
   1.767506e+07   1.762944e+07   1.758198e+07   1.753297e+07   1.748267e+07
   1.743058e+07   1.737673e+07   1.732108e+07   1.726400e+07   1.720539e+07
   1.714542e+07   1.708402e+07   1.702129e+07   1.695778e+07   1.689226e+07
   1.682542e+07   1.675796e+07   1.668818e+07   1.661668e+07   1.654357e+07
   1.646870e+07   1.639261e+07   1.631486e+07   1.623598e+07   1.615577e+07
