     0.02500000      -12345.00      -12345.00   3.262830e+10      -12345.00
   0.0005380000       1859.976      -318.0196      -12345.00      -12345.00
      -12345.00      -12345.00      -12345.00      -12345.00      -12345.00
      -12345.00      -12345.00      -12345.00      -12345.00      -12345.00
      -12345.00      -12345.00      -12345.00      -12345.00      -12345.00
      -12345.00      -12345.00      -12345.00      -12345.00      -12345.00
      -12345.00      -21.21250      -159.7733       28.00000       0.000000
      -42.72450       173.0647      -12345.00       22.00000      -12345.00
      -12345.00      -12345.00      -12345.00      -12345.00      -12345.00
      -12345.00      -12345.00      -12345.00      -12345.00      -12345.00
       3474.664       55.19260       220.4249       31.24979      -12345.00
      -12345.00      -12345.00       91.00000       90.00000      -12345.00
      -12345.00      -12345.00      -12345.00      -12345.00      -12345.00
      -12345.00      -12345.00      -12345.00      -12345.00      -12345.00
      2016       318        11         8        17
        19         6    -12345    -12345     74400
    -12345    -12345    -12345    -12345    -12345
         1    -12345    -12345    -12345    -12345
    -12345    -12345    -12345    -12345    -12345
    -12345    -12345    -12345    -12345    -12345
    -12345    -12345    -12345    -12345    -12345
         1    -12345    -12345    -12345    -12345
RAR     South Island, Ne
10      -12345  -12345  
-12345  -12345  -12345  
-12345  -12345  -12345  
-12345  -12345  -12345  
-12345  -12345  -12345  
-12345  -12345  BH2     
IU      -12345  Streckei
[...]
      -5947605.      -5508898.      -5069543.      -4628860.      -4186799.
      -3744671.      -3300818.      -2855670.      -2411339.      -1965902.
      -1519445.      -1073030.      -625371.0      -178692.0       267999.0
       716687.0       1164358.       1613204.       2062619.       2510325.
       2959646.       3408771.       3856815.       4306358.       4756043.
       5204437.       5653888.       6103749.       6551302.       6999464.
       7447291.       7893148.       8339701.       8785623.       9230328.
       9675285.   1.011937e+07   1.056183e+07   1.100316e+07   1.144236e+07
   1.187923e+07   1.231491e+07   1.274965e+07   1.318258e+07   1.361380e+07
   1.404337e+07   1.447077e+07   1.489678e+07   1.532066e+07   1.574166e+07
   1.616119e+07   1.657840e+07   1.699287e+07   1.740550e+07   1.781554e+07
   1.822360e+07   1.862914e+07   1.903150e+07   1.943155e+07   1.982895e+07
   2.022365e+07   2.061598e+07   2.100496e+07   2.139149e+07   2.177542e+07
   2.215535e+07   2.253277e+07   2.290682e+07   2.327678e+07   2.364386e+07
   2.400777e+07   2.436815e+07   2.472521e+07   2.507883e+07   2.542863e+07
   2.577450e+07   2.611656e+07   2.645550e+07   2.679086e+07   2.712190e+07
   2.744894e+07   2.777257e+07   2.809213e+07   2.840680e+07   2.871816e+07
   2.902544e+07   2.932776e+07   2.962638e+07   2.992012e+07   3.021011e+07
   3.049628e+07   3.077662e+07   3.105311e+07   3.132605e+07   3.159375e+07
   3.185626e+07   3.211400e+07   3.236716e+07   3.261534e+07   3.285876e+07
   3.309855e+07   3.333386e+07   3.356421e+07   3.379032e+07   3.401140e+07
   3.422676e+07   3.443757e+07   3.464412e+07   3.484561e+07   3.504232e+07
   3.523332e+07   3.541951e+07   3.560226e+07   3.577978e+07   3.595143e+07
   3.611852e+07   3.628126e+07   3.643894e+07   3.659236e+07   3.674115e+07
   3.688427e+07   3.702308e+07   3.715709e+07   3.728548e+07   3.740985e+07
   3.752934e+07   3.764341e+07   3.775333e+07   3.785878e+07   3.795916e+07
   3.805461e+07   3.814610e+07   3.823345e+07   3.831634e+07   3.839432e+07
   3.846726e+07   3.853574e+07   3.859931e+07   3.865842e+07   3.871258e+07
   3.876181e+07   3.880754e+07   3.884866e+07   3.888411e+07   3.891545e+07
   3.894348e+07   3.896611e+07   3.898366e+07   3.899781e+07   3.900798e+07
   3.901388e+07   3.901524e+07   3.901258e+07   3.900675e+07   3.899662e+07
   3.898238e+07   3.896446e+07   3.894284e+07   3.891869e+07   3.889058e+07
   3.885906e+07   3.882480e+07   3.878658e+07   3.874540e+07   3.870118e+07
   3.865316e+07   3.860226e+07   3.854869e+07   3.849099e+07   3.843060e+07
   3.836778e+07   3.830144e+07   3.823261e+07   3.816026e+07   3.808444e+07
   3.800609e+07   3.792521e+07   3.784178e+07   3.775536e+07   3.766644e+07
   3.757526e+07   3.748146e+07   3.738533e+07   3.728675e+07   3.718557e+07
   3.708202e+07   3.697596e+07   3.686815e+07   3.675791e+07   3.664522e+07
   3.653099e+07   3.641446e+07   3.629606e+07   3.617547e+07   3.605232e+07
   3.592760e+07   3.580122e+07   3.567232e+07   3.554134e+07   3.540909e+07
   3.527464e+07   3.513818e+07   3.499977e+07   3.485882e+07   3.471672e+07
   3.457334e+07   3.442676e+07   3.427829e+07   3.412927e+07   3.397778e+07
   3.382420e+07   3.366944e+07   3.351283e+07   3.335451e+07   3.319406e+07
   3.303141e+07   3.286745e+07   3.270242e+07   3.253560e+07   3.236699e+07
   3.219672e+07   3.202438e+07   3.185041e+07   3.167486e+07   3.149789e+07
   3.131948e+07   3.113893e+07   3.095723e+07   3.077399e+07   3.058828e+07
   3.040147e+07   3.021299e+07   3.002199e+07   2.982950e+07   2.963481e+07
   2.943799e+07   2.924066e+07   2.904142e+07   2.883999e+07   2.863765e+07
   2.843344e+07   2.822749e+07   2.802020e+07   2.781102e+07   2.760003e+07
   2.738771e+07   2.717414e+07   2.695924e+07   2.674236e+07   2.652291e+07
   2.630244e+07   2.608027e+07   2.585596e+07   2.563148e+07   2.540420e+07
   2.517448e+07   2.494565e+07   2.471447e+07   2.448070e+07   2.424628e+07
   2.401030e+07   2.377348e+07   2.353476e+07   2.329381e+07   2.305244e+07
   2.280966e+07   2.256523e+07   2.231994e+07   2.207328e+07   2.182559e+07
   2.157665e+07   2.132611e+07   2.107484e+07   2.082204e+07   2.056786e+07
   2.031246e+07   2.005566e+07   1.979853e+07   1.954040e+07   1.928133e+07
   1.902070e+07   1.875868e+07   1.849702e+07   1.823422e+07   1.797031e+07
   1.770624e+07   1.744066e+07   1.717463e+07   1.690872e+07   1.664068e+07
   1.637167e+07   1.610300e+07   1.583357e+07   1.556342e+07   1.529205e+07
   1.502088e+07   1.475000e+07   1.447786e+07   1.420585e+07   1.393389e+07
   1.366136e+07   1.338882e+07   1.311683e+07   1.284564e+07   1.257438e+07
   1.230332e+07   1.203254e+07   1.176141e+07   1.149055e+07   1.121947e+07
   1.094883e+07   1.067879e+07   1.040807e+07   1.013772e+07       9867834.
       9597652.       9328535.       9059906.       8790683.       8522872.
       8255377.       7987522.       7721158.       7455625.       7190399.
       6925388.       6660806.       6396449.       6131918.       5867656.
       5603651.       5340291.       5077378.       4814167.       4551299.
       4288363.       4025220.       3762892.       3499893.       3236940.
       2974469.       2711297.       2448613.       2186138.       1923858.
       1661215.       1397918.       1134505.       871381.0       608829.0
       345331.0       82222.00      -180827.0      -444565.0      -707300.0
      -971428.0      -1235959.      -1499162.      -1763906.      -2028760.
      -2292998.      -2558715.      -2824471.      -3090238.      -3356936.
      -3623600.      -3890411.      -4157589.      -4425369.      -4694294.
      -4963248.      -5231795.      -5501530.      -5772174.      -6042275.
      -6312503.      -6583939.      -6855902.      -7127671.      -7399692.
      -7672221.      -7945252.      -8218241.      -8491002.      -8764040.
      -9036746.      -9310734.      -9585337.      -9857882.  -1.013189e+07
  -1.040605e+07  -1.067833e+07  -1.095244e+07  -1.122609e+07  -1.149865e+07
  -1.177240e+07  -1.204501e+07  -1.231658e+07  -1.258882e+07  -1.286060e+07
  -1.313148e+07  -1.340270e+07  -1.367331e+07  -1.394257e+07  -1.421179e+07
  -1.448046e+07  -1.474819e+07  -1.501496e+07  -1.528090e+07  -1.554634e+07
  -1.581120e+07  -1.607534e+07  -1.633822e+07  -1.660055e+07  -1.686172e+07
  -1.712158e+07  -1.738130e+07  -1.763958e+07  -1.789619e+07  -1.815206e+07
  -1.840628e+07  -1.865915e+07  -1.891136e+07  -1.916161e+07  -1.941029e+07
  -1.965785e+07  -1.990286e+07  -2.014574e+07  -2.038717e+07  -2.062661e+07
  -2.086400e+07  -2.109965e+07  -2.133300e+07  -2.156447e+07  -2.179460e+07
  -2.202222e+07  -2.224715e+07  -2.247032e+07  -2.269226e+07  -2.291170e+07
  -2.312843e+07  -2.334428e+07  -2.355762e+07  -2.376800e+07  -2.397692e+07
  -2.418340e+07  -2.438795e+07  -2.459085e+07  -2.479163e+07  -2.499031e+07
  -2.518702e+07  -2.538163e+07  -2.557386e+07  -2.576427e+07  -2.595236e+07
  -2.613796e+07  -2.632159e+07  -2.650275e+07  -2.668172e+07  -2.685956e+07
  -2.703486e+07  -2.720674e+07  -2.737741e+07  -2.754586e+07  -2.771136e+07
  -2.787607e+07  -2.803879e+07  -2.819840e+07  -2.835590e+07  -2.851200e+07
  -2.866623e+07  -2.881769e+07  -2.896751e+07  -2.911555e+07  -2.926054e+07
  -2.940345e+07  -2.954438e+07  -2.968267e+07  -2.981921e+07  -2.995362e+07
  -3.008550e+07  -3.021602e+07  -3.034432e+07  -3.047008e+07  -3.059449e+07
  -3.071620e+07  -3.083531e+07  -3.095307e+07  -3.106871e+07  -3.118222e+07
  -3.129295e+07  -3.140152e+07  -3.150861e+07  -3.161313e+07  -3.171569e+07
  -3.181580e+07  -3.191396e+07  -3.201057e+07  -3.210429e+07  -3.219654e+07
  -3.228628e+07  -3.237327e+07  -3.245922e+07  -3.254263e+07  -3.262383e+07
  -3.270302e+07  -3.277942e+07  -3.285390e+07  -3.292684e+07  -3.299664e+07
  -3.306333e+07  -3.312864e+07  -3.319091e+07  -3.325037e+07  -3.330777e+07
  -3.336175e+07  -3.341369e+07  -3.346294e+07  -3.350869e+07  -3.355269e+07
  -3.359335e+07  -3.362995e+07  -3.366509e+07  -3.369721e+07  -3.372584e+07
  -3.375234e+07  -3.377486e+07  -3.379477e+07  -3.381209e+07  -3.382529e+07
  -3.383613e+07  -3.384376e+07  -3.384752e+07  -3.384892e+07  -3.384703e+07
  -3.384124e+07  -3.383288e+07  -3.382141e+07  -3.380648e+07  -3.378865e+07
  -3.376712e+07  -3.374246e+07  -3.371538e+07  -3.368443e+07  -3.364981e+07
  -3.361310e+07  -3.357320e+07  -3.352920e+07  -3.348201e+07  -3.343159e+07
  -3.337764e+07  -3.332026e+07  -3.325924e+07  -3.319524e+07  -3.312812e+07
  -3.305686e+07  -3.298275e+07  -3.290529e+07  -3.282320e+07  -3.273857e+07
  -3.265068e+07  -3.255906e+07  -3.246445e+07  -3.236536e+07  -3.226306e+07
  -3.215799e+07  -3.204910e+07  -3.193616e+07  -3.181952e+07  -3.169969e+07
  -3.157600e+07  -3.144923e+07  -3.131909e+07  -3.118500e+07  -3.104802e+07
  -3.090779e+07  -3.076403e+07  -3.061756e+07  -3.046782e+07  -3.031448e+07
  -3.015827e+07  -2.999849e+07  -2.983528e+07  -2.966899e+07  -2.949961e+07
  -2.932698e+07  -2.915025e+07  -2.897031e+07  -2.878793e+07  -2.860224e+07
  -2.841266e+07  -2.822012e+07  -2.802399e+07  -2.782430e+07  -2.762171e+07
  -2.741468e+07  -2.720456e+07  -2.699211e+07  -2.677622e+07  -2.655692e+07
  -2.633439e+07  -2.610854e+07  -2.587882e+07  -2.564626e+07  -2.541052e+07
  -2.517130e+07  -2.492885e+07  -2.468270e+07  -2.443432e+07  -2.418265e+07
  -2.392704e+07  -2.366878e+07  -2.340728e+07  -2.314318e+07  -2.287652e+07
  -2.260605e+07  -2.233304e+07  -2.205762e+07  -2.177842e+07  -2.149642e+07
  -2.121168e+07  -2.092310e+07  -2.063122e+07  -2.033708e+07  -2.003953e+07
  -1.973860e+07  -1.943480e+07  -1.912696e+07  -1.881684e+07  -1.850386e+07
  -1.818706e+07  -1.786804e+07  -1.754616e+07  -1.722091e+07  -1.689260e+07
  -1.656202e+07  -1.622870e+07  -1.589203e+07  -1.555221e+07  -1.520962e+07
  -1.486429e+07  -1.451554e+07  -1.416466e+07  -1.381122e+07  -1.345467e+07
  -1.309682e+07  -1.273537e+07  -1.237083e+07  -1.200532e+07  -1.163600e+07
  -1.126404e+07  -1.089102e+07  -1.051496e+07  -1.013639e+07      -9756735.
      -9375227.      -8990865.      -8604663.      -8216882.      -7826238.
      -7433557.      -7039691.      -6643498.      -6245092.      -5845350.
      -5444384.      -5041481.      -4636516.      -4230670.      -3823086.
      -3414089.      -3004087.      -2591715.      -2178328.      -1764218.
      -1349010.      -932675.0      -514934.0      -97243.00       320835.0
       740060.0       1159675.       1580102.       2001091.       2422650.
       2845353.       3268089.       3690822.       4113504.       4536174.
       4959667.       5382780.       5806007.       6229871.       6652931.
       7075974.       7499415.       7922163.       8344543.       8766627.
       9187864.       9609902.   1.003166e+07   1.045092e+07   1.087071e+07
   1.129040e+07   1.170859e+07   1.212736e+07   1.254430e+07   1.296002e+07
   1.337630e+07   1.379042e+07   1.420395e+07   1.461753e+07   1.503012e+07
   1.544216e+07   1.585261e+07   1.626235e+07   1.667168e+07   1.707964e+07
   1.748647e+07   1.789257e+07   1.829724e+07   1.870054e+07   1.910314e+07
   1.950376e+07   1.990301e+07   2.030112e+07   2.069761e+07   2.109298e+07
   2.148688e+07   2.187899e+07   2.226912e+07   2.265827e+07   2.304585e+07
   2.343080e+07   2.381521e+07   2.419868e+07   2.457912e+07   2.495784e+07
   2.533475e+07   2.570957e+07   2.608256e+07   2.645320e+07   2.682279e+07
   2.718988e+07   2.755416e+07   2.791701e+07   2.827742e+07   2.863512e+07
   2.899021e+07   2.934297e+07   2.969307e+07   3.004069e+07   3.038580e+07
   3.072791e+07   3.106759e+07   3.140380e+07   3.173686e+07   3.206764e+07
   3.239514e+07   3.271952e+07   3.304081e+07   3.335861e+07   3.367258e+07
   3.398300e+07   3.429039e+07   3.459418e+07   3.489468e+07   3.519116e+07
   3.548346e+07   3.577298e+07   3.605886e+07   3.634043e+07   3.661821e+07
   3.689210e+07   3.716225e+07   3.742851e+07   3.769188e+07   3.795104e+07
   3.820686e+07   3.846185e+07   3.870700e+07   3.895587e+07   3.919392e+07
   3.943104e+07   3.967209e+07   3.988714e+07   4.013426e+07   4.033186e+07
   4.057104e+07   4.076743e+07   4.078466e+07   4.103205e+07   4.100877e+07
   4.069654e+07   4.096609e+07   4.107927e+07   4.079950e+07   4.081620e+07
   4.083455e+07   4.080760e+07   4.084314e+07   4.081211e+07   4.083470e+07
   4.082206e+07   4.082576e+07   4.084158e+07   4.080300e+07   4.087416e+07
   4.076970e+07   4.092168e+07   4.119727e+07   4.087558e+07   4.078611e+07
   4.087436e+07   4.080711e+07   4.084984e+07   4.083090e+07   4.083357e+07
   4.084117e+07   4.083157e+07   4.083952e+07   4.083855e+07   4.083862e+07
   4.083146e+07   4.084182e+07   4.082869e+07   4.084687e+07   4.083002e+07
   4.083410e+07   4.097174e+07   4.093074e+07   4.078350e+07   4.086852e+07
   4.083456e+07   4.079823e+07   4.097304e+07   4.082587e+07   4.121150e+07
   4.148715e+07   4.082530e+07   4.081577e+07   4.086075e+07   4.081661e+07
   4.112864e+07   4.091078e+07   4.074104e+07   4.100490e+07   4.100685e+07
   4.082217e+07   4.082781e+07   4.083867e+07   4.083358e+07   4.082321e+07
   4.084565e+07   4.081988e+07   4.082700e+07   4.095489e+07   4.088376e+07
   4.093331e+07   4.093323e+07   4.078503e+07   4.083807e+07   4.082517e+07
   4.081384e+07   4.083456e+07   4.080784e+07   4.082929e+07   4.081280e+07
   4.081344e+07   4.082594e+07   4.078953e+07   4.084218e+07   4.076792e+07
   4.079956e+07   4.085112e+07   4.037058e+07   4.004241e+07   3.989126e+07
   3.959830e+07   3.938992e+07   3.913310e+07   3.888186e+07   3.863767e+07
   3.836910e+07   3.811683e+07   3.784622e+07   3.757829e+07   3.730493e+07
   3.702560e+07   3.674658e+07   3.646159e+07   3.617258e+07   3.588077e+07
   3.558474e+07   3.528526e+07   3.498298e+07   3.467612e+07   3.436611e+07
   3.405412e+07   3.373863e+07   3.341982e+07   3.309782e+07   3.277156e+07
   3.244295e+07   3.211118e+07   3.177506e+07   3.143740e+07   3.109665e+07
   3.075244e+07   3.040587e+07   3.005569e+07   2.970232e+07   2.934630e+07
   2.898732e+07   2.862535e+07   2.826029e+07   2.789171e+07   2.752064e+07
   2.714708e+07   2.677099e+07   2.639286e+07   2.601189e+07   2.562828e+07
   2.524290e+07   2.485533e+07   2.446466e+07   2.407246e+07   2.367866e+07
   2.328125e+07   2.288227e+07   2.248173e+07   2.207808e+07   2.167325e+07
   2.126660e+07   2.085710e+07   2.044590e+07   2.003225e+07   1.961656e+07
   1.919948e+07   1.877990e+07   1.835844e+07   1.793586e+07   1.751159e+07
   1.708554e+07   1.665690e+07   1.622628e+07   1.579554e+07   1.536313e+07
   1.492836e+07   1.449253e+07   1.405547e+07   1.361610e+07   1.317518e+07
   1.273351e+07   1.229066e+07   1.184655e+07   1.140057e+07   1.095401e+07
   1.050636e+07   1.005730e+07       9608046.       9157369.       8705802.
       8253946.       7801547.       7349009.       6895922.       6442078.
       5987763.       5533520.       5079002.       4624215.       4169523.
       3714628.       3259497.       2804225.       2349240.       1894641.
       1440318.       985937.0       531747.0       78837.00      -374028.0
      -827111.0      -1278293.      -1729384.      -2180598.      -2630324.
      -3079895.      -3528123.      -3974919.      -4421666.      -4867652.
      -5311645.      -5754443.      -6197193.      -6637631.      -7076762.
      -7515286.      -7951679.      -8387192.      -8821662.      -9254557.
      -9685783.  -1.011537e+07  -1.054337e+07  -1.096953e+07  -1.139391e+07
  -1.181678e+07  -1.223800e+07  -1.265624e+07  -1.307293e+07  -1.348829e+07
  -1.390030e+07  -1.431079e+07  -1.471862e+07  -1.512352e+07  -1.552766e+07
  -1.592835e+07  -1.632639e+07  -1.672286e+07  -1.711617e+07  -1.750732e+07
  -1.789588e+07  -1.828165e+07  -1.866484e+07  -1.904485e+07  -1.942220e+07
  -1.979729e+07  -2.016975e+07  -2.053875e+07  -2.090512e+07  -2.126904e+07
  -2.162991e+07  -2.198847e+07  -2.234425e+07  -2.269774e+07  -2.304876e+07
  -2.339541e+07  -2.373914e+07  -2.408097e+07  -2.441916e+07  -2.475444e+07
  -2.508669e+07  -2.541530e+07  -2.574180e+07  -2.606531e+07  -2.638529e+07
  -2.670268e+07  -2.701766e+07  -2.732998e+07  -2.763932e+07  -2.794532e+07
  -2.824860e+07  -2.854971e+07  -2.884765e+07  -2.914307e+07  -2.943661e+07
  -2.972666e+07  -3.001318e+07  -3.029738e+07  -3.057853e+07  -3.085604e+07
  -3.113142e+07  -3.140419e+07  -3.167358e+07  -3.193998e+07  -3.220326e+07
  -3.246423e+07  -3.272225e+07  -3.297678e+07  -3.322845e+07  -3.347755e+07
  -3.372382e+07  -3.396645e+07  -3.420596e+07  -3.444304e+07  -3.467748e+07
  -3.490846e+07  -3.513642e+07  -3.536122e+07  -3.558266e+07  -3.580250e+07
  -3.601931e+07  -3.623185e+07  -3.644190e+07  -3.664882e+07  -3.685192e+07
  -3.705193e+07  -3.724853e+07  -3.744290e+07  -3.763279e+07  -3.781750e+07
  -3.800720e+07  -3.818337e+07  -3.836262e+07  -3.854480e+07  -3.869955e+07
  -3.889572e+07  -3.903082e+07  -3.921140e+07  -3.937659e+07  -3.948536e+07
  -3.973927e+07  -3.970409e+07  -4.026344e+07  -4.077974e+07  -4.008184e+07
  -4.023786e+07  -4.045498e+07  -4.007032e+07  -4.031230e+07  -4.011419e+07
  -4.014190e+07  -4.053462e+07  -4.020556e+07  -4.016045e+07  -4.028243e+07
  -4.014793e+07  -4.015198e+07  -4.013258e+07  -4.012394e+07  -4.019864e+07
  -4.039242e+07  -4.046290e+07  -4.021354e+07  -4.010173e+07  -4.020957e+07
  -4.028176e+07  -4.029128e+07  -4.014758e+07  -4.013581e+07  -4.026986e+07
  -4.017585e+07  -4.012050e+07  -4.015652e+07  -4.013439e+07  -4.012991e+07
  -4.014437e+07  -4.013185e+07  -4.014977e+07  -4.013878e+07  -4.011230e+07
  -4.026048e+07  -4.021462e+07  -4.015337e+07  -4.023461e+07  -4.012931e+07
  -4.013968e+07  -4.013464e+07  -4.013432e+07  -4.014738e+07  -4.011412e+07
  -4.018039e+07  -4.005549e+07  -4.030435e+07  -4.050624e+07  -4.019562e+07
  -4.005071e+07  -4.022334e+07  -4.034745e+07  -4.005276e+07  -4.048828e+07
  -4.068662e+07  -4.010375e+07  -4.011779e+07  -4.012840e+07  -4.037513e+07
  -4.036486e+07  -4.001030e+07  -4.026144e+07  -4.022540e+07  -4.014640e+07
  -4.040384e+07  -4.022655e+07  -3.996158e+07  -3.986364e+07  -3.968453e+07
  -3.954149e+07  -3.938222e+07  -3.920988e+07  -3.905213e+07  -3.887229e+07
  -3.870211e+07  -3.852098e+07  -3.833601e+07  -3.814947e+07  -3.795610e+07
  -3.776110e+07  -3.756140e+07  -3.735703e+07  -3.714806e+07  -3.693511e+07
  -3.671802e+07  -3.649673e+07  -3.627192e+07  -3.604271e+07  -3.580924e+07
  -3.557162e+07  -3.532962e+07  -3.508384e+07  -3.483334e+07  -3.457923e+07
