     0.02500000      -12345.00      -12345.00   2.447790e+09      -12345.00
   0.0005360000       1859.976      -352.0195      -12345.00      -12345.00
      -12345.00      -12345.00      -12345.00      -12345.00      -12345.00
      -12345.00      -12345.00      -12345.00      -12345.00      -12345.00
      -12345.00      -12345.00      -12345.00      -12345.00      -12345.00
      -12345.00      -12345.00      -12345.00      -12345.00      -12345.00
      -12345.00      -77.84920       166.7572       48.00000       2.000000
      -42.72450       173.0647      -12345.00       22.00000      -12345.00
      -12345.00      -12345.00      -12345.00      -12345.00      -12345.00
      -12345.00      -12345.00      -12345.00      -12345.00      -12345.00
       3928.427       182.3065       8.047512       35.33076      -12345.00
      -12345.00      -12345.00       90.00000       90.00000      -12345.00
      -12345.00      -12345.00      -12345.00      -12345.00      -12345.00
      -12345.00      -12345.00      -12345.00      -12345.00      -12345.00
      2016       318        11         8        51
        19         6    -12345    -12345     74400
    -12345    -12345    -12345    -12345    -12345
         1    -12345    -12345    -12345    -12345
    -12345    -12345    -12345    -12345    -12345
    -12345    -12345    -12345    -12345    -12345
    -12345    -12345    -12345    -12345    -12345
         1    -12345    -12345    -12345    -12345
SBA     South Island, Ne
00      -12345  -12345  
-12345  -12345  -12345  
-12345  -12345  -12345  
-12345  -12345  -12345  
-12345  -12345  -12345  
-12345  -12345  BH2     
IU      -12345  Streckei
[...]
       1138095.       1129457.       1120803.       1111769.       1102523.
       1093208.       1083661.       1073903.       1063903.       1053839.
       1043628.       1033068.       1022354.       1011567.       1000620.
       989397.0       978031.0       966516.0       954852.0       943010.0
       930876.0       918892.0       906606.0       893884.0       881320.0
       868634.0       855678.0       842531.0       829318.0       815978.0
       802414.0       788847.0       775135.0       761083.0       747037.0
       732939.0       718643.0       704312.0       689777.0       675058.0
       660284.0       645552.0       630623.0       615454.0       600385.0
       585076.0       569639.0       554393.0       538921.0       523179.0
       507518.0       491840.0       475972.0       460145.0       444255.0
       428114.0       412084.0       396122.0       379862.0       363702.0
       347567.0       331045.0       314839.0       298698.0       282173.0
       265819.0       249447.0       232989.0       216602.0       200242.0
       183794.0       167285.0       150967.0       134518.0       118075.0
       101806.0       85349.00       69016.00       52744.00       36449.00
       20300.00       3981.000      -12200.00      -28219.00      -44365.00
      -60376.00      -76238.00      -92118.00      -108098.0      -123871.0
      -139380.0      -155090.0      -170743.0      -186106.0      -201457.0
      -216770.0      -232033.0      -247082.0      -262045.0      -277073.0
      -291804.0      -306489.0      -321143.0      -335565.0      -349950.0
      -364198.0      -378316.0      -392292.0      -406183.0      -419990.0
      -433547.0      -447061.0      -460409.0      -473565.0      -486701.0
      -499599.0      -512370.0      -525035.0      -537524.0      -549868.0
      -562012.0      -574089.0      -585984.0      -597676.0      -609264.0
      -620662.0      -631895.0      -642995.0      -653936.0      -664644.0
      -675207.0      -685651.0      -695895.0      -705976.0      -715837.0
      -725565.0      -735142.0      -744477.0      -753713.0      -762738.0
      -771502.0      -780181.0      -788703.0      -796975.0      -805014.0
      -812906.0      -820735.0      -828238.0      -835524.0      -842773.0
      -849692.0      -856471.0      -863070.0      -869372.0      -875634.0
      -881672.0      -887386.0      -892943.0      -898415.0      -903615.0
      -908555.0      -913362.0      -917959.0      -922366.0      -926479.0
      -930469.0      -934331.0      -937839.0      -941186.0      -944353.0
      -947342.0      -950088.0      -952553.0      -954942.0      -957100.0
      -958978.0      -960702.0      -962266.0      -963564.0      -964610.0
      -965533.0      -966288.0      -966794.0      -967001.0      -967077.0
      -967074.0      -966747.0      -966150.0      -965453.0      -964615.0
      -963482.0      -962121.0      -960670.0      -958939.0      -956985.0
      -954994.0      -952677.0      -950064.0      -947490.0      -944727.0
      -941545.0      -938209.0      -934836.0      -931293.0      -927470.0
      -923360.0      -919172.0      -914900.0      -910347.0      -905566.0
      -900658.0      -895645.0      -890395.0      -884874.0      -879289.0
      -873541.0      -867621.0      -861535.0      -855138.0      -848729.0
      -842192.0      -835357.0      -828443.0      -821328.0      -814072.0
      -806691.0      -799090.0      -791385.0      -783527.0      -775453.0
      -767224.0      -758928.0      -750589.0      -741876.0      -732834.0
      -724146.0      -715366.0      -705806.0      -696298.0      -687140.0
      -677595.0      -667645.0      -657717.0      -647803.0      -637758.0
      -627437.0      -616838.0      -606426.0      -595945.0      -585071.0
      -574168.0      -563092.0      -552035.0      -540929.0      -529444.0
      -517893.0      -506393.0      -494954.0      -482978.0      -470825.0
      -459252.0      -447220.0      -434671.0      -422424.0      -410260.0
      -397839.0      -385110.0      -372350.0      -359799.0      -347082.0
      -334057.0      -320894.0      -307856.0      -295099.0      -281748.0
      -268087.0      -254958.0      -241701.0      -228111.0      -214374.0
      -200822.0      -187364.0      -173592.0      -159615.0      -145746.0
      -132135.0      -118139.0      -104054.0      -90135.00      -76086.00
      -62061.00      -47922.00      -33841.00      -19705.00      -5549.000
       8607.000       22805.00       36946.00       51154.00       65304.00
       79493.00       93597.00       107790.0       121982.0       135992.0
       150043.0       164104.0       178275.0       192156.0       206096.0
       220070.0       233744.0       247674.0       261506.0       275145.0
       288703.0       302301.0       315961.0       329299.0       342506.0
       355874.0       369261.0       382200.0       395115.0       408173.0
       421034.0       433901.0       446467.0       458772.0       471347.0
       483930.0       495918.0       507819.0       520055.0       531973.0
       543468.0       555028.0       566773.0       578080.0       589016.0
       600183.0       611206.0       621803.0       632486.0       643096.0
       653152.0       663406.0       673646.0       683201.0       692770.0
       702598.0       711943.0       720730.0       729893.0       738954.0
       747408.0       755799.0       764183.0       772342.0       780160.0
       787926.0       795446.0       802791.0       810061.0       817013.0
       823777.0       830309.0       836684.0       842850.0       849037.0
       854841.0       860121.0       865706.0       871053.0       875788.0
       880468.0       885377.0       889840.0       893598.0       897581.0
       901600.0       905035.0       908195.0       911403.0       914393.0
       916954.0       919448.0       921902.0       923734.0       925377.0
       927358.0       928768.0       929595.0       930632.0       931619.0
       932078.0       932249.0       932390.0       932326.0       931898.0
       931250.0       930670.0       929695.0       928228.0       926854.0
       925361.0       923351.0       921171.0       919086.0       916537.0
       913560.0       910660.0       907640.0       904108.0       900410.0
       896777.0       892630.0       888230.0       883914.0       879275.0
       874153.0       868934.0       863864.0       858294.0       852265.0
       846408.0       840362.0       833768.0       827106.0       820445.0
       813374.0       806109.0       798645.0       790968.0       783314.0
       775273.0       766889.0       758554.0       749944.0       741114.0
       732225.0       722990.0       713571.0       704105.0       694417.0
       684462.0       674465.0       664289.0       653757.0       643183.0
       632530.0       621655.0       610538.0       599262.0       587950.0
       576540.0       564838.0       552893.0       541048.0       528972.0
       516568.0       504310.0       491913.0       479106.0       466289.0
       453563.0       440562.0       427266.0       413988.0       400777.0
       387297.0       373542.0       359913.0       346162.0       332139.0
       318212.0       304132.0       289854.0       275547.0       261167.0
       246810.0       232150.0       217364.0       202818.0       188128.0
       173093.0       158063.0       143160.0       128129.0       112952.0
       97654.00       82502.00       67243.00       51662.00       36373.00
       21011.00       5391.000      -10188.00      -25720.00      -41229.00
      -57025.00      -72718.00      -88197.00      -103997.0      -119840.0
      -135478.0      -151248.0      -167131.0      -182836.0      -198541.0
      -214335.0      -230142.0      -245939.0      -261607.0      -277415.0
      -293266.0      -308853.0      -324471.0      -340181.0      -355854.0
      -371520.0      -387059.0      -402541.0      -418130.0      -433523.0
      -448827.0      -464299.0      -479616.0      -494827.0      -509986.0
      -525118.0      -540207.0      -555060.0      -569970.0      -584895.0
      -599579.0      -614152.0      -628791.0      -643302.0      -657496.0
      -671735.0      -686036.0      -700074.0      -713834.0      -727601.0
      -741503.0      -755077.0      -768314.0      -781686.0      -794902.0
      -807803.0      -820727.0      -833584.0      -846180.0      -858444.0
      -870804.0      -883178.0      -894978.0      -906683.0      -918432.0
      -929969.0      -941296.0      -952421.0      -963399.0      -974130.0
      -984780.0      -995283.0      -1005548.      -1015556.      -1025416.
      -1035288.      -1044722.      -1053968.      -1063171.      -1072095.
      -1080915.      -1089365.      -1097700.      -1105984.      -1113777.
      -1121497.      -1129158.      -1136372.      -1143381.      -1150410.
      -1157201.      -1163489.      -1169645.      -1175839.      -1181633.
      -1187094.      -1192490.      -1197644.      -1202450.      -1207196.
      -1211761.      -1215795.      -1219662.      -1223572.      -1227170.
      -1230228.      -1233236.      -1236215.      -1238665.      -1240994.
      -1243143.      -1244804.      -1246384.      -1247942.      -1249010.
      -1249617.      -1250311.      -1250834.      -1250882.      -1250656.
      -1250251.      -1249702.      -1248774.      -1247640.      -1246312.
      -1244504.      -1242681.      -1240662.      -1238142.      -1235491.
      -1232562.      -1229416.      -1226073.      -1222405.      -1218522.
      -1214294.      -1209879.      -1205252.      -1200319.      -1195150.
      -1189752.      -1184142.      -1178118.      -1171991.      -1165719.
      -1158969.      -1152077.      -1144964.      -1137576.      -1129985.
      -1122114.      -1114029.      -1105660.      -1097081.      -1088322.
      -1079304.      -1070010.      -1060458.      -1050741.      -1040825.
      -1030638.      -1020174.      -1009541.      -998702.0      -987558.0
      -976305.0      -964881.0      -953032.0      -941025.0      -928960.0
      -916537.0      -903900.0      -891202.0      -878268.0      -864981.0
      -851523.0      -838038.0      -824255.0      -810265.0      -796152.0
      -781713.0      -767181.0      -752554.0      -737700.0      -722666.0
      -707344.0      -691848.0      -676405.0      -660869.0      -644915.0
      -628657.0      -612520.0      -596453.0      -579948.0      -563170.0
      -546461.0      -529596.0      -512668.0      -495598.0      -478212.0
      -460751.0      -443391.0      -426004.0      -408125.0      -390102.0
      -372399.0      -354485.0      -336248.0      -318066.0      -299867.0
      -281449.0      -262972.0      -244461.0      -225881.0      -207253.0
      -188508.0      -169769.0      -150893.0      -131948.0      -113011.0
      -93966.00      -75066.00      -55958.00      -36725.00      -17693.00
       1574.000       20762.00       39864.00       59223.00       78575.00
       97756.00       116914.0       136334.0       155658.0       174803.0
       194173.0       213496.0       232574.0       251836.0       271302.0
       290349.0       309322.0       328641.0       347808.0       366763.0
       385792.0       404900.0       423816.0       442555.0       461472.0
       480370.0       499022.0       517699.0       536264.0       554727.0
       573298.0       591688.0       609926.0       628154.0       646323.0
       664374.0       682240.0       700091.0       717895.0       735513.0
       753050.0       770491.0       787756.0       804886.0       821944.0
       838965.0       855766.0       872324.0       888878.0       905309.0
       921551.0       937578.0       953485.0       969398.0       985007.0
       1000435.       1015757.       1030839.       1045856.       1060694.
       1075258.       1089645.       1103952.       1118093.       1131899.
       1145536.       1159048.       1172357.       1185483.       1198361.
       1211008.       1223434.       1235700.       1247794.       1259585.
       1271181.       1282591.       1293718.       1304635.       1315351.
       1325810.       1336054.       1346027.       1355761.       1365327.
       1374620.       1383648.       1392409.       1400955.       1409290.
       1417346.       1425160.       1432641.       1439928.       1447091.
       1453836.       1460254.       1466593.       1472687.       1478369.
       1483837.       1489058.       1493977.       1498729.       1503183.
       1507301.       1511122.       1514785.       1518179.       1521171.
       1524053.       1526558.       1528717.       1530787.       1532471.
       1533914.       1535106.       1535944.       1536587.       1536866.
       1536904.       1536745.       1536244.       1535493.       1534393.
       1533073.       1531543.       1529619.       1527530.       1525111.
       1522340.       1519514.       1516254.       1512678.       1508967.
       1504924.       1500675.       1496062.       1491189.       1486163.
       1480823.       1475195.       1469201.       1463099.       1456873.
       1450159.       1443168.       1435999.       1428639.       1421073.
       1413141.       1404866.       1396451.       1387984.       1379123.
       1369861.       1360478.       1350922.       1341173.       1331107.
       1320695.       1310158.       1299511.       1288568.       1277269.
       1265839.       1254261.       1242395.       1230342.       1218049.
       1205523.       1192838.       1180032.       1167019.       1153591.
       1140035.       1126490.       1112609.       1098576.       1084415.
       1069911.       1055299.       1040512.       1025643.       1010624.
       995272.0       979874.0       964154.0       948376.0       932664.0
       916503.0       900290.0       883929.0       867404.0       850836.0
       833940.0       817115.0       800142.0       782828.0       765607.0
       748203.0       730633.0       713072.0       695245.0       677423.0
       659475.0       641285.0       623259.0       604990.0       586557.0
       568181.0       549555.0       531037.0       512454.0       493503.0
       474683.0       455878.0       436891.0       417890.0       398703.0
       379539.0       360467.0       341165.0       321798.0       302471.0
       283179.0       263791.0       244167.0       224687.0       205348.0
       185789.0       166153.0       146593.0       127039.0       107513.0
       87897.00       68192.00       48629.00       29158.00       9536.000
      -10177.00      -29674.00      -49090.00      -68702.00      -88270.00
      -107666.0      -127033.0      -146410.0      -165848.0      -185210.0
      -204344.0      -223533.0      -242798.0      -261824.0      -280783.0
      -299818.0      -318760.0      -337551.0      -356213.0      -374871.0
      -393494.0      -411958.0      -430354.0      -448665.0      -466842.0
      -484944.0      -502903.0      -520761.0      -538597.0      -556223.0
      -573713.0      -591148.0      -608381.0      -625551.0      -642580.0
      -659409.0      -676197.0      -692787.0      -709183.0      -725520.0
      -741719.0      -757679.0      -773486.0      -789231.0      -804748.0
      -820070.0      -835269.0      -850278.0      -865160.0      -879834.0
      -894301.0      -908632.0      -922767.0      -936697.0      -950418.0
      -964006.0      -977421.0      -990537.0      -1003480.      -1016325.
      -1028910.      -1041197.      -1053354.      -1065324.      -1077052.
      -1088606.      -1099830.      -1110902.      -1121895.      -1132517.
      -1142874.      -1153094.      -1163107.      -1172875.      -1182366.
      -1191658.      -1200791.      -1209607.      -1218199.      -1226611.
      -1234736.      -1242691.      -1250350.      -1257768.      -1265063.
      -1271991.      -1278690.      -1285236.      -1291513.      -1297570.
      -1303305.      -1308865.      -1314246.      -1319235.      -1324033.
      -1328684.      -1333039.      -1337108.      -1340936.      -1344581.
      -1347972.      -1351071.      -1353974.      -1356589.      -1358968.
      -1361129.      -1363002.      -1364687.      -1366106.      -1367238.
      -1368131.      -1368837.      -1369288.      -1369403.      -1369335.
      -1369030.      -1368518.      -1367722.      -1366584.      -1365386.
      -1363873.      -1362018.      -1360031.      -1357793.      -1355357.
      -1352558.      -1349523.      -1346409.      -1342983.      -1339277.
      -1335332.      -1331223.      -1326869.      -1322185.      -1317388.
      -1312390.      -1307064.      -1301548.      -1295806.      -1289870.
      -1283787.      -1277348.      -1270697.      -1263945.      -1256949.
      -1249727.      -1242254.      -1234665.      -1226843.      -1218753.
      -1210598.      -1202159.      -1193578.      -1184777.      -1175672.
      -1166580.      -1157259.      -1147687.      -1137986.      -1128087.
      -1118018.      -1107768.      -1097370.      -1086820.      -1076096.
      -1065171.      -1054101.      -1042931.      -1031603.      -1020078.
      -1008408.      -996639.0      -984667.0      -972597.0      -960404.0
      -948028.0      -935591.0      -922960.0      -910236.0      -897417.0
      -884415.0      -871337.0      -858125.0      -844850.0      -831441.0
      -817872.0      -804273.0      -790547.0      -776708.0      -762787.0
      -748798.0      -734710.0      -720503.0      -706227.0      -691863.0
      -677436.0      -662931.0      -648353.0      -633729.0      -619013.0
      -604190.0      -589341.0      -574479.0      -559539.0      -544509.0
      -529439.0      -514350.0      -499217.0      -484046.0      -468828.0
      -453594.0      -438327.0      -422985.0      -407657.0      -392365.0
      -377009.0      -361642.0      -346289.0      -330886.0      -315492.0
      -300145.0      -284826.0      -269437.0      -254062.0      -238758.0
      -223431.0      -208161.0      -192908.0      -177634.0      -162446.0
      -147278.0      -132132.0      -117032.0      -101968.0      -86986.00
      -71976.00      -57056.00      -42243.00      -27406.00      -12630.00
       2061.000       16681.00       31264.00       45759.00       60196.00
