     0.02500000      -12345.00      -12345.00   2.447790e+09      -12345.00
   0.0005360000       1859.976      -352.0195      -12345.00      -12345.00
      -12345.00      -12345.00      -12345.00      -12345.00      -12345.00
      -12345.00      -12345.00      -12345.00      -12345.00      -12345.00
      -12345.00      -12345.00      -12345.00      -12345.00      -12345.00
      -12345.00      -12345.00      -12345.00      -12345.00      -12345.00
      -12345.00      -77.84920       166.7572       48.00000       2.000000
      -42.72450       173.0647      -12345.00       22.00000      -12345.00
      -12345.00      -12345.00      -12345.00      -12345.00      -12345.00
      -12345.00      -12345.00      -12345.00      -12345.00      -12345.00
       3928.427       182.3065       8.047512       35.33076      -12345.00
      -12345.00      -12345.00       0.000000       0.000000      -12345.00
      -12345.00      -12345.00      -12345.00      -12345.00      -12345.00
      -12345.00      -12345.00      -12345.00      -12345.00      -12345.00
      2016       318        11         8        51
        19         6    -12345    -12345     74400
    -12345    -12345    -12345    -12345    -12345
         1    -12345    -12345    -12345    -12345
    -12345    -12345    -12345    -12345    -12345
    -12345    -12345    -12345    -12345    -12345
    -12345    -12345    -12345    -12345    -12345
         1    -12345    -12345    -12345    -12345
SBA     South Island, Ne
00      -12345  -12345  
-12345  -12345  -12345  
-12345  -12345  -12345  
-12345  -12345  -12345  
-12345  -12345  -12345  
-12345  -12345  BHZ     
IU      -12345  Streckei
[...]
       662469.0       664696.0       666899.0       668962.0       671074.0
       673175.0       675241.0       677233.0       679240.0       681191.0
       683108.0       685081.0       686904.0       688779.0       690630.0
       692404.0       694206.0       695927.0       697699.0       699362.0
       701008.0       702685.0       704262.0       705851.0       707433.0
       708960.0       710416.0       711953.0       713362.0       714750.0
       716247.0       717532.0       718884.0       720246.0       721494.0
       722789.0       724038.0       725248.0       726408.0       727591.0
       728779.0       729862.0       730910.0       732014.0       733074.0
       734028.0       735041.0       735994.0       736901.0       737834.0
       738618.0       739472.0       740326.0       741015.0       741741.0
       742447.0       743113.0       743694.0       744229.0       744831.0
       745299.0       745690.0       746142.0       746486.0       746767.0
       747079.0       747249.0       747383.0       747579.0       747589.0
       747570.0       747615.0       747462.0       747282.0       747151.0
       746859.0       746510.0       746182.0       745734.0       745223.0
       744692.0       744081.0       743396.0       742614.0       741855.0
       740991.0       739996.0       739038.0       737925.0       736742.0
       735596.0       734256.0       732843.0       731487.0       729899.0
       728234.0       726652.0       724853.0       722982.0       721080.0
       719054.0       716987.0       714805.0       712547.0       710207.0
       707797.0       705285.0       702647.0       700036.0       697294.0
       694348.0       691432.0       688472.0       685315.0       682109.0
       678842.0       675467.0       672006.0       668421.0       664811.0
       661068.0       657209.0       653327.0       649298.0       645267.0
       641056.0       636701.0       632450.0       627992.0       623438.0
       618865.0       614144.0       609382.0       604533.0       599575.0
       594579.0       589498.0       584257.0       579024.0       573722.0
       568281.0       562802.0       557232.0       551601.0       545895.0
       540163.0       534297.0       528352.0       522395.0       516339.0
       510261.0       504045.0       497811.0       491532.0       485133.0
       478762.0       472292.0       465709.0       459169.0       452567.0
       445791.0       439106.0       432357.0       425427.0       418571.0
       411691.0       404702.0       397641.0       390641.0       383528.0
       376362.0       369271.0       361936.0       354739.0       347601.0
       340095.0       332753.0       325544.0       318017.0       310490.0
       303143.0       295596.0       288025.0       280529.0       272882.0
       265283.0       257661.0       249962.0       242220.0       234533.0
       226827.0       218940.0       211175.0       203407.0       195509.0
       187610.0       179743.0       171834.0       163869.0       155917.0
       147918.0       139950.0       131927.0       123908.0       115868.0
       107762.0       99731.00       91631.00       83538.00       75415.00
       67285.00       59197.00       50964.00       42889.00       34754.00
       26447.00       18345.00       10124.00       1935.000      -6232.000
      -14555.00      -22724.00      -30938.00      -39182.00      -47414.00
      -55713.00      -63926.00      -72135.00      -80394.00      -88653.00
      -96886.00      -105122.0      -113338.0      -121586.0      -129806.0
      -137931.0      -146189.0      -154412.0      -162489.0      -170703.0
      -178873.0      -186988.0      -195147.0      -203164.0      -211352.0
      -219406.0      -227389.0      -235579.0      -243503.0      -251539.0
      -259530.0      -267500.0      -275495.0      -283263.0      -291324.0
      -299201.0      -306938.0      -314900.0      -322656.0      -330430.0
      -338222.0      -345927.0      -353639.0      -361299.0      -368963.0
      -376559.0      -384150.0      -391734.0      -399219.0      -406662.0
      -414155.0      -421602.0      -428903.0      -436250.0      -443566.0
      -450798.0      -458018.0      -465186.0      -472310.0      -479363.0
      -486413.0      -493407.0      -500333.0      -507210.0      -514049.0
      -520854.0      -527555.0      -534272.0      -540920.0      -547449.0
      -553967.0      -560472.0      -566903.0      -573187.0      -579543.0
      -585818.0      -591900.0      -598112.0      -604183.0      -610122.0
      -616123.0      -622019.0      -627826.0      -633596.0      -639354.0
      -644964.0      -650511.0      -656126.0      -661568.0      -666920.0
      -672354.0      -677607.0      -682776.0      -688030.0      -693112.0
      -698129.0      -703130.0      -708102.0      -712960.0      -717673.0
      -722557.0      -727292.0      -731820.0      -736461.0      -741048.0
      -745504.0      -749937.0      -754337.0      -758650.0      -762983.0
      -767203.0      -771373.0      -775579.0      -779663.0      -783768.0
      -787741.0      -791747.0      -795787.0      -799579.0      -803528.0
      -807451.0      -811170.0      -814956.0      -818791.0      -822492.0
      -826133.0      -829885.0      -833501.0      -837080.0      -840725.0
      -844306.0      -847803.0      -851296.0      -854849.0      -858276.0
      -861683.0      -865152.0      -868515.0      -871859.0      -875257.0
      -878496.0      -881775.0      -885118.0      -888259.0      -891494.0
      -894705.0      -897834.0      -901009.0      -904054.0      -907198.0
      -910280.0      -913252.0      -916339.0      -919309.0      -922317.0
      -925232.0      -928121.0      -931129.0      -933896.0      -936773.0
      -939619.0      -942322.0      -945140.0      -947826.0      -950487.0
      -953171.0      -955792.0      -958340.0      -960872.0      -963431.0
      -965867.0      -968257.0      -970691.0      -973067.0      -975347.0
      -977619.0      -979849.0      -982053.0      -984217.0      -986249.0
      -988368.0      -990415.0      -992308.0      -994253.0      -996158.0
      -997975.0      -999707.0      -1001488.      -1003142.      -1004711.
      -1006351.      -1007795.      -1009268.      -1010665.      -1011970.
      -1013265.      -1014411.      -1015635.      -1016639.      -1017647.
      -1018676.      -1019437.      -1020349.      -1021062.      -1021610.
      -1022328.      -1022879.      -1023237.      -1023623.      -1023994.
      -1024218.      -1024321.      -1024430.      -1024531.      -1024358.
      -1024228.      -1024119.      -1023723.      -1023447.      -1022991.
      -1022370.      -1021899.      -1021211.      -1020457.      -1019632.
      -1018736.      -1017853.      -1016714.      -1015608.      -1014513.
      -1013184.      -1011854.      -1010460.      -1008977.      -1007455.
      -1005786.      -1004107.      -1002359.      -1000498.      -998648.0
      -996643.0      -994582.0      -992524.0      -990352.0      -988074.0
      -985792.0      -983476.0      -980989.0      -978499.0      -975962.0
      -973364.0      -970654.0      -967883.0      -965162.0      -962256.0
      -959344.0      -956396.0      -953360.0      -950254.0      -947109.0
      -943996.0      -940664.0      -937393.0      -934068.0      -930621.0
      -927227.0      -923709.0      -920200.0      -916587.0      -912949.0
      -909323.0      -905607.0      -901829.0      -898017.0      -894193.0
      -890287.0      -886437.0      -882413.0      -878400.0      -874446.0
      -870248.0      -866214.0      -862092.0      -857857.0      -853695.0
      -849367.0      -845145.0      -840833.0      -836435.0      -832120.0
      -827685.0      -823278.0      -818806.0      -814286.0      -809808.0
      -805258.0      -800666.0      -796088.0      -791481.0      -786792.0
      -782123.0      -777434.0      -772680.0      -767901.0      -763117.0
      -758327.0      -753444.0      -748592.0      -743735.0      -738767.0
      -733876.0      -728922.0      -723848.0      -718901.0      -713903.0
      -708802.0      -703733.0      -698619.0      -693530.0      -688357.0
      -683179.0      -678058.0      -672784.0      -667563.0      -662340.0
      -657046.0      -651723.0      -646370.0      -641058.0      -635635.0
      -630227.0      -624801.0      -619297.0      -613823.0      -608241.0
      -602658.0      -597084.0      -591436.0      -585748.0      -580060.0
      -574303.0      -568473.0      -562706.0      -556804.0      -550911.0
      -544982.0      -538940.0      -533012.0      -526915.0      -520797.0
      -514670.0      -508461.0      -502302.0      -496010.0      -489739.0
      -483423.0      -477027.0      -470641.0      -464198.0      -457747.0
      -451217.0      -444678.0      -438129.0      -431541.0      -424885.0
      -418211.0      -411565.0      -404802.0      -398059.0      -391295.0
      -384509.0      -377694.0      -370781.0      -363964.0      -357056.0
      -350118.0      -343213.0      -336213.0      -329277.0      -322294.0
      -315261.0      -308243.0      -301202.0      -294143.0      -287072.0
      -280008.0      -272908.0      -265814.0      -258702.0      -251579.0
      -244466.0      -237350.0      -230216.0      -223062.0      -215956.0
      -208789.0      -201643.0      -194526.0      -187316.0      -180181.0
      -173027.0      -165836.0      -158706.0      -151488.0      -144308.0
      -137171.0      -129944.0      -122783.0      -115606.0      -108386.0
      -101237.0      -94016.00      -86808.00      -79650.00      -72395.00
      -65216.00      -58037.00      -50803.00      -43646.00      -36428.00
      -29221.00      -22043.00      -14831.00      -7655.000      -440.0000
       6753.000       13935.00       21165.00       28352.00       35546.00
       42755.00       49947.00       57142.00       64331.00       71536.00
       78748.00       85939.00       93148.00       100347.0       107547.0
       114778.0       121956.0       129190.0       136407.0       143584.0
       150841.0       158020.0       165238.0       172457.0       179646.0
       186883.0       194075.0       201314.0       208523.0       215739.0
       222969.0       230168.0       237402.0       244617.0       251855.0
       259064.0       266315.0       273536.0       280748.0       288034.0
       295196.0       302481.0       309743.0       316952.0       324279.0
       331493.0       338780.0       346062.0       353329.0       360643.0
       367908.0       375218.0       382510.0       389831.0       397150.0
       404478.0       411792.0       419116.0       426487.0       433797.0
       441189.0       448528.0       455874.0       463267.0       470590.0
       477991.0       485344.0       492714.0       500091.0       507460.0
       514858.0       522194.0       529592.0       536945.0       544290.0
       551677.0       559021.0       566361.0       573681.0       581035.0
       588334.0       595636.0       602913.0       610146.0       617446.0
       624626.0       631834.0       639034.0       646146.0       653306.0
       660383.0       667465.0       674507.0       681499.0       688496.0
       695410.0       702297.0       709150.0       715991.0       722741.0
       729449.0       736171.0       742768.0       749331.0       755868.0
       762333.0       768725.0       775088.0       781409.0       787612.0
       793815.0       799915.0       805964.0       811973.0       817855.0
       823752.0       829537.0       835264.0       840909.0       846490.0
       852039.0       857427.0       862841.0       868146.0       873357.0
       878558.0       883601.0       888618.0       893576.0       898417.0
       903197.0       907926.0       912577.0       917136.0       921625.0
       926038.0       930396.0       934670.0       938868.0       942983.0
       947048.0       951047.0       954922.0       958779.0       962523.0
       966200.0       969840.0       973351.0       976850.0       980228.0
       983524.0       986796.0       989945.0       993043.0       996075.0
       999016.0       1001902.       1004699.       1007394.       1010054.
       1012612.       1015096.       1017574.       1019901.       1022158.
       1024409.       1026535.       1028590.       1030593.       1032522.
       1034392.       1036172.       1037889.       1039554.       1041125.
       1042621.       1044078.       1045465.       1046772.       1048002.
       1049165.       1050272.       1051284.       1052252.       1053126.
       1053942.       1054713.       1055337.       1055963.       1056488.
       1056918.       1057310.       1057597.       1057865.       1057985.
       1058055.       1058099.       1057999.       1057834.       1057629.
       1057366.       1056930.       1056484.       1056000.       1055354.
       1054703.       1053941.       1053125.       1052214.       1051235.
       1050226.       1049062.       1047903.       1046600.       1045265.
       1043928.       1042378.       1040851.       1039236.       1037526.
       1035777.       1033943.       1032101.       1030084.       1028053.
       1025997.       1023777.       1021591.       1019292.       1016901.
       1014480.       1011985.       1009461.       1006811.       1004104.
       1001365.       998550.0       995663.0       992721.0       989727.0
       986651.0       983512.0       980300.0       977120.0       973792.0
       970340.0       967040.0       963535.0       959929.0       956453.0
       952780.0       949042.0       945337.0       941538.0       937725.0
       933801.0       929842.0       925893.0       921807.0       917724.0
       913571.0       909357.0       905129.0       900799.0       896491.0
       892069.0       887582.0       883109.0       878499.0       873915.0
       869274.0       864525.0       859789.0       854942.0       850055.0
       845175.0       840174.0       835145.0       830079.0       824913.0
       819811.0       814568.0       809223.0       803962.0       798551.0
       793149.0       787696.0       782167.0       776656.0       770973.0
       765353.0       759695.0       753908.0       748161.0       742331.0
       736466.0       730572.0       724665.0       718641.0       712593.0
       706619.0       700469.0       694342.0       688226.0       682015.0
       675777.0       669488.0       663245.0       656946.0       650564.0
       644185.0       637834.0       631389.0       624887.0       618506.0
       611950.0       605375.0       598941.0       592338.0       585707.0
       579135.0       572512.0       565812.0       559161.0       552529.0
       545796.0       539058.0       532319.0       525605.0       518836.0
       512018.0       505250.0       498483.0       491660.0       484790.0
       478017.0       471188.0       464308.0       457487.0       450645.0
       443852.0       437000.0       430119.0       423308.0       416489.0
       409639.0       402832.0       396020.0       389226.0       382440.0
       375563.0       368889.0       362118.0       355232.0       348606.0
       341846.0       335126.0       328448.0       321702.0       315083.0
       308379.0       301780.0       295155.0       288528.0       282021.0
       275383.0       268865.0       262379.0       255860.0       249368.0
       242938.0       236540.0       230075.0       223719.0       217347.0
       211014.0       204695.0       198377.0       192137.0       185876.0
       179712.0       173443.0       167256.0       161188.0       155015.0
       148930.0       142826.0       136800.0       130772.0       124765.0
       118842.0       112825.0       106948.0       101060.0       95200.00
       89399.00       83557.00       77817.00       72044.00       66359.00
       60676.00       55003.00       49397.00       43756.00       38251.00
       32681.00       27157.00       21720.00       16240.00       10837.00
       5388.000       53.00000      -5237.000      -10629.00      -15914.00
      -21167.00      -26406.00      -31589.00      -36798.00      -41966.00
      -47075.00      -52192.00      -57268.00      -62334.00      -67356.00
      -72336.00      -77369.00      -82291.00      -87205.00      -92146.00
      -96982.00      -101874.0      -106689.0      -111442.0      -116265.0
      -120979.0      -125686.0      -130428.0      -135056.0      -139686.0
      -144326.0      -148907.0      -153483.0      -158011.0      -162523.0
      -167014.0      -171465.0      -175936.0      -180311.0      -184680.0
      -189066.0      -193356.0      -197681.0      -201970.0      -206184.0
      -210403.0      -214622.0      -218776.0      -222904.0      -227030.0
      -231090.0      -235156.0      -239159.0      -243146.0      -247125.0
      -251050.0      -254959.0      -258798.0      -262726.0      -266509.0
      -270276.0      -274121.0      -277747.0      -281534.0      -285207.0
      -288792.0      -292507.0      -296031.0      -299609.0      -303154.0
      -306646.0      -310137.0      -313556.0      -317008.0      -320405.0
      -323760.0      -327116.0      -330446.0      -333671.0      -336957.0
      -340229.0      -343373.0      -346619.0      -349741.0      -352888.0
      -356048.0      -359043.0      -362218.0      -365223.0      -368184.0
      -371299.0      -374216.0      -377192.0      -380165.0      -383040.0
      -385978.0      -388850.0      -391682.0      -394561.0      -397360.0
      -400122.0      -402961.0      -405696.0      -408383.0      -411144.0
      -413808.0      -416431.0      -419108.0      -421721.0      -424277.0
      -426866.0      -429371.0      -431875.0      -434435.0      -436830.0
      -439263.0      -441742.0      -444091.0      -446485.0      -448824.0
      -451143.0      -453522.0      -455704.0      -457971.0      -460366.0
      -462465.0      -464685.0      -466973.0      -469065.0      -471288.0
      -473421.0      -475520.0      -477670.0      -479767.0      -481866.0
      -483935.0      -486010.0      -488032.0      -490095.0      -492124.0
      -494103.0      -496139.0      -498139.0      -500112.0      -502106.0
      -504120.0      -506014.0      -507978.0      -509976.0      -511850.0
