     0.02500000      -12345.00      -12345.00   2.447790e+09      -12345.00
   0.0005360000       1859.976      -352.0195      -12345.00      -12345.00
      -12345.00      -12345.00      -12345.00      -12345.00      -12345.00
      -12345.00      -12345.00      -12345.00      -12345.00      -12345.00
      -12345.00      -12345.00      -12345.00      -12345.00      -12345.00
      -12345.00      -12345.00      -12345.00      -12345.00      -12345.00
      -12345.00      -77.84920       166.7572       48.00000       2.000000
      -42.72450       173.0647      -12345.00       22.00000      -12345.00
      -12345.00      -12345.00      -12345.00      -12345.00      -12345.00
      -12345.00      -12345.00      -12345.00      -12345.00      -12345.00
       3928.427       182.3065       8.047512       35.33076      -12345.00
      -12345.00      -12345.00       90.00000       90.00000      -12345.00
      -12345.00      -12345.00      -12345.00      -12345.00      -12345.00
      -12345.00      -12345.00      -12345.00      -12345.00      -12345.00
      2016       318        11         8        51
        19         6    -12345    -12345     74400
    -12345    -12345    -12345    -12345    -12345
         1    -12345    -12345    -12345    -12345
    -12345    -12345    -12345    -12345    -12345
    -12345    -12345    -12345    -12345    -12345
    -12345    -12345    -12345    -12345    -12345
         1    -12345    -12345    -12345    -12345
SBA     South Island, Ne
10      -12345  -12345  
-12345  -12345  -12345  
-12345  -12345  -12345  
-12345  -12345  -12345  
-12345  -12345  -12345  
-12345  -12345  BH2     
IU      -12345  Streckei
[...]
       1138055.       1129412.       1120743.       1111699.       1102445.
       1093118.       1083561.       1073791.       1063778.       1053705.
       1043480.       1032905.       1022183.       1011384.       1000421.
       989188.0       977809.0       966276.0       954601.0       942743.0
       930593.0       918599.0       906292.0       893555.0       880983.0
       868276.0       855302.0       842145.0       828913.0       815557.0
       801981.0       788395.0       774666.0       760597.0       746533.0
       732420.0       718106.0       703759.0       689207.0       674466.0
       659678.0       644931.0       629978.0       614792.0       599705.0
       584376.0       568923.0       553660.0       538170.0       522406.0
       506730.0       491035.0       475143.0       459300.0       443390.0
       427230.0       411184.0       395199.0       378920.0       362744.0
       346588.0       330046.0       313823.0       297663.0       281116.0
       264744.0       248355.0       231877.0       215473.0       199092.0
       182620.0       166098.0       149759.0       133287.0       116831.0
       100539.0       84059.00       67709.00       51417.00       35104.00
       18935.00       2593.000      -13606.00      -29644.00      -45811.00
      -61841.00      -77723.00      -93625.00      -109626.0      -125417.0
      -140946.0      -156679.0      -172349.0      -187730.0      -203104.0
      -218436.0      -233720.0      -248788.0      -263772.0      -278821.0
      -293569.0      -308274.0      -322950.0      -337391.0      -351795.0
      -366063.0      -380201.0      -394197.0      -408107.0      -421933.0
      -435508.0      -449042.0      -462411.0      -475584.0      -488739.0
      -501658.0      -514448.0      -527126.0      -539633.0      -551999.0
      -564161.0      -576254.0      -588169.0      -599879.0      -611485.0
      -622899.0      -634148.0      -645271.0      -656227.0      -666951.0
      -677535.0      -687995.0      -698256.0      -708355.0      -718230.0
      -727976.0      -737570.0      -746923.0      -756177.0      -765216.0
      -773996.0      -782692.0      -791230.0      -799518.0      -807575.0
      -815483.0      -823326.0      -830845.0      -838148.0      -845412.0
      -852347.0      -859139.0      -865753.0      -872074.0      -878350.0
      -884403.0      -890129.0      -895700.0      -901190.0      -906402.0
      -911356.0      -916178.0      -920787.0      -925210.0      -929333.0
      -933335.0      -937215.0      -940731.0      -944090.0      -947275.0
      -950275.0      -953033.0      -955509.0      -957911.0      -960081.0
      -961967.0      -963703.0      -965279.0      -966588.0      -967646.0
      -968577.0      -969343.0      -969861.0      -970073.0      -970160.0
      -970167.0      -969848.0      -969260.0      -968572.0      -967742.0
      -966617.0      -965265.0      -963822.0      -962094.0      -960150.0
      -958168.0      -955853.0      -953247.0      -950682.0      -947921.0
      -944745.0      -941414.0      -938046.0      -934510.0      -930688.0
      -926580.0      -922402.0      -918131.0      -913580.0      -908804.0
      -903896.0      -898889.0      -893641.0      -888120.0      -882538.0
      -876789.0      -870873.0      -864786.0      -858384.0      -851982.0
      -845443.0      -838609.0      -831695.0      -824575.0      -817320.0
      -809939.0      -802335.0      -794630.0      -786769.0      -778690.0
      -770459.0      -762162.0      -753820.0      -745099.0      -736055.0
      -727369.0      -718581.0      -709011.0      -699499.0      -690340.0
      -680788.0      -670828.0      -660898.0      -650979.0      -640926.0
      -630597.0      -619990.0      -609575.0      -599085.0      -588200.0
      -577291.0      -566207.0      -555142.0      -544027.0      -532529.0
      -520969.0      -509462.0      -498013.0      -486023.0      -473864.0
      -462287.0      -450237.0      -437671.0      -425420.0      -413246.0
      -400810.0      -388069.0      -375297.0      -362732.0      -350001.0
      -336963.0      -323787.0      -310741.0      -297972.0      -284598.0
      -270925.0      -257788.0      -244513.0      -230905.0      -217155.0
      -203591.0      -190117.0      -176326.0      -162331.0      -148453.0
      -134825.0      -120805.0      -106707.0      -92772.00      -78707.00
      -64664.00      -50508.00      -36409.00      -22255.00      -8081.000
       6093.000       20307.00       34468.00       48695.00       62864.00
       77072.00       91196.00       105412.0       119618.0       133650.0
       147722.0       161804.0       175996.0       189893.0       203857.0
       217852.0       231550.0       245500.0       259351.0       273013.0
       286588.0       300211.0       313891.0       327248.0       340477.0
       353870.0       367279.0       380236.0       393176.0       406257.0
       419141.0       432031.0       444614.0       456942.0       469542.0
       482147.0       494153.0       506079.0       518343.0       530279.0
       541793.0       553380.0       565149.0       576475.0       587433.0
       598627.0       609672.0       620287.0       630997.0       641628.0
       651704.0       661987.0       672248.0       681822.0       691416.0
       701270.0       710632.0       719440.0       728632.0       737713.0
       746191.0       754604.0       763010.0       771194.0       779033.0
       786822.0       794361.0       801732.0       809025.0       815997.0
       822785.0       829339.0       835735.0       841925.0       848140.0
       853960.0       859260.0       864873.0       870240.0       874993.0
       879699.0       884634.0       889112.0       892892.0       896902.0
       900944.0       904398.0       907577.0       910813.0       913824.0
       916405.0       918924.0       921397.0       923245.0       924913.0
       926920.0       928347.0       929194.0       930257.0       931264.0
       931742.0       931934.0       932096.0       932056.0       931645.0
       931019.0       930462.0       929506.0       928058.0       926707.0
       925238.0       923244.0       921087.0       919028.0       916494.0
       913537.0       910662.0       907660.0       904145.0       900470.0
       896857.0       892729.0       888350.0       884055.0       879438.0
       874332.0       869133.0       864088.0       858532.0       852523.0
       846692.0       840661.0       834084.0       827446.0       820804.0
       813753.0       806507.0       799059.0       791403.0       783771.0
       775744.0       767378.0       759069.0       750475.0       741663.0
       732794.0       723576.0       714174.0       704726.0       695057.0
       685120.0       675145.0       664985.0       654470.0       643917.0
       633281.0       622423.0       611321.0       600065.0       588768.0
       577376.0       565691.0       553762.0       541935.0       529872.0
       517485.0       505248.0       492865.0       480074.0       467276.0
       454566.0       441579.0       428297.0       415037.0       401842.0
       388378.0       374638.0       361023.0       347285.0       333279.0
       319368.0       305301.0       291038.0       276744.0       262382.0
       248038.0       233387.0       218618.0       204089.0       189410.0
       174387.0       159370.0       144484.0       129467.0       114300.0
       99013.00       83880.00       68627.00       53056.00       37785.00
       22430.00       6821.000      -8744.000      -24267.00      -39763.00
      -55550.00      -71230.00      -86699.00      -102494.0      -118323.0
      -133949.0      -149713.0      -165590.0      -181284.0      -196979.0
      -212766.0      -228568.0      -244355.0      -260014.0      -275820.0
      -291662.0      -307241.0      -322852.0      -338555.0      -354225.0
      -369882.0      -385414.0      -400893.0      -416476.0      -431863.0
      -447161.0      -462628.0      -477941.0      -493147.0      -508303.0
      -523432.0      -538513.0      -553363.0      -568272.0      -583191.0
      -597869.0      -612441.0      -627081.0      -641587.0      -655776.0
      -670015.0      -684314.0      -698349.0      -712107.0      -725879.0
      -739780.0      -753348.0      -766582.0      -779958.0      -793175.0
      -806073.0      -818999.0      -831858.0      -844451.0      -856717.0
      -869082.0      -881456.0      -893258.0      -904967.0      -916717.0
      -928256.0      -939585.0      -950714.0      -961694.0      -972430.0
      -983084.0      -993592.0      -1003862.      -1013873.      -1023741.
      -1033617.      -1043052.      -1052306.      -1061517.      -1070449.
      -1079278.      -1087733.      -1096078.      -1104369.      -1112168.
      -1119902.      -1127570.      -1134790.      -1141812.      -1148852.
      -1155651.      -1161950.      -1168117.      -1174323.      -1180126.
      -1185598.      -1191011.      -1196176.      -1200991.      -1205757.
      -1210334.      -1214378.      -1218261.      -1222187.      -1225800.
      -1228870.      -1231895.      -1234890.      -1237352.      -1239704.
      -1241868.      -1243538.      -1245143.      -1246723.      -1247801.
      -1248427.      -1249146.      -1249687.      -1249755.      -1249546.
      -1249163.      -1248634.      -1247723.      -1246615.      -1245305.
      -1243518.      -1241721.      -1239720.      -1237223.      -1234597.
      -1231691.      -1228570.      -1225250.      -1221607.      -1217747.
      -1213543.      -1209154.      -1204554.      -1199647.      -1194503.
      -1189134.      -1183551.      -1177552.      -1171457.      -1165212.
      -1158487.      -1151624.      -1144540.      -1137183.      -1129623.
      -1121782.      -1113727.      -1105388.      -1096840.      -1088114.
      -1079127.      -1069863.      -1060345.      -1050660.      -1040775.
      -1030621.      -1020187.      -1009589.      -998787.0      -987674.0
      -976456.0      -965066.0      -953248.0      -941280.0      -929247.0
      -916858.0      -904261.0      -891598.0      -878700.0      -865447.0
      -852029.0      -838583.0      -824829.0      -810879.0      -796806.0
      -782402.0      -767908.0      -753318.0      -738507.0      -723511.0
      -708224.0      -692765.0      -677364.0      -661871.0      -645950.0
      -629730.0      -613638.0      -597610.0      -581144.0      -564405.0
      -547737.0      -530914.0      -514028.0      -496996.0      -479649.0
      -462231.0      -444915.0      -427568.0      -409727.0      -391746.0
      -374089.0      -356213.0      -338014.0      -319880.0      -301722.0
      -283347.0      -264911.0      -246441.0      -227909.0      -209322.0
      -190620.0      -171924.0      -153088.0      -134187.0      -115295.0
      -96293.00      -77435.00      -58369.00      -39181.00      -20188.00
      -963.0000       18178.00       37242.00       56563.00       75869.00
       95006.00       114125.0       133504.0       152784.0       171889.0
       191219.0       210501.0       229537.0       248762.0       268188.0
       287191.0       306125.0       325408.0       344536.0       363449.0
       382440.0       401513.0       420386.0       439086.0       457971.0
       476831.0       495444.0       514084.0       532610.0       551036.0
       569571.0       587927.0       606132.0       624321.0       642454.0
       660470.0       678300.0       696117.0       713890.0       731476.0
       748976.0       766385.0       783618.0       800714.0       817741.0
       834732.0       851499.0       868027.0       884552.0       900954.0
       917167.0       933161.0       949040.0       964929.0       980506.0
       995907.0       1011205.       1026257.       1041250.       1056064.
       1070600.       1084963.       1099246.       1113363.       1127145.
       1140758.       1154248.       1167537.       1180643.       1193498.
       1206124.       1218529.       1230777.       1242854.       1254624.
       1266201.       1277596.       1288705.       1299604.       1310306.
       1320749.       1330976.       1340938.       1350657.       1360209.
       1369492.       1378508.       1387256.       1395791.       1404120.
       1412167.       1419967.       1427439.       1434720.       1441875.
       1448613.       1455027.       1461361.       1467449.       1473124.
       1478588.       1483807.       1488722.       1493476.       1497928.
       1502042.       1505865.       1509530.       1512921.       1515914.
       1518798.       1521304.       1523468.       1525543.       1527231.
       1528679.       1529875.       1530720.       1531369.       1531653.
       1531699.       1531550.       1531059.       1530314.       1529223.
       1527912.       1526395.       1524484.       1522406.       1519997.
       1517241.       1514429.       1511183.       1507624.       1503927.
       1499900.       1495670.       1491071.       1486214.       1481211.
       1475891.       1470277.       1464305.       1458227.       1452020.
       1445326.       1438356.       1431212.       1423877.       1416334.
       1408425.       1400173.       1391784.       1383348.       1374511.
       1365272.       1355917.       1346392.       1336672.       1326632.
       1316251.       1305744.       1295128.       1284215.       1272943.
       1261549.       1250002.       1238166.       1226150.       1213887.
       1201396.       1188747.       1175975.       1162998.       1149602.
       1136085.       1122579.       1108731.       1094739.       1080615.
       1066147.       1051575.       1036826.       1021999.       1007019.
       991707.0       976348.0       960667.0       944934.0       929261.0
       913144.0       896975.0       880650.0       864170.0       847647.0
       830793.0       814016.0       797082.0       779812.0       762643.0
       745278.0       727755.0       710239.0       692455.0       674683.0
       656778.0       638637.0       620659.0       602433.0       584051.0
       565720.0       547142.0       528677.0       510137.0       491232.0
       472464.0       453707.0       434769.0       415817.0       396678.0
       377567.0       358544.0       339289.0       319972.0       300697.0
       281458.0       262116.0       242544.0       223117.0       203830.0
       184318.0       164734.0       145229.0       125725.0       106250.0
       86687.00       67033.00       47524.00       28106.00       8532.000
      -11128.00      -30567.00      -49935.00      -69496.00      -89012.00
      -108357.0      -127668.0      -146995.0      -166386.0      -185694.0
      -204777.0      -223917.0      -243129.0      -262103.0      -281011.0
      -299996.0      -318891.0      -337629.0      -356239.0      -374850.0
      -393426.0      -411838.0      -430183.0      -448446.0      -466571.0
      -484625.0      -502536.0      -520345.0      -538135.0      -555710.0
      -573150.0      -590538.0      -607724.0      -624848.0      -641827.0
      -658608.0      -675350.0      -691894.0      -708245.0      -724535.0
      -740688.0      -756601.0      -772364.0      -788066.0      -803537.0
      -818816.0      -833970.0      -848939.0      -863777.0      -878405.0
      -892831.0      -907117.0      -921212.0      -935101.0      -948780.0
      -962330.0      -975703.0      -988776.0      -1001682.      -1014490.
      -1027035.      -1039282.      -1051400.      -1063335.      -1075027.
      -1086540.      -1097729.      -1108770.      -1119726.      -1130311.
      -1140637.      -1150820.      -1160799.      -1170536.      -1179995.
      -1189255.      -1198357.      -1207140.      -1215702.      -1224084.
      -1232182.      -1240108.      -1247738.      -1255129.      -1262395.
      -1269296.      -1275970.      -1282492.      -1288743.      -1294775.
      -1300486.      -1306024.      -1311380.      -1316344.      -1321123.
      -1325755.      -1330090.      -1334135.      -1337944.      -1341573.
      -1344940.      -1348025.      -1350913.      -1353509.      -1355874.
      -1358017.      -1359876.      -1361547.      -1362952.      -1364073.
      -1364951.      -1365647.      -1366085.      -1366186.      -1366113.
      -1365795.      -1365275.      -1364472.      -1363324.      -1362122.
      -1360600.      -1358737.      -1356750.      -1354506.      -1352062.
      -1349259.      -1346223.      -1343109.      -1339681.      -1335972.
      -1332027.      -1327918.      -1323565.      -1318883.      -1314088.
      -1309091.      -1303768.      -1298257.      -1292518.      -1286588.
      -1280511.      -1274076.      -1267434.      -1260688.      -1253700.
      -1246487.      -1239022.      -1231445.      -1223631.      -1215552.
      -1207408.      -1198978.      -1190416.      -1181624.      -1172533.
      -1163458.      -1154149.      -1144593.      -1134909.      -1125027.
      -1114974.      -1104740.      -1094363.      -1083830.      -1073123.
      -1062217.      -1051164.      -1040018.      -1028712.      -1017209.
      -1005561.      -993810.0      -981861.0      -969818.0      -957647.0
      -945295.0      -932884.0      -920277.0      -907581.0      -894785.0
      -881809.0      -868761.0      -855574.0      -842328.0      -828948.0
      -815407.0      -801838.0      -788144.0      -774333.0      -760445.0
      -746487.0      -732428.0      -718252.0      -704007.0      -689677.0
      -675283.0      -660810.0      -646268.0      -631677.0      -616996.0
      -602208.0      -587389.0      -572567.0      -557664.0      -542667.0
      -527635.0      -512580.0      -497484.0      -482352.0      -467172.0
      -451973.0      -436743.0      -421443.0      -406154.0      -390900.0
      -375584.0      -360256.0      -344940.0      -329577.0      -314226.0
      -298919.0      -283641.0      -268291.0      -252958.0      -237696.0
      -222409.0      -207181.0      -191971.0      -176739.0      -161593.0
      -146466.0      -131363.0      -116308.0      -101286.0      -86346.00
      -71379.00      -56503.00      -41732.00      -26935.00      -12204.00
       2441.000       17021.00       31561.00       46010.00       60405.00
