     0.02500000      -12345.00      -12345.00   2.447790e+09      -12345.00
   0.0005380000       1859.976      -352.0196      -12345.00      -12345.00
      -12345.00      -12345.00      -12345.00      -12345.00      -12345.00
      -12345.00      -12345.00      -12345.00      -12345.00      -12345.00
      -12345.00      -12345.00      -12345.00      -12345.00      -12345.00
      -12345.00      -12345.00      -12345.00      -12345.00      -12345.00
      -12345.00      -77.84920       166.7572       48.00000       2.000000
      -42.72450       173.0647      -12345.00       22.00000      -12345.00
      -12345.00      -12345.00      -12345.00      -12345.00      -12345.00
      -12345.00      -12345.00      -12345.00      -12345.00      -12345.00
       3928.427       182.3065       8.047512       35.33076      -12345.00
      -12345.00      -12345.00       0.000000       90.00000      -12345.00
      -12345.00      -12345.00      -12345.00      -12345.00      -12345.00
      -12345.00      -12345.00      -12345.00      -12345.00      -12345.00
      2016       318        11         8        51
        19         6    -12345    -12345     74400
    -12345    -12345    -12345    -12345    -12345
         1    -12345    -12345    -12345    -12345
    -12345    -12345    -12345    -12345    -12345
    -12345    -12345    -12345    -12345    -12345
    -12345    -12345    -12345    -12345    -12345
         1    -12345    -12345    -12345    -12345
SBA     South Island, Ne
10      -12345  -12345  
-12345  -12345  -12345  
-12345  -12345  -12345  
-12345  -12345  -12345  
-12345  -12345  -12345  
-12345  -12345  BH1     
IU      -12345  Streckei
[...]
      -537582.0      -526528.0      -515418.0      -504128.0      -492828.0
      -481461.0      -469916.0      -458375.0      -446756.0      -435030.0
      -423295.0      -411449.0      -399537.0      -387556.0      -375506.0
      -363441.0      -351332.0      -339165.0      -326883.0      -314598.0
      -302200.0      -289790.0      -277463.0      -264984.0      -252420.0
      -239862.0      -227296.0      -214663.0      -201995.0      -189315.0
      -176600.0      -163848.0      -151099.0      -138339.0      -125557.0
      -112697.0      -99767.00      -86966.00      -74104.00      -61182.00
      -48305.00      -35380.00      -22415.00      -9418.000       3456.000
       16432.00       29481.00       42383.00       55385.00       68373.00
       81353.00       94373.00       107294.0       120310.0       133318.0
       146209.0       159175.0       172111.0       185051.0       198032.0
       210940.0       223778.0       236597.0       249487.0       262277.0
       275061.0       287877.0       300573.0       313267.0       325961.0
       338536.0       351116.0       363727.0       376139.0       388617.0
       401061.0       413401.0       425719.0       437884.0       450110.0
       462195.0       474212.0       486299.0       498225.0       510006.0
       521769.0       533508.0       545115.0       556563.0       567983.0
       579450.0       590656.0       601760.0       612898.0       623850.0
       634626.0       645363.0       656103.0       666603.0       677002.0
       687268.0       697393.0       707437.0       717347.0       727218.0
       736765.0       746238.0       755711.0       764885.0       773901.0
       782834.0       791661.0       800233.0       808699.0       817100.0
       825198.0       833176.0       840967.0       848557.0       856145.0
       863443.0       870567.0       877542.0       884249.0       890921.0
       897368.0       903582.0       909623.0       915478.0       921203.0
       926698.0       932023.0       937183.0       942040.0       946759.0
       951440.0       955779.0       959923.0       963908.0       967611.0
       971220.0       974602.0       977787.0       980827.0       983563.0
       986114.0       988523.0       990714.0       992638.0       994320.0
       995886.0       997296.0       998460.0       999375.0       1000093.
       1000528.       1000827.       1000988.       1000862.       1000553.
       999931.0       999217.0       998299.0       997111.0       995785.0
       994166.0       992409.0       990403.0       988243.0       985897.0
       983246.0       980456.0       977421.0       974239.0       970951.0
       967299.0       963483.0       959559.0       955349.0       951062.0
       946504.0       941731.0       936835.0       931674.0       926501.0
       921024.0       915354.0       909581.0       903481.0       897462.0
       891150.0       884599.0       877999.0       871040.0       864117.0
       856989.0       849691.0       842267.0       834552.0       826870.0
       818872.0       810857.0       802708.0       794216.0       785785.0
       777071.0       768337.0       759372.0       750282.0       741202.0
       731709.0       722348.0       712763.0       702991.0       693209.0
       683114.0       673152.0       662913.0       652604.0       642314.0
       631603.0       621054.0       610262.0       599405.0       588596.0
       577391.0       566349.0       555077.0       543766.0       532480.0
       520866.0       509385.0       497683.0       486001.0       474282.0
       462301.0       450458.0       438407.0       426367.0       414311.0
       402132.0       389934.0       377608.0       365355.0       352960.0
       340592.0       328182.0       315656.0       303253.0       290641.0
       278092.0       265610.0       252984.0       240350.0       227683.0
       215113.0       202499.0       189870.0       177265.0       164555.0
       151928.0       139370.0       126764.0       114224.0       101614.0
       89029.00       76592.00       64104.00       51698.00       39233.00
       26879.00       14628.00       2294.000      -9850.000      -22032.00
      -34119.00      -46204.00      -58214.00      -69956.00      -81870.00
      -93641.00      -105268.0      -116913.0      -128399.0      -139784.0
      -151110.0      -162350.0      -173469.0      -184594.0      -195437.0
      -206206.0      -217093.0      -227621.0      -238119.0      -248522.0
      -258771.0      -268964.0      -278941.0      -288996.0      -298747.0
      -308368.0      -317920.0      -327323.0      -336790.0      -345728.0
      -354795.0      -363826.0      -372473.0      -381143.0      -389545.0
      -398038.0      -406216.0      -414212.0      -422200.0      -429923.0
      -437676.0      -445109.0      -452479.0      -459630.0      -466664.0
      -473736.0      -480347.0      -487005.0      -493407.0      -499657.0
      -505946.0      -511821.0      -517680.0      -523350.0      -528776.0
      -534228.0      -539559.0      -544375.0      -549191.0      -554081.0
      -558586.0      -563107.0      -567086.0      -571224.0      -575418.0
      -578801.0      -582520.0      -586096.0      -589166.0      -592414.0
      -595399.0      -597941.0      -600691.0      -603281.0      -605458.0
      -607649.0      -609493.0      -611429.0      -613156.0      -614447.0
      -615986.0      -616995.0      -617944.0      -619081.0      -619596.0
      -620087.0      -620470.0      -620589.0      -620845.0      -620599.0
      -620029.0      -619867.0      -619218.0      -618261.0      -617519.0
      -616205.0      -614844.0      -613644.0      -611923.0      -610025.0
      -608176.0      -606031.0      -603836.0      -601377.0      -598592.0
      -596029.0      -593009.0      -589903.0      -586850.0      -583151.0
      -579638.0      -576063.0      -572031.0      -567959.0      -563784.0
      -559391.0      -554808.0      -550163.0      -545242.0      -540347.0
      -535134.0      -529566.0      -524408.0      -518684.0      -512845.0
      -507107.0      -500684.0      -494614.0      -488395.0      -481675.0
      -475056.0      -468224.0      -461246.0      -454274.0      -446982.0
      -439463.0      -432229.0      -424410.0      -416477.0      -408975.0
      -400687.0      -392489.0      -384356.0      -375733.0      -367299.0
      -358710.0      -349860.0      -340938.0      -331923.0      -322760.0
      -313611.0      -304200.0      -294611.0      -285182.0      -275440.0
      -265699.0      -255838.0      -245768.0      -235695.0      -225437.0
      -215296.0      -204918.0      -194426.0      -183897.0      -173105.0
      -162471.0      -151637.0      -140794.0      -129964.0      -118621.0
      -107454.0      -96458.00      -85151.00      -73678.00      -62244.00
      -50788.00      -39125.00      -27598.00      -15873.00      -4050.000
       7687.000       19873.00       31549.00       43367.00       55794.00
       67720.00       80066.00       92108.00       104130.0       116946.0
       128836.0       141276.0       154108.0       165948.0       178645.0
       191313.0       203532.0       216388.0       228776.0       241287.0
       254113.0       266475.0       279285.0       291926.0       304371.0
       317254.0       329795.0       342441.0       355069.0       367629.0
       380509.0       392865.0       405376.0       418249.0       430723.0
       443236.0       455617.0       468109.0       480864.0       493045.0
       505424.0       517908.0       530033.0       542533.0       554723.0
       566836.0       579066.0       590970.0       603247.0       615274.0
       626948.0       639011.0       650730.0       662576.0       674433.0
       685651.0       697391.0       709092.0       720238.0       731642.0
       743097.0       754101.0       765169.0       776345.0       787205.0
       798144.0       808823.0       819449.0       830199.0       840700.0
       851021.0       861130.0       871581.0       881871.0       891447.0
       901270.0       911483.0       921082.0       930213.0       939881.0
       949388.0       958368.0       967403.0       976392.0       985199.0
       993903.0       1002508.       1010645.       1019124.       1027521.
       1034998.       1042974.       1050936.       1058334.       1065665.
       1072900.       1080202.       1087014.       1093710.       1100586.
       1106842.       1113052.       1119485.       1125290.       1131030.
       1136867.       1142141.       1147475.       1152661.       1157591.
       1162355.       1166775.       1171528.       1175670.       1179457.
       1183691.       1187222.       1190616.       1194227.       1197295.
       1200135.       1203008.       1205648.       1208040.       1210159.
       1212162.       1214294.       1215826.       1217051.       1218570.
       1219651.       1220464.       1221072.       1221634.       1222148.
       1221890.       1221843.       1221854.       1221041.       1220327.
       1219566.       1218394.       1217199.       1215532.       1213733.
       1212120.       1209853.       1207297.       1204933.       1202367.
       1199344.       1196004.       1192780.       1189284.       1185436.
       1181594.       1177419.       1172864.       1168417.       1163873.
       1158680.       1153612.       1148209.       1142312.       1137084.
       1131201.       1124504.       1118265.       1112247.       1105186.
       1097678.       1091398.       1084149.       1075847.       1068509.
       1060985.       1052855.       1044282.       1035729.       1027643.
       1018928.       1009413.       1000394.       991608.0       981775.0
       971682.0       962272.0       952742.0       942046.0       931306.0
       921599.0       911037.0       899488.0       888577.0       877896.0
       866717.0       854817.0       843054.0       831923.0       819917.0
       807467.0       795414.0       783178.0       770865.0       758008.0
       745078.0       732533.0       719487.0       706185.0       692906.0
       679569.0       666047.0       652177.0       638413.0       624751.0
       610643.0       596243.0       582064.0       567930.0       553372.0
       538438.0       523867.0       509469.0       494207.0       479005.0
       464354.0       449154.0       433636.0       418290.0       403020.0
       387450.0       371651.0       356087.0       340329.0       324466.0
       308514.0       292414.0       276581.0       260403.0       244128.0
       227917.0       211563.0       195265.0       178682.0       162309.0
       145802.0       128986.0       112449.0       95822.00       79078.00
       62139.00       45391.00       28692.00       11520.00      -5389.000
      -22185.00      -39251.00      -56433.00      -73553.00      -90342.00
      -107418.0      -124876.0      -141911.0      -158800.0      -176057.0
      -193355.0      -210407.0      -227501.0      -244799.0      -261908.0
      -278902.0      -296065.0      -313292.0      -330383.0      -347261.0
      -364355.0      -381501.0      -398357.0      -415284.0      -432174.0
      -448987.0      -465805.0      -482554.0      -499231.0      -515839.0
      -532446.0      -548781.0      -565259.0      -581844.0      -597831.0
      -613979.0      -630284.0      -646232.0      -662148.0      -677966.0
      -693771.0      -709480.0      -724953.0      -740436.0      -755980.0
      -771114.0      -786083.0      -801474.0      -816365.0      -830974.0
      -845934.0      -860595.0      -874967.0      -889364.0      -903819.0
      -917817.0      -931779.0      -945891.0      -959583.0      -973273.0
      -986771.0      -1000417.      -1013695.      -1026418.      -1039797.
      -1052824.      -1065328.      -1077839.      -1090504.      -1103003.
      -1114879.      -1127065.      -1139046.      -1150629.      -1162238.
      -1173789.      -1185116.      -1195861.      -1206990.      -1217992.
      -1228498.      -1238804.      -1248941.      -1259510.      -1269283.
      -1278711.      -1288475.      -1298049.      -1307072.      -1315787.
      -1325292.      -1333626.      -1341586.      -1350487.      -1358448.
      -1366224.      -1373750.      -1381277.      -1388884.      -1395712.
      -1402622.      -1409359.      -1416018.      -1422132.      -1428048.
      -1434466.      -1439851.      -1445293.      -1450830.      -1455716.
      -1460905.      -1465442.      -1469703.      -1474364.      -1478381.
      -1482064.      -1485917.      -1489446.      -1492593.      -1495591.
      -1498519.      -1501388.      -1503784.      -1505662.      -1507969.
      -1510127.      -1511176.      -1512669.      -1514340.      -1514960.
      -1515710.      -1516615.      -1516909.      -1516963.      -1517027.
      -1516767.      -1516348.      -1515915.      -1514809.      -1513713.
      -1512790.      -1511161.      -1509434.      -1507664.      -1505545.
      -1503391.      -1500870.      -1498107.      -1495377.      -1492254.
      -1488917.      -1485516.      -1481926.      -1477926.      -1473867.
      -1469929.      -1465244.      -1460466.      -1455945.      -1450992.
      -1445646.      -1440129.      -1434812.      -1429142.      -1423103.
      -1417072.      -1410757.      -1404387.      -1397801.      -1391088.
      -1384168.      -1376889.      -1369637.      -1362358.      -1354872.
      -1346953.      -1338878.      -1331017.      -1322966.      -1314362.
      -1305725.      -1297304.      -1288510.      -1279281.      -1270260.
      -1261296.      -1251643.      -1241915.      -1232469.      -1222722.
      -1212660.      -1202478.      -1192330.      -1182028.      -1171546.
      -1160931.      -1150180.      -1139301.      -1128269.      -1117289.
      -1106028.      -1094620.      -1083268.      -1071617.      -1059950.
      -1048276.      -1036367.      -1024313.      -1012257.      -1000196.
      -987827.0      -975397.0      -963044.0      -950560.0      -937938.0
      -925113.0      -912378.0      -899721.0      -886667.0      -873507.0
      -860632.0      -847567.0      -834289.0      -821056.0      -807758.0
      -794440.0      -780987.0      -767531.0      -754130.0      -740591.0
      -726851.0      -713271.0      -699844.0      -685959.0      -672174.0
      -658641.0      -644799.0      -630905.0      -617174.0      -603359.0
      -589488.0      -575672.0      -561769.0      -547892.0      -533998.0
      -520120.0      -506316.0      -492433.0      -478395.0      -464531.0
      -450878.0      -436780.0      -422863.0      -409267.0      -395290.0
      -381461.0      -367858.0      -354010.0      -340082.0      -326496.0
      -312864.0      -299112.0      -285528.0      -271771.0      -258245.0
      -244791.0      -231136.0      -217683.0      -204276.0      -190880.0
      -177412.0      -164139.0      -150965.0      -137558.0      -124345.0
      -111266.0      -98225.00      -85152.00      -72041.00      -59113.00
      -46212.00      -33388.00      -20618.00      -7800.000       4837.000
       17439.00       30015.00       42413.00       54944.00       67442.00
       79582.00       91725.00       104020.0       116149.0       128082.0
       140033.0       151926.0       163717.0       175458.0       187035.0
       198651.0       210146.0       221453.0       232838.0       244061.0
       255238.0       266228.0       277106.0       288056.0       298900.0
       309602.0       319964.0       330604.0       341089.0       351148.0
       361496.0       371587.0       381558.0       391395.0       401137.0
       411030.0       420519.0       429827.0       439282.0       448703.0
       457707.0       466586.0       475641.0       484484.0       493156.0
       501673.0       510042.0       518479.0       526800.0       534757.0
       542741.0       550640.0       558253.0       566082.0       573428.0
       580524.0       588082.0       595104.0       601858.0       608791.0
       615484.0       622008.0       628463.0       634688.0       640758.0
       646901.0       652690.0       658378.0       664038.0       669338.0
       674722.0       679954.0       684893.0       689791.0       694522.0
       699043.0       703699.0       708057.0       711863.0       716130.0
       720252.0       723772.0       727523.0       731068.0       734315.0
       737599.0       740730.0       743763.0       746585.0       749167.0
       751787.0       754345.0       756592.0       758751.0       760940.0
       762784.0       764468.0       766373.0       767937.0       769080.0
       770561.0       771961.0       772764.0       773725.0       774717.0
       775251.0       775837.0       776386.0       776687.0       777000.0
       776980.0       776879.0       777054.0       776733.0       776181.0
       775932.0       775353.0       774445.0       773789.0       773015.0
       771808.0       770709.0       769528.0       768118.0       766713.0
       765197.0       763564.0       761679.0       759871.0       758026.0
       755758.0       753604.0       751492.0       749055.0       746478.0
       743991.0       741405.0       738593.0       735707.0       732687.0
       729763.0       726750.0       723286.0       720013.0       716818.0
       713146.0       709534.0       706080.0       702270.0       698323.0
       694602.0       690679.0       686452.0       682358.0       678180.0
       673855.0       669634.0       665118.0       660528.0       656098.0
       651337.0       646652.0       642064.0       637015.0       631930.0
       627271.0       622275.0       616865.0       611850.0       606702.0
       601321.0       595955.0       590500.0       585109.0       579568.0
       573933.0       568244.0       562593.0       556902.0       550915.0
       545102.0       539289.0       533184.0       527238.0       521242.0
       515013.0       508902.0       502682.0       496392.0       490295.0
       483817.0       477269.0       471050.0       464579.0       458051.0
       451543.0       444847.0       438371.0       431935.0       425017.0
       418184.0       411780.0       405065.0       397998.0       391342.0
       384798.0       377672.0       370608.0       364024.0       357340.0
