     0.02500000      -12345.00      -12345.00   2.447790e+09      -12345.00
   0.0005360000       1859.976      -352.0195      -12345.00      -12345.00
      -12345.00      -12345.00      -12345.00      -12345.00      -12345.00
      -12345.00      -12345.00      -12345.00      -12345.00      -12345.00
      -12345.00      -12345.00      -12345.00      -12345.00      -12345.00
      -12345.00      -12345.00      -12345.00      -12345.00      -12345.00
      -12345.00      -77.84920       166.7572       48.00000       2.000000
      -42.72450       173.0647      -12345.00       22.00000      -12345.00
      -12345.00      -12345.00      -12345.00      -12345.00      -12345.00
      -12345.00      -12345.00      -12345.00      -12345.00      -12345.00
       3928.427       182.3065       8.047512       35.33076      -12345.00
      -12345.00      -12345.00       0.000000       90.00000      -12345.00
      -12345.00      -12345.00      -12345.00      -12345.00      -12345.00
      -12345.00      -12345.00      -12345.00      -12345.00      -12345.00
      2016       318        11         8        51
        19         6    -12345    -12345     74400
    -12345    -12345    -12345    -12345    -12345
         1    -12345    -12345    -12345    -12345
    -12345    -12345    -12345    -12345    -12345
    -12345    -12345    -12345    -12345    -12345
    -12345    -12345    -12345    -12345    -12345
         1    -12345    -12345    -12345    -12345
SBA     South Island, Ne
00      -12345  -12345  
-12345  -12345  -12345  
-12345  -12345  -12345  
-12345  -12345  -12345  
-12345  -12345  -12345  
-12345  -12345  BH1     
IU      -12345  Streckei
[...]
      -530326.0      -519274.0      -508174.0      -496890.0      -485593.0
      -474235.0      -462697.0      -451162.0      -439555.0      -427836.0
      -416111.0      -404275.0      -392373.0      -380405.0      -368365.0
      -356311.0      -344216.0      -332062.0      -319794.0      -307522.0
      -295141.0      -282743.0      -270430.0      -257970.0      -245422.0
      -232878.0      -220329.0      -207716.0      -195067.0      -182400.0
      -169705.0      -156975.0      -144243.0      -131505.0      -118743.0
      -105905.0      -92998.00      -80216.00      -67374.00      -54475.00
      -41622.00      -28719.00      -15777.00      -2804.000       10049.00
       22998.00       36021.00       48899.00       61876.00       74842.00
       87795.00       100791.0       113684.0       126671.0       139659.0
       152520.0       165456.0       178370.0       191279.0       204235.0
       217116.0       229924.0       242716.0       255576.0       268340.0
       281092.0       293877.0       306547.0       319208.0       331874.0
       344421.0       356968.0       369553.0       381933.0       394379.0
       406799.0       419105.0       431392.0       443529.0       455722.0
       467780.0       479766.0       491821.0       503715.0       515466.0
       527199.0       538905.0       550485.0       561905.0       573288.0
       584728.0       595905.0       606974.0       618082.0       629007.0
       639752.0       650455.0       661167.0       671639.0       682005.0
       692242.0       702333.0       712348.0       722228.0       732070.0
       741588.0       751027.0       760472.0       769617.0       778604.0
       787509.0       796303.0       804848.0       813283.0       821655.0
       829726.0       837672.0       845437.0       852995.0       860554.0
       867828.0       874921.0       881870.0       888545.0       895187.0
       901611.0       907798.0       913813.0       919638.0       925333.0
       930804.0       936099.0       941232.0       946065.0       950755.0
       955409.0       959723.0       963840.0       967802.0       971479.0
       975058.0       978416.0       981575.0       984588.0       987300.0
       989825.0       992211.0       994378.0       996275.0       997933.0
       999473.0       1000857.       1002000.       1002892.       1003588.
       1004000.       1004272.       1004411.       1004263.       1003932.
       1003286.       1002549.       1001611.       1000399.       999052.0
       997410.0       995632.0       993606.0       991422.0       989056.0
       986385.0       983573.0       980518.0       977315.0       974008.0
       970339.0       966499.0       962555.0       958327.0       954019.0
       949444.0       944651.0       939737.0       934555.0       929361.0
       923870.0       918179.0       912392.0       906271.0       900231.0
       893907.0       887335.0       880719.0       873741.0       866803.0
       859656.0       852337.0       844907.0       837169.0       829470.0
       821463.0       813425.0       805265.0       796758.0       788306.0
       779581.0       770831.0       761853.0       752747.0       743658.0
       734150.0       724771.0       715178.0       705389.0       695597.0
       685487.0       675515.0       665268.0       654939.0       644644.0
       633919.0       623359.0       612562.0       601685.0       590873.0
       579659.0       568602.0       557327.0       546002.0       534709.0
       523084.0       511597.0       499890.0       488195.0       476471.0
       464483.0       452633.0       440577.0       428530.0       416467.0
       404281.0       392082.0       379748.0       367486.0       355088.0
       342714.0       330302.0       317767.0       305362.0       292746.0
       280192.0       267707.0       255077.0       242442.0       229770.0
       217197.0       204583.0       191948.0       179343.0       166631.0
       153998.0       141439.0       128833.0       116291.0       103683.0
       91095.00       78657.00       66169.00       53761.00       41299.00
       28944.00       16693.00       4359.000      -7783.000      -19962.00
      -32049.00      -44129.00      -56137.00      -67876.00      -79785.00
      -91553.00      -103175.0      -114817.0      -126300.0      -137683.0
      -148999.0      -160235.0      -171351.0      -182466.0      -193311.0
      -204067.0      -214946.0      -225475.0      -235958.0      -246358.0
      -256601.0      -266782.0      -276752.0      -286797.0      -296541.0
      -306154.0      -315699.0      -325093.0      -334550.0      -343480.0
      -352536.0      -361560.0      -370197.0      -378857.0      -387248.0
      -395729.0      -403900.0      -411882.0      -419859.0      -427572.0
      -435316.0      -442737.0      -450096.0      -457240.0      -464257.0
      -471319.0      -477920.0      -484567.0      -490960.0      -497191.0
      -503476.0      -509343.0      -515184.0      -520847.0      -526263.0
      -531700.0      -537021.0      -541826.0      -546629.0      -551513.0
      -556001.0      -560507.0      -564487.0      -568601.0      -572790.0
      -576169.0      -579865.0      -583439.0      -586499.0      -589728.0
      -592712.0      -595242.0      -597974.0      -600561.0      -602724.0
      -604906.0      -606742.0      -608659.0      -610388.0      -611667.0
      -613187.0      -614199.0      -615131.0      -616259.0      -616771.0
      -617245.0      -617628.0      -617733.0      -617977.0      -617736.0
      -617146.0      -616973.0      -616329.0      -615355.0      -614606.0
      -613288.0      -611916.0      -610710.0      -608979.0      -607076.0
      -605224.0      -603062.0      -600860.0      -598409.0      -595604.0
      -593032.0      -590021.0      -586895.0      -583841.0      -580137.0
      -576612.0      -573037.0      -568995.0      -564925.0      -560744.0
      -556336.0      -551754.0      -547110.0      -542178.0      -537274.0
      -532071.0      -526494.0      -521323.0      -515607.0      -509757.0
      -504018.0      -497596.0      -491518.0      -485300.0      -478573.0
      -471954.0      -465125.0      -458138.0      -451164.0      -443883.0
      -436358.0      -429113.0      -421305.0      -413367.0      -405862.0
      -397577.0      -389375.0      -381254.0      -372622.0      -364185.0
      -355610.0      -346750.0      -337829.0      -328824.0      -319656.0
      -310505.0      -301104.0      -291513.0      -282087.0      -272349.0
      -262600.0      -252754.0      -242688.0      -232607.0      -222359.0
      -212222.0      -201839.0      -191354.0      -180835.0      -170038.0
      -159411.0      -148585.0      -137737.0      -126920.0      -115583.0
      -104409.0      -93425.00      -82126.00      -70652.00      -59224.00
      -47775.00      -36113.00      -24594.00      -12879.00      -1058.000
       10670.00       22854.00       34523.00       46329.00       58760.00
       70669.00       83009.00       95059.00       107052.0       119869.0
       131761.0       144175.0       157013.0       168841.0       181522.0
       194195.0       206391.0       219245.0       231629.0       244119.0
       256948.0       269294.0       282083.0       294733.0       307161.0
       320026.0       332568.0       345200.0       357811.0       370366.0
       383240.0       395575.0       408081.0       420946.0       433392.0
       445909.0       458285.0       470740.0       483498.0       495677.0
       508025.0       520508.0       532620.0       545099.0       557290.0
       569384.0       581597.0       593491.0       605757.0       617769.0
       629423.0       641489.0       653188.0       665006.0       676872.0
       688071.0       699778.0       711482.0       722619.0       733995.0
       745436.0       756439.0       767492.0       778640.0       789494.0
       800427.0       811081.0       821692.0       832435.0       842917.0
       853225.0       863324.0       873745.0       884031.0       893607.0
       903388.0       913590.0       923202.0       932300.0       941940.0
       951453.0       960417.0       969424.0       978412.0       987205.0
       995882.0       1004484.       1012609.       1021059.       1029454.
       1036922.       1044873.       1052820.       1060210.       1067536.
       1074740.       1082030.       1088847.       1095510.       1102372.
       1108633.       1114817.       1121230.       1127032.       1132759.
       1138576.       1143840.       1149170.       1154328.       1159246.
       1164015.       1168400.       1173143.       1177297.       1181043.
       1185267.       1188807.       1192167.       1195768.       1198835.
       1201656.       1204518.       1207143.       1209527.       1211638.
       1213623.       1215742.       1217269.       1218485.       1219986.
       1221053.       1221866.       1222459.       1222994.       1223516.
       1223248.       1223175.       1223191.       1222360.       1221634.
       1220874.       1219678.       1218477.       1216811.       1214988.
       1213368.       1211098.       1208529.       1206154.       1203573.
       1200558.       1197201.       1193951.       1190470.       1186609.
       1182743.       1178577.       1174010.       1169539.       1165008.
       1159801.       1154714.       1149325.       1143407.       1138157.
       1132297.       1125595.       1119306.       1113309.       1106277.
       1098703.       1092427.       1085222.       1076869.       1069519.
       1062019.       1053870.       1045291.       1036734.       1028639.
       1019938.       1010414.       1001370.       992594.0       982774.0
       972664.0       963231.0       953723.0       943036.0       932254.0
       922559.0       912023.0       900452.0       889531.0       878852.0
       867690.0       855784.0       843990.0       832887.0       820885.0
       808413.0       796376.0       784127.0       771822.0       758977.0
       746022.0       733493.0       720455.0       707136.0       693867.0
       680536.0       667014.0       653146.0       639378.0       625722.0
       611621.0       597222.0       583040.0       568907.0       554366.0
       539430.0       524847.0       510471.0       495210.0       480002.0
       465363.0       450163.0       434655.0       419309.0       404036.0
       388490.0       372679.0       357116.0       341377.0       325507.0
       309567.0       293471.0       277634.0       261467.0       245196.0
       228988.0       212636.0       196350.0       179770.0       163392.0
       146902.0       130086.0       113546.0       96933.00       80195.00
       63256.00       46510.00       29820.00       12649.00      -4257.000
      -21044.00      -38108.00      -55282.00      -72404.00      -89188.00
      -106252.0      -123712.0      -140746.0      -157630.0      -174875.0
      -192172.0      -209229.0      -226307.0      -243603.0      -260719.0
      -277699.0      -294859.0      -312089.0      -329175.0      -346049.0
      -363139.0      -380283.0      -397140.0      -414064.0      -430949.0
      -447761.0      -464580.0      -481323.0      -498002.0      -514605.0
      -531209.0      -547552.0      -564021.0      -580608.0      -596605.0
      -612742.0      -629045.0      -645000.0      -660914.0      -676731.0
      -692539.0      -708247.0      -723717.0      -739202.0      -754745.0
      -769884.0      -784854.0      -800240.0      -815139.0      -829748.0
      -844701.0      -859373.0      -873751.0      -888135.0      -902603.0
      -916608.0      -930555.0      -944682.0      -958377.0      -972060.0
      -985567.0      -999212.0      -1012501.      -1025221.      -1038597.
      -1051640.      -1064141.      -1076649.      -1089321.      -1101826.
      -1113701.      -1125894.      -1137878.      -1149464.      -1161074.
      -1172621.      -1183965.      -1194713.      -1205831.      -1216842.
      -1227365.      -1237662.      -1247795.      -1258388.      -1268151.
      -1277583.      -1287360.      -1296921.      -1305966.      -1314674.
      -1324173.      -1332533.      -1340486.      -1349380.      -1357352.
      -1365145.      -1372646.      -1380183.      -1387819.      -1394618.
      -1401548.      -1408281.      -1414933.      -1421080.      -1426967.
      -1433390.      -1438798.      -1444222.      -1449762.      -1454659.
      -1459845.      -1464383.      -1468651.      -1473300.      -1477335.
      -1481017.      -1484845.      -1488407.      -1491552.      -1494525.
      -1497482.      -1500345.      -1502726.      -1504623.      -1506917.
      -1509072.      -1510145.      -1511616.      -1513280.      -1513929.
      -1514661.      -1515553.      -1515874.      -1515914.      -1515968.
      -1515725.      -1515290.      -1514859.      -1513763.      -1512652.
      -1511730.      -1510109.      -1508371.      -1506594.      -1504485.
      -1502329.      -1499796.      -1497032.      -1494304.      -1491176.
      -1487834.      -1484430.      -1480836.      -1476830.      -1472766.
      -1468831.      -1464140.      -1459353.      -1454822.      -1449868.
      -1444530.      -1438988.      -1433669.      -1428005.      -1421946.
      -1415917.      -1409590.      -1403216.      -1396625.      -1389896.
      -1382981.      -1375690.      -1368426.      -1361139.      -1353648.
      -1345724.      -1337630.      -1329767.      -1321712.      -1313092.
      -1304448.      -1296016.      -1287215.      -1277977.      -1268932.
      -1259973.      -1250313.      -1240554.      -1231110.      -1221353.
      -1211280.      -1201087.      -1190918.      -1180612.      -1170116.
      -1159486.      -1148724.      -1137833.      -1126785.      -1115791.
      -1104522.      -1093094.      -1081728.      -1070063.      -1058381.
      -1046693.      -1034764.      -1022701.      -1010629.      -998547.0
      -986165.0      -973717.0      -961347.0      -948847.0      -936209.0
      -923362.0      -910606.0      -897936.0      -884868.0      -871680.0
      -858784.0      -845707.0      -832405.0      -819152.0      -805836.0
      -792497.0      -779024.0      -765542.0      -752123.0      -738564.0
      -724800.0      -711193.0      -697749.0      -683845.0      -670024.0
      -656477.0      -642619.0      -628688.0      -614934.0      -601106.0
      -587206.0      -573360.0      -559437.0      -545534.0      -531611.0
      -517714.0      -503883.0      -489974.0      -475915.0      -462016.0
      -448344.0      -434224.0      -420268.0      -406653.0      -392649.0
      -378790.0      -365163.0      -351290.0      -337336.0      -323718.0
      -310062.0      -296279.0      -282666.0      -268887.0      -255325.0
      -241845.0      -228163.0      -214680.0      -201245.0      -187823.0
      -174325.0      -161016.0      -147822.0      -134384.0      -121136.0
      -108034.0      -94960.00      -81861.00      -68717.00      -55756.00
      -42831.00      -29971.00      -17173.00      -4329.000       8344.000
       20971.00       33580.00       46012.00       58567.00       71098.00
       83272.00       95442.00       107768.0       119932.0       131895.0
       143875.0       155800.0       167623.0       179393.0       191002.0
       202649.0       214173.0       225512.0       236932.0       248181.0
       259388.0       270413.0       281317.0       292301.0       303173.0
       313908.0       324302.0       334967.0       345493.0       355574.0
       365950.0       376082.0       386077.0       395946.0       405718.0
       415642.0       425162.0       434493.0       443982.0       453435.0
       462468.0       471376.0       480461.0       489334.0       498035.0
       506582.0       514978.0       523441.0       531799.0       539784.0
       547787.0       555723.0       563365.0       571217.0       578598.0
       585720.0       593305.0       600357.0       607137.0       614096.0
       620818.0       627371.0       633853.0       640106.0       646199.0
       652376.0       658193.0       663900.0       669592.0       674918.0
       680325.0       685587.0       690553.0       695475.0       700230.0
       704777.0       709459.0       713847.0       717673.0       721963.0
       726116.0       729658.0       733431.0       737005.0       740273.0
       743576.0       746734.0       749793.0       752632.0       755237.0
       757883.0       760463.0       762731.0       764909.0       767122.0
       768985.0       770686.0       772615.0       774203.0       775360.0
       776859.0       778284.0       779102.0       780075.0       781095.0
       781644.0       782240.0       782815.0       783131.0       783457.0
       783456.0       783367.0       783561.0       783254.0       782715.0
       782482.0       781917.0       781020.0       780372.0       779620.0
       778421.0       777328.0       776167.0       774765.0       773366.0
       771868.0       770244.0       768362.0       766567.0       764733.0
       762470.0       760322.0       758221.0       755789.0       753216.0
       750737.0       748155.0       745347.0       742472.0       739453.0
       736533.0       733525.0       730058.0       726790.0       723603.0
       719928.0       716314.0       712867.0       709056.0       705101.0
       701385.0       697468.0       693232.0       689136.0       684959.0
       680628.0       676407.0       671888.0       667292.0       662855.0
       658088.0       653402.0       648809.0       643751.0       638656.0
       633995.0       628993.0       623570.0       618553.0       613394.0
       607998.0       602629.0       597160.0       591756.0       586210.0
       580563.0       574857.0       569195.0       563494.0       557493.0
       551666.0       545835.0       539716.0       533759.0       527745.0
       521497.0       515370.0       509132.0       502824.0       496713.0
       490219.0       483644.0       477405.0       470919.0       464370.0
       457841.0       451121.0       444621.0       438166.0       431225.0
       424366.0       417938.0       411203.0       404106.0       397422.0
       390859.0       383705.0       376607.0       369997.0       363291.0
