     0.02500000      -12345.00      -12345.00   2.447790e+09      -12345.00
   0.0005360000       1859.976      -352.0195      -12345.00      -12345.00
      -12345.00      -12345.00      -12345.00      -12345.00      -12345.00
      -12345.00      -12345.00      -12345.00      -12345.00      -12345.00
      -12345.00      -12345.00      -12345.00      -12345.00      -12345.00
      -12345.00      -12345.00      -12345.00      -12345.00      -12345.00
      -12345.00      -77.84920       166.7572       48.00000       2.000000
      -42.72450       173.0647      -12345.00       22.00000      -12345.00
      -12345.00      -12345.00      -12345.00      -12345.00      -12345.00
      -12345.00      -12345.00      -12345.00      -12345.00      -12345.00
       3928.427       182.3065       8.047512       35.33076      -12345.00
      -12345.00      -12345.00       0.000000       0.000000      -12345.00
      -12345.00      -12345.00      -12345.00      -12345.00      -12345.00
      -12345.00      -12345.00      -12345.00      -12345.00      -12345.00
      2016       318        11         8        51
        19         6    -12345    -12345     74400
    -12345    -12345    -12345    -12345    -12345
         1    -12345    -12345    -12345    -12345
    -12345    -12345    -12345    -12345    -12345
    -12345    -12345    -12345    -12345    -12345
    -12345    -12345    -12345    -12345    -12345
         1    -12345    -12345    -12345    -12345
SBA     South Island, Ne
10      -12345  -12345  
-12345  -12345  -12345  
-12345  -12345  -12345  
-12345  -12345  -12345  
-12345  -12345  -12345  
-12345  -12345  BHZ     
IU      -12345  Streckei
[...]
       663476.0       665702.0       667903.0       669966.0       672076.0
       674177.0       676242.0       678235.0       680240.0       682189.0
       684108.0       686082.0       687906.0       689779.0       691627.0
       693404.0       695204.0       696923.0       698698.0       700360.0
       702006.0       703684.0       705261.0       706853.0       708434.0
       709961.0       711419.0       712957.0       714367.0       715759.0
       717258.0       718544.0       719897.0       721259.0       722509.0
       723807.0       725058.0       726270.0       727434.0       728620.0
       729809.0       730896.0       731949.0       733053.0       734119.0
       735076.0       736090.0       737047.0       737959.0       738896.0
       739682.0       740541.0       741399.0       742092.0       742822.0
       743531.0       744202.0       744789.0       745332.0       745936.0
       746407.0       746807.0       747264.0       747615.0       747900.0
       748217.0       748393.0       748532.0       748731.0       748748.0
       748738.0       748785.0       748638.0       748469.0       748341.0
       748055.0       747712.0       747392.0       746951.0       746446.0
       745925.0       745321.0       744642.0       743868.0       743118.0
       742259.0       741274.0       740321.0       739212.0       738043.0
       736905.0       735574.0       734169.0       732817.0       731241.0
       729585.0       728012.0       726219.0       724358.0       722465.0
       720446.0       718392.0       716217.0       713967.0       711639.0
       709237.0       706733.0       704108.0       701507.0       698771.0
       695839.0       692933.0       689980.0       686834.0       683637.0
       680380.0       677015.0       673566.0       669989.0       666388.0
       662656.0       658808.0       654937.0       650916.0       646897.0
       642694.0       638351.0       634113.0       629661.0       625119.0
       620558.0       615844.0       611095.0       606256.0       601309.0
       596324.0       591249.0       586020.0       580799.0       575504.0
       570078.0       564610.0       559047.0       553427.0       547731.0
       542008.0       536153.0       530217.0       524269.0       518226.0
       512159.0       505952.0       499728.0       493459.0       487070.0
       480710.0       474248.0       467676.0       461147.0       454553.0
       447786.0       441113.0       434371.0       427452.0       420607.0
       413732.0       406752.0       399702.0       392709.0       385606.0
       378451.0       371369.0       364041.0       356855.0       349722.0
       342223.0       334895.0       327692.0       320171.0       312655.0
       305315.0       297774.0       290213.0       282726.0       275083.0
       267495.0       259879.0       252185.0       244452.0       236770.0
       229072.0       221191.0       213436.0       205675.0       197780.0
       189889.0       182028.0       174126.0       166168.0       158220.0
       150228.0       142265.0       134248.0       126235.0       118199.0
       110101.0       102076.0       93978.00       85893.00       77775.00
       69649.00       61570.00       53337.00       45266.00       37139.00
       28834.00       20738.00       12519.00       4333.000      -3828.000
      -12147.00      -20313.00      -28524.00      -36765.00      -44995.00
      -53289.00      -61500.00      -69707.00      -77963.00      -86219.00
      -94452.00      -102686.0      -110900.0      -119149.0      -127366.0
      -135490.0      -143745.0      -151966.0      -160044.0      -168255.0
      -176427.0      -184543.0      -192702.0      -200721.0      -208904.0
      -216959.0      -224944.0      -233134.0      -241062.0      -249100.0
      -257089.0      -265060.0      -273059.0      -280830.0      -288894.0
      -296768.0      -304509.0      -312475.0      -320228.0      -328010.0
      -335804.0      -343508.0      -351229.0      -358891.0      -366557.0
      -374158.0      -381753.0      -389341.0      -396829.0      -404280.0
      -411772.0      -419225.0      -426534.0      -433883.0      -441205.0
      -448444.0      -455670.0      -462842.0      -469971.0      -477033.0
      -484087.0      -491088.0      -498021.0      -504906.0      -511754.0
      -518563.0      -525271.0      -531996.0      -538651.0      -545189.0
      -551715.0      -558229.0      -564668.0      -570959.0      -577325.0
      -583607.0      -589699.0      -595921.0      -602000.0      -607951.0
      -613961.0      -619864.0      -625683.0      -631461.0      -637229.0
      -642850.0      -648405.0      -654031.0      -659482.0      -664847.0
      -670292.0      -675552.0      -680736.0      -686002.0      -691091.0
      -696122.0      -701135.0      -706115.0      -710986.0      -715712.0
      -720608.0      -725353.0      -729893.0      -734549.0      -739147.0
      -743617.0      -748063.0      -752474.0      -756802.0      -761148.0
      -765377.0      -769563.0      -773784.0      -777879.0      -781999.0
      -785985.0      -790004.0      -794060.0      -797864.0      -801829.0
      -805767.0      -809502.0      -813305.0      -817152.0      -820868.0
      -824527.0      -828291.0      -831925.0      -835520.0      -839178.0
      -842776.0      -846291.0      -849802.0      -853367.0      -856812.0
      -860239.0      -863721.0      -867101.0      -870463.0      -873876.0
      -877133.0      -880430.0      -883792.0      -886950.0      -890200.0
      -893430.0      -896578.0      -899770.0      -902833.0      -905996.0
      -909099.0      -912088.0      -915191.0      -918184.0      -921211.0
      -924143.0      -927051.0      -930076.0      -932865.0      -935759.0
      -938625.0      -941349.0      -944184.0      -946889.0      -949572.0
      -952274.0      -954913.0      -957480.0      -960033.0      -962611.0
      -965064.0      -967475.0      -969932.0      -972325.0      -974622.0
      -976916.0      -979166.0      -981390.0      -983572.0      -985622.0
      -987761.0      -989828.0      -991740.0      -993704.0      -995628.0
      -997464.0      -999216.0      -1001019.      -1002691.      -1004278.
      -1005936.      -1007401.      -1008892.      -1010307.      -1011634.
      -1012948.      -1014114.      -1015355.      -1016376.      -1017404.
      -1018450.      -1019228.      -1020161.      -1020890.      -1021456.
      -1022194.      -1022762.      -1023137.      -1023537.      -1023926.
      -1024168.      -1024289.      -1024415.      -1024531.      -1024377.
      -1024263.      -1024169.      -1023790.      -1023530.      -1023087.
      -1022483.      -1022029.      -1021356.      -1020619.      -1019809.
      -1018927.      -1018059.      -1016936.      -1015845.      -1014764.
      -1013449.      -1012135.      -1010756.      -1009284.      -1007775.
      -1006119.      -1004455.      -1002721.      -1000873.      -999037.0
      -997044.0      -994994.0      -992949.0      -990790.0      -988524.0
      -986254.0      -983949.0      -981472.0      -978993.0      -976468.0
      -973881.0      -971180.0      -968419.0      -965711.0      -962814.0
      -959910.0      -956971.0      -953945.0      -950851.0      -947713.0
      -944611.0      -941286.0      -938022.0      -934707.0      -931266.0
      -927882.0      -924369.0      -920865.0      -917261.0      -913630.0
      -910012.0      -906303.0      -902531.0      -898727.0      -894908.0
      -891007.0      -887165.0      -883144.0      -879137.0      -875189.0
      -870993.0      -866966.0      -862845.0      -858614.0      -854459.0
      -850132.0      -845913.0      -841607.0      -837210.0      -832894.0
      -828463.0      -824061.0      -819590.0      -815072.0      -810597.0
      -806047.0      -801456.0      -796878.0      -792272.0      -787584.0
      -782911.0      -778223.0      -773472.0      -768692.0      -763909.0
      -759115.0      -754230.0      -749379.0      -744519.0      -739549.0
      -734655.0      -729700.0      -724624.0      -719675.0      -714676.0
      -709569.0      -704498.0      -699380.0      -694287.0      -689111.0
      -683929.0      -678803.0      -673525.0      -668300.0      -663072.0
      -657771.0      -652445.0      -647086.0      -641770.0      -636340.0
      -630926.0      -625492.0      -619980.0      -614501.0      -608910.0
      -603320.0      -597739.0      -592084.0      -586387.0      -580692.0
      -574929.0      -569089.0      -563312.0      -557401.0      -551500.0
      -545563.0      -539510.0      -533573.0      -527464.0      -521337.0
      -515201.0      -508980.0      -502813.0      -496511.0      -490228.0
      -483896.0      -477491.0      -471099.0      -464644.0      -458179.0
      -451637.0      -445088.0      -438527.0      -431925.0      -425255.0
      -418569.0      -411914.0      -405140.0      -398382.0      -391606.0
      -384807.0      -377978.0      -371055.0      -364224.0      -357301.0
      -350350.0      -343431.0      -336417.0      -329469.0      -322472.0
      -315426.0      -308393.0      -301337.0      -294266.0      -287180.0
      -280101.0      -272987.0      -265879.0      -258751.0      -251615.0
      -244486.0      -237357.0      -230211.0      -223041.0      -215922.0
      -208739.0      -201578.0      -194449.0      -187220.0      -180069.0
      -172901.0      -165694.0      -158548.0      -151318.0      -144123.0
      -136969.0      -129728.0      -122550.0      -115354.0      -108122.0
      -100959.0      -93720.00      -86498.00      -79326.00      -72055.00
      -64862.00      -57666.00      -50414.00      -43246.00      -36010.00
      -28786.00      -21594.00      -14363.00      -7174.000       55.00000
       7267.000       14466.00       21711.00       28913.00       36124.00
       43347.00       50555.00       57769.00       64971.00       72193.00
       79422.00       86630.00       93857.00       101070.0       108286.0
       115531.0       122728.0       129980.0       137211.0       144407.0
       151680.0       158876.0       166110.0       173343.0       180547.0
       187802.0       195010.0       202265.0       209490.0       216720.0
       223967.0       231183.0       238433.0       245663.0       252917.0
       260141.0       267409.0       274647.0       281872.0       289174.0
       296352.0       303651.0       310929.0       318152.0       325493.0
       332723.0       340025.0       347325.0       354604.0       361932.0
       369215.0       376539.0       383847.0       391184.0       398515.0
       405858.0       413186.0       420524.0       427910.0       435234.0
       442638.0       449989.0       457354.0       464759.0       472092.0
       479509.0       486873.0       494257.0       501650.0       509031.0
       516442.0       523791.0       531202.0       538566.0       545925.0
       553325.0       560679.0       568032.0       575361.0       582729.0
       590039.0       597351.0       604642.0       611886.0       619198.0
       626386.0       633604.0       640816.0       647938.0       655110.0
       662197.0       669285.0       676336.0       683342.0       690345.0
       697268.0       704167.0       711027.0       717877.0       724635.0
       731351.0       738082.0       744684.0       751258.0       757802.0
       764272.0       770672.0       777042.0       783370.0       789580.0
       795791.0       801893.0       807949.0       813967.0       819851.0
       825755.0       831547.0       837276.0       842925.0       848511.0
       854068.0       859459.0       864875.0       870186.0       875403.0
       880607.0       885655.0       890674.0       895635.0       900479.0
       905260.0       909993.0       914648.0       919209.0       923702.0
       928117.0       932479.0       936756.0       940954.0       945070.0
       949137.0       953140.0       957017.0       960873.0       964620.0
       968298.0       971939.0       975452.0       978952.0       982330.0
       985626.0       988898.0       992047.0       995147.0       998181.0
       1001124.       1004011.       1006806.       1009499.       1012161.
       1014718.       1017202.       1019682.       1022008.       1024266.
       1026515.       1028640.       1030698.       1032701.       1034628.
       1036498.       1038281.       1039997.       1041659.       1043232.
       1044730.       1046186.       1047572.       1048878.       1050108.
       1051268.       1052376.       1053391.       1054360.       1055231.
       1056045.       1056819.       1057444.       1058069.       1058595.
       1059023.       1059415.       1059702.       1059968.       1060090.
       1060159.       1060202.       1060100.       1059937.       1059733.
       1059469.       1059033.       1058586.       1058106.       1057461.
       1056807.       1056046.       1055228.       1054319.       1053339.
       1052331.       1051169.       1050009.       1048705.       1047373.
       1046033.       1044485.       1042959.       1041346.       1039641.
       1037891.       1036057.       1034217.       1032199.       1030171.
       1028119.       1025899.       1023714.       1021415.       1019026.
       1016609.       1014114.       1011592.       1008943.       1006240.
       1003503.       1000690.       997805.0       994865.0       991875.0
       988801.0       985664.0       982456.0       979280.0       975953.0
       972503.0       969207.0       965708.0       962107.0       958632.0
       954960.0       951228.0       947528.0       943731.0       939925.0
       936006.0       932052.0       928105.0       924026.0       919949.0
       915797.0       911588.0       907365.0       903043.0       898740.0
       894320.0       889839.0       885375.0       880769.0       876189.0
       871558.0       866812.0       862078.0       857240.0       852357.0
       847484.0       842489.0       837464.0       832411.0       827248.0
       822151.0       816918.0       811575.0       806322.0       800919.0
       795524.0       790078.0       784554.0       779052.0       773377.0
       767760.0       762112.0       756332.0       750589.0       744768.0
       738913.0       733027.0       727127.0       721110.0       715069.0
       709104.0       702960.0       696842.0       690734.0       684530.0
       678301.0       672020.0       665788.0       659494.0       653119.0
       646750.0       640405.0       633968.0       627473.0       621099.0
       614553.0       607989.0       601560.0       594965.0       588346.0
       581777.0       575159.0       568471.0       561830.0       555204.0
       548479.0       541749.0       535018.0       528314.0       521553.0
       514742.0       507982.0       501219.0       494405.0       487545.0
       480777.0       473957.0       467086.0       460274.0       453439.0
       446656.0       439812.0       432936.0       426136.0       419321.0
       412479.0       405683.0       398877.0       392090.0       385313.0
       378443.0       371776.0       365011.0       358133.0       351517.0
       344766.0       338054.0       331383.0       324645.0       318031.0
       311333.0       304743.0       298127.0       291505.0       285004.0
       278377.0       271866.0       265384.0       258872.0       252388.0
       245965.0       239572.0       233112.0       226767.0       220401.0
       214075.0       207761.0       201451.0       195214.0       188957.0
       182800.0       176536.0       170359.0       164297.0       158129.0
       152049.0       145950.0       139927.0       133906.0       127905.0
       121985.0       115975.0       110102.0       104218.0       98364.00
       92565.00       86727.00       80993.00       75224.00       69542.00
       63863.00       58196.00       52590.00       46953.00       41453.00
       35884.00       30363.00       24926.00       19451.00       14052.00
       8605.000       3272.000      -2020.000      -7407.000      -12689.00
      -17942.00      -23180.00      -28361.00      -33572.00      -38737.00
      -43846.00      -48965.00      -54039.00      -59104.00      -64127.00
      -69110.00      -74143.00      -79066.00      -83980.00      -88919.00
      -93759.00      -98653.00      -103468.0      -108223.0      -113046.0
      -117764.0      -122474.0      -127216.0      -131846.0      -136478.0
      -141119.0      -145704.0      -150285.0      -154816.0      -159329.0
      -163824.0      -168281.0      -172753.0      -177132.0      -181508.0
      -185894.0      -190189.0      -194520.0      -198813.0      -203030.0
      -207256.0      -211480.0      -215639.0      -219772.0      -223905.0
      -227969.0      -232041.0      -236052.0      -240046.0      -244032.0
      -247959.0      -251876.0      -255725.0      -259658.0      -263448.0
      -267220.0      -271074.0      -274710.0      -278504.0      -282183.0
      -285779.0      -289503.0      -293033.0      -296622.0      -300174.0
      -303677.0      -307177.0      -310604.0      -314067.0      -317472.0
      -320838.0      -324204.0      -327542.0      -330780.0      -334076.0
      -337358.0      -340515.0      -343771.0      -346902.0      -350061.0
      -353232.0      -356240.0      -359425.0      -362442.0      -365418.0
      -368543.0      -371473.0      -374460.0      -377447.0      -380338.0
      -383286.0      -386173.0      -389018.0      -391910.0      -394724.0
      -397500.0      -400355.0      -403103.0      -405805.0      -408581.0
      -411257.0      -413897.0      -416588.0      -419215.0      -421788.0
      -424391.0      -426914.0      -429434.0      -432009.0      -434422.0
      -436871.0      -439367.0      -441730.0      -444140.0      -446498.0
      -448832.0      -451230.0      -453431.0      -455714.0      -458127.0
      -460244.0      -462484.0      -464787.0      -466898.0      -469144.0
      -471293.0      -473413.0      -475579.0      -477695.0      -479817.0
      -481903.0      -484002.0      -486044.0      -488124.0      -490175.0
      -492175.0      -494233.0      -496253.0      -498246.0      -500262.0
      -502299.0      -504216.0      -506199.0      -508218.0      -510115.0
