     0.02500000      -12345.00      -12345.00   2.447790e+09      -12345.00
   0.0005340000       1859.976      -426.0195      -12345.00      -12345.00
      -12345.00      -12345.00      -12345.00      -12345.00      -12345.00
      -12345.00      -12345.00      -12345.00      -12345.00      -12345.00
      -12345.00      -12345.00      -12345.00      -12345.00      -12345.00
      -12345.00      -12345.00      -12345.00      -12345.00      -12345.00
      -12345.00       1.354900       172.9229       18.00000       2.000000
      -42.72450       173.0647      -12345.00       22.00000      -12345.00
      -12345.00      -12345.00      -12345.00      -12345.00      -12345.00
      -12345.00      -12345.00      -12345.00      -12345.00      -12345.00
       4878.878       359.7955       179.8492       43.87875      -12345.00
      -12345.00      -12345.00       0.000000       90.00000      -12345.00
      -12345.00      -12345.00      -12345.00      -12345.00      -12345.00
      -12345.00      -12345.00      -12345.00      -12345.00      -12345.00
      2016       318        11        10         5
        19         6    -12345    -12345     74400
    -12345    -12345    -12345    -12345    -12345
         1    -12345    -12345    -12345    -12345
    -12345    -12345    -12345    -12345    -12345
    -12345    -12345    -12345    -12345    -12345
    -12345    -12345    -12345    -12345    -12345
         1    -12345    -12345    -12345    -12345
TARA    South Island, Ne
00      -12345  -12345  
-12345  -12345  -12345  
-12345  -12345  -12345  
-12345  -12345  -12345  
-12345  -12345  -12345  
-12345  -12345  BH1     
IU      -12345  Streckei
[...]
      -1011748.      -1006836.      -1000422.      -990730.0      -986251.0
      -981312.0      -971808.0      -967816.0      -963094.0      -954037.0
      -949824.0      -942558.0      -934236.0      -929915.0      -921825.0
      -914855.0      -910203.0      -902260.0      -894161.0      -888172.0
      -881223.0      -874401.0      -869166.0      -861321.0      -852616.0
      -847836.0      -840590.0      -830500.0      -825285.0      -817491.0
      -810570.0      -806561.0      -797091.0      -791082.0      -784657.0
      -775166.0      -769930.0      -764200.0      -756905.0      -750962.0
      -744584.0      -735132.0      -728255.0      -723700.0      -715302.0
      -708885.0      -703830.0      -694712.0      -687252.0      -680871.0
      -673231.0      -666641.0      -658644.0      -653363.0      -648207.0
      -637890.0      -631287.0      -626057.0      -616714.0      -610381.0
      -604402.0      -595477.0      -591272.0      -584403.0      -573613.0
      -569933.0      -564025.0      -554209.0      -549616.0      -544112.0
      -535614.0      -529556.0      -521889.0      -513070.0      -508287.0
      -500958.0      -492502.0      -488008.0      -481324.0      -473921.0
      -467237.0      -459326.0      -452707.0      -445656.0      -438180.0
      -433323.0      -426766.0      -417913.0      -413677.0      -407648.0
      -398424.0      -394196.0      -387807.0      -379470.0      -375242.0
      -367092.0      -358236.0      -355265.0      -347154.0      -339222.0
      -335966.0      -327182.0      -321486.0      -316015.0      -306755.0
      -302294.0      -296202.0      -288078.0      -282444.0      -276218.0
      -269026.0      -262749.0      -255483.0      -247621.0      -242724.0
      -237115.0      -229130.0      -223624.0      -216655.0      -208273.0
      -204798.0      -197668.0      -189192.0      -185742.0      -177741.0
      -170182.0      -165838.0      -157731.0      -150390.0      -145210.0
      -137837.0      -131186.0      -126440.0      -116986.0      -109305.0
      -105053.0      -96636.00      -90556.00      -84699.00      -76161.00
      -70054.00      -62818.00      -54821.00      -49613.00      -42464.00
      -34671.00      -29580.00      -21358.00      -12745.00      -7129.000
       306.0000       7554.000       13628.00       23423.00       31287.00
       36026.00       45369.00       53135.00       59340.00       68178.00
       75761.00       83520.00       92180.00       99728.00       106453.0
       115687.0       122997.0       130054.0       139291.0       143971.0
       152999.0       162771.0       168978.0       179152.0       186588.0
       192184.0       201621.0       210495.0       216587.0       226048.0
       234253.0       239847.0       251035.0       259109.0       265694.0
       276693.0       283405.0       289722.0       299775.0       307642.0
       315822.0       326329.0       333797.0       341586.0       351667.0
       358641.0       367228.0       377991.0       384732.0       393484.0
       404672.0       411674.0       420340.0       429763.0       437869.0
       448753.0       455700.0       463255.0       475274.0       483605.0
       490391.0       499021.0       508952.0       517010.0       525868.0
       534874.0       541423.0       552256.0       560515.0       565403.0
       575378.0       584445.0       591497.0       600441.0       608619.0
       617323.0       626368.0       632719.0       641208.0       650899.0
       658466.0       667020.0       675320.0       682705.0       692530.0
       700363.0       706362.0       717006.0       723765.0       729649.0
       740674.0       746250.0       752071.0       762325.0       768669.0
       774746.0       785570.0       792008.0       796498.0       805732.0
       811988.0       820392.0       828473.0       833816.0       843520.0
       849631.0       855100.0       864168.0       869828.0       875436.0
       884867.0       891637.0       897277.0       905704.0       910877.0
       917030.0       926853.0       931613.0       937637.0       947821.0
       950943.0       956365.0       966663.0       969954.0       977387.0
       985899.0       987950.0       996352.0       1004080.       1008061.
       1014868.       1020771.       1026032.       1032767.       1039051.
       1043812.       1052624.       1057894.       1060486.       1068661.
       1072499.       1078265.       1086770.       1089815.       1095819.
       1102300.       1103791.       1109702.       1116812.       1118871.
       1125250.       1131082.       1132740.       1138341.       1144189.
       1147295.       1152905.       1157382.       1158825.       1165950.
       1171735.       1174373.       1179458.       1181562.       1185887.
       1191158.       1193028.       1198584.       1203888.       1204236.
       1208124.       1213140.       1214319.       1220037.       1224076.
       1225166.       1231053.       1233929.       1233471.       1237448.
       1242667.       1244867.       1248830.       1250922.       1252501.
       1257123.       1257359.       1259249.       1264345.       1266097.
       1267558.       1271680.       1274344.       1275338.       1277506.
       1277638.       1280764.       1284904.       1284409.       1287393.
       1290853.       1290449.       1292120.       1295513.       1296341.
       1298541.       1301402.       1300790.       1303593.       1305095.
       1304031.       1308622.       1311234.       1309726.       1311761.
       1314147.       1313581.       1316201.       1317120.       1316020.
       1319530.       1318889.       1318064.       1321834.       1321946.
       1323166.       1325439.       1323686.       1325546.       1328011.
       1326302.       1327066.       1327836.       1328219.       1329856.
       1329891.       1330188.       1332059.       1332433.       1330760.
       1332670.       1334079.       1333079.       1333410.       1332523.
       1333848.       1335252.       1333711.       1333878.       1334839.
       1333800.       1332312.       1332959.       1333058.       1331269.
       1333063.       1333886.       1330857.       1332129.       1330916.
       1329010.       1331533.       1329961.       1330289.       1329813.
       1325887.       1326787.       1326236.       1323685.       1325321.
       1326749.       1322811.       1320891.       1322425.       1320701.
       1319400.       1319331.       1317693.       1316484.       1316062.
       1313138.       1312294.       1312956.       1309471.       1308294.
       1307387.       1305879.       1306485.       1303496.       1301044.
       1301656.       1298905.       1296186.       1296401.       1294676.
       1292617.       1291163.       1288542.       1286943.       1285137.
       1281574.       1279181.       1277763.       1273925.       1270926.
       1270431.       1266664.       1263543.       1263156.       1258900.
       1254954.       1253027.       1249655.       1248302.       1245987.
       1241328.       1239632.       1236168.       1230963.       1229459.
       1226112.       1222160.       1220141.       1215131.       1211036.
       1208906.       1204012.       1200771.       1199280.       1193265.
       1190190.       1187836.       1180191.       1177913.       1175625.
       1169110.       1165429.       1161546.       1156596.       1153101.
       1148463.       1140929.       1138068.       1135646.       1127362.
       1123692.       1119159.       1111181.       1108305.       1102514.
       1095524.       1092464.       1086182.       1080896.       1076815.
       1068295.       1063011.       1058674.       1051128.       1047885.
       1042894.       1034508.       1029108.       1022878.       1015494.
       1009366.       1003903.       996948.0       990294.0       984140.0
       975607.0       968744.0       963180.0       954552.0       947966.0
       942088.0       933985.0       927891.0       919088.0       910989.0
       905110.0       895548.0       887869.0       881162.0       873173.0
       865717.0       856775.0       848680.0       841737.0       833184.0
       825256.0       817493.0       808763.0       799951.0       791134.0
       783420.0       774770.0       767142.0       758522.0       746982.0
       740390.0       732409.0       720708.0       714201.0       706155.0
       693409.0       685477.0       676756.0       665163.0       658547.0
       648239.0       636490.0       628684.0       617123.0       606764.0
       599601.0       588561.0       577961.0       569367.0       558429.0
       548631.0       538308.0       526927.0       518487.0       508724.0
       496099.0       487705.0       479834.0       466997.0       457429.0
       445960.0       433521.0       426380.0       414263.0       402784.0
       394916.0       382484.0       370043.0       361664.0       351455.0
       339122.0       329111.0       316662.0       304710.0       294940.0
       282417.0       271166.0       260992.0       249706.0       239637.0
       228398.0       214556.0       203487.0       192216.0       178644.0
       169844.0       159936.0       144541.0       133925.0       123713.0
       109506.0       98911.00       86500.00       72951.00       63405.00
       51646.00       38353.00       28226.00       16334.00       2310.000
      -8375.000      -20052.00      -31152.00      -41801.00      -55745.00
      -66680.00      -77777.00      -91800.00      -102614.0      -113474.0
      -127696.0      -139020.0      -150403.0      -165341.0      -176294.0
      -187620.0      -201492.0      -210788.0      -222822.0      -236678.0
      -247291.0      -259672.0      -271118.0      -282243.0      -294717.0
      -308435.0      -320359.0      -330987.0      -344768.0      -356303.0
      -367492.0      -380105.0      -391764.0      -404030.0      -415490.0
      -427518.0      -441424.0      -452664.0      -462769.0      -476240.0
      -487820.0      -499067.0      -512415.0      -523409.0      -535483.0
      -548497.0      -559191.0      -569541.0      -582674.0      -593749.0
      -602769.0      -616596.0      -627543.0      -637819.0      -651605.0
      -660863.0      -672903.0      -686739.0      -694933.0      -708233.0
      -721229.0      -729764.0      -743858.0      -754779.0      -764165.0
      -777952.0      -788196.0      -798777.0      -812168.0      -822962.0
      -832884.0      -844282.0      -853803.0      -864006.0      -877640.0
      -888234.0      -897993.0      -910101.0      -920137.0      -931574.0
      -943815.0      -952568.0      -963832.0      -976383.0      -984971.0
      -996248.0      -1008408.      -1016931.      -1027886.      -1039741.
      -1049425.      -1060671.      -1071628.      -1081011.      -1092796.
      -1102220.      -1111467.      -1123621.      -1132559.      -1142318.
      -1152918.      -1161460.      -1171628.      -1182215.      -1189619.
      -1199232.      -1211572.      -1219303.      -1228881.      -1240280.
      -1247321.      -1257502.      -1268205.      -1276243.      -1286847.
      -1296282.      -1305458.      -1316163.      -1325507.      -1334290.
      -1343547.      -1352984.      -1361584.      -1371277.      -1380835.
      -1388756.      -1397999.      -1406278.      -1414342.      -1424899.
      -1432150.      -1440710.      -1451852.      -1457056.      -1465325.
      -1476096.      -1482924.      -1492840.      -1502640.      -1508710.
      -1516419.      -1525975.      -1533918.      -1541754.      -1550835.
      -1558207.      -1566985.      -1576126.      -1580844.      -1590242.
      -1599907.      -1603717.      -1612782.      -1620729.      -1626214.
      -1635317.      -1641138.      -1648826.      -1658196.      -1662210.
      -1667870.      -1677373.      -1684208.      -1690170.      -1698829.
      -1704145.      -1709528.      -1717608.      -1721891.      -1728505.
      -1735985.      -1738582.      -1744819.      -1752792.      -1756700.
      -1763273.      -1770158.      -1772948.      -1779100.      -1785282.
      -1788932.      -1795247.      -1800427.      -1803870.      -1809076.
      -1814234.      -1817090.      -1821903.      -1827261.      -1829726.
      -1834199.      -1837433.      -1839851.      -1845745.      -1848608.
      -1851383.      -1856266.      -1857237.      -1859865.      -1864293.
      -1866398.      -1869593.      -1871941.      -1872889.      -1876221.
      -1879342.      -1879623.      -1882278.      -1883942.      -1883102.
      -1887090.      -1888814.      -1888285.      -1891713.      -1891770.
      -1891354.      -1893474.      -1892673.      -1894144.      -1895766.
      -1895056.      -1896456.      -1896321.      -1894764.      -1894201.
      -1894164.      -1893370.      -1892653.      -1892750.      -1890638.
      -1889763.      -1890915.      -1887616.      -1885627.      -1885965.
      -1882789.      -1880924.      -1880366.      -1877857.      -1876308.
      -1875199.      -1870465.      -1868467.      -1867642.      -1862795.
      -1861267.      -1858968.      -1854068.      -1851392.      -1847517.
      -1842947.      -1841523.      -1837671.      -1831030.      -1829504.
      -1825392.      -1819213.      -1817072.      -1811041.      -1805551.
      -1802604.      -1794951.      -1789128.      -1787996.      -1782161.
      -1775557.      -1772437.      -1764470.      -1757949.      -1755048.
      -1747705.      -1742475.      -1737507.      -1728650.      -1723099.
      -1717615.      -1710078.      -1704246.      -1697638.      -1690423.
      -1684080.      -1677287.      -1669688.      -1662904.      -1656900.
      -1648079.      -1641725.      -1635456.      -1625205.      -1619906.
      -1612458.      -1603330.      -1597707.      -1587838.      -1580704.
      -1575715.      -1565715.      -1557965.      -1551721.      -1541567.
      -1532873.      -1526765.      -1516715.      -1508669.      -1502918.
      -1491357.      -1483811.      -1477731.      -1465123.      -1457404.
      -1450262.      -1439271.      -1432076.      -1422649.      -1413321.
      -1405910.      -1394477.      -1385670.      -1377406.      -1367154.
      -1358498.      -1349777.      -1340287.      -1330138.      -1321851.
      -1311003.      -1300294.      -1293218.      -1282212.      -1273046.
      -1265017.      -1253595.      -1244595.      -1235716.      -1225348.
      -1216096.      -1206882.      -1195808.      -1185655.      -1177866.
      -1167191.      -1155492.      -1146091.      -1135788.      -1125538.
      -1114841.      -1103989.      -1095213.      -1083166.      -1070902.
      -1062692.      -1051577.      -1040374.      -1031493.      -1019590.
      -1008309.      -999174.0      -986648.0      -975616.0      -967522.0
      -954602.0      -943668.0      -934508.0      -922054.0      -912892.0
      -902566.0      -890112.0      -880416.0      -868935.0      -856248.0
      -847129.0      -837293.0      -824546.0      -814537.0      -803325.0
      -790847.0      -780856.0      -768067.0      -757267.0      -748163.0
      -735287.0      -723330.0      -713372.0      -702084.0      -689925.0
      -679758.0      -666903.0      -655041.0      -645792.0      -630979.0
      -619540.0      -611344.0      -598670.0      -587301.0      -576332.0
      -563614.0      -553326.0      -542642.0      -529200.0      -518410.0
      -508348.0      -495724.0      -484422.0      -473691.0      -461778.0
      -450882.0      -438338.0      -425511.0      -416298.0      -404329.0
      -391875.0      -382104.0      -368824.0      -356662.0      -346887.0
      -334402.0      -322276.0      -311738.0      -299556.0      -287460.0
      -277732.0      -264317.0      -251746.0      -243249.0      -229991.0
      -217722.0      -207121.0      -192920.0      -181344.0      -170599.0
      -157192.0      -146151.0      -134666.0      -120664.0      -110149.0
      -98929.00      -86253.00      -76507.00      -63837.00      -51251.00
      -40940.00      -27594.00      -16489.00      -6506.000       7507.000
       19497.00       29956.00       43758.00       55151.00       64827.00
       78790.00       90531.00       100559.0       114542.0       126304.0
       136302.0       149653.0       161286.0       171495.0       185047.0
       195935.0       205674.0       219307.0       230645.0       241493.0
       254134.0       264799.0       276081.0       287422.0       297431.0
       309881.0       321734.0       330264.0       341239.0       353413.0
       362917.0       374305.0       385751.0       395285.0       408305.0
       419191.0       427192.0       439561.0       449937.0       458513.0
       470602.0       481073.0       490586.0       502236.0       512693.0
       522393.0       533852.0       543825.0       553464.0       564465.0
       573636.0       584151.0       593899.0       602164.0       614327.0
       623956.0       630991.0       642274.0       652133.0       659837.0
       670825.0       680343.0       688076.0       698636.0       707305.0
       715133.0       727097.0       735758.0       742461.0       753514.0
       762300.0       769422.0       778381.0       786652.0       795926.0
       804781.0       811877.0       821708.0       830532.0       836612.0
       845848.0       854973.0       861136.0       869677.0       878099.0
       884616.0       894760.0       902019.0       907716.0       918481.0
       925401.0       931610.0       941294.0       947442.0       954266.0
       963277.0       969244.0       975481.0       984144.0       990464.0
       997008.0       1006260.       1012224.       1019195.       1026406.
       1030437.       1038949.       1046130.       1050327.       1058056.
       1064073.       1068787.       1076280.       1082145.       1086891.
       1094860.       1100204.       1103730.       1112358.       1117268.
       1120488.       1130017.       1134298.       1138176.       1146758.
       1149609.       1155386.       1162736.       1164023.       1170346.
       1176604.       1178141.       1185498.       1192263.       1193710.
       1199753.       1207292.       1209802.       1213962.       1218545.
