     0.05000000      -12345.00      -12345.00   3.362750e+09      -12345.00
   0.0005380000       1859.951      -681.0195      -12345.00      -12345.00
      -12345.00      -12345.00      -12345.00      -12345.00      -12345.00
      -12345.00      -12345.00      -12345.00      -12345.00      -12345.00
      -12345.00      -12345.00      -12345.00      -12345.00      -12345.00
      -12345.00      -12345.00      -12345.00      -12345.00      -12345.00
      -12345.00       24.97350       121.4971       77.10000       82.90000
      -42.72450       173.0647      -12345.00       22.00000      -12345.00
      -12345.00      -12345.00      -12345.00      -12345.00      -12345.00
      -12345.00      -12345.00      -12345.00      -12345.00      -12345.00
       9164.505       314.1752       144.3858       82.42202      -12345.00
      -12345.00      -12345.00       0.000000       0.000000      -12345.00
      -12345.00      -12345.00      -12345.00      -12345.00      -12345.00
      -12345.00      -12345.00      -12345.00      -12345.00      -12345.00
      2016       318        11        14        20
        19         6    -12345    -12345     37200
    -12345    -12345    -12345    -12345    -12345
         1    -12345    -12345    -12345    -12345
    -12345    -12345    -12345    -12345    -12345
    -12345    -12345    -12345    -12345    -12345
    -12345    -12345    -12345    -12345    -12345
         1    -12345    -12345    -12345    -12345
TATO    South Island, Ne
00      -12345  -12345  
-12345  -12345  -12345  
-12345  -12345  -12345  
-12345  -12345  -12345  
-12345  -12345  -12345  
-12345  -12345  BHZ     
IU      -12345  Geotech 
[...]
       125550.0       124402.0       123190.0       121922.0       120580.0
       119224.0       117929.0       116603.0       115208.0       113866.0
       112654.0       111450.0       110049.0       108476.0       106688.0
       104698.0       102725.0       100736.0       98703.00       96604.00
       94307.00       91831.00       89323.00       86844.00       84332.00
       81769.00       79206.00       76624.00       73977.00       71276.00
       68612.00       66065.00       63485.00       60820.00       58128.00
       55462.00       52863.00       50310.00       47824.00       45296.00
       42704.00       40041.00       37275.00       34432.00       31451.00
       28472.00       25534.00       22625.00       19732.00       16632.00
       13318.00       10002.00       6776.000       3415.000      -93.00000
      -3398.000      -6467.000      -9530.000      -12742.00      -16329.00
      -20127.00      -23633.00      -26981.00      -30526.00      -34351.00
      -38268.00      -42026.00      -45752.00      -49639.00      -53801.00
      -58147.00      -62451.00      -66779.00      -71189.00      -75597.00
      -79985.00      -84419.00      -88869.00      -93253.00      -97665.00
      -102173.0      -106809.0      -111544.0      -116164.0      -120664.0
      -125209.0      -129795.0      -134383.0      -139126.0      -144014.0
      -148837.0      -153528.0      -158106.0      -162787.0      -167676.0
      -172648.0      -177527.0      -182279.0      -187212.0      -192328.0
      -197442.0      -202362.0      -207025.0      -211830.0      -216879.0
      -221941.0      -226805.0      -231510.0      -236332.0      -241271.0
      -246235.0      -251185.0      -256066.0      -260876.0      -265781.0
      -270877.0      -275916.0      -280824.0      -285806.0      -290959.0
      -296209.0      -301437.0      -306592.0      -311795.0      -317136.0
      -322481.0      -327858.0      -333211.0      -338472.0      -343747.0
      -349026.0      -354320.0      -359567.0      -364690.0      -369679.0
      -374634.0      -379600.0      -384495.0      -389285.0      -393854.0
      -398286.0      -402642.0      -406979.0      -411578.0      -416292.0
      -420834.0      -425225.0      -429508.0      -433782.0      -438038.0
      -442134.0      -446185.0      -450430.0      -454919.0      -459387.0
      -463624.0      -467586.0      -471405.0      -475393.0      -479470.0
      -483468.0      -487470.0      -491489.0      -495495.0      -499418.0
      -503194.0      -506924.0      -510694.0      -514508.0      -518411.0
      -522254.0      -526046.0      -529985.0      -533922.0      -537621.0
      -541148.0      -544712.0      -548247.0      -551831.0      -555601.0
      -559324.0      -562854.0      -566192.0      -569404.0      -572615.0
      -575839.0      -579038.0      -582251.0      -585464.0      -588740.0
      -592098.0      -595359.0      -598478.0      -601549.0      -604732.0
      -607933.0      -610900.0      -613842.0      -617020.0      -620357.0
      -623649.0      -626676.0      -629318.0      -631662.0      -634116.0
      -636870.0      -639661.0      -642354.0      -645071.0      -647740.0
      -650258.0      -652871.0      -655473.0      -658110.0      -660959.0
      -663771.0      -666620.0      -669344.0      -671749.0      -674084.0
      -676527.0      -678979.0      -681207.0      -683358.0      -685355.0
      -687197.0      -689160.0      -691124.0      -693022.0      -694746.0
      -696387.0      -698072.0      -699722.0      -701469.0      -703279.0
      -705208.0      -707382.0      -709633.0      -711717.0      -713580.0
      -715321.0      -717074.0      -719060.0      -721182.0      -723182.0
      -725117.0      -727024.0      -729030.0      -731071.0      -732867.0
      -734454.0      -735900.0      -737513.0      -739363.0      -741119.0
      -742709.0      -744208.0      -745684.0      -747049.0      -748377.0
      -749873.0      -751418.0      -752778.0      -753961.0      -755092.0
      -756230.0      -757422.0      -758618.0      -759633.0      -760625.0
      -761740.0      -762709.0      -763559.0      -764475.0      -765411.0
      -766316.0      -767243.0      -768290.0      -769384.0      -770290.0
      -771049.0      -771745.0      -772486.0      -773476.0      -774474.0
      -775217.0      -775730.0      -776155.0      -776546.0      -776993.0
      -777675.0      -778473.0      -779017.0      -779229.0      -779527.0
      -780102.0      -780965.0      -781888.0      -782510.0      -782948.0
      -783344.0      -783791.0      -784229.0      -784613.0      -785046.0
      -785354.0      -785516.0      -785722.0      -785855.0      -785929.0
      -786042.0      -786012.0      -785903.0      -785860.0      -785887.0
      -785874.0      -785814.0      -785925.0      -786067.0      -786125.0
      -786298.0      -786453.0      -786389.0      -786317.0      -786365.0
      -786511.0      -786741.0      -786951.0      -787101.0      -787306.0
      -787537.0      -787626.0      -787736.0      -787931.0      -788221.0
      -788662.0      -788996.0      -789145.0      -789275.0      -789387.0
      -789561.0      -789963.0      -790505.0      -791084.0      -791549.0
      -791962.0      -792497.0      -792996.0      -793486.0      -794100.0
      -794817.0      -795609.0      -796467.0      -797304.0      -798105.0
      -798931.0      -799823.0      -800762.0      -801594.0      -802296.0
      -802911.0      -803543.0      -804201.0      -804788.0      -805218.0
      -805447.0      -805645.0      -805985.0      -806413.0      -806662.0
      -806789.0      -806870.0      -806830.0      -806763.0      -806757.0
      -806901.0      -807046.0      -807070.0      -807135.0      -807265.0
      -807497.0      -807938.0      -808355.0      -808599.0      -808879.0
      -809358.0      -809824.0      -810080.0      -810241.0      -810290.0
      -810326.0      -810493.0      -810695.0      -810856.0      -810875.0
      -810658.0      -810371.0      -810206.0      -810014.0      -809635.0
      -809103.0      -808424.0      -807636.0      -806935.0      -806314.0
      -805632.0      -804819.0      -803932.0      -803144.0      -802501.0
      -802014.0      -801516.0      -800784.0      -799905.0      -798996.0
      -798029.0      -796991.0      -795934.0      -794819.0      -793677.0
      -792538.0      -791137.0      -789450.0      -787770.0      -786247.0
      -784765.0      -783106.0      -781296.0      -779522.0      -777829.0
      -775983.0      -774038.0      -772221.0      -770533.0      -769079.0
      -767630.0      -765928.0      -764120.0      -762433.0      -761036.0
      -759797.0      -758468.0      -756929.0      -755252.0      -753575.0
      -751975.0      -750431.0      -748823.0      -747199.0      -745608.0
      -744080.0      -742336.0      -740171.0      -738126.0      -736375.0
      -734697.0      -732806.0      -730676.0      -728796.0      -727268.0
      -725893.0      -724396.0      -722805.0      -721215.0      -719481.0
      -717886.0      -716540.0      -715223.0      -713897.0      -712422.0
      -710785.0      -709135.0      -707570.0      -706123.0      -704584.0
      -702908.0      -701085.0      -699182.0      -697386.0      -695560.0
      -693699.0      -691868.0      -690197.0      -688734.0      -687251.0
      -685619.0      -683827.0      -682118.0      -680565.0      -679134.0
      -677848.0      -676492.0      -675053.0      -673647.0      -672303.0
      -670977.0      -669532.0      -668039.0      -666591.0      -665130.0
      -663721.0      -662354.0      -660911.0      -659266.0      -657447.0
      -655678.0      -654118.0      -652748.0      -651368.0      -649935.0
      -648483.0      -647071.0      -645815.0      -644593.0      -643234.0
      -641819.0      -640560.0      -639473.0      -638395.0      -637022.0
      -635311.0      -633569.0      -631844.0      -630169.0      -628493.0
      -626475.0      -624057.0      -621515.0      -619015.0      -616566.0
      -614227.0      -611783.0      -609132.0      -606458.0      -603757.0
      -601077.0      -598400.0      -595635.0      -592840.0      -590128.0
      -587504.0      -584900.0      -582189.0      -579323.0      -576490.0
      -573775.0      -571087.0      -568291.0      -565445.0      -562542.0
      -559399.0      -556150.0      -552880.0      -549456.0      -545777.0
      -541951.0      -538268.0      -534644.0      -530837.0      -526787.0
      -522605.0      -518415.0      -514227.0      -510114.0      -506113.0
      -502233.0      -498444.0      -494708.0      -491004.0      -487325.0
      -483792.0      -480468.0      -477168.0      -473543.0      -469735.0
      -466264.0      -463117.0      -459936.0      -456613.0      -453202.0
      -449603.0      -445791.0      -442017.0      -438245.0      -434450.0
      -430783.0      -427038.0      -423111.0      -419102.0      -415135.0
      -411304.0      -407499.0      -403605.0      -399753.0      -396030.0
      -392331.0      -388752.0      -385280.0      -381804.0      -378349.0
      -374854.0      -371229.0      -367655.0      -364212.0      -360767.0
      -357345.0      -353860.0      -350416.0      -347179.0      -343976.0
      -340727.0      -337482.0      -334312.0      -331170.0      -328105.0
      -325299.0      -322537.0      -319548.0      -316550.0      -313814.0
      -311270.0      -308854.0      -306386.0      -303664.0      -300857.0
      -298078.0      -295368.0      -292695.0      -289901.0      -287025.0
      -284025.0      -280887.0      -277857.0      -275003.0      -272138.0
      -269104.0      -265961.0      -262760.0      -259392.0      -256062.0
      -252992.0      -250050.0      -247171.0      -244280.0      -241387.0
      -238572.0      -235843.0      -233164.0      -230335.0      -227406.0
      -224608.0      -221871.0      -219127.0      -216441.0      -213715.0
      -210809.0      -207808.0      -204772.0      -201624.0      -198399.0
      -195145.0      -191930.0      -188745.0      -185580.0      -182546.0
      -179564.0      -176606.0      -173572.0      -170476.0      -167535.0
      -164633.0      -161793.0      -159027.0      -156237.0      -153567.0
      -150929.0      -148052.0      -144993.0      -141985.0      -139039.0
      -136071.0      -133038.0      -129745.0      -126301.0      -123091.0
      -119956.0      -116720.0      -113371.0      -109728.0      -106011.0
      -102421.0      -98932.00      -95589.00      -92276.00      -88962.00
      -85550.00      -82018.00      -78508.00      -74930.00      -71336.00
      -67853.00      -64485.00      -61164.00      -58005.00      -55038.00
      -51901.00      -48605.00      -45273.00      -42012.00      -39003.00
      -36028.00      -32919.00      -29740.00      -26567.00      -23472.00
      -20488.00      -17567.00      -14552.00      -11429.00      -8374.000
      -5395.000      -2373.000       820.0000       4258.000       7798.000
       11325.00       14696.00       17947.00       21357.00       24866.00
       28391.00       31889.00       35306.00       38837.00       42429.00
       45910.00       49322.00       52551.00       55549.00       58369.00
       61122.00       63907.00       66703.00       69580.00       72427.00
       75283.00       78229.00       81051.00       83935.00       86927.00
       89835.00       92845.00       95955.00       99125.00       102439.0
       105713.0       108883.0       112072.0       115406.0       118814.0
       122140.0       125307.0       128415.0       131678.0       134863.0
       137929.0       140943.0       143811.0       146572.0       149266.0
       151951.0       154456.0       156985.0       159628.0       162157.0
       164666.0       167235.0       169881.0       172484.0       175126.0
       177929.0       180695.0       183348.0       185950.0       188678.0
       191760.0       194904.0       197710.0       200129.0       202420.0
       204839.0       207425.0       210050.0       212427.0       214578.0
       216696.0       218884.0       221104.0       223237.0       225213.0
       227185.0       229216.0       231064.0       232763.0       234474.0
       236247.0       237922.0       239370.0       240763.0       242340.0
       244062.0       245588.0       246896.0       248048.0       248962.0
       249782.0       250735.0       251808.0       252777.0       253599.0
       254372.0       255245.0       256307.0       257387.0       258370.0
       259131.0       259724.0       260504.0       261450.0       262323.0
       263044.0       263677.0       264276.0       264695.0       264991.0
       265427.0       266022.0       266498.0       266707.0       266771.0
       266795.0       266878.0       267049.0       267098.0       266961.0
       266793.0       266498.0       266128.0       265720.0       265090.0
       264271.0       263389.0       262649.0       261960.0       261183.0
       260324.0       259298.0       258289.0       257309.0       256212.0
       255015.0       253789.0       252651.0       251488.0       250070.0
       248538.0       247186.0       245792.0       244179.0       242622.0
       241199.0       239751.0       238198.0       236512.0       234735.0
       232866.0       230914.0       229005.0       227132.0       225250.0
       223444.0       221683.0       219850.0       217981.0       216133.0
       214250.0       212149.0       209772.0       207348.0       204987.0
       202594.0       200177.0       197686.0       195187.0       192720.0
       190069.0       187365.0       184675.0       182007.0       179502.0
       176970.0       174312.0       171619.0       169029.0       166754.0
       164658.0       162390.0       159973.0       157604.0       155170.0
       152571.0       149928.0       147181.0       144253.0       141209.0
       138081.0       134906.0       131702.0       128518.0       125321.0
       122004.0       118687.0       115371.0       111934.0       108450.0
       105053.0       101850.0       98852.00       95989.00       93023.00
       89799.00       86490.00       83243.00       80062.00       76907.00
       73790.00       70556.00       67120.00       63691.00       60333.00
       57004.00       53617.00       50063.00       46395.00       42673.00
       38899.00       35041.00       31153.00       27405.00       23809.00
       20270.00       16643.00       12996.00       9490.000       5931.000
       2425.000      -740.0000      -3872.000      -7200.000      -10582.00
      -13909.00      -17152.00      -20439.00      -23793.00      -27113.00
      -30453.00      -33914.00      -37490.00      -41105.00      -44760.00
      -48491.00      -52294.00      -56163.00      -60138.00      -64341.00
      -68786.00      -73368.00      -77945.00      -82360.00      -86746.00
      -91197.00      -95630.00      -100029.0      -104280.0      -108416.0
      -112568.0      -116785.0      -121115.0      -125465.0      -129555.0
      -133490.0      -137499.0      -141370.0      -145100.0      -148923.0
      -152915.0      -156849.0      -160632.0      -164392.0      -168080.0
      -171709.0      -175240.0      -178735.0      -182357.0      -186150.0
      -190114.0      -193892.0      -197351.0      -200937.0      -204713.0
      -208484.0      -212227.0      -215865.0      -219545.0      -223333.0
      -226948.0      -230384.0      -233781.0      -237126.0      -240493.0
      -243847.0      -247061.0      -250150.0      -253134.0      -256063.0
      -258877.0      -261406.0      -263847.0      -266406.0      -268811.0
      -270909.0      -273021.0      -275269.0      -277413.0      -279402.0
      -281191.0      -282787.0      -284534.0      -286411.0      -288280.0
      -290083.0      -291663.0      -293251.0      -294855.0      -296439.0
      -298155.0      -299805.0      -301353.0      -302998.0      -304826.0
      -306571.0      -308056.0      -309512.0      -311130.0      -312886.0
      -314533.0      -316029.0      -317570.0      -319253.0      -320992.0
      -322581.0      -323929.0      -325149.0      -326352.0      -327516.0
      -328585.0      -329579.0      -330569.0      -331601.0      -332605.0
      -333561.0      -334589.0      -335591.0      -336386.0      -337101.0
      -337906.0      -338681.0      -339341.0      -339800.0      -340131.0
      -340601.0      -341090.0      -341377.0      -341425.0      -341402.0
      -341406.0      -341311.0      -341024.0      -340654.0      -340367.0
      -340144.0      -340065.0      -340012.0      -339718.0      -339400.0
      -339140.0      -338904.0      -338683.0      -338443.0      -338319.0
      -338173.0      -338075.0      -338010.0      -337934.0      -338004.0
      -337849.0      -337494.0      -337246.0      -336952.0      -336608.0
      -336433.0      -336204.0      -335696.0      -335198.0      -334702.0
      -334104.0      -333607.0      -333189.0      -332662.0      -332174.0
      -331860.0      -331624.0      -331346.0      -330782.0      -330032.0
      -329470.0      -329100.0      -328721.0      -328412.0      -328096.0
      -327573.0      -327146.0      -326828.0      -326471.0      -326085.0
      -325594.0      -325199.0      -324910.0      -324608.0      -324303.0
      -323984.0      -323697.0      -323404.0      -323128.0      -322952.0
      -322950.0      -323178.0      -323397.0      -323442.0      -323490.0
      -323519.0      -323571.0      -323786.0      -324038.0      -324297.0
      -324653.0      -325234.0      -326009.0      -326815.0      -327601.0
      -328487.0      -329641.0      -330924.0      -332223.0      -333532.0
      -334882.0      -336363.0      -337840.0      -339420.0      -341119.0
      -342698.0      -344246.0      -345850.0      -347530.0      -349165.0
      -350587.0      -351922.0      -353308.0      -354805.0      -356427.0
      -358038.0      -359744.0      -361659.0      -363441.0      -365061.0
      -366799.0      -368737.0      -370736.0      -372636.0      -374536.0
      -376600.0      -378708.0      -380720.0      -382719.0      -384792.0
      -386946.0      -389187.0      -391512.0      -393887.0      -396282.0
      -398491.0      -400536.0      -402621.0      -404728.0      -406813.0
