     0.02500000      -12345.00      -12345.00   3.355610e+10      -12345.00
   0.0005380000       1859.976      -681.0195      -12345.00      -12345.00
      -12345.00      -12345.00      -12345.00      -12345.00      -12345.00
      -12345.00      -12345.00      -12345.00      -12345.00      -12345.00
      -12345.00      -12345.00      -12345.00      -12345.00      -12345.00
      -12345.00      -12345.00      -12345.00      -12345.00      -12345.00
      -12345.00       24.97350       121.4971       159.7000      0.3000000
      -42.72450       173.0647      -12345.00       22.00000      -12345.00
      -12345.00      -12345.00      -12345.00      -12345.00      -12345.00
      -12345.00      -12345.00      -12345.00      -12345.00      -12345.00
       9164.505       314.1752       144.3858       82.42202      -12345.00
      -12345.00      -12345.00       90.00000       90.00000      -12345.00
      -12345.00      -12345.00      -12345.00      -12345.00      -12345.00
      -12345.00      -12345.00      -12345.00      -12345.00      -12345.00
      2016       318        11        14        20
        19         6    -12345    -12345     74400
    -12345    -12345    -12345    -12345    -12345
         1    -12345    -12345    -12345    -12345
    -12345    -12345    -12345    -12345    -12345
    -12345    -12345    -12345    -12345    -12345
    -12345    -12345    -12345    -12345    -12345
         1    -12345    -12345    -12345    -12345
TATO    South Island, Ne
10      -12345  -12345  
-12345  -12345  -12345  
-12345  -12345  -12345  
-12345  -12345  -12345  
-12345  -12345  -12345  
-12345  -12345  BH2     
IU      -12345  Streckei
[...]
      -4963372.      -4983901.      -5013580.      -5030765.      -5056446.
      -5082566.      -5100847.      -5131147.      -5154975.      -5169995.
      -5191987.      -5214748.      -5235746.      -5254585.      -5273058.
      -5300542.      -5321444.      -5336981.      -5363883.      -5379586.
      -5399722.      -5429426.      -5439335.      -5456035.      -5483425.
      -5495220.      -5507499.      -5534901.      -5552821.      -5566994.
      -5596200.      -5618937.      -5629919.      -5650350.      -5675881.
      -5690903.      -5711741.      -5730381.      -5747393.      -5767857.
      -5779992.      -5799881.      -5821698.      -5838409.      -5850735.
      -5872940.      -5899150.      -5916316.      -5937674.      -5950656.
      -5967633.      -5991334.      -6010203.      -6026827.      -6042856.
      -6067527.      -6079833.      -6093274.      -6113831.      -6126858.
      -6149638.      -6168019.      -6184587.      -6205941.      -6223842.
      -6230000.      -6239113.      -6260644.      -6271529.      -6292686.
      -6306836.      -6311681.      -6339498.      -6355732.      -6366967.
      -6385201.      -6396409.      -6412701.      -6424517.      -6437877.
      -6456262.      -6463178.      -6477183.      -6492609.      -6498934.
      -6510645.      -6523789.      -6539062.      -6547636.      -6552646.
      -6567862.      -6579340.      -6587531.      -6599354.      -6609215.
      -6622442.      -6634884.      -6631230.      -6635522.      -6653580.
      -6660057.      -6667793.      -6682820.      -6696119.      -6707080.
      -6710877.      -6712916.      -6720212.      -6727602.      -6737022.
      -6742812.      -6745911.      -6755803.      -6769054.      -6778325.
      -6776334.      -6787346.      -6800137.      -6795389.      -6798125.
      -6803690.      -6808848.      -6817420.      -6823489.      -6824565.
      -6833587.      -6844704.      -6843999.      -6847423.      -6851722.
      -6859940.      -6867386.      -6861185.      -6860996.      -6872412.
      -6879161.      -6880668.      -6883970.      -6883060.      -6885507.
      -6890236.      -6896622.      -6909303.      -6905847.      -6893961.
      -6894441.      -6899553.      -6902588.      -6903840.      -6901965.
      -6896185.      -6889191.      -6887888.      -6896815.      -6905742.
      -6902092.      -6886807.      -6878211.      -6883302.      -6883444.
      -6879773.      -6879841.      -6871688.      -6861109.      -6862888.
      -6870375.      -6872407.      -6858704.      -6836859.      -6832415.
      -6834822.      -6832326.      -6838930.      -6836547.      -6817677.
      -6810300.      -6808950.      -6805553.      -6805334.      -6796284.
      -6779980.      -6766177.      -6762066.      -6765609.      -6766231.
      -6755722.      -6737821.      -6726975.      -6718372.      -6718321.
      -6725334.      -6714498.      -6692838.      -6682924.      -6681071.
      -6673387.      -6669771.      -6660710.      -6644629.      -6640514.
      -6628325.      -6619336.      -6619692.      -6604586.      -6593581.
      -6585150.      -6575286.      -6574417.      -6565961.      -6553473.
      -6535900.      -6519699.      -6514354.      -6503678.      -6495138.
      -6481334.      -6463715.      -6458189.      -6448824.      -6439721.
      -6432485.      -6416467.      -6396295.      -6380108.      -6370556.
      -6357652.      -6339078.      -6321039.      -6304697.      -6290893.
      -6284119.      -6277866.      -6257382.      -6235688.      -6225203.
      -6207731.      -6185987.      -6167813.      -6147179.      -6133860.
      -6116628.      -6092605.      -6078436.      -6057918.      -6029535.
      -6013552.      -5998181.      -5969982.      -5956245.      -5946963.
      -5915404.      -5901104.      -5888623.      -5850473.      -5836858.
      -5826937.      -5792985.      -5775667.      -5758945.      -5732088.
      -5717755.      -5704071.      -5685891.      -5662330.      -5641227.
      -5623384.      -5599818.      -5584118.      -5560910.      -5526631.
      -5512475.      -5507598.      -5479408.      -5451443.      -5445009.
      -5416805.      -5388514.      -5383108.      -5353510.      -5321149.
      -5310775.      -5291189.      -5254540.      -5231291.      -5221974.
      -5190433.      -5152575.      -5134082.      -5110331.      -5082853.
      -5068287.      -5044839.      -5008989.      -4983465.      -4964268.
      -4926840.      -4895868.      -4880123.      -4841765.      -4809600.
      -4789947.      -4756395.      -4726544.      -4705149.      -4678639.
      -4643958.      -4616855.      -4590867.      -4555131.      -4525084.
      -4499831.      -4467048.      -4436028.      -4415605.      -4385910.
      -4353705.      -4337085.      -4300207.      -4260897.      -4242039.
      -4206666.      -4178037.      -4148980.      -4115466.      -4091481.
      -4057701.      -4034323.      -4004537.      -3971406.      -3947120.
      -3914404.      -3886418.      -3860158.      -3830052.      -3797559.
      -3768907.      -3741465.      -3711305.      -3679898.      -3643649.
      -3611004.      -3578821.      -3549376.      -3517027.      -3479111.
      -3454462.      -3420175.      -3380796.      -3358309.      -3323383.
      -3283043.      -3252017.      -3212626.      -3171617.      -3142522.
      -3115876.      -3079653.      -3041973.      -3005193.      -2964543.
      -2932777.      -2903464.      -2861435.      -2820884.      -2785900.
      -2749773.      -2709816.      -2670081.      -2635237.      -2591180.
      -2555488.      -2525136.      -2480957.      -2444167.      -2400318.
      -2357985.      -2329096.      -2288830.      -2249556.      -2213087.
      -2169980.      -2135668.      -2097017.      -2048907.      -2014327.
      -1970283.      -1930072.      -1899928.      -1853455.      -1812888.
      -1768966.      -1721770.      -1683367.      -1644465.      -1606010.
      -1561753.      -1519823.      -1485511.      -1447169.      -1405734.
      -1360354.      -1316000.      -1279216.      -1239512.      -1195275.
      -1149676.      -1105903.      -1064635.      -1026749.      -991133.0
      -950443.0      -903176.0      -856822.0      -821585.0      -776565.0
      -730562.0      -690732.0      -635084.0      -602789.0      -570305.0
      -514948.0      -480217.0      -437708.0      -391691.0      -357386.0
      -314669.0      -271833.0      -225788.0      -192466.0      -157879.0
      -100243.0      -58759.00      -26312.00       16940.00       63098.00
       106937.0       139436.0       181099.0       233079.0       269511.0
       308170.0       363063.0       400237.0       430080.0       480851.0
       517136.0       545925.0       591575.0       638670.0       681215.0
       717848.0       765440.0       814144.0       850370.0       893354.0
       934675.0       967089.0       1004098.       1051549.       1089902.
       1120182.       1166676.       1207173.       1234814.       1277828.
       1328913.       1359483.       1395491.       1444064.       1466445.
       1510139.       1562313.       1578792.       1620071.       1665884.
       1692606.       1732847.       1765099.       1795577.       1846684.
       1888334.       1914440.       1954097.       2001032.       2037287.
       2068575.       2106138.       2136766.       2179532.       2222840.
       2236452.       2292556.       2339403.       2349945.       2411722.
       2448200.       2463631.       2525484.       2557960.       2573771.
       2629362.       2665300.       2695228.       2740601.       2758520.
       2803996.       2855008.       2863374.       2897606.       2951028.
       2974407.       2995716.       3050370.       3083318.       3098238.
       3155511.       3181185.       3197935.       3252739.       3264214.
       3290579.       3336758.       3350017.       3386551.       3418759.
       3442934.       3477685.       3513443.       3547541.       3561067.
       3592437.       3624000.       3644281.       3678817.       3699683.
       3729195.       3761924.       3785590.       3817071.       3841592.
       3876750.       3908564.       3925933.       3961371.       3989530.
       4007133.       4039202.       4068559.       4091784.       4119315.
       4144576.       4160655.       4185288.       4218657.       4241383.
       4266030.       4303043.       4330117.       4353012.       4382478.
       4399756.       4419875.       4446870.       4473384.       4495904.
       4511724.       4537903.       4571245.       4590958.       4606146.
       4637720.       4663828.       4677595.       4701269.       4739027.
       4758745.       4768847.       4805368.       4828950.       4842428.
       4872247.       4890712.       4905946.       4935751.       4963913.
       4981587.       5008010.       5042576.       5054003.       5072175.
       5107793.       5120078.       5139389.       5163995.       5184552.
       5217581.       5229892.       5251584.       5279083.       5292345.
       5324357.       5338491.       5358648.       5389026.       5400104.
       5431133.       5447247.       5461896.       5498307.       5510613.
       5532177.       5557971.       5568069.       5598778.       5622924.
       5632006.       5657533.       5686149.       5701690.       5716317.
       5739784.       5765315.       5782277.       5798109.       5820629.
       5841456.       5875960.       5895066.       5898556.       5932483.
       5950265.       5969219.       5997369.       5999655.       6031374.
       6059192.       6070296.       6093353.       6107202.       6138077.
       6153982.       6166811.       6200132.       6208667.       6226040.
       6254529.       6272114.       6293711.       6312161.       6326493.
       6343465.       6367198.       6392891.       6401318.       6424005.
       6457769.       6462309.       6480829.       6507904.       6524000.
       6543912.       6565666.       6584232.       6595695.       6625240.
       6645887.       6655593.       6677571.       6695703.       6717779.
       6733628.       6756303.       6780432.       6796056.       6822694.
       6835407.       6853295.       6881986.       6899694.       6920828.
       6934941.       6953359.       6975374.       6990129.       7010859.
       7033833.       7063273.       7081278.       7095351.       7126817.
       7139079.       7152825.       7185417.       7198294.       7218968.
       7241625.       7247316.       7271127.       7296542.       7309474.
       7325118.       7350397.       7370618.       7383412.       7402173.
       7419837.       7443691.       7457256.       7468299.       7495890.
       7509452.       7522986.       7550003.       7564832.       7574374.
       7594695.       7617407.       7630052.       7642573.       7669268.
       7680182.       7687498.       7716412.       7729193.       7740867.
       7765401.       7776386.       7791275.       7809599.       7814971.
       7838704.       7859990.       7864081.       7887005.       7906391.
       7919806.       7937093.       7956129.       7977279.       7992654.
       8010216.       8023440.       8037876.       8056326.       8064867.
       8077134.       8097768.       8111239.       8124052.       8140581.
       8151686.       8170591.       8190840.       8198910.       8217080.
       8232892.       8236434.       8254554.       8273431.       8287024.
       8304511.       8316680.       8333846.       8345816.       8352792.
       8370823.       8383337.       8398930.       8411751.       8419871.
       8440574.       8447653.       8454318.       8467529.       8472848.
       8489342.       8501703.       8509731.       8523672.       8535858.
       8549026.       8555042.       8564717.       8574244.       8577675.
       8595888.       8601939.       8606223.       8631955.       8636761.
       8643102.       8660128.       8662178.       8675532.       8686504.
       8686625.       8696021.       8707307.       8710634.       8715399.
       8732304.       8737306.       8742590.       8758396.       8758630.
       8767286.       8776069.       8772889.       8780194.       8786605.
       8790925.       8804144.       8817083.       8813677.       8818499.
       8831485.       8824853.       8832558.       8856772.       8851299.
       8847026.       8872765.       8868070.       8859265.       8872287.
       8869511.       8875108.       8878688.       8882357.       8890090.
       8891749.       8896789.       8891241.       8896641.       8900153.
       8890690.       8894062.       8898393.       8905169.       8905364.
       8904884.       8913958.       8903054.       8902398.       8908924.
       8890840.       8896745.       8905078.       8888469.       8890155.
       8893489.       8881619.       8880122.       8877322.       8868961.
       8869707.       8862218.       8854989.       8855335.       8848917.
       8845457.       8841158.       8833739.       8833019.       8828131.
       8818738.       8814803.       8812628.       8810861.       8808681.
       8806802.       8802453.       8796223.       8793766.       8786040.
       8780834.       8780308.       8771800.       8763939.       8759151.
       8759431.       8755474.       8748803.       8749494.       8738323.
       8727787.       8722437.       8716478.       8705306.       8695235.
       8699335.       8683958.       8679603.       8678704.       8659494.
       8665344.       8651219.       8633076.       8636461.       8620716.
       8610607.       8607558.       8598511.       8592913.       8583757.
       8570963.       8563175.       8558568.       8545376.       8525759.
       8517786.       8512343.       8501905.       8494476.       8483106.
       8474358.       8467474.       8463355.       8455236.       8438535.
       8431056.       8420771.       8411100.       8400645.       8388412.
       8384525.       8369998.       8361569.       8354613.       8337486.
       8335148.       8328152.       8316590.       8306901.       8293306.
       8284718.       8267612.       8252780.       8242267.       8232492.
       8225257.       8210810.       8201229.       8192392.       8181468.
       8164500.       8148998.       8149802.       8134282.       8108583.
       8099862.       8086214.       8068407.       8059812.       8042497.
       8026492.       8015060.       7995260.       7986644.       7969701.
       7950720.       7942496.       7922004.       7905772.       7894625.
       7880369.       7863043.       7849325.       7836514.       7820089.
       7801879.       7780514.       7774751.       7764285.       7741079.
       7732351.       7721744.       7707891.       7694042.       7674225.
       7662405.       7650550.       7631336.       7615243.       7600075.
       7582204.       7569749.       7556503.       7542919.       7531015.
       7516203.       7499027.       7484664.       7478143.       7462381.
       7445394.       7431489.       7412279.       7396068.       7386526.
       7370846.       7349299.       7343418.       7326996.       7308514.
       7301426.       7281280.       7263194.       7245192.       7221798.
       7209425.       7200214.       7176064.       7164486.       7157479.
       7133332.       7124573.       7113236.       7087990.       7073038.
       7057327.       7030963.       7010464.       7000203.       6974409.
       6949598.       6943884.       6919392.       6899878.       6893691.
       6863178.       6843049.       6834869.       6811675.       6787289.
       6770259.       6758897.       6734519.       6710252.       6700816.
       6679527.       6657640.       6642560.       6619952.       6599412.
       6586924.       6564848.       6542937.       6532647.       6505167.
       6481684.       6471538.       6446568.       6423881.       6410518.
       6389301.       6366386.       6345378.       6329619.       6316739.
       6290410.       6271107.       6256928.       6233426.       6213129.
       6196683.       6183264.       6157454.       6127756.       6123429.
       6103819.       6069125.       6064463.       6045482.       6013692.
       6002425.       5984866.       5957679.       5936275.       5925154.
       5906999.       5881120.       5867230.       5852583.       5831159.
       5812706.       5792301.       5773120.       5757570.       5733649.
       5713321.       5700375.       5679998.       5660320.       5645071.
       5635227.       5620167.       5597199.       5580447.       5562558.
       5547499.       5531977.       5513653.       5503944.       5486257.
       5461629.       5449022.       5433187.       5407714.       5395850.
       5386553.       5359608.       5340681.       5332549.       5307463.
       5287594.       5279521.       5254813.       5236495.       5223380.
       5198963.       5180319.       5159954.       5139973.       5117844.
       5097935.       5084981.       5061116.       5042954.       5018149.
       4986853.       4975586.       4957673.       4929549.       4909686.
       4890549.       4863389.       4841641.       4823179.       4802085.
       4788336.       4762872.       4738797.       4727121.       4704085.
       4680410.       4664772.       4645973.       4619492.       4597370.
       4579425.       4558115.       4538897.       4517422.       4493725.
       4476193.       4456232.       4434678.       4420800.       4401216.
       4385615.       4372466.       4345634.       4327542.       4315630.
       4296618.       4275831.       4255465.       4239419.       4225177.
       4208683.       4191422.       4174225.       4160300.       4146479.
       4126186.       4111941.       4101654.       4082676.       4062212.
       4050377.       4035125.       4013260.       4003102.       3985954.
       3964839.       3953197.       3934250.       3923286.       3918521.
       3897836.       3881746.       3873837.       3848156.       3826180.
       3812084.       3790362.       3776419.       3760952.       3744445.
       3732111.       3716046.       3701796.       3683942.       3664973.
