     0.02500000      -12345.00      -12345.00   1.974680e+09      -12345.00
   0.0005380000       1859.976      -693.0195      -12345.00      -12345.00
      -12345.00      -12345.00      -12345.00      -12345.00      -12345.00
      -12345.00      -12345.00      -12345.00      -12345.00      -12345.00
      -12345.00      -12345.00      -12345.00      -12345.00      -12345.00
      -12345.00      -12345.00      -12345.00      -12345.00      -12345.00
      -12345.00      -38.05680      -61.97870       508.0000       32.00000
      -42.72450       173.0647      -12345.00       22.00000      -12345.00
      -12345.00      -12345.00      -12345.00      -12345.00      -12345.00
      -12345.00      -12345.00      -12345.00      -12345.00      -12345.00
       9486.066       139.5221       217.2988       85.31403      -12345.00
      -12345.00      -12345.00       0.000000       0.000000      -12345.00
      -12345.00      -12345.00      -12345.00      -12345.00      -12345.00
      -12345.00      -12345.00      -12345.00      -12345.00      -12345.00
      2016       318        11        14        32
        19         6    -12345    -12345     74400
    -12345    -12345    -12345    -12345    -12345
         1    -12345    -12345    -12345    -12345
    -12345    -12345    -12345    -12345    -12345
    -12345    -12345    -12345    -12345    -12345
    -12345    -12345    -12345    -12345    -12345
         1    -12345    -12345    -12345    -12345
TRQA    South Island, Ne
10      -12345  -12345  
-12345  -12345  -12345  
-12345  -12345  -12345  
-12345  -12345  -12345  
-12345  -12345  -12345  
-12345  -12345  BHZ     
IU      -12345  T120 pos
[...]
      -26752.00      -27217.00      -27689.00      -28162.00      -28628.00
      -29093.00      -29566.00      -30031.00      -30486.00      -30950.00
      -31413.00      -31865.00      -32324.00      -32776.00      -33216.00
      -33671.00      -34125.00      -34571.00      -35019.00      -35470.00
      -35920.00      -36358.00      -36796.00      -37239.00      -37691.00
      -38139.00      -38570.00      -39014.00      -39470.00      -39917.00
      -40370.00      -40829.00      -41280.00      -41724.00      -42168.00
      -42614.00      -43060.00      -43508.00      -43947.00      -44374.00
      -44801.00      -45216.00      -45624.00      -46036.00      -46436.00
      -46831.00      -47227.00      -47620.00      -48020.00      -48422.00
      -48830.00      -49252.00      -49676.00      -50104.00      -50547.00
      -51003.00      -51467.00      -51933.00      -52406.00      -52891.00
      -53367.00      -53848.00      -54333.00      -54800.00      -55266.00
      -55732.00      -56196.00      -56653.00      -57106.00      -57566.00
      -58025.00      -58494.00      -58971.00      -59446.00      -59940.00
      -60437.00      -60935.00      -61443.00      -61952.00      -62460.00
      -62960.00      -63472.00      -63983.00      -64482.00      -64989.00
      -65492.00      -66004.00      -66518.00      -67026.00      -67556.00
      -68096.00      -68638.00      -69188.00      -69747.00      -70321.00
      -70893.00      -71460.00      -72044.00      -72627.00      -73200.00
      -73772.00      -74337.00      -74908.00      -75477.00      -76043.00
      -76618.00      -77192.00      -77778.00      -78381.00      -78987.00
      -79599.00      -80221.00      -80839.00      -81457.00      -82071.00
      -82670.00      -83261.00      -83851.00      -84431.00      -84989.00
      -85536.00      -86080.00      -86614.00      -87142.00      -87665.00
      -88182.00      -88700.00      -89214.00      -89725.00      -90235.00
      -90736.00      -91237.00      -91734.00      -92219.00      -92695.00
      -93158.00      -93620.00      -94079.00      -94519.00      -94961.00
      -95402.00      -95837.00      -96281.00      -96723.00      -97177.00
      -97636.00      -98096.00      -98571.00      -99044.00      -99527.00
      -100017.0      -100500.0      -100985.0      -101467.0      -101948.0
      -102431.0      -102911.0      -103402.0      -103906.0      -104417.0
      -104945.0      -105494.0      -106057.0      -106638.0      -107240.0
      -107856.0      -108488.0      -109132.0      -109789.0      -110456.0
      -111139.0      -111840.0      -112538.0      -113256.0      -113993.0
      -114735.0      -115503.0      -116281.0      -117064.0      -117868.0
      -118681.0      -119507.0      -120332.0      -121151.0      -121986.0
      -122810.0      -123628.0      -124444.0      -125237.0      -126022.0
      -126792.0      -127531.0      -128243.0      -128927.0      -129580.0
      -130200.0      -130786.0      -131337.0      -131861.0      -132366.0
      -132846.0      -133299.0      -133725.0      -134133.0      -134528.0
      -134894.0      -135236.0      -135567.0      -135879.0      -136177.0
      -136478.0      -136781.0      -137077.0      -137379.0      -137700.0
      -138024.0      -138359.0      -138716.0      -139079.0      -139448.0
      -139824.0      -140203.0      -140584.0      -140966.0      -141352.0
      -141736.0      -142117.0      -142502.0      -142887.0      -143261.0
      -143631.0      -144000.0      -144366.0      -144733.0      -145095.0
      -145458.0      -145824.0      -146195.0      -146567.0      -146936.0
      -147317.0      -147707.0      -148088.0      -148480.0      -148880.0
      -149287.0      -149701.0      -150102.0      -150509.0      -150932.0
      -151342.0      -151743.0      -152149.0      -152552.0      -152952.0
      -153335.0      -153712.0      -154096.0      -154461.0      -154816.0
      -155172.0      -155513.0      -155847.0      -156171.0      -156484.0
      -156789.0      -157085.0      -157376.0      -157659.0      -157928.0
      -158192.0      -158452.0      -158701.0      -158949.0      -159185.0
      -159413.0      -159640.0      -159860.0      -160077.0      -160295.0
      -160518.0      -160732.0      -160950.0      -161188.0      -161411.0
      -161631.0      -161841.0      -162035.0      -162218.0      -162371.0
      -162500.0      -162587.0      -162638.0      -162661.0      -162633.0
      -162568.0      -162456.0      -162299.0      -162100.0      -161854.0
      -161577.0      -161267.0      -160929.0      -160570.0      -160195.0
      -159813.0      -159434.0      -159066.0      -158711.0      -158383.0
      -158079.0      -157806.0      -157567.0      -157358.0      -157182.0
      -157036.0      -156918.0      -156823.0      -156751.0      -156706.0
      -156682.0      -156683.0      -156704.0      -156740.0      -156801.0
      -156882.0      -156978.0      -157092.0      -157220.0      -157351.0
      -157493.0      -157647.0      -157790.0      -157923.0      -158058.0
      -158185.0      -158294.0      -158390.0      -158481.0      -158566.0
      -158639.0      -158701.0      -158769.0      -158846.0      -158918.0
      -158982.0      -159049.0      -159126.0      -159188.0      -159240.0
      -159290.0      -159323.0      -159348.0      -159358.0      -159348.0
      -159329.0      -159290.0      -159224.0      -159127.0      -159009.0
      -158877.0      -158720.0      -158527.0      -158310.0      -158072.0
      -157796.0      -157484.0      -157141.0      -156762.0      -156334.0
      -155852.0      -155323.0      -154747.0      -154134.0      -153482.0
      -152776.0      -152037.0      -151284.0      -150502.0      -149696.0
      -148884.0      -148060.0      -147225.0      -146381.0      -145532.0
      -144684.0      -143837.0      -142991.0      -142142.0      -141298.0
      -140468.0      -139646.0      -138822.0      -138007.0      -137219.0
      -136435.0      -135654.0      -134900.0      -134158.0      -133423.0
      -132713.0      -132021.0      -131342.0      -130678.0      -130029.0
      -129391.0      -128764.0      -128154.0      -127554.0      -126965.0
      -126383.0      -125801.0      -125227.0      -124659.0      -124086.0
      -123516.0      -122939.0      -122355.0      -121785.0      -121214.0
      -120641.0      -120072.0      -119501.0      -118930.0      -118354.0
      -117769.0      -117171.0      -116570.0      -115964.0      -115344.0
      -114727.0      -114097.0      -113449.0      -112805.0      -112162.0
      -111505.0      -110836.0      -110160.0      -109470.0      -108767.0
      -108065.0      -107347.0      -106607.0      -105864.0      -105103.0
      -104321.0      -103540.0      -102754.0      -101949.0      -101134.0
      -100321.0      -99498.00      -98670.00      -97845.00      -97011.00
      -96167.00      -95321.00      -94480.00      -93634.00      -92784.00
      -91940.00      -91095.00      -90249.00      -89417.00      -88589.00
      -87756.00      -86938.00      -86123.00      -85306.00      -84521.00
      -83747.00      -82968.00      -82209.00      -81464.00      -80720.00
      -79985.00      -79259.00      -78523.00      -77786.00      -77044.00
      -76280.00      -75504.00      -74714.00      -73910.00      -73091.00
      -72258.00      -71421.00      -70564.00      -69698.00      -68827.00
      -67935.00      -67038.00      -66130.00      -65203.00      -64266.00
      -63314.00      -62364.00      -61407.00      -60439.00      -59471.00
      -58510.00      -57550.00      -56596.00      -55652.00      -54698.00
      -53758.00      -52819.00      -51866.00      -50921.00      -49963.00
      -48998.00      -48031.00      -47048.00      -46058.00      -45050.00
      -44025.00      -42995.00      -41954.00      -40898.00      -39830.00
      -38758.00      -37686.00      -36619.00      -35550.00      -34476.00
      -33409.00      -32339.00      -31274.00      -30219.00      -29164.00
      -28119.00      -27078.00      -26046.00      -25032.00      -24022.00
      -23037.00      -22079.00      -21139.00      -20228.00      -19340.00
      -18476.00      -17640.00      -16824.00      -16030.00      -15251.00
      -14478.00      -13715.00      -12961.00      -12206.00      -11450.00
      -10697.00      -9940.000      -9172.000      -8398.000      -7618.000
      -6817.000      -6007.000      -5187.000      -4346.000      -3485.000
      -2604.000      -1707.000      -788.0000       146.0000       1093.000
       2068.000       3051.000       4035.000       5037.000       6051.000
       7065.000       8078.000       9096.000       10117.00       11141.00
       12152.00       13163.00       14183.00       15196.00       16210.00
       17237.00       18276.00       19323.00       20392.00       21482.00
       22575.00       23680.00       24800.00       25937.00       27085.00
       28238.00       29406.00       30570.00       31734.00       32913.00
       34083.00       35248.00       36404.00       37543.00       38670.00
       39777.00       40865.00       41937.00       42991.00       44028.00
       45038.00       46036.00       47023.00       47988.00       48943.00
       49884.00       50799.00       51700.00       52590.00       53466.00
       54327.00       55177.00       56028.00       56872.00       57711.00
       58559.00       59407.00       60263.00       61134.00       62013.00
       62900.00       63796.00       64700.00       65609.00       66526.00
       67442.00       68361.00       69294.00       70219.00       71148.00
       72091.00       73022.00       73962.00       74917.00       75874.00
       76835.00       77815.00       78810.00       79803.00       80821.00
       81858.00       82890.00       83930.00       84980.00       86034.00
       87080.00       88135.00       89190.00       90229.00       91272.00
       92314.00       93355.00       94398.00       95441.00       96492.00
       97544.00       98603.00       99683.00       100770.0       101862.0
       102966.0       104071.0       105175.0       106281.0       107397.0
       108498.0       109579.0       110670.0       111753.0       112825.0
       113900.0       114971.0       116036.0       117093.0       118149.0
       119198.0       120244.0       121292.0       122323.0       123339.0
       124347.0       125357.0       126352.0       127323.0       128292.0
       129243.0       130180.0       131111.0       132022.0       132918.0
       133795.0       134659.0       135509.0       136335.0       137153.0
       137959.0       138744.0       139518.0       140285.0       141034.0
       141776.0       142510.0       143221.0       143924.0       144627.0
       145311.0       145984.0       146650.0       147307.0       147962.0
       148610.0       149256.0       149894.0       150529.0       151160.0
       151775.0       152400.0       153028.0       153649.0       154276.0
       154914.0       155553.0       156189.0       156840.0       157495.0
       158141.0       158786.0       159437.0       160089.0       160727.0
       161365.0       162005.0       162624.0       163239.0       163856.0
       164458.0       165055.0       165649.0       166239.0       166813.0
       167381.0       167956.0       168512.0       169066.0       169622.0
       170156.0       170683.0       171203.0       171721.0       172220.0
       172705.0       173191.0       173665.0       174128.0       174581.0
       175034.0       175469.0       175889.0       176322.0       176728.0
       177125.0       177519.0       177891.0       178256.0       178618.0
       178974.0       179313.0       179637.0       179958.0       180276.0
       180589.0       180883.0       181171.0       181463.0       181745.0
       182033.0       182317.0       182579.0       182851.0       183118.0
       183370.0       183618.0       183854.0       184086.0       184313.0
       184521.0       184720.0       184921.0       185118.0       185302.0
       185480.0       185668.0       185856.0       186037.0       186212.0
       186375.0       186534.0       186691.0       186845.0       186985.0
       187119.0       187257.0       187393.0       187523.0       187644.0
       187771.0       187905.0       188042.0       188181.0       188324.0
       188473.0       188622.0       188768.0       188914.0       189064.0
       189205.0       189331.0       189465.0       189594.0       189705.0
       189808.0       189906.0       189995.0       190071.0       190134.0
       190198.0       190256.0       190299.0       190351.0       190406.0
       190443.0       190480.0       190523.0       190553.0       190567.0
       190575.0       190582.0       190589.0       190584.0       190564.0
       190547.0       190525.0       190488.0       190457.0       190420.0
       190372.0       190334.0       190304.0       190268.0       190233.0
       190212.0       190193.0       190173.0       190153.0       190126.0
       190095.0       190057.0       190015.0       189950.0       189877.0
       189802.0       189693.0       189585.0       189467.0       189326.0
       189189.0       189031.0       188863.0       188698.0       188526.0
       188344.0       188150.0       187964.0       187782.0       187586.0
       187394.0       187207.0       187011.0       186816.0       186630.0
       186446.0       186252.0       186058.0       185875.0       185677.0
       185468.0       185255.0       185026.0       184799.0       184558.0
       184302.0       184047.0       183772.0       183499.0       183210.0
       182898.0       182594.0       182265.0       181922.0       181588.0
       181228.0       180851.0       180475.0       180084.0       179682.0
       179268.0       178849.0       178420.0       177971.0       177516.0
       177052.0       176571.0       176081.0       175579.0       175059.0
       174526.0       173989.0       173441.0       172881.0       172312.0
       171735.0       171151.0       170560.0       169971.0       169372.0
       168759.0       168157.0       167541.0       166917.0       166297.0
       165675.0       165046.0       164406.0       163772.0       163132.0
       162489.0       161857.0       161218.0       160581.0       159956.0
       159337.0       158712.0       158089.0       157481.0       156865.0
       156236.0       155618.0       155002.0       154379.0       153760.0
       153147.0       152530.0       151922.0       151324.0       150715.0
       150120.0       149537.0       148947.0       148360.0       147771.0
       147183.0       146587.0       145988.0       145389.0       144783.0
       144169.0       143540.0       142905.0       142267.0       141610.0
       140943.0       140281.0       139601.0       138901.0       138210.0
       137505.0       136795.0       136079.0       135346.0       134610.0
       133858.0       133090.0       132320.0       131534.0       130727.0
       129919.0       129108.0       128272.0       127425.0       126566.0
       125694.0       124817.0       123923.0       123024.0       122114.0
       121192.0       120270.0       119335.0       118406.0       117464.0
       116505.0       115547.0       114564.0       113578.0       112577.0
       111550.0       110524.0       109476.0       108405.0       107325.0
       106231.0       105129.0       104025.0       102914.0       101794.0
       100678.0       99558.00       98436.00       97321.00       96206.00
       95094.00       93981.00       92871.00       91775.00       90676.00
       89584.00       88500.00       87408.00       86312.00       85217.00
       84119.00       83008.00       81901.00       80797.00       79684.00
       78582.00       77468.00       76354.00       75247.00       74124.00
       73008.00       71884.00       70750.00       69624.00       68500.00
       67374.00       66251.00       65135.00       64015.00       62894.00
       61781.00       60655.00       59535.00       58420.00       57280.00
       56136.00       54995.00       53839.00       52653.00       51460.00
       50265.00       49044.00       47815.00       46588.00       45347.00
       44098.00       42848.00       41601.00       40355.00       39098.00
       37847.00       36592.00       35325.00       34058.00       32779.00
       31488.00       30189.00       28894.00       27590.00       26269.00
       24957.00       23645.00       22331.00       21023.00       19713.00
       18401.00       17086.00       15775.00       14456.00       13130.00
       11812.00       10486.00       9153.000       7822.000       6481.000
       5136.000       3795.000       2445.000       1092.000      -252.0000
      -1596.000      -2935.000      -4266.000      -5596.000      -6916.000
      -8230.000      -9535.000      -10840.00      -12147.00      -13441.00
      -14743.00      -16051.00      -17353.00      -18661.00      -19965.00
      -21277.00      -22587.00      -23894.00      -25207.00      -26492.00
      -27782.00      -29077.00      -30355.00      -31644.00      -32934.00
      -34223.00      -35516.00      -36814.00      -38104.00      -39392.00
      -40700.00      -41999.00      -43284.00      -44569.00      -45850.00
      -47129.00      -48404.00      -49663.00      -50920.00      -52183.00
      -53433.00      -54677.00      -55921.00      -57175.00      -58414.00
      -59646.00      -60889.00      -62115.00      -63346.00      -64569.00
      -65790.00      -67011.00      -68218.00      -69435.00      -70639.00
      -71842.00      -73051.00      -74252.00      -75452.00      -76645.00
      -77846.00      -79050.00      -80254.00      -81462.00      -82671.00
      -83882.00      -85087.00      -86297.00      -87512.00      -88717.00
      -89923.00      -91133.00      -92332.00      -93528.00      -94728.00
      -95923.00      -97117.00      -98309.00      -99498.00      -100691.0
      -101894.0      -103089.0      -104285.0      -105484.0      -106679.0
      -107865.0      -109038.0      -110207.0      -111356.0      -112487.0
      -113606.0      -114700.0      -115779.0      -116846.0      -117890.0
      -118902.0      -119894.0      -120867.0      -121813.0      -122730.0
