     0.02500000      -12345.00      -12345.00   2.447790e+09      -12345.00
   0.0005360000       1859.976      -426.0195      -12345.00      -12345.00
      -12345.00      -12345.00      -12345.00      -12345.00      -12345.00
      -12345.00      -12345.00      -12345.00      -12345.00      -12345.00
      -12345.00      -12345.00      -12345.00      -12345.00      -12345.00
      -12345.00      -12345.00      -12345.00      -12345.00      -12345.00
      -12345.00       1.354900       172.9229       18.00000       2.000000
      -42.72450       173.0647      -12345.00       22.00000      -12345.00
      -12345.00      -12345.00      -12345.00      -12345.00      -12345.00
      -12345.00      -12345.00      -12345.00      -12345.00      -12345.00
       4878.878       359.7955       179.8492       43.87875      -12345.00
      -12345.00      -12345.00       0.000000       0.000000      -12345.00
      -12345.00      -12345.00      -12345.00      -12345.00      -12345.00
      -12345.00      -12345.00      -12345.00      -12345.00      -12345.00
      2016       318        11        10         5
        19         6    -12345    -12345     74400
    -12345    -12345    -12345    -12345    -12345
         1    -12345    -12345    -12345    -12345
    -12345    -12345    -12345    -12345    -12345
    -12345    -12345    -12345    -12345    -12345
    -12345    -12345    -12345    -12345    -12345
         1    -12345    -12345    -12345    -12345
TARA    South Island, Ne
10      -12345  -12345  
-12345  -12345  -12345  
-12345  -12345  -12345  
-12345  -12345  -12345  
-12345  -12345  -12345  
-12345  -12345  BHZ     
IU      -12345  Streckei
[...]
       697781.0       694914.0       689547.0       685776.0       681183.0
       676813.0       673082.0       668130.0       664024.0       660352.0
       654945.0       650221.0       647026.0       642051.0       636975.0
       632699.0       627653.0       623361.0       619675.0       614309.0
       608711.0       605575.0       601054.0       595837.0       592261.0
       586846.0       583296.0       579672.0       573309.0       569682.0
       564748.0       559825.0       556689.0       550075.0       545422.0
       542097.0       536449.0       532085.0       527145.0       522000.0
       518236.0       513604.0       507716.0       502732.0       498621.0
       493708.0       488922.0       483134.0       477653.0       473965.0
       469102.0       463554.0       458643.0       453617.0       448342.0
       443733.0       439265.0       433627.0       428672.0       423532.0
       417170.0       413177.0       408410.0       402000.0       397522.0
       392240.0       386626.0       381564.0       375743.0       371436.0
       366153.0       359124.0       355898.0       351028.0       343538.0
       339457.0       334225.0       328118.0       323684.0       318356.0
       312690.0       308452.0       303208.0       297050.0       292606.0
       286757.0       280651.0       276217.0       270779.0       265061.0
       258933.0       252185.0       247703.0       242921.0       235483.0
       229914.0       224149.0       217192.0       213583.0       207568.0
       199850.0       195511.0       188928.0       183720.0       180047.0
       171873.0       165684.0       161820.0       154783.0       148079.0
       143652.0       137649.0       130839.0       125316.0       119385.0
       114098.0       108332.0       100557.0       96033.00       90788.00
       82720.00       78263.00       72468.00       64769.00       59603.00
       54243.00       47790.00       41824.00       35050.00       27753.00
       23324.00       17389.00       8790.000       3123.000      -2932.000
      -10442.00      -16210.00      -22799.00      -28957.00      -34638.00
      -43434.00      -49326.00      -52790.00      -60460.00      -67530.00
      -73180.00      -79694.00      -85048.00      -91403.00      -98422.00
      -103408.0      -109505.0      -117495.0      -122397.0      -126743.0
      -134170.0      -139819.0      -146216.0      -153482.0      -157508.0
      -164138.0      -170553.0      -175424.0      -183151.0      -187889.0
      -191851.0      -200025.0      -206303.0      -210073.0      -216377.0
      -222748.0      -228362.0      -234666.0      -239770.0      -245768.0
      -251691.0      -256714.0      -262990.0      -269043.0      -274055.0
      -278953.0      -286520.0      -293115.0      -297235.0      -302996.0
      -308809.0      -316408.0      -322486.0      -325238.0      -332401.0
      -339653.0      -343915.0      -349726.0      -355312.0      -360309.0
      -367082.0      -373545.0      -377261.0      -382066.0      -388473.0
      -395106.0      -401455.0      -404107.0      -408752.0      -416820.0
      -422100.0      -426526.0      -431644.0      -437123.0      -442937.0
      -448310.0      -452519.0      -457649.0      -464211.0      -468047.0
      -473420.0      -480100.0      -483151.0      -488275.0      -494258.0
      -498647.0      -503911.0      -507857.0      -512960.0      -519730.0
      -522980.0      -526877.0      -533185.0      -537600.0      -542800.0
      -548407.0      -552342.0      -556697.0      -563135.0      -567618.0
      -571019.0      -577550.0      -581595.0      -585679.0      -591163.0
      -595286.0      -600521.0      -604864.0      -608576.0      -612955.0
      -618290.0      -623613.0      -627286.0      -629978.0      -635130.0
      -642483.0      -645502.0      -647726.0      -653128.0      -657048.0
      -660819.0      -666366.0      -669255.0      -672900.0      -678661.0
      -680694.0      -685845.0      -691154.0      -691804.0      -697418.0
      -703377.0      -705259.0      -708776.0      -713315.0      -717286.0
      -722075.0      -725825.0      -727895.0      -732280.0      -737064.0
      -739881.0      -743296.0      -746589.0      -750502.0      -755186.0
      -759218.0      -761607.0      -764722.0      -771046.0      -773495.0
      -775342.0      -780079.0      -783424.0      -788221.0      -790820.0
      -792648.0      -797930.0      -800825.0      -804217.0      -807698.0
      -809403.0      -814265.0      -817489.0      -819518.0      -821893.0
      -825851.0      -830992.0      -831548.0      -834083.0      -838471.0
      -842532.0      -844981.0      -845558.0      -851350.0      -854248.0
      -854822.0      -859737.0      -861986.0      -864111.0      -867766.0
      -869610.0      -872877.0      -875875.0      -877382.0      -881206.0
      -884389.0      -885245.0      -887879.0      -891644.0      -893393.0
      -895638.0      -898373.0      -900880.0      -904523.0      -905264.0
      -906746.0      -910984.0      -913350.0      -914712.0      -916754.0
      -919277.0      -920853.0      -923300.0      -925608.0      -927261.0
      -929735.0      -930688.0      -933016.0      -936320.0      -936364.0
      -937857.0      -941733.0      -943253.0      -944794.0      -946074.0
      -946875.0      -951489.0      -953471.0      -951783.0      -954574.0
      -957071.0      -957012.0      -959201.0      -960482.0      -961273.0
      -964091.0      -964942.0      -964317.0      -966031.0      -967981.0
      -968158.0      -968878.0      -969269.0      -970380.0      -972064.0
      -970383.0      -971338.0      -973933.0      -972500.0      -973586.0
      -974367.0      -973323.0      -976120.0      -975701.0      -974201.0
      -976299.0      -976282.0      -976340.0      -976654.0      -975458.0
      -975767.0      -977522.0      -976416.0      -974728.0      -976982.0
      -976906.0      -975000.0      -976119.0      -976001.0      -975877.0
      -976275.0      -974118.0      -975079.0      -976073.0      -973878.0
      -974127.0      -973660.0      -973290.0      -972870.0      -970734.0
      -970910.0      -971006.0      -969490.0      -968336.0      -968452.0
      -967144.0      -965608.0      -966517.0      -965299.0      -963352.0
      -963562.0      -962120.0      -960104.0      -960642.0      -958725.0
      -956010.0      -955936.0      -954093.0      -953179.0      -951405.0
      -948652.0      -949113.0      -946971.0      -943511.0      -943232.0
      -942085.0      -938959.0      -937944.0      -936124.0      -932819.0
      -932435.0      -930934.0      -928263.0      -926976.0      -923360.0
      -921158.0      -921463.0      -917654.0      -914612.0      -913944.0
      -910975.0      -908047.0      -906161.0      -903726.0      -901511.0
      -898833.0      -895094.0      -894582.0      -891812.0      -886332.0
      -886285.0      -883835.0      -877913.0      -876591.0      -874795.0
      -869750.0      -867318.0      -864584.0      -859773.0      -857878.0
      -854933.0      -850668.0      -848347.0      -844222.0      -840704.0
      -838543.0      -833946.0      -830284.0      -827902.0      -822879.0
      -819638.0      -816110.0      -809641.0      -809179.0      -805853.0
      -798021.0      -796809.0      -793855.0      -788543.0      -784185.0
      -778638.0      -775849.0      -772862.0      -766444.0      -761882.0
      -758460.0      -753515.0      -750123.0      -744782.0      -738737.0
      -736336.0      -731232.0      -724597.0      -719952.0      -715221.0
      -710835.0      -704403.0      -698663.0      -694258.0      -688896.0
      -684315.0      -677514.0      -673774.0      -668834.0      -660040.0
      -657269.0      -651396.0      -643813.0      -641014.0      -634904.0
      -627597.0      -622576.0      -616605.0      -610513.0      -605634.0
      -597866.0      -590458.0      -587443.0      -579952.0      -573187.0
      -570028.0      -560987.0      -555415.0      -551255.0      -542495.0
      -537612.0      -531233.0      -523007.0      -518636.0      -512687.0
      -504687.0      -497005.0      -491220.0      -485759.0      -478193.0
      -470270.0      -463293.0      -459654.0      -450537.0      -440905.0
      -437619.0      -428844.0      -422158.0      -416047.0      -406104.0
      -401305.0      -395758.0      -386689.0      -379481.0      -373619.0
      -365045.0      -357553.0      -351563.0      -343290.0      -336485.0
      -328581.0      -319987.0      -313607.0      -306265.0      -300268.0
      -293464.0      -283615.0      -276623.0      -270792.0      -263339.0
      -256568.0      -248309.0      -238806.0      -233304.0      -227157.0
      -216989.0      -210669.0      -203600.0      -194744.0      -189091.0
      -179979.0      -171870.0      -167114.0      -158466.0      -148830.0
      -142303.0      -135350.0      -126754.0      -119310.0      -110841.0
      -102364.0      -96493.00      -88606.00      -79860.00      -72857.00
      -64170.00      -56909.00      -50033.00      -40174.00      -32953.00
      -26137.00      -17096.00      -10641.00      -2738.000       7436.000
       13439.00       20292.00       30157.00       37600.00       44659.00
       53394.00       61253.00       69406.00       78023.00       84031.00
       92880.00       102402.0       107795.0       117190.0       127247.0
       134089.0       141653.0       149177.0       158231.0       167775.0
       174935.0       181855.0       190875.0       199851.0       206957.0
       214959.0       223316.0       230846.0       239902.0       248010.0
       255574.0       265089.0       272396.0       280139.0       289707.0
       297374.0       306233.0       315255.0       322071.0       330264.0
       339346.0       347795.0       356211.0       362599.0       371531.0
       382088.0       388047.0       396114.0       405813.0       413686.0
       421875.0       430183.0       439570.0       447927.0       456370.0
       465933.0       473411.0       482302.0       491776.0       499118.0
       508680.0       516919.0       524682.0       534255.0       542169.0
       551424.0       558909.0       566381.0       576394.0       584826.0
       592756.0       599667.0       609407.0       619553.0       625662.0
       633711.0       642926.0       650645.0       658075.0       665903.0
       675131.0       683818.0       690971.0       698430.0       705735.0
       715234.0       724787.0       729867.0       737197.0       748019.0
       756000.0       761262.0       769862.0       779681.0       785477.0
       792687.0       800854.0       808681.0       817095.0       823140.0
       831648.0       840338.0       845202.0       854062.0       862254.0
       866772.0       875294.0       884467.0       890476.0       895727.0
       904272.0       912801.0       918369.0       925304.0       931750.0
       940147.0       947397.0       950749.0       959625.0       967601.0
       971676.0       978428.0       985506.0       993092.0       999687.0
       1004147.       1010542.       1018063.       1023113.       1027790.
       1035336.       1041307.       1045335.       1052800.       1058703.
       1062335.       1070238.       1075404.       1078994.       1086356.
       1089833.       1095386.       1101558.       1103386.       1111659.
       1117676.       1118961.       1124483.       1129836.       1134913.
       1139366.       1141847.       1145974.       1152277.       1155925.
       1158265.       1163789.       1167367.       1170172.       1176099.
       1178386.       1181785.       1187270.       1189630.       1193866.
       1197154.       1200407.       1204995.       1208598.       1211876.
       1215361.       1218950.       1221505.       1225178.       1228689.
       1231727.       1234626.       1237093.       1240865.       1244756.
       1246692.       1248288.       1251732.       1255002.       1258227.
       1260417.       1261379.       1264161.       1268038.       1270337.
       1270462.       1273737.       1278330.       1278066.       1279045.
       1282808.       1284691.       1286740.       1287808.       1289459.
       1293209.       1293324.       1294374.       1298312.       1298948.
       1300926.       1303515.       1302983.       1305953.       1308044.
       1307292.       1309903.       1311824.       1312384.       1313970.
       1314384.       1314978.       1316801.       1317130.       1317274.
       1318838.       1320378.       1320070.       1320605.       1321444.
       1319954.       1322386.       1323143.       1321067.       1322386.
       1321757.       1323025.       1322616.       1318585.       1322275.
       1324631.       1320076.       1318825.       1319864.       1319835.
       1319187.       1317754.       1317355.       1316815.       1315549.
       1314208.       1313668.       1312787.       1310230.       1310322.
       1308649.       1307261.       1307381.       1302569.       1301857.
       1301444.       1298850.       1299130.       1295324.       1292791.
       1292182.       1288760.       1287398.       1285565.       1282441.
       1278695.       1277330.       1277145.       1270024.       1268255.
       1268535.       1262104.       1259890.       1256725.       1254086.
       1251999.       1245888.       1244258.       1242190.       1237099.
       1233773.       1229558.       1226201.       1224447.       1220386.
       1215052.       1211279.       1208730.       1203993.       1200050.
       1196593.       1189924.       1186914.       1182971.       1176456.
       1173919.       1169152.       1162334.       1159595.       1156384.
       1149705.       1144484.       1139294.       1134846.       1131357.
       1124831.       1120043.       1115554.       1108301.       1104171.
       1099928.       1092753.       1087918.       1082054.       1076038.
       1070794.       1063736.       1059000.       1050995.       1045053.
       1042518.       1033325.       1027254.       1022524.       1015710.
       1010176.       1002103.       997461.0       992409.0       983055.0
       977904.0       971725.0       964094.0       959205.0       951456.0
       943715.0       938813.0       932294.0       923969.0       917000.0
       911705.0       904944.0       896926.0       889795.0       882921.0
       876792.0       869106.0       860798.0       855644.0       847371.0
       838590.0       833220.0       825403.0       818682.0       811951.0
       802577.0       795889.0       788827.0       779593.0       773721.0
       765830.0       756003.0       750601.0       741539.0       732442.0
       726265.0       718101.0       710193.0       701646.0       694555.0
       686769.0       677242.0       668439.0       660923.0       654076.0
       643970.0       634929.0       628070.0       619460.0       610687.0
       601683.0       592851.0       585206.0       576758.0       567418.0
       558993.0       551196.0       541583.0       531881.0       523594.0
       514683.0       506701.0       496679.0       486454.0       479726.0
       470127.0       459821.0       451309.0       442285.0       434464.0
       424901.0       413289.0       405272.0       397125.0       385502.0
       377232.0       369282.0       357581.0       347893.0       338861.0
       329476.0       320868.0       311107.0       300591.0       291118.0
       282386.0       272450.0       263319.0       253337.0       242850.0
       234794.0       224280.0       213577.0       204666.0       194609.0
       185509.0       176140.0       165392.0       155593.0       147225.0
       136591.0       127179.0       119966.0       106790.0       96890.00
       89736.00       77055.00       68724.00       60374.00       48028.00
       38630.00       29010.00       18199.00       9770.000      -45.00000
      -12247.00      -20608.00      -30149.00      -40978.00      -49083.00
      -59100.00      -69507.00      -79307.00      -88008.00      -97843.00
      -108235.0      -118054.0      -128648.0      -135756.0      -146551.0
      -158629.0      -165298.0      -175877.0      -186436.0      -194950.0
      -205414.0      -214470.0      -224343.0      -234200.0      -243164.0
      -253042.0      -262401.0      -272545.0      -282246.0      -291292.0
      -300525.0      -310048.0      -320880.0      -328922.0      -337928.0
      -349409.0      -357341.0      -366384.0      -377387.0      -386578.0
      -396416.0      -405771.0      -413828.0      -424391.0      -434595.0
      -442511.0      -452888.0      -462937.0      -470525.0      -480993.0
      -491117.0      -499819.0      -510834.0      -519039.0      -526771.0
      -538340.0      -547942.0      -556350.0      -565286.0      -574048.0
      -583606.0      -593044.0      -602234.0      -610024.0      -620329.0
      -629522.0      -636699.0      -647572.0      -654990.0      -662886.0
      -673276.0      -681594.0      -690550.0      -698627.0      -705416.0
      -714616.0      -725705.0      -731790.0      -738442.0      -749332.0
      -756256.0      -764023.0      -773371.0      -779881.0      -789506.0
      -797758.0      -802891.0      -812861.0      -821492.0      -827822.0
      -836291.0      -843998.0      -852115.0      -859842.0      -865929.0
      -872692.0      -881783.0      -889565.0      -894927.0      -902406.0
      -909191.0      -916722.0      -924355.0      -929267.0      -936791.0
      -944495.0      -950030.0      -956567.0      -964473.0      -968630.0
      -973805.0      -983645.0      -988813.0      -993461.0      -999859.0
      -1005643.      -1012652.      -1018068.      -1023319.      -1029730.
      -1035363.      -1040643.      -1046103.      -1051646.      -1056860.
      -1062849.      -1068376.      -1071964.      -1078806.      -1084684.
      -1087945.      -1094938.      -1099018.      -1103059.      -1110705.
      -1114027.      -1118337.      -1123809.      -1127646.      -1133969.
      -1138581.      -1142346.      -1147997.      -1152429.      -1156335.
      -1161903.      -1166124.      -1168867.      -1175260.      -1179334.
      -1180696.      -1187135.      -1190913.      -1192960.      -1199393.
