     0.05000000      -12345.00      -12345.00   3.492210e+09      -12345.00
   0.0005380000       1859.951      -681.0195      -12345.00      -12345.00
      -12345.00      -12345.00      -12345.00      -12345.00      -12345.00
      -12345.00      -12345.00      -12345.00      -12345.00      -12345.00
      -12345.00      -12345.00      -12345.00      -12345.00      -12345.00
      -12345.00      -12345.00      -12345.00      -12345.00      -12345.00
      -12345.00       24.97350       121.4971       77.10000       82.90000
      -42.72450       173.0647      -12345.00       22.00000      -12345.00
      -12345.00      -12345.00      -12345.00      -12345.00      -12345.00
      -12345.00      -12345.00      -12345.00      -12345.00      -12345.00
       9164.505       314.1752       144.3858       82.42202      -12345.00
      -12345.00      -12345.00       332.0000       90.00000      -12345.00
      -12345.00      -12345.00      -12345.00      -12345.00      -12345.00
      -12345.00      -12345.00      -12345.00      -12345.00      -12345.00
      2016       318        11        14        20
        19         6    -12345    -12345     37200
    -12345    -12345    -12345    -12345    -12345
         1    -12345    -12345    -12345    -12345
    -12345    -12345    -12345    -12345    -12345
    -12345    -12345    -12345    -12345    -12345
    -12345    -12345    -12345    -12345    -12345
         1    -12345    -12345    -12345    -12345
TATO    South Island, Ne
00      -12345  -12345  
-12345  -12345  -12345  
-12345  -12345  -12345  
-12345  -12345  -12345  
-12345  -12345  -12345  
-12345  -12345  BH1     
IU      -12345  Geotech 
[...]
      -286358.0      -285260.0      -284270.0      -283392.0      -282590.0
      -281792.0      -280895.0      -279928.0      -279156.0      -278617.0
      -278103.0      -277623.0      -277182.0      -276684.0      -276140.0
      -275528.0      -274867.0      -274339.0      -274069.0      -273827.0
      -273402.0      -272906.0      -272390.0      -271910.0      -271547.0
      -271301.0      -271104.0      -270749.0      -270323.0      -270065.0
      -269840.0      -269503.0      -269199.0      -269061.0      -269103.0
      -269285.0      -269460.0      -269626.0      -269797.0      -269967.0
      -270240.0      -270655.0      -271174.0      -271515.0      -271629.0
      -271773.0      -271982.0      -272125.0      -272134.0      -271997.0
      -271537.0      -270773.0      -269970.0      -269066.0      -267835.0
      -266417.0      -264937.0      -263242.0      -261402.0      -259525.0
      -257587.0      -255701.0      -253899.0      -252014.0      -249950.0
      -247858.0      -245953.0      -244318.0      -242900.0      -241555.0
      -240274.0      -239084.0      -238057.0      -237155.0      -236256.0
      -235411.0      -234552.0      -233773.0      -233165.0      -232639.0
      -232195.0      -231622.0      -230854.0      -230130.0      -229319.0
      -228344.0      -227365.0      -226356.0      -225346.0      -224418.0
      -223630.0      -222847.0      -221942.0      -221022.0      -220281.0
      -219637.0      -218900.0      -218207.0      -217692.0      -217332.0
      -217065.0      -216958.0      -217017.0      -217105.0      -217060.0
      -216883.0      -216694.0      -216630.0      -216919.0      -217524.0
      -218266.0      -218959.0      -219484.0      -219938.0      -220373.0
      -220707.0      -220944.0      -221200.0      -221456.0      -221720.0
      -222076.0      -222569.0      -223065.0      -223353.0      -223587.0
      -223963.0      -224409.0      -224750.0      -224954.0      -225190.0
      -225514.0      -225732.0      -225731.0      -225672.0      -225624.0
      -225460.0      -225109.0      -224664.0      -224131.0      -223426.0
      -222636.0      -221870.0      -221150.0      -220387.0      -219419.0
      -218305.0      -217297.0      -216460.0      -215558.0      -214424.0
      -213309.0      -212364.0      -211334.0      -210160.0      -209119.0
      -208342.0      -207615.0      -206763.0      -205750.0      -204662.0
      -203809.0      -203240.0      -202689.0      -202123.0      -201564.0
      -201023.0      -200516.0      -199969.0      -199482.0      -199022.0
      -198514.0      -198046.0      -197616.0      -197171.0      -196697.0
      -196343.0      -196231.0      -196175.0      -195941.0      -195589.0
      -195261.0      -194977.0      -194645.0      -194213.0      -193811.0
      -193531.0      -193248.0      -192766.0      -192136.0      -191451.0
      -190637.0      -189732.0      -188861.0      -187988.0      -186964.0
      -185828.0      -184691.0      -183405.0      -181951.0      -180559.0
      -179222.0      -177792.0      -176269.0      -174728.0      -173123.0
      -171384.0      -169653.0      -168037.0      -166470.0      -164839.0
      -163053.0      -161257.0      -159622.0      -158138.0      -156725.0
      -155359.0      -154284.0      -153421.0      -152608.0      -151968.0
      -151404.0      -151074.0      -151130.0      -151361.0      -151678.0
      -152150.0      -152776.0      -153391.0      -154025.0      -154835.0
      -155839.0      -156900.0      -158009.0      -159367.0      -160873.0
      -162351.0      -163772.0      -165055.0      -166317.0      -167785.0
      -169398.0      -170968.0      -172396.0      -173703.0      -175109.0
      -176632.0      -178050.0      -179342.0      -180693.0      -182142.0
      -183563.0      -184949.0      -186397.0      -187985.0      -189548.0
      -191057.0      -192557.0      -193957.0      -195342.0      -196714.0
      -197991.0      -199204.0      -200478.0      -201740.0      -202781.0
      -203709.0      -204701.0      -205705.0      -206530.0      -207140.0
      -207593.0      -207972.0      -208418.0      -208710.0      -208688.0
      -208568.0      -208439.0      -208250.0      -208099.0      -207986.0
      -207649.0      -207156.0      -206639.0      -205976.0      -205256.0
      -204565.0      -203935.0      -203366.0      -202607.0      -201617.0
      -200583.0      -199598.0      -198665.0      -197685.0      -196609.0
      -195498.0      -194310.0      -192937.0      -191328.0      -189572.0
      -187754.0      -185747.0      -183614.0      -181400.0      -178935.0
      -176270.0      -173600.0      -170912.0      -168186.0      -165361.0
      -162130.0      -158497.0      -154789.0      -151202.0      -147682.0
      -144172.0      -140661.0      -136931.0      -132948.0      -128887.0
      -124828.0      -120775.0      -116727.0      -112782.0      -108958.0
      -105080.0      -101025.0      -96868.00      -92760.00      -88794.00
      -84852.00      -80876.00      -76869.00      -72686.00      -68441.00
      -64363.00      -60408.00      -56277.00      -51883.00      -47361.00
      -42661.00      -37845.00      -33092.00      -28451.00      -23818.00
      -19022.00      -14106.00      -9219.000      -4316.000       666.0000
       5720.000       10604.00       15365.00       20335.00       25256.00
       29836.00       34115.00       38367.00       42774.00       47092.00
       51128.00       54983.00       58704.00       62253.00       65724.00
       69208.00       72704.00       76106.00       79352.00       82547.00
       85819.00       89237.00       92668.00       95946.00       99164.00
       102312.0       105320.0       108342.0       111400.0       114383.0
       117311.0       120248.0       123085.0       125635.0       127923.0
       130110.0       132233.0       134287.0       136333.0       138272.0
       139939.0       141329.0       142585.0       143803.0       145015.0
       146151.0       147180.0       148216.0       149089.0       149637.0
       150012.0       150351.0       150741.0       151270.0       151899.0
       152550.0       153113.0       153365.0       153456.0       153756.0
       154258.0       154791.0       155288.0       155745.0       156127.0
       156558.0       157148.0       157645.0       158107.0       158651.0
       158996.0       159134.0       159231.0       159427.0       159724.0
       160047.0       160386.0       160609.0       160738.0       160826.0
       160855.0       160904.0       161101.0       161389.0       161536.0
       161706.0       162082.0       162465.0       162687.0       162815.0
       163033.0       163431.0       164016.0       164667.0       165342.0
       166094.0       166805.0       167498.0       168346.0       169318.0
       170325.0       171341.0       172426.0       173572.0       174738.0
       176030.0       177467.0       178978.0       180499.0       181894.0
       183269.0       184851.0       186460.0       187935.0       189362.0
       190879.0       192418.0       193839.0       195237.0       196655.0
       198212.0       199820.0       201202.0       202400.0       203492.0
       204484.0       205448.0       206327.0       206990.0       207532.0
       207910.0       208014.0       207992.0       207942.0       207838.0
       207579.0       207237.0       206935.0       206484.0       205801.0
       205000.0       204180.0       203363.0       202511.0       201719.0
       200925.0       199989.0       198940.0       197857.0       196881.0
       195999.0       195094.0       194122.0       193159.0       192260.0
       191452.0       190749.0       189972.0       189115.0       188307.0
       187532.0       186969.0       186691.0       186475.0       186180.0
       185799.0       185477.0       185241.0       185038.0       184929.0
       184868.0       184686.0       184375.0       184112.0       183915.0
       183719.0       183487.0       183352.0       183404.0       183460.0
       183445.0       183393.0       183456.0       183672.0       183822.0
       183758.0       183492.0       183247.0       183209.0       183212.0
       183014.0       182497.0       181794.0       181123.0       180505.0
       179887.0       179068.0       178130.0       177338.0       176595.0
       175885.0       175242.0       174674.0       174234.0       173874.0
       173582.0       173353.0       173020.0       172620.0       172351.0
       172069.0       171718.0       171370.0       171064.0       170853.0
       170615.0       170266.0       169755.0       169102.0       168341.0
       167487.0       166745.0       166163.0       165576.0       164796.0
       163869.0       162996.0       162094.0       161025.0       159824.0
       158603.0       157387.0       156107.0       154730.0       153330.0
       151887.0       150331.0       148558.0       146561.0       144506.0
       142392.0       140363.0       138355.0       136035.0       133410.0
       130695.0       128005.0       125243.0       122413.0       119643.0
       116867.0       114001.0       111106.0       108092.0       104956.0
       101806.0       98688.00       95584.00       92405.00       89147.00
       85701.00       82087.00       78521.00       75052.00       71561.00
       67851.00       63999.00       60223.00       56484.00       52724.00
       48810.00       44704.00       40543.00       36299.00       32074.00
       27955.00       23794.00       19594.00       15416.00       11032.00
       6501.000       2007.000      -2644.000      -7398.000      -12203.00
      -17046.00      -21947.00      -27031.00      -32204.00      -37574.00
      -43261.00      -49060.00      -54680.00      -60175.00      -65817.00
      -71563.00      -77463.00      -83569.00      -89881.00      -96226.00
      -102252.0      -108223.0      -114342.0      -120552.0      -126889.0
      -133249.0      -139499.0      -145630.0      -151794.0      -157951.0
      -164039.0      -170246.0      -176574.0      -182834.0      -189047.0
      -195283.0      -201432.0      -207433.0      -213475.0      -219560.0
      -225649.0      -231843.0      -237981.0      -244029.0      -249975.0
      -255910.0      -261884.0      -267745.0      -273677.0      -279748.0
      -285758.0      -291532.0      -297319.0      -303279.0      -309115.0
      -314882.0      -320570.0      -326205.0      -331821.0      -337435.0
      -343426.0      -349624.0      -355652.0      -361571.0      -367507.0
      -373406.0      -379289.0      -385239.0      -391152.0      -396959.0
      -402712.0      -408642.0      -414665.0      -420524.0      -426152.0
      -431507.0      -436848.0      -442246.0      -447595.0      -452910.0
      -458312.0      -463915.0      -469739.0      -475798.0      -481818.0
      -487717.0      -493654.0      -499724.0      -505977.0      -512251.0
      -518510.0      -524875.0      -531350.0      -537834.0      -544233.0
      -550366.0      -556340.0      -562479.0      -568657.0      -574570.0
      -580262.0      -585886.0      -591496.0      -597253.0      -602969.0
      -608514.0      -614065.0      -619567.0      -625071.0      -630694.0
      -636462.0      -642256.0      -648028.0      -653783.0      -659370.0
      -664781.0      -670163.0      -675658.0      -681223.0      -686851.0
      -692486.0      -698117.0      -703822.0      -709544.0      -715182.0
      -720601.0      -725906.0      -731172.0      -736379.0      -741575.0
      -746655.0      -751571.0      -756363.0      -760976.0      -765417.0
      -769751.0      -773956.0      -778057.0      -782152.0      -786151.0
      -789984.0      -793725.0      -797387.0      -801141.0      -804998.0
      -808735.0      -812099.0      -815212.0      -818427.0      -821728.0
      -825107.0      -828468.0      -831884.0      -835406.0      -838786.0
      -842013.0      -845225.0      -848430.0      -851641.0      -854982.0
      -858305.0      -861514.0      -864751.0      -868126.0      -871585.0
      -874819.0      -877721.0      -880491.0      -883278.0      -886027.0
      -888689.0      -891260.0      -893676.0      -896165.0      -898824.0
      -901334.0      -903531.0      -905559.0      -907632.0      -909704.0
      -911924.0      -914280.0      -916308.0      -918081.0      -919781.0
      -921291.0      -922698.0      -924245.0      -925919.0      -927534.0
      -929009.0      -930304.0      -931542.0      -932755.0      -933898.0
      -935096.0      -936346.0      -937601.0      -938855.0      -940065.0
      -941205.0      -942267.0      -943272.0      -944218.0      -945106.0
      -946002.0      -946914.0      -947793.0      -948635.0      -949387.0
      -950027.0      -950547.0      -950910.0      -951024.0      -950861.0
      -950657.0      -950490.0      -950168.0      -949576.0      -948738.0
      -947751.0      -946713.0      -945677.0      -944611.0      -943431.0
      -942042.0      -940470.0      -939007.0      -937717.0      -936299.0
      -934728.0      -933201.0      -931733.0      -930242.0      -928698.0
      -927083.0      -925333.0      -923505.0      -921840.0      -920313.0
      -918612.0      -916731.0      -914790.0      -912779.0      -910776.0
      -908680.0      -906339.0      -903885.0      -901430.0      -899018.0
      -896588.0      -893973.0      -891210.0      -888401.0      -885571.0
      -882792.0      -880014.0      -877081.0      -873929.0      -870638.0
      -867361.0      -864210.0      -861212.0      -858218.0      -855125.0
      -851875.0      -848480.0      -845094.0      -841744.0      -838371.0
      -834973.0      -831604.0      -828204.0      -824768.0      -821223.0
      -817553.0      -813784.0      -809778.0      -805700.0      -801673.0
      -797717.0      -793814.0      -789871.0      -785843.0      -781618.0
      -777253.0      -772915.0      -768663.0      -764371.0      -759901.0
      -755338.0      -750827.0      -746416.0      -742113.0      -737832.0
      -733343.0      -728533.0      -723696.0      -719128.0      -714756.0
      -710350.0      -705724.0      -701004.0      -696365.0      -691806.0
      -687193.0      -682511.0      -677887.0      -673160.0      -668300.0
      -663383.0      -658472.0      -653554.0      -648431.0      -643112.0
      -637775.0      -632540.0      -627291.0      -622024.0      -616790.0
      -611493.0      -606142.0      -600731.0      -595310.0      -589990.0
      -584754.0      -579663.0      -574722.0      -569774.0      -564934.0
      -560111.0      -555288.0      -550601.0      -546010.0      -541694.0
      -537452.0      -533207.0      -528930.0      -524560.0      -520374.0
      -516275.0      -512242.0      -508374.0      -504570.0      -500612.0
      -496490.0      -492334.0      -488096.0      -483964.0      -479979.0
      -475851.0      -471515.0      -467141.0      -462781.0      -458274.0
      -453480.0      -448583.0      -443880.0      -439181.0      -434168.0
      -428919.0      -423682.0      -418538.0      -413423.0      -408257.0
      -403016.0      -397928.0      -393010.0      -388059.0      -382961.0
      -377752.0      -372609.0      -367487.0      -362309.0      -357065.0
      -351830.0      -346717.0      -341667.0      -336654.0      -331608.0
      -326399.0      -321120.0      -315814.0      -310443.0      -305099.0
      -299856.0      -294716.0      -289580.0      -284367.0      -279066.0
      -273789.0      -268719.0      -263771.0      -258808.0      -253755.0
      -248561.0      -243231.0      -237782.0      -232395.0      -227172.0
      -221990.0      -216705.0      -211295.0      -205843.0      -200338.0
      -194789.0      -189357.0      -184058.0      -178701.0      -173217.0
      -167724.0      -162371.0      -157129.0      -151790.0      -146423.0
      -141174.0      -135962.0      -130829.0      -125719.0      -120537.0
      -115279.0      -109906.0      -104527.0      -99320.00      -94358.00
      -89364.00      -84173.00      -79048.00      -74179.00      -69507.00
      -64824.00      -60118.00      -55485.00      -50988.00      -46673.00
      -42371.00      -38002.00      -33659.00      -29360.00      -25250.00
      -21359.00      -17552.00      -13806.00      -10064.00      -6341.000
      -2598.000       1135.000       4686.000       8168.000       11660.00
       15041.00       18282.00       21371.00       24415.00       27446.00
       30420.00       33426.00       36432.00       39491.00       42663.00
       45870.00       49105.00       52368.00       55602.00       58810.00
       62201.00       65803.00       69442.00       73162.00       76979.00
       80750.00       84393.00       87904.00       91413.00       94925.00
       98319.00       101636.0       104944.0       108246.0       111368.0
       114393.0       117454.0       120321.0       123079.0       125825.0
       128531.0       131091.0       133315.0       135442.0       137522.0
       139458.0       141287.0       142986.0       144668.0       146188.0
       147473.0       148631.0       149631.0       150631.0       151622.0
       152533.0       153424.0       154162.0       154689.0       155173.0
       155731.0       156266.0       156670.0       157002.0       157357.0
       157692.0       157997.0       158265.0       158391.0       158447.0
       158426.0       158314.0       158145.0       157890.0       157609.0
       157453.0       157543.0       157638.0       157619.0       157680.0
       157947.0       158343.0       158685.0       159069.0       159650.0
       160435.0       161172.0       161762.0       162520.0       163435.0
       164315.0       165141.0       165837.0       166319.0       166698.0
       167222.0       167902.0       168570.0       169216.0       169903.0
       170585.0       171204.0       171742.0       172377.0       173248.0
       174257.0       175425.0       176572.0       177598.0       178732.0
       180021.0       181403.0       182833.0       184302.0       185655.0
       186824.0       187956.0       189066.0       190103.0       191128.0
       192206.0       193240.0       194139.0       194930.0       195719.0
       196473.0       197095.0       197745.0       198400.0       198830.0
