     0.02500000      -12345.00      -12345.00   1.974680e+09      -12345.00
   0.0005380000       1859.976      -693.0195      -12345.00      -12345.00
      -12345.00      -12345.00      -12345.00      -12345.00      -12345.00
      -12345.00      -12345.00      -12345.00      -12345.00      -12345.00
      -12345.00      -12345.00      -12345.00      -12345.00      -12345.00
      -12345.00      -12345.00      -12345.00      -12345.00      -12345.00
      -12345.00      -38.05680      -61.97870       508.0000       32.00000
      -42.72450       173.0647      -12345.00       22.00000      -12345.00
      -12345.00      -12345.00      -12345.00      -12345.00      -12345.00
      -12345.00      -12345.00      -12345.00      -12345.00      -12345.00
       9486.066       139.5221       217.2988       85.31403      -12345.00
      -12345.00      -12345.00       197.0000       90.00000      -12345.00
      -12345.00      -12345.00      -12345.00      -12345.00      -12345.00
      -12345.00      -12345.00      -12345.00      -12345.00      -12345.00
      2016       318        11        14        32
        19         6    -12345    -12345     74400
    -12345    -12345    -12345    -12345    -12345
         1    -12345    -12345    -12345    -12345
    -12345    -12345    -12345    -12345    -12345
    -12345    -12345    -12345    -12345    -12345
    -12345    -12345    -12345    -12345    -12345
         1    -12345    -12345    -12345    -12345
TRQA    South Island, Ne
10      -12345  -12345  
-12345  -12345  -12345  
-12345  -12345  -12345  
-12345  -12345  -12345  
-12345  -12345  -12345  
-12345  -12345  BH2     
IU      -12345  T120 pos
[...]
      -48730.00      -49037.00      -49344.00      -49654.00      -49954.00
      -50256.00      -50566.00      -50876.00      -51195.00      -51520.00
      -51853.00      -52195.00      -52544.00      -52899.00      -53265.00
      -53639.00      -54022.00      -54419.00      -54824.00      -55233.00
      -55656.00      -56093.00      -56539.00      -56987.00      -57441.00
      -57895.00      -58342.00      -58792.00      -59232.00      -59658.00
      -60072.00      -60473.00      -60878.00      -61262.00      -61630.00
      -62011.00      -62381.00      -62739.00      -63093.00      -63444.00
      -63790.00      -64125.00      -64459.00      -64786.00      -65110.00
      -65428.00      -65731.00      -66030.00      -66327.00      -66615.00
      -66899.00      -67174.00      -67444.00      -67722.00      -67994.00
      -68260.00      -68538.00      -68815.00      -69098.00      -69386.00
      -69668.00      -69961.00      -70262.00      -70555.00      -70847.00
      -71147.00      -71439.00      -71731.00      -72026.00      -72317.00
      -72611.00      -72905.00      -73203.00      -73497.00      -73790.00
      -74087.00      -74373.00      -74653.00      -74939.00      -75216.00
      -75483.00      -75756.00      -76027.00      -76302.00      -76583.00
      -76872.00      -77177.00      -77486.00      -77811.00      -78156.00
      -78507.00      -78871.00      -79244.00      -79631.00      -80031.00
      -80434.00      -80847.00      -81272.00      -81699.00      -82143.00
      -82601.00      -83054.00      -83516.00      -83982.00      -84442.00
      -84910.00      -85374.00      -85834.00      -86290.00      -86740.00
      -87195.00      -87643.00      -88081.00      -88517.00      -88949.00
      -89382.00      -89806.00      -90218.00      -90628.00      -91031.00
      -91432.00      -91837.00      -92229.00      -92616.00      -93008.00
      -93397.00      -93787.00      -94182.00      -94577.00      -94975.00
      -95381.00      -95786.00      -96192.00      -96606.00      -97020.00
      -97429.00      -97837.00      -98238.00      -98631.00      -99026.00
      -99418.00      -99798.00      -100171.0      -100541.0      -100910.0
      -101269.0      -101611.0      -101935.0      -102258.0      -102580.0
      -102881.0      -103178.0      -103477.0      -103767.0      -104057.0
      -104350.0      -104640.0      -104934.0      -105232.0      -105530.0
      -105835.0      -106143.0      -106454.0      -106775.0      -107100.0
      -107424.0      -107750.0      -108087.0      -108422.0      -108751.0
      -109086.0      -109414.0      -109732.0      -110047.0      -110346.0
      -110635.0      -110913.0      -111179.0      -111436.0      -111677.0
      -111915.0      -112139.0      -112353.0      -112564.0      -112768.0
      -112963.0      -113152.0      -113342.0      -113519.0      -113692.0
      -113871.0      -114044.0      -114221.0      -114396.0      -114578.0
      -114772.0      -114956.0      -115147.0      -115359.0      -115568.0
      -115773.0      -115984.0      -116199.0      -116410.0      -116611.0
      -116805.0      -117002.0      -117196.0      -117373.0      -117546.0
      -117720.0      -117888.0      -118050.0      -118211.0      -118364.0
      -118506.0      -118641.0      -118766.0      -118881.0      -118990.0
      -119084.0      -119168.0      -119250.0      -119325.0      -119391.0
      -119456.0      -119519.0      -119580.0      -119644.0      -119711.0
      -119782.0      -119855.0      -119931.0      -120014.0      -120105.0
      -120199.0      -120301.0      -120414.0      -120527.0      -120643.0
      -120760.0      -120874.0      -120992.0      -121102.0      -121202.0
      -121303.0      -121399.0      -121484.0      -121557.0      -121618.0
      -121676.0      -121725.0      -121754.0      -121774.0      -121782.0
      -121777.0      -121761.0      -121726.0      -121678.0      -121623.0
      -121558.0      -121485.0      -121402.0      -121318.0      -121233.0
      -121148.0      -121069.0      -120992.0      -120912.0      -120829.0
      -120747.0      -120671.0      -120586.0      -120495.0      -120404.0
      -120301.0      -120191.0      -120077.0      -119950.0      -119821.0
      -119671.0      -119506.0      -119353.0      -119186.0      -119002.0
      -118819.0      -118624.0      -118419.0      -118209.0      -117992.0
      -117775.0      -117554.0      -117330.0      -117108.0      -116889.0
      -116676.0      -116468.0      -116263.0      -116070.0      -115880.0
      -115689.0      -115517.0      -115348.0      -115172.0      -115012.0
      -114861.0      -114709.0      -114567.0      -114423.0      -114274.0
      -114133.0      -113987.0      -113834.0      -113690.0      -113545.0
      -113386.0      -113225.0      -113064.0      -112895.0      -112723.0
      -112543.0      -112354.0      -112163.0      -111968.0      -111763.0
      -111549.0      -111340.0      -111124.0      -110899.0      -110671.0
      -110441.0      -110213.0      -109980.0      -109746.0      -109512.0
      -109280.0      -109046.0      -108806.0      -108566.0      -108321.0
      -108083.0      -107849.0      -107612.0      -107376.0      -107132.0
      -106891.0      -106655.0      -106402.0      -106147.0      -105895.0
      -105631.0      -105357.0      -105075.0      -104783.0      -104480.0
      -104164.0      -103848.0      -103527.0      -103201.0      -102867.0
      -102531.0      -102190.0      -101842.0      -101496.0      -101130.0
      -100746.0      -100361.0      -99964.00      -99547.00      -99114.00
      -98677.00      -98229.00      -97766.00      -97303.00      -96840.00
      -96367.00      -95895.00      -95430.00      -94963.00      -94501.00
      -94040.00      -93577.00      -93123.00      -92670.00      -92213.00
      -91764.00      -91321.00      -90866.00      -90417.00      -89969.00
      -89509.00      -89062.00      -88613.00      -88156.00      -87695.00
      -87230.00      -86773.00      -86304.00      -85836.00      -85380.00
      -84908.00      -84445.00      -83988.00      -83521.00      -83060.00
      -82604.00      -82139.00      -81663.00      -81192.00      -80725.00
      -80249.00      -79780.00      -79320.00      -78852.00      -78390.00
      -77942.00      -77492.00      -77035.00      -76588.00      -76141.00
      -75679.00      -75212.00      -74744.00      -74271.00      -73792.00
      -73315.00      -72823.00      -72320.00      -71828.00      -71323.00
      -70801.00      -70286.00      -69768.00      -69241.00      -68714.00
      -68195.00      -67662.00      -67117.00      -66583.00      -66038.00
      -65473.00      -64920.00      -64372.00      -63796.00      -63226.00
      -62670.00      -62096.00      -61529.00      -60954.00      -60364.00
      -59797.00      -59216.00      -58623.00      -58040.00      -57453.00
      -56871.00      -56283.00      -55690.00      -55107.00      -54510.00
      -53911.00      -53327.00      -52728.00      -52124.00      -51530.00
      -50921.00      -50319.00      -49729.00      -49126.00      -48533.00
      -47949.00      -47356.00      -46779.00      -46204.00      -45620.00
      -45047.00      -44474.00      -43889.00      -43305.00      -42721.00
      -42134.00      -41552.00      -40970.00      -40382.00      -39790.00
      -39200.00      -38608.00      -38012.00      -37413.00      -36804.00
      -36191.00      -35586.00      -34964.00      -34323.00      -33702.00
      -33078.00      -32430.00      -31787.00      -31136.00      -30486.00
      -29838.00      -29167.00      -28494.00      -27817.00      -27134.00
      -26459.00      -25769.00      -25072.00      -24386.00      -23702.00
      -23014.00      -22323.00      -21639.00      -20963.00      -20292.00
      -19625.00      -18950.00      -18286.00      -17632.00      -16965.00
      -16306.00      -15657.00      -15002.00      -14355.00      -13706.00
      -13057.00      -12416.00      -11770.00      -11115.00      -10461.00
      -9812.000      -9158.000      -8500.000      -7842.000      -7176.000
      -6514.000      -5852.000      -5179.000      -4512.000      -3846.000
      -3177.000      -2515.000      -1858.000      -1203.000      -558.0000
       79.00000       725.0000       1360.000       1984.000       2612.000
       3235.000       3865.000       4489.000       5097.000       5709.000
       6320.000       6921.000       7528.000       8139.000       8734.000
       9324.000       9926.000       10529.00       11128.00       11728.00
       12327.00       12923.00       13524.00       14119.00       14712.00
       15312.00       15905.00       16480.00       17063.00       17652.00
       18225.00       18801.00       19377.00       19949.00       20520.00
       21077.00       21628.00       22180.00       22733.00       23274.00
       23808.00       24349.00       24889.00       25429.00       25978.00
       26531.00       27085.00       27657.00       28239.00       28820.00
       29414.00       30027.00       30645.00       31266.00       31908.00
       32553.00       33195.00       33848.00       34501.00       35158.00
       35815.00       36471.00       37124.00       37780.00       38437.00
       39097.00       39754.00       40403.00       41057.00       41712.00
       42363.00       43018.00       43674.00       44328.00       44983.00
       45638.00       46288.00       46940.00       47596.00       48249.00
       48911.00       49570.00       50226.00       50891.00       51552.00
       52219.00       52892.00       53564.00       54243.00       54928.00
       55617.00       56315.00       57022.00       57729.00       58444.00
       59175.00       59904.00       60637.00       61383.00       62125.00
       62867.00       63616.00       64363.00       65107.00       65852.00
       66596.00       67335.00       68072.00       68805.00       69536.00
       70263.00       70988.00       71716.00       72441.00       73170.00
       73905.00       74633.00       75358.00       76093.00       76826.00
       77566.00       78305.00       79045.00       79798.00       80549.00
       81307.00       82067.00       82824.00       83593.00       84353.00
       85111.00       85885.00       86647.00       87399.00       88158.00
       88911.00       89648.00       90391.00       91136.00       91865.00
       92586.00       93308.00       94032.00       94747.00       95459.00
       96173.00       96877.00       97582.00       98294.00       98997.00
       99700.00       100409.0       101115.0       101819.0       102524.0
       103227.0       103928.0       104633.0       105336.0       106044.0
       106756.0       107458.0       108172.0       108894.0       109606.0
       110315.0       111032.0       111759.0       112470.0       113176.0
       113887.0       114583.0       115283.0       115987.0       116685.0
       117387.0       118088.0       118794.0       119497.0       120197.0
       120900.0       121599.0       122294.0       122996.0       123696.0
       124393.0       125096.0       125799.0       126496.0       127199.0
       127905.0       128598.0       129299.0       130000.0       130676.0
       131365.0       132051.0       132705.0       133364.0       134019.0
       134650.0       135279.0       135904.0       136512.0       137116.0
       137704.0       138278.0       138846.0       139408.0       139958.0
       140494.0       141031.0       141562.0       142080.0       142594.0
       143109.0       143617.0       144118.0       144623.0       145129.0
       145627.0       146129.0       146629.0       147120.0       147609.0
       148087.0       148555.0       149014.0       149458.0       149887.0
       150307.0       150711.0       151096.0       151474.0       151842.0
       152197.0       152548.0       152899.0       153245.0       153584.0
       153926.0       154261.0       154593.0       154931.0       155261.0
       155593.0       155926.0       156250.0       156570.0       156886.0
       157206.0       157516.0       157806.0       158094.0       158369.0
       158641.0       158918.0       159173.0       159420.0       159676.0
       159921.0       160159.0       160391.0       160621.0       160840.0
       161049.0       161257.0       161453.0       161637.0       161820.0
       162005.0       162177.0       162344.0       162519.0       162676.0
       162828.0       162981.0       163125.0       163265.0       163395.0
       163520.0       163635.0       163738.0       163839.0       163935.0
       164023.0       164107.0       164190.0       164268.0       164339.0
       164402.0       164462.0       164517.0       164556.0       164588.0
       164607.0       164614.0       164616.0       164607.0       164590.0
       164562.0       164521.0       164469.0       164406.0       164326.0
       164229.0       164124.0       164007.0       163874.0       163721.0
       163558.0       163394.0       163204.0       163002.0       162808.0
       162596.0       162362.0       162128.0       161888.0       161634.0
       161371.0       161105.0       160826.0       160539.0       160251.0
       159959.0       159656.0       159342.0       159023.0       158692.0
       158352.0       158006.0       157643.0       157268.0       156884.0
       156481.0       156069.0       155650.0       155212.0       154771.0
       154321.0       153861.0       153397.0       152922.0       152446.0
       151960.0       151464.0       150969.0       150452.0       149926.0
       149402.0       148858.0       148305.0       147749.0       147184.0
       146614.0       146030.0       145434.0       144837.0       144224.0
       143594.0       142956.0       142306.0       141635.0       140947.0
       140249.0       139529.0       138783.0       138026.0       137262.0
       136483.0       135682.0       134867.0       134049.0       133216.0
       132358.0       131482.0       130594.0       129703.0       128790.0
       127857.0       126915.0       125965.0       125017.0       124061.0
       123086.0       122108.0       121138.0       120164.0       119193.0
       118228.0       117261.0       116306.0       115343.0       114381.0
       113434.0       112471.0       111497.0       110529.0       109547.0
       108557.0       107554.0       106528.0       105520.0       104518.0
       103484.0       102441.0       101415.0       100396.0       99376.00
       98332.00       97276.00       96269.00       95264.00       94226.00
       93182.00       92150.00       91162.00       90163.00       89115.00
       88084.00       87099.00       86107.00       85081.00       84043.00
       83008.00       82015.00       81023.00       79964.00       78910.00
       77903.00       76897.00       75871.00       74812.00       73764.00
       72758.00       71745.00       70709.00       69665.00       68650.00
       67652.00       66627.00       65580.00       64529.00       63532.00
       62521.00       61439.00       60373.00       59308.00       58249.00
       57184.00       56065.00       54959.00       53880.00       52792.00
       51675.00       50543.00       49432.00       48330.00       47214.00
       46059.00       44910.00       43797.00       42660.00       41500.00
       40341.00       39196.00       38067.00       36910.00       35734.00
       34574.00       33435.00       32284.00       31102.00       29929.00
       28767.00       27620.00       26466.00       25261.00       24088.00
       22961.00       21786.00       20581.00       19394.00       18218.00
       17061.00       15885.00       14671.00       13506.00       12377.00
       11219.00       10052.00       8892.000       7778.000       6706.000
       5581.000       4432.000       3382.000       2357.000       1283.000
       241.0000      -796.0000      -1813.000      -2740.000      -3736.000
      -4777.000      -5704.000      -6633.000      -7595.000      -8564.000
      -9562.000      -10479.00      -11384.00      -12367.00      -13341.00
      -14284.00      -15193.00      -16120.00      -17104.00      -18072.00
      -18983.00      -19875.00      -20835.00      -21822.00      -22733.00
      -23626.00      -24549.00      -25479.00      -26410.00      -27290.00
      -28142.00      -29043.00      -29948.00      -30813.00      -31652.00
      -32487.00      -33364.00      -34235.00      -35045.00      -35862.00
      -36711.00      -37555.00      -38372.00      -39171.00      -39975.00
      -40790.00      -41608.00      -42385.00      -43150.00      -43954.00
      -44761.00      -45551.00      -46322.00      -47103.00      -47908.00
      -48704.00      -49470.00      -50233.00      -51012.00      -51785.00
      -52541.00      -53269.00      -53998.00      -54748.00      -55475.00
      -56172.00      -56874.00      -57587.00      -58279.00      -58949.00
      -59607.00      -60258.00      -60902.00      -61527.00      -62131.00
      -62719.00      -63295.00      -63867.00      -64424.00      -64963.00
      -65502.00      -66046.00      -66581.00      -67101.00      -67624.00
      -68160.00      -68689.00      -69212.00      -69735.00      -70258.00
      -70796.00      -71331.00      -71847.00      -72376.00      -72912.00
      -73445.00      -73977.00      -74503.00      -75035.00      -75563.00
      -76073.00      -76582.00      -77083.00      -77566.00      -78054.00
      -78537.00      -79003.00      -79463.00      -79924.00      -80383.00
      -80823.00      -81265.00      -81712.00      -82137.00      -82565.00
      -82991.00      -83413.00      -83840.00      -84263.00      -84688.00
      -85123.00      -85564.00      -86008.00      -86451.00      -86893.00
      -87343.00      -87790.00      -88230.00      -88665.00      -89090.00
      -89516.00      -89939.00      -90351.00      -90759.00      -91161.00
      -91560.00      -91954.00      -92332.00      -92703.00      -93069.00
      -93418.00      -93752.00      -94075.00      -94388.00      -94683.00
      -94970.00      -95250.00      -95512.00      -95772.00      -96023.00
      -96263.00      -96503.00      -96740.00      -96977.00      -97213.00
      -97450.00      -97686.00      -97920.00      -98153.00      -98383.00
