     0.05000000      -12345.00      -12345.00   3.312420e+09      -12345.00
   0.0005380000       1859.951      -693.0195      -12345.00      -12345.00
      -12345.00      -12345.00      -12345.00      -12345.00      -12345.00
      -12345.00      -12345.00      -12345.00      -12345.00      -12345.00
      -12345.00      -12345.00      -12345.00      -12345.00      -12345.00
      -12345.00      -12345.00      -12345.00      -12345.00      -12345.00
      -12345.00      -38.05680      -61.97870       438.0000       102.0000
      -42.72450       173.0647      -12345.00       22.00000      -12345.00
      -12345.00      -12345.00      -12345.00      -12345.00      -12345.00
      -12345.00      -12345.00      -12345.00      -12345.00      -12345.00
       9486.066       139.5221       217.2988       85.31403      -12345.00
      -12345.00      -12345.00       211.0000       90.00000      -12345.00
      -12345.00      -12345.00      -12345.00      -12345.00      -12345.00
      -12345.00      -12345.00      -12345.00      -12345.00      -12345.00
      2016       318        11        14        32
        19         6    -12345    -12345     37200
    -12345    -12345    -12345    -12345    -12345
         1    -12345    -12345    -12345    -12345
    -12345    -12345    -12345    -12345    -12345
    -12345    -12345    -12345    -12345    -12345
    -12345    -12345    -12345    -12345    -12345
         1    -12345    -12345    -12345    -12345
TRQA    South Island, Ne
00      -12345  -12345  
-12345  -12345  -12345  
-12345  -12345  -12345  
-12345  -12345  -12345  
-12345  -12345  -12345  
-12345  -12345  BH2     
IU      -12345  Geotech 
[...]
       1169.000       1170.000       1171.000       1172.000       1172.000
       1170.000       1170.000       1171.000       1171.000       1171.000
       1172.000       1173.000       1172.000       1171.000       1172.000
       1172.000       1172.000       1169.000       1171.000       1170.000
       1169.000       1172.000       1172.000       1173.000       1171.000
       1171.000       1171.000       1168.000       1168.000       1167.000
       1166.000       1166.000       1164.000       1167.000       1169.000
       1168.000       1171.000       1170.000       1170.000       1171.000
       1170.000       1171.000       1173.000       1173.000       1171.000
       1170.000       1170.000       1170.000       1170.000       1171.000
       1171.000       1168.000       1169.000       1170.000       1169.000
       1170.000       1171.000       1169.000       1168.000       1170.000
       1172.000       1172.000       1173.000       1173.000       1172.000
       1172.000       1171.000       1171.000       1172.000       1168.000
       1170.000       1171.000       1169.000       1170.000       1170.000
       1169.000       1168.000       1170.000       1171.000       1170.000
       1171.000       1171.000       1169.000       1167.000       1168.000
       1169.000       1169.000       1171.000       1170.000       1168.000
       1169.000       1170.000       1172.000       1172.000       1171.000
       1171.000       1170.000       1169.000       1169.000       1173.000
       1173.000       1170.000       1169.000       1170.000       1170.000
       1171.000       1173.000       1172.000       1171.000       1170.000
       1168.000       1167.000       1166.000       1166.000       1167.000
       1170.000       1169.000       1169.000       1172.000       1169.000
       1170.000       1170.000       1170.000       1173.000       1173.000
       1173.000       1173.000       1170.000       1171.000       1172.000
       1171.000       1172.000       1172.000       1170.000       1172.000
       1174.000       1173.000       1172.000       1171.000       1170.000
       1171.000       1173.000       1174.000       1174.000       1175.000
       1175.000       1173.000       1173.000       1173.000       1170.000
       1171.000       1173.000       1171.000       1170.000       1172.000
       1173.000       1173.000       1174.000       1175.000       1174.000
       1171.000       1170.000       1170.000       1170.000       1170.000
       1169.000       1169.000       1169.000       1170.000       1171.000
       1172.000       1171.000       1169.000       1169.000       1170.000
       1170.000       1169.000       1171.000       1173.000       1171.000
       1172.000       1171.000       1171.000       1170.000       1169.000
       1172.000       1173.000       1172.000       1171.000       1172.000
       1174.000       1175.000       1174.000       1175.000       1175.000
       1174.000       1175.000       1176.000       1175.000       1175.000
       1175.000       1176.000       1174.000       1173.000       1173.000
       1172.000       1170.000       1173.000       1175.000       1174.000
       1173.000       1173.000       1174.000       1175.000       1173.000
       1172.000       1173.000       1173.000       1173.000       1174.000
       1175.000       1177.000       1177.000       1175.000       1174.000
       1175.000       1177.000       1178.000       1177.000       1177.000
       1176.000       1175.000       1176.000       1176.000       1175.000
       1174.000       1172.000       1171.000       1171.000       1172.000
       1172.000       1172.000       1173.000       1175.000       1175.000
       1176.000       1178.000       1177.000       1178.000       1175.000
       1175.000       1176.000       1174.000       1176.000       1175.000
       1174.000       1175.000       1175.000       1177.000       1176.000
       1176.000       1174.000       1175.000       1177.000       1174.000
       1174.000       1172.000       1174.000       1175.000       1174.000
       1174.000       1172.000       1173.000       1173.000       1175.000
       1177.000       1175.000       1175.000       1174.000       1175.000
       1176.000       1175.000       1175.000       1176.000       1176.000
       1175.000       1174.000       1173.000       1172.000       1172.000
       1171.000       1172.000       1171.000       1172.000       1172.000
       1169.000       1169.000       1170.000       1168.000       1170.000
       1172.000       1172.000       1172.000       1173.000       1172.000
       1171.000       1173.000       1171.000       1169.000       1170.000
       1171.000       1172.000       1171.000       1171.000       1171.000
       1172.000       1172.000       1173.000       1174.000       1173.000
       1172.000       1172.000       1173.000       1171.000       1170.000
       1172.000       1171.000       1171.000       1173.000       1172.000
       1171.000       1171.000       1172.000       1172.000       1172.000
       1175.000       1174.000       1173.000       1172.000       1170.000
       1171.000       1171.000       1172.000       1171.000       1170.000
       1173.000       1173.000       1172.000       1172.000       1171.000
       1170.000       1171.000       1171.000       1171.000       1171.000
       1172.000       1174.000       1173.000       1173.000       1173.000
       1174.000       1173.000       1173.000       1175.000       1172.000
       1170.000       1171.000       1170.000       1171.000       1172.000
       1172.000       1172.000       1171.000       1173.000       1172.000
       1171.000       1172.000       1173.000       1173.000       1173.000
       1173.000       1174.000       1174.000       1173.000       1172.000
       1171.000       1171.000       1170.000       1170.000       1171.000
       1171.000       1173.000       1174.000       1172.000       1174.000
       1174.000       1174.000       1174.000       1173.000       1173.000
       1174.000       1173.000       1174.000       1175.000       1174.000
       1172.000       1174.000       1173.000       1173.000       1172.000
       1171.000       1170.000       1169.000       1169.000       1171.000
       1172.000       1173.000       1173.000       1172.000       1173.000
       1174.000       1173.000       1172.000       1172.000       1173.000
       1173.000       1172.000       1172.000       1171.000       1172.000
       1170.000       1169.000       1169.000       1167.000       1168.000
       1168.000       1169.000       1169.000       1167.000       1170.000
       1168.000       1170.000       1172.000       1173.000       1174.000
       1173.000       1174.000       1174.000       1173.000       1170.000
       1170.000       1173.000       1171.000       1171.000       1173.000
       1173.000       1173.000       1172.000       1171.000       1171.000
       1170.000       1169.000       1169.000       1170.000       1171.000
       1172.000       1171.000       1168.000       1169.000       1169.000
       1170.000       1170.000       1170.000       1172.000       1171.000
       1171.000       1172.000       1172.000       1172.000       1172.000
       1171.000       1171.000       1172.000       1171.000       1170.000
       1172.000       1172.000       1171.000       1172.000       1174.000
       1175.000       1174.000       1174.000       1172.000       1169.000
       1169.000       1169.000       1170.000       1172.000       1171.000
       1171.000       1172.000       1171.000       1171.000       1172.000
       1171.000       1170.000       1171.000       1172.000       1174.000
       1173.000       1172.000       1171.000       1171.000       1173.000
       1173.000       1172.000       1174.000       1173.000       1173.000
       1173.000       1172.000       1174.000       1174.000       1175.000
       1175.000       1173.000       1174.000       1175.000       1173.000
       1172.000       1174.000       1173.000       1173.000       1173.000
       1174.000       1175.000       1174.000       1171.000       1171.000
       1172.000       1170.000       1172.000       1174.000       1173.000
       1173.000       1172.000       1172.000       1172.000       1172.000
       1174.000       1173.000       1174.000       1173.000       1171.000
       1171.000       1170.000       1172.000       1173.000       1172.000
       1173.000       1174.000       1172.000       1173.000       1172.000
       1170.000       1171.000       1172.000       1173.000       1174.000
       1173.000       1172.000       1172.000       1173.000       1172.000
       1171.000       1171.000       1173.000       1173.000       1171.000
       1172.000       1171.000       1172.000       1173.000       1171.000
       1170.000       1170.000       1169.000       1170.000       1169.000
       1170.000       1172.000       1172.000       1174.000       1171.000
       1170.000       1172.000       1173.000       1174.000       1173.000
       1170.000       1171.000       1171.000       1172.000       1172.000
       1172.000       1172.000       1170.000       1169.000       1170.000
       1168.000       1169.000       1169.000       1171.000       1170.000
       1169.000       1169.000       1171.000       1171.000       1170.000
       1169.000       1170.000       1170.000       1171.000       1170.000
       1169.000       1171.000       1170.000       1168.000       1170.000
       1168.000       1168.000       1171.000       1169.000       1168.000
       1169.000       1166.000       1164.000       1165.000       1167.000
       1167.000       1166.000       1165.000       1164.000       1164.000
       1166.000       1166.000       1167.000       1167.000       1167.000
       1170.000       1174.000       1172.000       1171.000       1173.000
       1174.000       1174.000       1172.000       1173.000       1173.000
       1172.000       1172.000       1175.000       1175.000       1172.000
       1173.000       1173.000       1172.000       1173.000       1174.000
       1173.000       1173.000       1174.000       1175.000       1175.000
       1174.000       1174.000       1175.000       1174.000       1173.000
       1172.000       1172.000       1174.000       1174.000       1173.000
       1173.000       1174.000       1174.000       1174.000       1173.000
       1172.000       1173.000       1171.000       1170.000       1169.000
       1172.000       1172.000       1169.000       1169.000       1169.000
       1171.000       1169.000       1169.000       1173.000       1172.000
       1171.000       1171.000       1171.000       1173.000       1173.000
       1173.000       1174.000       1176.000       1174.000       1172.000
       1173.000       1173.000       1172.000       1171.000       1169.000
       1170.000       1171.000       1171.000       1173.000       1173.000
       1175.000       1175.000       1174.000       1174.000       1174.000
       1174.000       1174.000       1175.000       1175.000       1173.000
       1173.000       1175.000       1174.000       1173.000       1175.000
       1173.000       1171.000       1173.000       1174.000       1174.000
       1173.000       1174.000       1173.000       1172.000       1172.000
       1172.000       1172.000       1172.000       1172.000       1173.000
       1175.000       1173.000       1171.000       1173.000       1172.000
       1171.000       1172.000       1172.000       1171.000       1171.000
       1172.000       1171.000       1170.000       1170.000       1170.000
       1169.000       1168.000       1169.000       1172.000       1170.000
       1170.000       1171.000       1170.000       1170.000       1172.000
       1173.000       1172.000       1174.000       1174.000       1175.000
       1173.000       1173.000       1174.000       1171.000       1169.000
       1168.000       1168.000       1170.000       1170.000       1172.000
       1172.000       1171.000       1171.000       1170.000       1170.000
       1170.000       1171.000       1170.000       1169.000       1167.000
       1166.000       1168.000       1170.000       1168.000       1167.000
       1167.000       1167.000       1168.000       1168.000       1169.000
       1169.000       1169.000       1168.000       1168.000       1171.000
       1172.000       1171.000       1169.000       1168.000       1167.000
       1166.000       1166.000       1168.000       1169.000       1167.000
       1167.000       1167.000       1170.000       1169.000       1168.000
       1169.000       1167.000       1169.000       1168.000       1166.000
       1166.000       1166.000       1163.000       1163.000       1166.000
       1168.000       1170.000       1169.000       1168.000       1169.000
       1168.000       1167.000       1166.000       1167.000       1168.000
       1168.000       1171.000       1173.000       1172.000       1172.000
       1169.000       1168.000       1168.000       1167.000       1169.000
       1169.000       1168.000       1169.000       1168.000       1170.000
       1171.000       1171.000       1172.000       1172.000       1172.000
       1173.000       1174.000       1172.000       1170.000       1171.000
       1170.000       1170.000       1170.000       1170.000       1170.000
       1167.000       1168.000       1168.000       1166.000       1167.000
       1167.000       1169.000       1169.000       1171.000       1172.000
       1171.000       1172.000       1171.000       1170.000       1168.000
       1168.000       1169.000       1169.000       1170.000       1171.000
       1170.000       1168.000       1168.000       1170.000       1168.000
       1168.000       1170.000       1170.000       1168.000       1168.000
       1170.000       1170.000       1168.000       1167.000       1169.000
       1167.000       1165.000       1167.000       1167.000       1166.000
       1165.000       1167.000       1169.000       1170.000       1172.000
       1172.000       1172.000       1172.000       1172.000       1171.000
       1168.000       1169.000       1172.000       1173.000       1172.000
       1170.000       1172.000       1172.000       1173.000       1174.000
       1173.000       1173.000       1173.000       1173.000       1173.000
       1173.000       1174.000       1175.000       1174.000       1174.000
       1175.000       1174.000       1173.000       1173.000       1173.000
       1174.000       1172.000       1170.000       1172.000       1172.000
       1174.000       1174.000       1172.000       1173.000       1171.000
       1169.000       1170.000       1170.000       1169.000       1170.000
       1170.000       1169.000       1171.000       1172.000       1172.000
       1172.000       1170.000       1169.000       1171.000       1170.000
       1171.000       1171.000       1170.000       1169.000       1168.000
       1171.000       1171.000       1169.000       1169.000       1170.000
       1170.000       1171.000       1171.000       1170.000       1172.000
       1172.000       1172.000       1173.000       1173.000       1172.000
       1172.000       1173.000       1173.000       1175.000       1175.000
       1173.000       1174.000       1172.000       1173.000       1174.000
       1174.000       1174.000       1174.000       1173.000       1173.000
       1174.000       1173.000       1174.000       1174.000       1173.000
       1173.000       1171.000       1171.000       1171.000       1171.000
       1172.000       1174.000       1174.000       1174.000       1174.000
       1173.000       1173.000       1173.000       1172.000       1171.000
       1174.000       1175.000       1173.000       1175.000       1174.000
       1174.000       1174.000       1172.000       1175.000       1174.000
       1172.000       1171.000       1171.000       1174.000       1172.000
       1173.000       1176.000       1176.000       1176.000       1176.000
       1175.000       1174.000       1174.000       1172.000       1173.000
       1174.000       1173.000       1174.000       1175.000       1176.000
       1175.000       1176.000       1175.000       1171.000       1170.000
       1172.000       1173.000       1171.000       1171.000       1174.000
       1171.000       1170.000       1171.000       1170.000       1171.000
       1171.000       1170.000       1171.000       1172.000       1174.000
       1174.000       1173.000       1172.000       1172.000       1173.000
       1172.000       1172.000       1173.000       1173.000       1172.000
       1171.000       1171.000       1170.000       1170.000       1171.000
       1171.000       1169.000       1169.000       1172.000       1173.000
       1171.000       1170.000       1168.000       1169.000       1170.000
       1169.000       1170.000       1170.000       1171.000       1172.000
       1171.000       1172.000       1173.000       1174.000       1172.000
       1171.000       1173.000       1172.000       1172.000       1171.000
       1171.000       1171.000       1168.000       1169.000       1172.000
       1172.000       1173.000       1173.000       1172.000       1173.000
       1173.000       1175.000       1174.000       1171.000       1172.000
       1171.000       1170.000       1173.000       1173.000       1172.000
       1174.000       1174.000       1174.000       1174.000       1173.000
       1172.000       1174.000       1174.000       1175.000       1174.000
       1172.000       1173.000       1172.000       1172.000       1173.000
       1171.000       1171.000       1171.000       1171.000       1170.000
       1171.000       1172.000       1171.000       1170.000       1170.000
       1170.000       1172.000       1172.000       1173.000       1173.000
       1171.000       1171.000       1172.000       1173.000       1172.000
       1173.000       1173.000       1172.000       1172.000       1170.000
       1170.000       1170.000       1170.000       1169.000       1170.000
       1172.000       1173.000       1173.000       1172.000       1173.000
       1174.000       1174.000       1172.000       1173.000       1173.000
