     0.05000000      -12345.00      -12345.00   3.440520e+09      -12345.00
   0.0005380000       1859.951      -681.0195      -12345.00      -12345.00
      -12345.00      -12345.00      -12345.00      -12345.00      -12345.00
      -12345.00      -12345.00      -12345.00      -12345.00      -12345.00
      -12345.00      -12345.00      -12345.00      -12345.00      -12345.00
      -12345.00      -12345.00      -12345.00      -12345.00      -12345.00
      -12345.00       24.97350       121.4971       77.10000       82.90000
      -42.72450       173.0647      -12345.00       22.00000      -12345.00
      -12345.00      -12345.00      -12345.00      -12345.00      -12345.00
      -12345.00      -12345.00      -12345.00      -12345.00      -12345.00
       9164.505       314.1752       144.3858       82.42202      -12345.00
      -12345.00      -12345.00       62.00000       90.00000      -12345.00
      -12345.00      -12345.00      -12345.00      -12345.00      -12345.00
      -12345.00      -12345.00      -12345.00      -12345.00      -12345.00
      2016       318        11        14        20
        19         6    -12345    -12345     37200
    -12345    -12345    -12345    -12345    -12345
         1    -12345    -12345    -12345    -12345
    -12345    -12345    -12345    -12345    -12345
    -12345    -12345    -12345    -12345    -12345
    -12345    -12345    -12345    -12345    -12345
         1    -12345    -12345    -12345    -12345
TATO    South Island, Ne
00      -12345  -12345  
-12345  -12345  -12345  
-12345  -12345  -12345  
-12345  -12345  -12345  
-12345  -12345  -12345  
-12345  -12345  BH2     
IU      -12345  Geotech 
[...]
       484751.0       484325.0       484137.0       484139.0       484064.0
       483817.0       483452.0       483198.0       483195.0       483429.0
       483854.0       484213.0       484503.0       484894.0       485265.0
       485564.0       485808.0       486120.0       486629.0       487135.0
       487436.0       487516.0       487594.0       487845.0       488180.0
       488547.0       488766.0       488842.0       488914.0       488819.0
       488552.0       488379.0       488370.0       488325.0       488147.0
       487930.0       487821.0       487884.0       488013.0       488067.0
       487978.0       487864.0       487871.0       487888.0       487869.0
       487945.0       488152.0       488392.0       488539.0       488550.0
       488437.0       488247.0       488015.0       487696.0       487348.0
       487068.0       486783.0       486337.0       485650.0       484985.0
       484495.0       483935.0       483222.0       482433.0       481753.0
       481236.0       480760.0       480185.0       479402.0       478654.0
       478113.0       477585.0       476858.0       475953.0       475067.0
       474253.0       473488.0       472779.0       471984.0       470993.0
       469832.0       468591.0       467453.0       466426.0       465342.0
       464098.0       462695.0       461205.0       459713.0       458302.0
       456814.0       455054.0       453067.0       450777.0       448227.0
       445658.0       443057.0       440417.0       437748.0       434956.0
       432040.0       428992.0       425824.0       422661.0       419590.0
       416563.0       413479.0       410401.0       407363.0       404308.0
       401187.0       397941.0       394709.0       391502.0       388214.0
       384825.0       381369.0       377966.0       374636.0       371286.0
       367815.0       364234.0       360589.0       356800.0       352768.0
       348603.0       344355.0       339945.0       335518.0       331119.0
       326619.0       321972.0       317202.0       312359.0       307634.0
       303076.0       298391.0       293490.0       288388.0       283209.0
       278109.0       272988.0       267780.0       262570.0       257462.0
       252309.0       246954.0       241547.0       236193.0       230817.0
       225484.0       220164.0       214784.0       209414.0       204086.0
       198742.0       193268.0       187773.0       182250.0       176657.0
       171158.0       165671.0       160070.0       154345.0       148553.0
       142824.0       137203.0       131642.0       126013.0       120375.0
       114809.0       109229.0       103606.0       98059.00       92713.00
       87364.00       81932.00       76548.00       71096.00       65580.00
       60095.00       54616.00       49126.00       43561.00       37950.00
       32439.00       26968.00       21353.00       15494.00       9555.000
       3678.000      -2270.000      -8270.000      -14195.00      -19995.00
      -25720.00      -31486.00      -37158.00      -42685.00      -48297.00
      -53888.00      -59186.00      -64268.00      -69244.00      -74186.00
      -79210.00      -84219.00      -89088.00      -93885.00      -98642.00
      -103442.0      -108343.0      -113324.0      -118507.0      -123822.0
      -129027.0      -134116.0      -139350.0      -144932.0      -150709.0
      -156496.0      -162277.0      -168117.0      -173941.0      -179620.0
      -185234.0      -190860.0      -196620.0      -202503.0      -208211.0
      -213618.0      -218819.0      -223949.0      -229102.0      -234148.0
      -239088.0      -244073.0      -248970.0      -253726.0      -258421.0
      -263108.0      -267899.0      -272700.0      -277399.0      -282089.0
      -286800.0      -291479.0      -296113.0      -300830.0      -305694.0
      -310507.0      -315150.0      -319587.0      -324005.0      -328633.0
      -333330.0      -337935.0      -342367.0      -346779.0      -351204.0
      -355540.0      -359758.0      -363752.0      -367798.0      -372026.0
      -376321.0      -380540.0      -384572.0      -388476.0      -392273.0
      -396045.0      -399744.0      -403445.0      -407262.0      -411149.0
      -415091.0      -418956.0      -422633.0      -425994.0      -429009.0
      -431992.0      -435073.0      -438159.0      -441251.0      -444273.0
      -447087.0      -449743.0      -452370.0      -454837.0      -457094.0
      -459241.0      -461256.0      -463107.0      -464826.0      -466449.0
      -467959.0      -469462.0      -470966.0      -472420.0      -473877.0
      -475267.0      -476575.0      -477820.0      -478936.0      -480101.0
      -481441.0      -482754.0      -483889.0      -484747.0      -485495.0
      -486290.0      -487025.0      -487748.0      -488515.0      -489242.0
      -489687.0      -489910.0      -490092.0      -490172.0      -490219.0
      -490215.0      -490104.0      -489878.0      -489574.0      -489253.0
      -488986.0      -488866.0      -488734.0      -488396.0      -487896.0
      -487468.0      -487142.0      -486843.0      -486568.0      -486211.0
      -485826.0      -485451.0      -484929.0      -484228.0      -483575.0
      -483018.0      -482296.0      -481258.0      -479938.0      -478466.0
      -477036.0      -475725.0      -474457.0      -473114.0      -471612.0
      -469956.0      -468168.0      -466174.0      -463974.0      -461767.0
      -459724.0      -457884.0      -456025.0      -453889.0      -451534.0
      -449138.0      -446792.0      -444509.0      -442270.0      -440073.0
      -437895.0      -435488.0      -432725.0      -429821.0      -426987.0
      -424284.0      -421671.0      -419088.0      -416368.0      -413333.0
      -410039.0      -406667.0      -403276.0      -399818.0      -396304.0
      -392671.0      -388759.0      -384541.0      -380117.0      -375776.0
      -371660.0      -367543.0      -363363.0      -359059.0      -354524.0
      -349876.0      -345156.0      -340315.0      -335400.0      -330537.0
      -325690.0      -320752.0      -315674.0      -310359.0      -304820.0
      -299136.0      -293411.0      -287783.0      -282147.0      -276256.0
      -270022.0      -263682.0      -257521.0      -251361.0      -245009.0
      -238524.0      -231942.0      -225380.0      -218784.0      -212070.0
      -205289.0      -198390.0      -191346.0      -184156.0      -176891.0
      -169594.0      -162322.0      -155162.0      -147998.0      -140768.0
      -133459.0      -126059.0      -118735.0      -111570.0      -104439.0
      -97343.00      -90366.00      -83486.00      -76640.00      -69766.00
      -62850.00      -55959.00      -49173.00      -42528.00      -35926.00
      -29212.00      -22453.00      -15597.00      -8662.000      -1874.000
       4882.000       11642.00       18349.00       25104.00       31840.00
       38560.00       45315.00       52002.00       58624.00       65235.00
       71892.00       78632.00       85352.00       91936.00       98366.00
       104680.0       110797.0       116687.0       122531.0       128487.0
       134499.0       140432.0       146175.0       151755.0       157259.0
       162654.0       167915.0       173014.0       178084.0       183172.0
       188218.0       193214.0       198016.0       202676.0       207243.0
       211782.0       216317.0       220748.0       225141.0       229508.0
       233844.0       238202.0       242582.0       246907.0       251183.0
       255386.0       259469.0       263509.0       267484.0       271386.0
       275191.0       278903.0       282508.0       285939.0       289335.0
       292833.0       296430.0       299869.0       302910.0       305762.0
       308688.0       311740.0       314791.0       317651.0       320353.0
       323094.0       325937.0       328695.0       331276.0       333775.0
       336285.0       338849.0       341331.0       343723.0       346094.0
       348463.0       350860.0       353154.0       355326.0       357432.0
       359489.0       361556.0       363542.0       365436.0       367293.0
       368936.0       370397.0       371878.0       373370.0       374811.0
       376108.0       377322.0       378432.0       379362.0       380205.0
       380979.0       381719.0       382451.0       383311.0       384293.0
       385048.0       385450.0       385784.0       386264.0       386757.0
       387133.0       387313.0       387367.0       387408.0       387343.0
       387225.0       387132.0       386927.0       386568.0       386221.0
       385888.0       385469.0       385041.0       384688.0       384333.0
       383864.0       383283.0       382615.0       381962.0       381308.0
       380609.0       379963.0       379296.0       378548.0       377700.0
       376688.0       375698.0       374876.0       373905.0       372722.0
       371497.0       370193.0       369004.0       367939.0       366782.0
       365445.0       363796.0       361918.0       360034.0       358137.0
       356282.0       354521.0       352732.0       350893.0       348981.0
       346954.0       344828.0       342675.0       340663.0       338716.0
       336650.0       334482.0       332309.0       330258.0       328093.0
       325649.0       323240.0       320898.0       318463.0       315951.0
       313413.0       310944.0       308609.0       306278.0       303871.0
       301451.0       298925.0       296336.0       293844.0       291398.0
       288930.0       286332.0       283593.0       280935.0       278348.0
       275723.0       273108.0       270511.0       267887.0       265212.0
       262556.0       259774.0       256772.0       253810.0       250879.0
       247799.0       244719.0       241684.0       238582.0       235381.0
       232041.0       228609.0       225106.0       221675.0       218418.0
       215082.0       211510.0       207738.0       203888.0       200019.0
       196128.0       192337.0       188522.0       184512.0       180451.0
       176378.0       172288.0       168234.0       164185.0       160128.0
       156051.0       151840.0       147477.0       143181.0       139090.0
       135056.0       130860.0       126486.0       122034.0       117609.0
       113255.0       108895.0       104523.0       100105.0       95574.00
       91004.00       86329.00       81489.00       76560.00       71663.00
       66842.00       61726.00       56178.00       50468.00       44640.00
       38779.00       32995.00       27110.00       21017.00       14776.00
       8422.000       2016.000      -4366.000      -10843.00      -17420.00
      -23920.00      -30426.00      -36993.00      -43560.00      -50111.00
      -56683.00      -63351.00      -70176.00      -77143.00      -84108.00
      -91062.00      -97953.00      -104789.0      -111712.0      -118743.0
      -125825.0      -132978.0      -140296.0      -147670.0      -155078.0
      -162552.0      -169996.0      -177416.0      -184817.0      -192258.0
      -199783.0      -207259.0      -214692.0      -222235.0      -229973.0
      -237848.0      -245670.0      -253375.0      -260881.0      -268304.0
      -275908.0      -283666.0      -291621.0      -299616.0      -307496.0
      -315434.0      -323383.0      -331368.0      -339383.0      -347245.0
      -355183.0      -363299.0      -371354.0      -379408.0      -387456.0
      -395504.0      -403704.0      -412072.0      -420572.0      -429077.0
      -437469.0      -445627.0      -453578.0      -461354.0      -469010.0
      -476744.0      -484548.0      -492321.0      -499857.0      -507173.0
      -514585.0      -522047.0      -529414.0      -536589.0      -543521.0
      -550469.0      -557475.0      -564459.0      -571499.0      -578534.0
      -585567.0      -592495.0      -599197.0      -605851.0      -612549.0
      -619296.0      -626029.0      -632729.0      -639516.0      -646303.0
      -652922.0      -659473.0      -666080.0      -672563.0      -678815.0
      -684972.0      -691122.0      -697272.0      -703431.0      -709444.0
      -715271.0      -721126.0      -726990.0      -732697.0      -738163.0
      -743378.0      -748442.0      -753446.0      -758296.0      -762993.0
      -767656.0      -772184.0      -776526.0      -780725.0      -784807.0
      -788698.0      -792411.0      -796168.0      -799824.0      -803299.0
      -806766.0      -810034.0      -813094.0      -815967.0      -818691.0
      -821482.0      -824231.0      -826923.0      -829556.0      -832058.0
      -834258.0      -836278.0      -838474.0      -840584.0      -842498.0
      -844323.0      -845975.0      -847439.0      -848781.0      -850059.0
      -851345.0      -852400.0      -853047.0      -853855.0      -854879.0
      -855731.0      -856454.0      -856926.0      -857180.0      -857530.0
      -857775.0      -857737.0      -857525.0      -857076.0      -856601.0
      -856184.0      -855599.0      -854821.0      -853952.0      -853016.0
      -851883.0      -850708.0      -849525.0      -848186.0      -846829.0
      -845378.0      -843741.0      -841994.0      -840108.0      -838123.0
      -836072.0      -833966.0      -831782.0      -829411.0      -826847.0
      -824075.0      -821154.0      -818314.0      -815526.0      -812649.0
      -809597.0      -806257.0      -802762.0      -799156.0      -795398.0
      -791575.0      -787730.0      -783951.0      -780154.0      -776196.0
      -772143.0      -768068.0      -764140.0      -760302.0      -756303.0
      -752213.0      -748058.0      -743722.0      -739276.0      -734859.0
      -730417.0      -725850.0      -721075.0      -716046.0      -710866.0
      -705385.0      -699574.0      -693760.0      -688037.0      -682141.0
      -675889.0      -669368.0      -662659.0      -655867.0      -649045.0
      -642210.0      -635374.0      -628451.0      -621579.0      -614935.0
      -608367.0      -601608.0      -594600.0      -587472.0      -580370.0
      -573402.0      -566476.0      -559575.0      -552710.0      -545716.0
      -538574.0      -531212.0      -523594.0      -515776.0      -507934.0
      -500082.0      -491973.0      -483682.0      -475180.0      -466472.0
      -457808.0      -449098.0      -440259.0      -431367.0      -422273.0
      -412897.0      -403408.0      -393862.0      -384305.0      -374716.0
      -365059.0      -355421.0      -345700.0      -335934.0      -326134.0
      -316110.0      -305934.0      -295699.0      -285462.0      -275182.0
      -264784.0      -254394.0      -243973.0      -233507.0      -223091.0
      -212496.0      -201752.0      -191062.0      -180429.0      -169826.0
      -159080.0      -148239.0      -137366.0      -126505.0      -115779.0
      -105217.0      -94797.00      -84319.00      -73680.00      -62967.00
      -52373.00      -41953.00      -31518.00      -21070.00      -10672.00
      -358.0000       9848.000       20309.00       31066.00       41738.00
       52187.00       62378.00       72501.00       82700.00       92846.00
       102940.0       113016.0       123089.0       133295.0       143423.0
       153222.0       162853.0       172604.0       182642.0       192673.0
       202514.0       212266.0       222021.0       231844.0       241675.0
       251547.0       261485.0       271310.0       281017.0       290769.0
       300383.0       309746.0       318978.0       328147.0       337268.0
       346335.0       355233.0       363820.0       372231.0       380494.0
       388650.0       396889.0       405078.0       413051.0       420782.0
       428440.0       436272.0       444204.0       452124.0       459959.0
       467664.0       475308.0       482891.0       490420.0       497947.0
       505618.0       513462.0       521247.0       528872.0       536297.0
       543659.0       551131.0       558559.0       565983.0       573433.0
       580973.0       588622.0       596041.0       603333.0       610725.0
       618251.0       625904.0       633352.0       640512.0       647657.0
       654973.0       662321.0       669466.0       676413.0       683275.0
       690257.0       697349.0       704412.0       711392.0       718285.0
       725154.0       732007.0       738788.0       745504.0       752338.0
       759275.0       766193.0       773111.0       779972.0       786836.0
       793739.0       800638.0       807507.0       814246.0       820882.0
       827602.0       834381.0       841013.0       847540.0       854010.0
       860483.0       867092.0       873747.0       880271.0       886626.0
       892880.0       899072.0       905297.0       911673.0       918162.0
       924581.0       930832.0       937041.0       943236.0       949452.0
       955786.0       962045.0       968194.0       974382.0       980569.0
       986692.0       992657.0       998480.0       1004190.       1009835.
       1015533.       1021182.       1026717.       1032234.       1037786.
       1043238.       1048590.       1053946.       1059207.       1064351.
       1069343.       1074236.       1079133.       1084022.       1088994.
       1094064.       1099229.       1104437.       1109501.       1114333.
       1118886.       1123286.       1127723.       1132272.       1136847.
       1141265.       1145631.       1150064.       1154444.       1158626.
       1162580.       1166417.       1170245.       1174008.       1177579.
       1180989.       1184377.       1187712.       1190872.       1193926.
       1196929.       1199861.       1202855.       1205923.       1208835.
       1211506.       1214003.       1216430.       1218926.       1221441.
       1223821.       1225932.       1227838.       1229811.       1231825.
       1233772.       1235651.       1237391.       1238999.       1240467.
       1241711.       1242703.       1243691.       1244782.       1245661.
       1246235.       1246667.       1247077.       1247547.       1247935.
       1248118.       1248194.       1248213.       1248045.       1247588.
       1246970.       1246326.       1245706.       1245130.       1244546.
       1243834.       1243024.       1242343.       1241852.       1241298.
       1240502.       1239506.       1238393.       1237236.       1236031.
       1234761.       1233348.       1231823.       1230374.       1228959.
       1227504.       1225951.       1224307.       1222712.       1221152.
