     0.02500000      -12345.00      -12345.00   3.350240e+10      -12345.00
   0.0005380000       1859.976      -681.0195      -12345.00      -12345.00
      -12345.00      -12345.00      -12345.00      -12345.00      -12345.00
      -12345.00      -12345.00      -12345.00      -12345.00      -12345.00
      -12345.00      -12345.00      -12345.00      -12345.00      -12345.00
      -12345.00      -12345.00      -12345.00      -12345.00      -12345.00
      -12345.00       24.97350       121.4971       159.7000      0.3000000
      -42.72450       173.0647      -12345.00       22.00000      -12345.00
      -12345.00      -12345.00      -12345.00      -12345.00      -12345.00
      -12345.00      -12345.00      -12345.00      -12345.00      -12345.00
       9164.505       314.1752       144.3858       82.42202      -12345.00
      -12345.00      -12345.00       0.000000       90.00000      -12345.00
      -12345.00      -12345.00      -12345.00      -12345.00      -12345.00
      -12345.00      -12345.00      -12345.00      -12345.00      -12345.00
      2016       318        11        14        20
        19         6    -12345    -12345     74400
    -12345    -12345    -12345    -12345    -12345
         1    -12345    -12345    -12345    -12345
    -12345    -12345    -12345    -12345    -12345
    -12345    -12345    -12345    -12345    -12345
    -12345    -12345    -12345    -12345    -12345
         1    -12345    -12345    -12345    -12345
TATO    South Island, Ne
10      -12345  -12345  
-12345  -12345  -12345  
-12345  -12345  -12345  
-12345  -12345  -12345  
-12345  -12345  -12345  
-12345  -12345  BH1     
IU      -12345  Streckei
[...]
      -2331692.      -2356313.      -2379404.      -2401175.      -2423789.
      -2448047.      -2472919.      -2493881.      -2517662.      -2538543.
      -2557460.      -2580587.      -2599871.      -2619194.      -2643391.
      -2669490.      -2693993.      -2711571.      -2734567.      -2761326.
      -2776674.      -2799254.      -2822178.      -2839845.      -2862298.
      -2883858.      -2908885.      -2928110.      -2945472.      -2966663.
      -2992707.      -3021044.      -3034019.      -3054963.      -3087076.
      -3102509.      -3120354.      -3147772.      -3168011.      -3187681.
      -3207769.      -3225663.      -3251127.      -3277443.      -3298352.
      -3323431.      -3343617.      -3358833.      -3381475.      -3403437.
      -3426867.      -3447300.      -3463943.      -3489844.      -3509940.
      -3530293.      -3556603.      -3573665.      -3593047.      -3614448.
      -3635136.      -3654727.      -3672397.      -3695861.      -3711019.
      -3728317.      -3752288.      -3766197.      -3785111.      -3802927.
      -3817558.      -3841018.      -3856898.      -3872335.      -3894770.
      -3910618.      -3925376.      -3939791.      -3953000.      -3966083.
      -3978031.      -3993366.      -4004489.      -4020503.      -4042633.
      -4051160.      -4065117.      -4084330.      -4092467.      -4106535.
      -4120575.      -4130526.      -4146507.      -4158851.      -4168587.
      -4183187.      -4194218.      -4205704.      -4222621.      -4228822.
      -4234693.      -4247472.      -4255167.      -4270845.      -4283564.
      -4293376.      -4314897.      -4318983.      -4320977.      -4332896.
      -4335689.      -4349614.      -4363313.      -4365206.      -4375716.
      -4388578.      -4394831.      -4404230.      -4417138.      -4426577.
      -4435349.      -4443067.      -4453937.      -4469702.      -4476521.
      -4477726.      -4483092.      -4489329.      -4502881.      -4519381.
      -4525025.      -4529693.      -4538114.      -4543696.      -4553479.
      -4568573.      -4577209.      -4583149.      -4593463.      -4600148.
      -4609054.      -4623278.      -4628494.      -4632287.      -4642104.
      -4652128.      -4662119.      -4665405.      -4671906.      -4685136.
      -4684052.      -4682803.      -4694957.      -4700406.      -4700792.
      -4708677.      -4715919.      -4720055.      -4724582.      -4728510.
      -4734475.      -4734769.      -4732684.      -4738012.      -4741797.
      -4745672.      -4748189.      -4747629.      -4748729.      -4746062.
      -4748104.      -4751890.      -4748838.      -4747194.      -4747795.
      -4750742.      -4751878.      -4752623.      -4753525.      -4752505.
      -4750466.      -4744633.      -4745388.      -4744771.      -4741215.
      -4744356.      -4740264.      -4737631.      -4739243.      -4737656.
      -4737926.      -4732702.      -4727006.      -4724351.      -4720460.
      -4718360.      -4715166.      -4711637.      -4709421.      -4705193.
      -4704239.      -4705380.      -4699441.      -4696180.      -4693515.
      -4689355.      -4691021.      -4686482.      -4681077.      -4679813.
      -4673995.      -4672457.      -4676261.      -4668929.      -4664062.
      -4669356.      -4661062.      -4655974.      -4658657.      -4652350.
      -4649653.      -4650592.      -4648532.      -4644788.      -4641734.
      -4637917.      -4634743.      -4629524.      -4623868.      -4626969.
      -4623798.      -4619891.      -4623572.      -4614894.      -4608461.
      -4612366.      -4607592.      -4603068.      -4599396.      -4589358.
      -4588782.      -4587711.      -4577212.      -4575616.      -4571501.
      -4562415.      -4559502.      -4551660.      -4544786.      -4543534.
      -4536474.      -4525707.      -4518797.      -4513181.      -4508060.
      -4498807.      -4487073.      -4486380.      -4476329.      -4456788.
      -4455926.      -4445684.      -4425344.      -4422926.      -4411493.
      -4400273.      -4396749.      -4378667.      -4368466.      -4358805.
      -4345828.      -4337135.      -4319076.      -4306569.      -4297268.
      -4284176.      -4265872.      -4250752.      -4244574.      -4234633.
      -4221884.      -4198401.      -4189303.      -4187359.      -4168673.
      -4162047.      -4148373.      -4133847.      -4133904.      -4120469.
      -4106445.      -4095913.      -4082750.      -4069859.      -4054106.
      -4041585.      -4030898.      -4021084.      -4006791.      -3993941.
      -3981475.      -3966304.      -3961811.      -3950028.      -3935742.
      -3928783.      -3911655.      -3896808.      -3890296.      -3873718.
      -3854643.      -3842385.      -3827556.      -3814448.      -3798169.
      -3779670.      -3766293.      -3749643.      -3736675.      -3723061.
      -3705574.      -3691654.      -3667566.      -3645299.      -3635180.
      -3616569.      -3594826.      -3577843.      -3560250.      -3540402.
      -3523533.      -3512117.      -3489682.      -3468795.      -3456584.
      -3438349.      -3423723.      -3401136.      -3374791.      -3358820.
      -3338630.      -3317883.      -3297884.      -3277863.      -3259545.
      -3238733.      -3225108.      -3210038.      -3182776.      -3167731.
      -3153491.      -3125728.      -3109754.      -3092048.      -3067971.
      -3049642.      -3027206.      -3012135.      -2993756.      -2963883.
      -2947459.      -2930674.      -2908243.      -2889643.      -2866425.
      -2845455.      -2827763.      -2808006.      -2787375.      -2764195.
      -2739918.      -2719101.      -2696576.      -2677716.      -2662578.
      -2633384.      -2608955.      -2593344.      -2566510.      -2545456.
      -2529206.      -2503343.      -2481534.      -2461462.      -2438778.
      -2418533.      -2392393.      -2366436.      -2348759.      -2327511.
      -2300284.      -2281546.      -2259472.      -2234663.      -2219999.
      -2190326.      -2167247.      -2155140.      -2120836.      -2098254.
      -2082830.      -2058120.      -2041622.      -2012554.      -1991129.
      -1980759.      -1944398.      -1917598.      -1908133.      -1884176.
      -1858478.      -1840066.      -1823955.      -1804632.      -1780170.
      -1761460.      -1744163.      -1718051.      -1697793.      -1683079.
      -1660352.      -1637300.      -1616127.      -1593323.      -1568008.
      -1546698.      -1527731.      -1504241.      -1485922.      -1464234.
      -1442114.      -1426141.      -1401889.      -1378596.      -1356756.
      -1333192.      -1312764.      -1289475.      -1268098.      -1245336.
      -1223345.      -1202331.      -1178307.      -1153979.      -1123911.
      -1105646.      -1082540.      -1053331.      -1034874.      -1003526.
      -987916.0      -967064.0      -925012.0      -915286.0      -899629.0
      -853652.0      -830357.0      -829195.0      -797492.0      -761021.0
      -751191.0      -722536.0      -696343.0      -677166.0      -642573.0
      -630494.0      -608209.0      -576336.0      -568754.0      -534419.0
      -498661.0      -494716.0      -459868.0      -416586.0      -419126.0
      -397257.0      -352172.0      -344880.0      -326503.0      -299400.0
      -276378.0      -242550.0      -227015.0      -206694.0      -179616.0
      -159625.0      -135271.0      -116426.0      -91955.00      -70969.00
      -55691.00      -25228.00      -1500.000       16867.00       41465.00
       60998.00       87267.00       109377.0       125852.0       152936.0
       172543.0       188690.0       212978.0       238809.0       256332.0
       276418.0       307072.0       325928.0       341978.0       364892.0
       388418.0       411309.0       431802.0       460227.0       487423.0
       503849.0       524756.0       551818.0       571325.0       589121.0
       613828.0       636748.0       657931.0       681115.0       705639.0
       731457.0       754302.0       779543.0       812699.0       831145.0
       846913.0       883107.0       908881.0       923443.0       951989.0
       985674.0       1004523.       1022153.       1054359.       1083197.
       1107857.       1130247.       1151616.       1185299.       1214934.
       1234997.       1262256.       1294096.       1316621.       1336624.
       1374601.       1404153.       1417807.       1451318.       1481513.
       1498585.       1533056.       1561156.       1581721.       1615232.
       1641317.       1667481.       1694933.       1716673.       1746534.
       1778797.       1800144.       1820598.       1856245.       1882522.
       1909030.       1942225.       1951465.       1981848.       2020571.
       2031725.       2067682.       2096476.       2104215.       2143914.
       2171699.       2185254.       2221427.       2239955.       2259926.
       2298016.       2317234.       2342117.       2372014.       2394138.
       2424044.       2445152.       2464475.       2492758.       2518130.
       2543908.       2565205.       2589277.       2623214.       2644473.
       2668924.       2698945.       2715739.       2742191.       2769449.
       2795906.       2826286.       2848582.       2875827.       2894242.
       2920289.       2960504.       2976143.       3001830.       3036059.
       3049874.       3080072.       3108462.       3126407.       3158890.
       3182995.       3204115.       3233145.       3261058.       3283701.
       3302502.       3331108.       3360378.       3381704.       3402843.
       3428777.       3453902.       3471867.       3495913.       3523660.
       3548421.       3573948.       3593077.       3612727.       3639569.
       3661243.       3679117.       3703344.       3728987.       3750929.
       3771992.       3794394.       3817077.       3836915.       3856669.
       3880143.       3903615.       3922477.       3941438.       3965104.
       3985338.       4004865.       4029140.       4046261.       4066820.
       4094683.       4109136.       4125778.       4152533.       4171958.
       4184910.       4203230.       4229820.       4247108.       4265315.
       4287805.       4301884.       4329031.       4347259.       4357377.
       4388108.       4404077.       4412434.       4435462.       4450817.
       4466841.       4490618.       4504490.       4522601.       4543871.
       4556079.       4579944.       4601853.       4614051.       4632772.
       4646714.       4661681.       4686492.       4703032.       4713429.
       4730362.       4748875.       4769430.       4783450.       4792998.
       4813341.       4831314.       4846845.       4861381.       4866631.
       4889446.       4915097.       4914683.       4936967.       4960751.
       4961094.       4986545.       5000718.       5010384.       5038591.
       5041287.       5059258.       5086386.       5085379.       5104950.
       5122375.       5126520.       5151061.       5164415.       5172639.
       5187145.       5200139.       5218977.       5225946.       5238386.
       5257641.       5264447.       5281205.       5295754.       5303776.
       5321288.       5331828.       5339945.       5354935.       5365872.
       5375754.       5384376.       5394134.       5408947.       5415080.
       5426808.       5441865.       5446656.       5458623.       5464176.
       5471706.       5488289.       5492055.       5502077.       5514747.
       5519081.       5531074.       5538365.       5542446.       5554634.
       5562667.       5567806.       5575516.       5586317.       5591837.
       5594830.       5606228.       5612931.       5620398.       5631579.
       5635047.       5646224.       5657689.       5657599.       5663835.
       5673037.       5680091.       5689197.       5695053.       5702069.
       5710053.       5713132.       5722303.       5728609.       5727468.
       5737358.       5746829.       5751864.       5755333.       5758367.
       5768351.       5771795.       5773437.       5781767.       5789152.
       5789038.       5789423.       5800733.       5800690.       5795939.
       5799604.       5803973.       5808247.       5807621.       5816102.
       5819335.       5813703.       5821252.       5824401.       5820303.
       5821583.       5825834.       5827903.       5826590.       5823475.
       5828883.       5835681.       5826963.       5825303.       5835060.
       5837340.       5837887.       5841627.       5848554.       5851172.
       5846540.       5847509.       5851393.       5851917.       5852264.
       5853794.       5856164.       5857585.       5856965.       5859267.
       5862929.       5860156.       5862419.       5865041.       5862538.
       5863508.       5860779.       5861490.       5866259.       5868357.
       5866800.       5863937.       5866297.       5867139.       5865388.
       5862800.       5862002.       5859511.       5852707.       5850532.
       5850270.       5848985.       5846127.       5844324.       5839073.
       5832011.       5830960.       5827416.       5828699.       5826367.
       5823468.       5826365.       5818288.       5820693.       5819587.
       5813944.       5815947.       5807835.       5813470.       5814922.
       5807339.       5807293.       5801167.       5804895.       5806664.
       5797591.       5799404.       5806945.       5803969.       5802658.
       5805919.       5801805.       5800672.       5801114.       5802294.
       5798888.       5794112.       5792632.       5785394.       5783986.
       5781988.       5777379.       5775244.       5773948.       5777363.
       5774827.       5768527.       5767166.       5764109.       5755533.
       5752568.       5752251.       5742959.       5736646.       5730512.
       5725946.       5726021.       5720325.       5718155.       5714233.
       5708141.       5701998.       5694659.       5693724.       5691179.
       5683845.       5677637.       5679224.       5675454.       5661927.
       5652804.       5649600.       5644372.       5638207.       5637321.
       5629740.       5626232.       5624789.       5616893.       5615158.
       5609726.       5601047.       5592455.       5590804.       5588860.
       5580315.       5574343.       5565031.       5561854.       5554765.
       5545337.       5539970.       5532943.       5532493.       5521188.
       5514778.       5518495.       5509595.       5502580.       5497481.
       5492016.       5485917.       5473418.       5464923.       5459899.
       5454563.       5449772.       5440831.       5436525.       5437237.
       5428132.       5421305.       5419368.       5414488.       5410079.
       5403509.       5403172.       5398245.       5387034.       5386668.
       5385509.       5370623.       5361076.       5366002.       5355010.
       5343919.       5347793.       5342925.       5334439.       5332762.
       5332870.       5325441.       5320420.       5316675.       5312994.
       5310550.       5301249.       5299955.       5295579.       5284066.
       5280785.       5273662.       5267067.       5263422.       5250198.
       5243685.       5245400.       5239353.       5231611.       5225062.
       5219756.       5212189.       5203128.       5196054.       5186349.
       5178011.       5175387.       5166761.       5153740.       5156785.
       5148161.       5132836.       5137849.       5123242.       5106824.
       5110718.       5102222.       5087008.       5082681.       5076962.
       5061387.       5054576.       5052238.       5041541.       5033347.
       5027834.       5020818.       5011982.       5001029.       4996780.
       4991992.       4979095.       4971375.       4968229.       4963065.
       4952245.       4937549.       4937014.       4938651.       4917958.
       4907161.       4909919.       4898336.       4884619.       4876379.
       4878753.       4872629.       4852276.       4849095.       4847809.
       4838110.       4832226.       4822763.       4815042.       4806613.
       4791609.       4786436.       4783073.       4767790.       4755765.
       4754191.       4748166.       4738835.       4735374.       4721665.
       4710678.       4708771.       4691001.       4681287.       4679677.
       4666255.       4660305.       4654549.       4643876.       4634769.
       4624236.       4614675.       4605572.       4602049.       4592878.
       4579367.       4573892.       4564585.       4557974.       4551579.
       4537415.       4529550.       4520992.       4509457.       4500255.
       4488456.       4482223.       4473745.       4460504.       4452234.
       4444710.       4437491.       4427653.       4420020.       4413468.
       4402342.       4391771.       4382043.       4372924.       4360452.
       4346837.       4339182.       4331640.       4322189.       4311218.
       4302658.       4297473.       4286669.       4278677.       4270470.
       4258566.       4246579.       4234049.       4225661.       4213029.
       4201472.       4195679.       4188389.       4173285.       4156504.
       4152488.       4146380.       4129621.       4120481.       4114843.
       4102585.       4093109.       4081959.       4073950.       4066608.
       4049140.       4037728.       4028054.       4016427.       4008535.
       3996297.       3985883.       3978897.       3964436.       3954688.
       3947205.       3929496.       3919442.       3910302.       3897197.
       3889048.       3878372.       3865447.       3850305.       3840503.
       3832333.       3819280.       3811539.       3802293.       3793003.
       3788576.       3772818.       3757135.       3753892.       3740823.
       3725800.       3716644.       3704412.       3698264.       3685488.
       3670599.       3668632.       3660507.       3648240.       3639585.
       3630635.       3623704.       3611787.       3601083.       3594364.
       3580574.       3568092.       3559533.       3549295.       3540346.
       3531695.       3520221.       3510433.       3499821.       3486860.
       3478006.       3463723.       3452272.       3448132.       3434368.
       3421573.       3409642.       3396495.       3386604.       3373646.
