     0.02500000      -12345.00      -12345.00   1.974680e+09      -12345.00
   0.0005380000       1859.976      -693.0195      -12345.00      -12345.00
      -12345.00      -12345.00      -12345.00      -12345.00      -12345.00
      -12345.00      -12345.00      -12345.00      -12345.00      -12345.00
      -12345.00      -12345.00      -12345.00      -12345.00      -12345.00
      -12345.00      -12345.00      -12345.00      -12345.00      -12345.00
      -12345.00      -38.05680      -61.97870       508.0000       32.00000
      -42.72450       173.0647      -12345.00       22.00000      -12345.00
      -12345.00      -12345.00      -12345.00      -12345.00      -12345.00
      -12345.00      -12345.00      -12345.00      -12345.00      -12345.00
       9486.066       139.5221       217.2988       85.31403      -12345.00
      -12345.00      -12345.00       107.0000       90.00000      -12345.00
      -12345.00      -12345.00      -12345.00      -12345.00      -12345.00
      -12345.00      -12345.00      -12345.00      -12345.00      -12345.00
      2016       318        11        14        32
        19         6    -12345    -12345     74400
    -12345    -12345    -12345    -12345    -12345
         1    -12345    -12345    -12345    -12345
    -12345    -12345    -12345    -12345    -12345
    -12345    -12345    -12345    -12345    -12345
    -12345    -12345    -12345    -12345    -12345
         1    -12345    -12345    -12345    -12345
TRQA    South Island, Ne
10      -12345  -12345  
-12345  -12345  -12345  
-12345  -12345  -12345  
-12345  -12345  -12345  
-12345  -12345  -12345  
-12345  -12345  BH1     
IU      -12345  T120 pos
[...]
      -16796.00      -16810.00      -16818.00      -16823.00      -16823.00
      -16823.00      -16819.00      -16809.00      -16794.00      -16782.00
      -16766.00      -16745.00      -16722.00      -16695.00      -16667.00
      -16635.00      -16597.00      -16557.00      -16512.00      -16466.00
      -16413.00      -16357.00      -16292.00      -16223.00      -16153.00
      -16072.00      -15992.00      -15905.00      -15813.00      -15714.00
      -15605.00      -15498.00      -15376.00      -15244.00      -15112.00
      -14968.00      -14822.00      -14670.00      -14506.00      -14344.00
      -14181.00      -14002.00      -13818.00      -13635.00      -13446.00
      -13254.00      -13059.00      -12858.00      -12651.00      -12441.00
      -12229.00      -12008.00      -11792.00      -11574.00      -11341.00
      -11110.00      -10880.00      -10647.00      -10412.00      -10176.00
      -9944.000      -9704.000      -9465.000      -9235.000      -9000.000
      -8761.000      -8519.000      -8285.000      -8052.000      -7820.000
      -7590.000      -7357.000      -7133.000      -6908.000      -6684.000
      -6467.000      -6245.000      -6029.000      -5816.000      -5607.000
      -5403.000      -5200.000      -4995.000      -4788.000      -4584.000
      -4387.000      -4190.000      -3992.000      -3792.000      -3594.000
      -3395.000      -3195.000      -2997.000      -2789.000      -2579.000
      -2370.000      -2151.000      -1930.000      -1711.000      -1484.000
      -1250.000      -1012.000      -767.0000      -514.0000      -258.0000
      -1.000000       276.0000       556.0000       840.0000       1139.000
       1434.000       1737.000       2051.000       2368.000       2683.000
       3005.000       3337.000       3671.000       4009.000       4341.000
       4680.000       5027.000       5367.000       5712.000       6061.000
       6411.000       6757.000       7105.000       7460.000       7812.000
       8162.000       8507.000       8856.000       9218.000       9573.000
       9930.000       10291.00       10652.00       11022.00       11395.00
       11773.00       12155.00       12544.00       12940.00       13339.00
       13751.00       14169.00       14590.00       15022.00       15468.00
       15921.00       16375.00       16845.00       17323.00       17811.00
       18312.00       18822.00       19349.00       19883.00       20430.00
       20995.00       21562.00       22142.00       22743.00       23350.00
       23968.00       24602.00       25246.00       25907.00       26581.00
       27264.00       27963.00       28676.00       29402.00       30148.00
       30904.00       31665.00       32445.00       33246.00       34058.00
       34880.00       35717.00       36572.00       37444.00       38329.00
       39223.00       40137.00       41074.00       42023.00       42989.00
       43969.00       44964.00       45983.00       47015.00       48058.00
       49116.00       50190.00       51275.00       52378.00       53498.00
       54627.00       55769.00       56919.00       58084.00       59269.00
       60458.00       61652.00       62857.00       64075.00       65311.00
       66548.00       67783.00       69033.00       70293.00       71552.00
       72820.00       74094.00       75371.00       76658.00       77951.00
       79247.00       80546.00       81854.00       83173.00       84498.00
       85822.00       87153.00       88495.00       89840.00       91188.00
       92541.00       93905.00       95275.00       96644.00       98022.00
       99405.00       100790.0       102185.0       103587.0       104989.0
       106394.0       107804.0       109220.0       110646.0       112078.0
       113515.0       114953.0       116396.0       117842.0       119288.0
       120738.0       122191.0       123646.0       125105.0       126564.0
       128025.0       129485.0       130948.0       132416.0       133881.0
       135341.0       136801.0       138263.0       139723.0       141181.0
       142638.0       144096.0       145567.0       147026.0       148479.0
       149938.0       151388.0       152839.0       154291.0       155738.0
       157184.0       158631.0       160075.0       161514.0       162949.0
       164377.0       165806.0       167232.0       168645.0       170054.0
       171458.0       172858.0       174254.0       175635.0       177013.0
       178392.0       179755.0       181107.0       182456.0       183797.0
       185129.0       186453.0       187761.0       189057.0       190350.0
       191632.0       192899.0       194146.0       195382.0       196611.0
       197817.0       199006.0       200180.0       201340.0       202492.0
       203619.0       204730.0       205828.0       206903.0       207968.0
       209013.0       210031.0       211034.0       212030.0       213010.0
       213962.0       214902.0       215828.0       216727.0       217611.0
       218473.0       219326.0       220165.0       220980.0       221780.0
       222557.0       223325.0       224083.0       224813.0       225530.0
       226241.0       226928.0       227594.0       228254.0       228896.0
       229517.0       230128.0       230719.0       231296.0       231855.0
       232393.0       232924.0       233437.0       233935.0       234423.0
       234888.0       235344.0       235781.0       236199.0       236612.0
       237005.0       237380.0       237742.0       238088.0       238415.0
       238728.0       239035.0       239318.0       239587.0       239849.0
       240087.0       240313.0       240532.0       240735.0       240920.0
       241091.0       241251.0       241398.0       241528.0       241636.0
       241733.0       241823.0       241897.0       241950.0       241985.0
       242013.0       242024.0       242014.0       241986.0       241943.0
       241890.0       241817.0       241719.0       241608.0       241484.0
       241342.0       241177.0       240989.0       240790.0       240579.0
       240346.0       240085.0       239802.0       239508.0       239194.0
       238853.0       238493.0       238114.0       237722.0       237314.0
       236876.0       236417.0       235946.0       235459.0       234953.0
       234423.0       233874.0       233310.0       232729.0       232124.0
       231495.0       230851.0       230189.0       229505.0       228802.0
       228075.0       227326.0       226570.0       225792.0       224986.0
       224174.0       223339.0       222482.0       221608.0       220710.0
       219792.0       218854.0       217896.0       216922.0       215935.0
       214927.0       213905.0       212870.0       211812.0       210744.0
       209665.0       208563.0       207446.0       206317.0       205173.0
       204019.0       202848.0       201663.0       200469.0       199264.0
       198055.0       196832.0       195592.0       194350.0       193098.0
       191822.0       190536.0       189247.0       187944.0       186629.0
       185312.0       183975.0       182621.0       181271.0       179916.0
       178536.0       177144.0       175756.0       174358.0       172942.0
       171512.0       170086.0       168660.0       167215.0       165757.0
       164304.0       162850.0       161384.0       159913.0       158444.0
       156961.0       155468.0       153995.0       152521.0       151021.0
       149523.0       148040.0       146553.0       145045.0       143531.0
       142028.0       140531.0       139028.0       137508.0       135987.0
       134471.0       132954.0       131432.0       129895.0       128359.0
       126827.0       125285.0       123741.0       122186.0       120615.0
       119046.0       117480.0       115904.0       114316.0       112722.0
       111124.0       109522.0       107910.0       106287.0       104658.0
       103032.0       101400.0       99756.00       98106.00       96449.00
       94792.00       93131.00       91457.00       89783.00       88106.00
       86422.00       84736.00       83042.00       81348.00       79653.00
       77949.00       76244.00       74534.00       72824.00       71116.00
       69403.00       67683.00       65963.00       64244.00       62526.00
       60802.00       59080.00       57363.00       55633.00       53894.00
       52161.00       50424.00       48674.00       46919.00       45159.00
       43392.00       41624.00       39851.00       38067.00       36271.00
       34469.00       32666.00       30850.00       29019.00       27185.00
       25348.00       23497.00       21630.00       19756.00       17882.00
       15997.00       14097.00       12196.00       10285.00       8368.000
       6448.000       4510.000       2573.000       634.0000      -1314.000
      -3264.000      -5227.000      -7193.000      -9162.000      -11137.00
      -13125.00      -15115.00      -17100.00      -19096.00      -21098.00
      -23108.00      -25117.00      -27120.00      -29143.00      -31171.00
      -33199.00      -35235.00      -37271.00      -39312.00      -41359.00
      -43415.00      -45477.00      -47543.00      -49615.00      -51691.00
      -53773.00      -55860.00      -57955.00      -60054.00      -62151.00
      -64259.00      -66377.00      -68496.00      -70619.00      -72744.00
      -74872.00      -77003.00      -79142.00      -81284.00      -83422.00
      -85571.00      -87722.00      -89873.00      -92045.00      -94217.00
      -96391.00      -98575.00      -100756.0      -102950.0      -105151.0
      -107351.0      -109563.0      -111784.0      -114010.0      -116243.0
      -118479.0      -120726.0      -122990.0      -125255.0      -127528.0
      -129812.0      -132107.0      -134411.0      -136716.0      -139032.0
      -141361.0      -143697.0      -146044.0      -148399.0      -150762.0
      -153137.0      -155521.0      -157914.0      -160313.0      -162722.0
      -165142.0      -167564.0      -169998.0      -172441.0      -174890.0
      -177339.0      -179789.0      -182252.0      -184714.0      -187179.0
      -189655.0      -192135.0      -194613.0      -197091.0      -199579.0
      -202066.0      -204543.0      -207029.0      -209517.0      -212000.0
      -214480.0      -216951.0      -219418.0      -221886.0      -224346.0
      -226798.0      -229242.0      -231680.0      -234112.0      -236532.0
      -238948.0      -241350.0      -243744.0      -246136.0      -248510.0
      -250869.0      -253218.0      -255551.0      -257873.0      -260178.0
      -262464.0      -264739.0      -266999.0      -269250.0      -271480.0
      -273687.0      -275896.0      -278085.0      -280254.0      -282409.0
      -284543.0      -286668.0      -288779.0      -290868.0      -292944.0
      -295009.0      -297052.0      -299082.0      -301096.0      -303086.0
      -305067.0      -307029.0      -308966.0      -310892.0      -312806.0
      -314699.0      -316571.0      -318431.0      -320276.0      -322092.0
      -323898.0      -325692.0      -327451.0      -329205.0      -330948.0
      -332668.0      -334376.0      -336062.0      -337737.0      -339394.0
      -341035.0      -342665.0      -344259.0      -345848.0      -347435.0
      -348993.0      -350528.0      -352046.0      -353558.0      -355062.0
      -356537.0      -357999.0      -359455.0      -360896.0      -362325.0
      -363738.0      -365135.0      -366518.0      -367898.0      -369273.0
      -370619.0      -371958.0      -373303.0      -374636.0      -375952.0
      -377258.0      -378566.0      -379863.0      -381150.0      -382430.0
      -383693.0      -384955.0      -386216.0      -387470.0      -388709.0
      -389939.0      -391170.0      -392390.0      -393600.0      -394802.0
      -395993.0      -397175.0      -398352.0      -399527.0      -400689.0
      -401832.0      -402976.0      -404121.0      -405251.0      -406367.0
      -407471.0      -408569.0      -409664.0      -410746.0      -411809.0
      -412857.0      -413907.0      -414948.0      -415972.0      -416978.0
      -417970.0      -418965.0      -419939.0      -420891.0      -421838.0
      -422766.0      -423683.0      -424585.0      -425459.0      -426319.0
      -427174.0      -428004.0      -428816.0      -429614.0      -430395.0
      -431161.0      -431906.0      -432634.0      -433348.0      -434048.0
      -434724.0      -435383.0      -436028.0      -436646.0      -437259.0
      -437852.0      -438420.0      -438976.0      -439498.0      -440001.0
      -440491.0      -440953.0      -441396.0      -441819.0      -442219.0
      -442594.0      -442947.0      -443279.0      -443585.0      -443869.0
      -444135.0      -444378.0      -444595.0      -444791.0      -444961.0
      -445113.0      -445243.0      -445341.0      -445421.0      -445484.0
      -445521.0      -445530.0      -445512.0      -445477.0      -445424.0
      -445346.0      -445247.0      -445122.0      -444977.0      -444816.0
      -444629.0      -444421.0      -444195.0      -443947.0      -443679.0
      -443391.0      -443084.0      -442757.0      -442415.0      -442051.0
      -441666.0      -441267.0      -440850.0      -440413.0      -439957.0
      -439483.0      -438990.0      -438477.0      -437952.0      -437411.0
      -436848.0      -436268.0      -435673.0      -435068.0      -434450.0
      -433803.0      -433145.0      -432486.0      -431808.0      -431107.0
      -430396.0      -429679.0      -428950.0      -428205.0      -427449.0
      -426689.0      -425922.0      -425142.0      -424348.0      -423549.0
      -422742.0      -421930.0      -421119.0      -420288.0      -419447.0
      -418620.0      -417782.0      -416932.0      -416078.0      -415219.0
      -414363.0      -413496.0      -412620.0      -411747.0      -410869.0
      -409990.0      -409106.0      -408219.0      -407334.0      -406441.0
      -405545.0      -404644.0      -403738.0      -402832.0      -401922.0
      -401006.0      -400087.0      -399164.0      -398238.0      -397313.0
      -396381.0      -395442.0      -394509.0      -393567.0      -392623.0
      -391672.0      -390718.0      -389764.0      -388802.0      -387842.0
      -386875.0      -385899.0      -384928.0      -383949.0      -382967.0
      -381982.0      -380985.0      -379983.0      -378979.0      -377966.0
      -376945.0      -375923.0      -374899.0      -373865.0      -372825.0
      -371784.0      -370736.0      -369685.0      -368631.0      -367573.0
      -366511.0      -365437.0      -364368.0      -363299.0      -362218.0
      -361137.0      -360046.0      -358950.0      -357858.0      -356749.0
      -355638.0      -354536.0      -353414.0      -352283.0      -351157.0
      -350023.0      -348887.0      -347738.0      -346577.0      -345420.0
      -344255.0      -343078.0      -341886.0      -340692.0      -339500.0
      -338285.0      -337061.0      -335838.0      -334603.0      -333354.0
      -332101.0      -330830.0      -329542.0      -328252.0      -326948.0
      -325633.0      -324304.0      -322953.0      -321602.0      -320239.0
      -318851.0      -317452.0      -316044.0      -314626.0      -313186.0
      -311732.0      -310273.0      -308799.0      -307305.0      -305802.0
      -304297.0      -302775.0      -301240.0      -299694.0      -298136.0
      -296566.0      -294984.0      -293401.0      -291795.0      -290179.0
      -288560.0      -286918.0      -285276.0      -283624.0      -281954.0
      -280278.0      -278586.0      -276892.0      -275191.0      -273471.0
      -271743.0      -270011.0      -268272.0      -266516.0      -264748.0
      -262982.0      -261209.0      -259423.0      -257627.0      -255829.0
      -254032.0      -252225.0      -250406.0      -248584.0      -246761.0
      -244933.0      -243103.0      -241261.0      -239411.0      -237565.0
      -235720.0      -233867.0      -231999.0      -230141.0      -228277.0
      -226386.0      -224511.0      -222641.0      -220747.0      -218840.0
      -216937.0      -215028.0      -213101.0      -211183.0      -209236.0
      -207248.0      -205300.0      -203360.0      -201360.0      -199307.0
      -197276.0      -195312.0      -193306.0      -191183.0      -189050.0
      -187014.0      -185001.0      -182859.0      -180616.0      -178450.0
      -176393.0      -174267.0      -171958.0      -169636.0      -167495.0
      -165374.0      -163036.0      -160607.0      -158333.0      -156156.0
      -153856.0      -151387.0      -148944.0      -146684.0      -144434.0
      -141962.0      -139404.0      -137023.0      -134748.0      -132317.0
      -129725.0      -127204.0      -124853.0      -122474.0      -119897.0
      -117294.0      -114848.0      -112449.0      -109937.0      -107325.0
      -104763.0      -102331.0      -99887.00      -97293.00      -94671.00
      -92181.00      -89750.00      -87211.00      -84575.00      -82017.00
      -79569.00      -77075.00      -74469.00      -71862.00      -69355.00
      -66879.00      -64325.00      -61711.00      -59148.00      -56664.00
      -54144.00      -51543.00      -48951.00      -46430.00      -43939.00
      -41377.00      -38767.00      -36222.00      -33729.00      -31204.00
      -28623.00      -26051.00      -23543.00      -21045.00      -18499.00
      -15935.00      -13413.00      -10929.00      -8421.000      -5872.000
      -3345.000      -869.0000       1611.000       4118.000       6626.000
       9100.000       11541.00       13990.00       16461.00       18918.00
       21324.00       23709.00       26120.00       28537.00       30908.00
       33236.00       35577.00       37934.00       40260.00       42537.00
       44799.00       47071.00       49330.00       51554.00       53730.00
       55898.00       58084.00       60242.00       62343.00       64427.00
       66525.00       68604.00       70643.00       72653.00       74647.00
       76647.00       78624.00       80546.00       82452.00       84360.00
       86252.00       88101.00       89917.00       91728.00       93527.00
       95298.00       97035.00       98744.00       100445.0       102128.0
       103786.0       105406.0       107001.0       108600.0       110177.0
       111709.0       113222.0       114735.0       116227.0       117685.0
       119113.0       120532.0       121942.0       123321.0       124673.0
