     0.02500000      -12345.00      -12345.00   2.447790e+09      -12345.00
   0.0005340000       1859.976      -426.0195      -12345.00      -12345.00
      -12345.00      -12345.00      -12345.00      -12345.00      -12345.00
      -12345.00      -12345.00      -12345.00      -12345.00      -12345.00
      -12345.00      -12345.00      -12345.00      -12345.00      -12345.00
      -12345.00      -12345.00      -12345.00      -12345.00      -12345.00
      -12345.00       1.354900       172.9229       18.00000       2.000000
      -42.72450       173.0647      -12345.00       22.00000      -12345.00
      -12345.00      -12345.00      -12345.00      -12345.00      -12345.00
      -12345.00      -12345.00      -12345.00      -12345.00      -12345.00
       4878.878       359.7955       179.8492       43.87875      -12345.00
      -12345.00      -12345.00       90.00000       90.00000      -12345.00
      -12345.00      -12345.00      -12345.00      -12345.00      -12345.00
      -12345.00      -12345.00      -12345.00      -12345.00      -12345.00
      2016       318        11        10         5
        19         6    -12345    -12345     74400
    -12345    -12345    -12345    -12345    -12345
         1    -12345    -12345    -12345    -12345
    -12345    -12345    -12345    -12345    -12345
    -12345    -12345    -12345    -12345    -12345
    -12345    -12345    -12345    -12345    -12345
         1    -12345    -12345    -12345    -12345
TARA    South Island, Ne
00      -12345  -12345  
-12345  -12345  -12345  
-12345  -12345  -12345  
-12345  -12345  -12345  
-12345  -12345  -12345  
-12345  -12345  BH2     
IU      -12345  Streckei
[...]
      -583215.0      -580440.0      -574800.0      -569988.0      -567877.0
      -564004.0      -560198.0      -556488.0      -552205.0      -547743.0
      -542524.0      -538668.0      -535668.0      -531410.0      -528140.0
      -523681.0      -517394.0      -514371.0      -510570.0      -504913.0
      -501103.0      -496891.0      -491727.0      -487258.0      -483276.0
      -478290.0      -473552.0      -469872.0      -465156.0      -460670.0
      -457390.0      -452571.0      -446687.0      -441944.0      -437971.0
      -433664.0      -429579.0      -425736.0      -420344.0      -415379.0
      -411568.0      -406319.0      -400868.0      -397405.0      -393292.0
      -387106.0      -383644.0      -379086.0      -372808.0      -371031.0
      -365090.0      -358463.0      -357046.0      -350992.0      -345833.0
      -342885.0      -336775.0      -332160.0      -327428.0      -322899.0
      -319111.0      -313870.0      -309161.0      -304598.0      -299516.0
      -293858.0      -290366.0      -286276.0      -279666.0      -276992.0
      -271675.0      -264287.0      -262260.0      -256989.0      -250487.0
      -247494.0      -241467.0      -236785.0      -234612.0      -228948.0
      -223752.0      -219612.0      -214602.0      -210317.0      -206906.0
      -202228.0      -197294.0      -193825.0      -187806.0      -182744.0
      -179370.0      -175120.0      -171440.0      -165832.0      -161527.0
      -157787.0      -151351.0      -146973.0      -143821.0      -138616.0
      -135182.0      -132245.0      -126489.0      -123661.0      -121171.0
      -114223.0      -110812.0      -108657.0      -102757.0      -100243.0
      -97403.00      -91781.00      -89289.00      -85643.00      -80691.00
      -77944.00      -75171.00      -72125.00      -67938.00      -64119.00
      -61567.00      -57855.00      -54183.00      -51339.00      -47730.00
      -42754.00      -40140.00      -37871.00      -32591.00      -30189.00
      -27628.00      -22779.00      -20452.00      -16991.00      -11942.00
      -8960.000      -6032.000      -2203.000      -37.00000       3525.000
       7871.000       10409.00       14204.00       16647.00       19240.00
       22723.00       24387.00       27980.00       31634.00       33944.00
       37186.00       40033.00       41756.00       44250.00       48104.00
       50547.00       53559.00       56866.00       57632.00       60184.00
       63797.00       64946.00       68360.00       71890.00       71669.00
       74560.00       77043.00       78243.00       82208.00       83779.00
       85917.00       87506.00       88972.00       92174.00       91533.00
       93726.00       96385.00       96624.00       98701.00       99303.00
       100719.0       101723.0       103363.0       104800.0       103992.0
       106823.0       108090.0       107179.0       109247.0       110171.0
       110625.0       111981.0       112864.0       113064.0       113486.0
       114907.0       114128.0       114109.0       114981.0       114626.0
       115701.0       115710.0       115113.0       114611.0       114361.0
       114852.0       113373.0       113102.0       113896.0       111674.0
       111156.0       111514.0       110126.0       110248.0       109235.0
       107017.0       105892.0       105208.0       103344.0       102415.0
       103771.0       101673.0       99436.00       98645.00       96099.00
       94777.00       93653.00       92534.00       92266.00       91401.00
       88760.00       87525.00       87354.00       84621.00       83630.00
       82439.00       80935.00       80941.00       77408.00       75600.00
       75084.00       70453.00       69939.00       70750.00       67433.00
       67141.00       66298.00       62315.00       61189.00       60474.00
       58005.00       56810.00       55031.00       52255.00       50494.00
       47836.00       45818.00       44629.00       41898.00       40214.00
       38635.00       35158.00       33378.00       31810.00       29511.00
       28157.00       24445.00       20759.00       19889.00       17644.00
       13850.00       11254.00       8521.000       5205.000       3034.000
       90.00000      -3568.000      -6176.000      -9417.000      -12178.00
      -14969.00      -18960.00      -22450.00      -26168.00      -28740.00
      -30989.00      -35956.00      -39305.00      -40134.00      -44678.00
      -49700.00      -51053.00      -54563.00      -58974.00      -60184.00
      -63358.00      -67485.00      -68722.00      -72342.00      -75860.00
      -76553.00      -80506.00      -83470.00      -84854.00      -89881.00
      -92161.00      -92970.00      -96523.00      -98389.00      -100935.0
      -104374.0      -105794.0      -108132.0      -110466.0      -112224.0
      -115653.0      -117439.0      -118923.0      -122503.0      -123455.0
      -124795.0      -129682.0      -131487.0      -131372.0      -134235.0
      -136398.0      -137667.0      -139160.0      -140239.0      -142207.0
      -144434.0      -145695.0      -147152.0      -148518.0      -148248.0
      -150157.0      -151017.0      -150360.0      -153113.0      -152483.0
      -152303.0      -155497.0      -154315.0      -154970.0      -157008.0
      -154513.0      -154974.0      -157669.0      -156986.0      -157037.0
      -157540.0      -155217.0      -154398.0      -155033.0      -154625.0
      -154952.0      -154993.0      -154460.0      -153190.0      -151857.0
      -152190.0      -151784.0      -150950.0      -151518.0      -150653.0
      -149103.0      -150102.0      -150069.0      -148265.0      -149287.0
      -149724.0      -147178.0      -147795.0      -147926.0      -144985.0
      -146259.0      -146285.0      -144546.0      -145049.0      -142830.0
      -141932.0      -142080.0      -140713.0      -140687.0      -140013.0
      -138753.0      -138494.0      -138643.0      -137136.0      -136610.0
      -136951.0      -135127.0      -134700.0      -133000.0      -130816.0
      -131617.0      -129752.0      -127733.0      -128344.0      -125330.0
      -123379.0      -124274.0      -120777.0      -118364.0      -119152.0
      -116775.0      -113427.0      -112698.0      -111127.0      -108634.0
      -106603.0      -103871.0      -102488.0      -100516.0      -97014.00
      -95447.00      -92466.00      -90150.00      -90399.00      -85315.00
      -82270.00      -81925.00      -76204.00      -74555.00      -74623.00
      -70808.00      -68919.00      -66690.00      -62578.00      -60820.00
      -59493.00      -55276.00      -52194.00      -49897.00      -46782.00
      -44208.00      -39976.00      -36584.00      -34293.00      -30912.00
      -28213.00      -25499.00      -21830.00      -19219.00      -16876.00
      -12102.00      -9284.000      -7374.000      -2701.000      -339.0000
       2781.000       7897.000       9901.000       13396.00       18513.00
       20367.00       22911.00       27881.00       30995.00       34800.00
       39591.00       41746.00       45314.00       49228.00       52848.00
       57762.00       60320.00       64872.00       69225.00       70375.00
       75499.00       80962.00       83466.00       87438.00       92001.00
       94885.00       98974.00       103902.0       107570.0       111936.0
       116096.0       118315.0       122577.0       128756.0       131853.0
       135741.0       140532.0       143922.0       148369.0       152846.0
       157755.0       161766.0       165177.0       169873.0       173591.0
       177916.0       182860.0       185558.0       189255.0       194997.0
       199057.0       202347.0       207234.0       211094.0       214257.0
       220214.0       224214.0       226579.0       233095.0       237857.0
       240166.0       245284.0       250145.0       253802.0       259017.0
       263742.0       266976.0       271987.0       275635.0       278973.0
       285663.0       290029.0       293716.0       298646.0       302610.0
       308002.0       311681.0       315336.0       321667.0       324851.0
       329036.0       335485.0       338842.0       342962.0       348457.0
       352017.0       355912.0       361121.0       364243.0       366959.0
       372132.0       375613.0       379274.0       384593.0       387282.0
       391305.0       395441.0       398322.0       403222.0       406205.0
       409817.0       414855.0       416854.0       420661.0       425936.0
       427866.0       431849.0       437050.0       438324.0       441662.0
       445439.0       446568.0       451153.0       455530.0       457101.0
       460049.0       462848.0       464831.0       467711.0       470854.0
       473523.0       476855.0       479447.0       480653.0       483491.0
       485340.0       488342.0       492778.0       493704.0       497142.0
       499870.0       500904.0       505707.0       507644.0       508972.0
       513134.0       515972.0       518201.0       521044.0       523315.0
       524784.0       527877.0       531053.0       532259.0       534830.0
       537639.0       538903.0       542079.0       544931.0       546494.0
       549685.0       551019.0       552821.0       555424.0       556864.0
       560876.0       562538.0       563719.0       567347.0       568461.0
       570690.0       574747.0       576296.0       577285.0       581252.0
       583659.0       584848.0       589140.0       590343.0       591769.0
       596951.0       598352.0       600186.0       604882.0       607191.0
       609062.0       611954.0       615126.0       618586.0       621736.0
       623873.0       626540.0       630015.0       632335.0       635277.0
       638000.0       641254.0       645365.0       646822.0       650079.0
       654450.0       656426.0       660161.0       664600.0       666332.0
       669538.0       674771.0       676753.0       679468.0       684753.0
       687288.0       689348.0       693455.0       697104.0       700452.0
       703219.0       706804.0       711273.0       713551.0       717192.0
       721422.0       724259.0       728659.0       733173.0       736545.0
       740564.0       745701.0       748944.0       753260.0       759086.0
       761310.0       765524.0       770902.0       773519.0       778683.0
       784490.0       787951.0       791654.0       796010.0       800062.0
       804304.0       809417.0       813232.0       817629.0       823681.0
       827672.0       832645.0       837876.0       842246.0       847046.0
       850510.0       856320.0       861221.0       864009.0       870896.0
       875904.0       877629.0       883837.0       890138.0       892724.0
       898027.0       903419.0       906283.0       912775.0       918652.0
       921573.0       927848.0       932502.0       935516.0       942245.0
       946483.0       950868.0       956721.0       961150.0       967396.0
       971334.0       975521.0       981459.0       985141.0       989778.0
       995882.0       1000965.       1004903.       1011128.       1015907.
       1018874.       1026139.       1031141.       1034712.       1040210.
       1043448.       1049172.       1055861.       1060475.       1065572.
       1069775.       1073322.       1077283.       1083882.       1089785.
       1093043.       1097587.       1101884.       1107004.       1112666.
       1117126.       1122413.       1126618.       1131139.       1136399.
       1138969.       1143781.       1150188.       1153819.       1157995.
       1162936.       1167936.       1173175.       1177602.       1180774.
       1185672.       1191913.       1194358.       1198660.       1204995.
       1208285.       1212583.       1216653.       1221323.       1226966.
       1229579.       1232676.       1238770.       1243239.       1246878.
       1252389.       1254899.       1258818.       1264589.       1266125.
       1271056.       1276845.       1278594.       1283086.       1286817.
       1288796.       1293347.       1297494.       1301390.       1305188.
       1309165.       1312477.       1314532.       1320006.       1324665.
       1327703.       1331629.       1334786.       1338816.       1341399.
       1345566.       1350455.       1352311.       1356531.       1359566.
       1361445.       1367031.       1370131.       1371501.       1376128.
       1378759.       1379253.       1383279.       1386388.       1386941.
       1390292.       1392540.       1393208.       1397202.       1399892.
       1401206.       1403865.       1404312.       1405849.       1408429.
       1409342.       1412299.       1414335.       1415059.       1416933.
       1418306.       1419911.       1421648.       1422080.       1421422.
       1422714.       1424021.       1423915.       1425056.       1424670.
       1424352.       1425280.       1423940.       1423739.       1424601.
       1423797.       1422806.       1421289.       1421096.       1420903.
       1419129.       1418283.       1417765.       1417307.       1416007.
       1415216.       1414255.       1412107.       1411730.       1409496.
       1407760.       1408456.       1404995.       1403879.       1405036.
       1400377.       1398342.       1398097.       1394698.       1394028.
       1392740.       1389233.       1387419.       1384753.       1381995.
       1381627.       1379879.       1376537.       1373402.       1370894.
       1369420.       1367241.       1364607.       1362286.       1359868.
       1355309.       1352729.       1352663.       1348018.       1345690.
       1344893.       1339704.       1337789.       1335414.       1329727.
       1328232.       1325168.       1320099.       1319640.       1316134.
       1311515.       1308867.       1304288.       1301900.       1298687.
       1294866.       1293413.       1289610.       1286100.       1283455.
       1278209.       1274974.       1274104.       1269750.       1265295.
       1263392.       1257955.       1253973.       1252813.       1246803.
       1242731.       1240769.       1235330.       1231921.       1229497.
       1224462.       1220309.       1216725.       1212290.       1209284.
       1205535.       1201212.       1198604.       1193643.       1189552.
       1187502.       1181633.       1179355.       1178067.       1172195.
       1169692.       1166142.       1160735.       1158623.       1155486.
       1149751.       1146949.       1144369.       1138538.       1135696.
       1132046.       1128121.       1125353.       1120199.       1117381.
       1113867.       1109747.       1107323.       1104041.       1099903.
       1096389.       1093516.       1089343.       1087428.       1083739.
       1077590.       1075787.       1071830.       1066782.       1066570.
       1063083.       1057823.       1056311.       1050969.       1046233.
       1046342.       1042791.       1038810.       1036775.       1032875.
       1029538.       1027507.       1024111.       1019902.       1017063.
       1014905.       1012448.       1009370.       1005766.       1002931.
       999920.0       996076.0       993666.0       990223.0       986097.0
       984770.0       981550.0       977621.0       975317.0       970549.0
       967303.0       966469.0       962053.0       958660.0       957465.0
       952339.0       949340.0       947976.0       943306.0       941211.0
       938698.0       934409.0       932066.0       929177.0       927531.0
       925728.0       921057.0       918117.0       916618.0       913424.0
       911779.0       911083.0       907265.0       904313.0       902424.0
       898847.0       897679.0       896353.0       891801.0       889601.0
       888184.0       884584.0       882893.0       880901.0       877163.0
       876652.0       874486.0       870418.0       869142.0       865442.0
       862967.0       861728.0       857835.0       857147.0       855627.0
       850302.0       847971.0       846290.0       842412.0       841022.0
       838602.0       834521.0       833121.0       830016.0       826656.0
       825501.0       823400.0       819819.0       816391.0       813668.0
       810460.0       808858.0       806424.0       802411.0       800030.0
       797207.0       794848.0       791997.0       788787.0       786507.0
       782087.0       778659.0       777440.0       774109.0       770374.0
       768456.0       764368.0       759982.0       758918.0       755076.0
       749782.0       748780.0       745849.0       740361.0       738265.0
       734948.0       730376.0       727860.0       724360.0       720203.0
       716547.0       714012.0       710362.0       705877.0       700977.0
       695902.0       692759.0       688178.0       684058.0       679214.0
       674066.0       671467.0       665532.0       660139.0       656887.0
       650711.0       646546.0       644325.0       638876.0       633965.0
       630309.0       623405.0       618123.0       615521.0       609430.0
       604550.0       600417.0       594120.0       589578.0       584220.0
       579017.0       574109.0       568104.0       563896.0       558842.0
       552741.0       548096.0       542120.0       535654.0       531840.0
       527249.0       520330.0       515673.0       512380.0       504711.0
       499287.0       496248.0       488174.0       483790.0       479313.0
       472189.0       469083.0       462255.0       455226.0       451502.0
       445900.0       440684.0       435840.0       429909.0       423835.0
       417397.0       410701.0       406854.0       401839.0       394494.0
       391095.0       385024.0       377835.0       375252.0       368363.0
       361249.0       358456.0       352918.0       346259.0       341459.0
       336239.0       329765.0       325357.0       320102.0       312577.0
       308465.0       303580.0       296631.0       291240.0       285436.0
       279690.0       274702.0       269060.0       263811.0       257780.0
       250806.0       246134.0       239773.0       233503.0       228968.0
       221616.0       216707.0       211690.0       203751.0       198425.0
       193906.0       187600.0       181591.0       176521.0       169155.0
       162741.0       158541.0       152058.0       145951.0       141358.0
       135507.0       128472.0       122581.0       118037.0       113451.0
