     0.02500000      -12345.00      -12345.00   2.447790e+09      -12345.00
   0.0005340000       1859.976      -426.0195      -12345.00      -12345.00
      -12345.00      -12345.00      -12345.00      -12345.00      -12345.00
      -12345.00      -12345.00      -12345.00      -12345.00      -12345.00
      -12345.00      -12345.00      -12345.00      -12345.00      -12345.00
      -12345.00      -12345.00      -12345.00      -12345.00      -12345.00
      -12345.00       1.354900       172.9229       18.00000       2.000000
      -42.72450       173.0647      -12345.00       22.00000      -12345.00
      -12345.00      -12345.00      -12345.00      -12345.00      -12345.00
      -12345.00      -12345.00      -12345.00      -12345.00      -12345.00
       4878.878       359.7955       179.8492       43.87875      -12345.00
      -12345.00      -12345.00       0.000000       0.000000      -12345.00
      -12345.00      -12345.00      -12345.00      -12345.00      -12345.00
      -12345.00      -12345.00      -12345.00      -12345.00      -12345.00
      2016       318        11        10         5
        19         6    -12345    -12345     74400
    -12345    -12345    -12345    -12345    -12345
         1    -12345    -12345    -12345    -12345
    -12345    -12345    -12345    -12345    -12345
    -12345    -12345    -12345    -12345    -12345
    -12345    -12345    -12345    -12345    -12345
         1    -12345    -12345    -12345    -12345
TARA    South Island, Ne
00      -12345  -12345  
-12345  -12345  -12345  
-12345  -12345  -12345  
-12345  -12345  -12345  
-12345  -12345  -12345  
-12345  -12345  BHZ     
IU      -12345  Streckei
[...]
       696452.0       693801.0       688399.0       684326.0       680195.0
       675670.0       671598.0       667136.0       662811.0       658907.0
       653942.0       648906.0       645618.0       641055.0       635554.0
       631349.0       626636.0       621909.0       618394.0       613202.0
       607247.0       604325.0       599834.0       594414.0       591143.0
       585539.0       581742.0       578517.0       572025.0       568155.0
       563610.0       558492.0       555119.0       548993.0       544020.0
       540557.0       535405.0       530513.0       525668.0       520979.0
       516599.0       512124.0       506607.0       501172.0       497184.0
       492485.0       487314.0       481749.0       476396.0       472326.0
       467755.0       462220.0       457003.0       452298.0       446912.0
       442067.0       438006.0       432121.0       427081.0       422321.0
       415445.0       411600.0       407225.0       400266.0       395938.0
       390989.0       384932.0       379966.0       374466.0       369711.0
       364568.0       357831.0       354130.0       349487.0       342094.0
       337685.0       332803.0       326545.0       321938.0       316941.0
       311060.0       306739.0       301724.0       295388.0       290901.0
       285312.0       278920.0       274480.0       269381.0       263222.0
       257214.0       250745.0       245830.0       241319.0       233956.0
       228042.0       222517.0       215558.0       211758.0       205894.0
       198204.0       193628.0       187312.0       182089.0       178045.0
       170304.0       163982.0       159887.0       153226.0       146213.0
       141762.0       136066.0       128915.0       123447.0       117847.0
       112152.0       106331.0       99014.00       94144.00       88864.00
       81054.00       76196.00       70699.00       63069.00       57516.00
       52515.00       45910.00       39756.00       33344.00       25914.00
       21327.00       15552.00       6859.000       1099.000      -4702.000
      -12429.00      -18309.00      -24468.00      -31014.00      -36794.00
      -45121.00      -51363.00      -54833.00      -62249.00      -69734.00
      -75213.00      -81453.00      -87264.00      -93424.00      -100267.0
      -105596.0      -111464.0      -119496.0      -124577.0      -128673.0
      -136235.0      -142044.0      -148147.0      -155443.0      -159782.0
      -166084.0      -172617.0      -177802.0      -184990.0      -189982.0
      -194166.0      -202008.0      -208543.0      -212203.0      -218395.0
      -225068.0      -230489.0      -236673.0      -242137.0      -247914.0
      -253679.0      -259124.0      -265145.0      -271112.0      -276468.0
      -281064.0      -288700.0      -295495.0      -299229.0      -305269.0
      -311308.0      -318434.0      -324715.0      -327664.0      -334496.0
      -342043.0      -346329.0      -351762.0      -357748.0      -362663.0
      -369179.0      -376055.0      -379529.0      -384187.0      -391050.0
      -397447.0      -403613.0      -406690.0      -411086.0      -419055.0
      -424682.0      -428701.0      -433931.0      -439756.0      -445141.0
      -450675.0      -455110.0      -459897.0      -466669.0      -470648.0
      -475720.0      -482530.0      -485643.0      -490612.0      -496830.0
      -501170.0      -506083.0      -510512.0      -515634.0      -521787.0
      -525642.0      -529525.0      -535427.0      -540388.0      -545190.0
      -550735.0      -555095.0      -559082.0      -565657.0      -570271.0
      -573463.0      -580102.0      -584251.0      -588130.0      -593726.0
      -598053.0      -602879.0      -607514.0      -611305.0      -615212.0
      -621186.0      -626361.0      -629465.0      -632822.0      -637899.0
      -644818.0      -648307.0      -650409.0      -655599.0      -659868.0
      -663425.0      -668921.0      -672066.0      -675567.0      -681124.0
      -683551.0      -688679.0      -693517.0      -694682.0      -700159.0
      -705958.0      -708171.0      -711268.0      -716077.0      -720202.0
      -724645.0      -728639.0      -730661.0      -734868.0      -739953.0
      -742676.0      -745858.0      -749601.0      -753250.0      -757723.0
      -762344.0      -764215.0      -767398.0      -774207.0      -775998.0
      -778104.0      -783232.0      -786044.0      -790983.0      -793867.0
      -795353.0      -800702.0      -803864.0      -806935.0      -810484.0
      -812508.0      -816884.0      -820482.0      -822528.0      -824313.0
      -829211.0      -833879.0      -833994.0      -837406.0      -841342.0
      -845238.0      -848032.0      -848480.0      -854136.0      -857230.0
      -857841.0      -862533.0      -865099.0      -867058.0      -870492.0
      -872808.0      -875767.0      -878718.0      -880596.0      -883998.0
      -887384.0      -888317.0      -890656.0      -894882.0      -896407.0
      -898372.0      -901522.0      -904009.0      -907347.0      -908303.0
      -909907.0      -913879.0      -916479.0      -917778.0      -919637.0
      -922492.0      -923888.0      -926237.0      -928904.0      -930256.0
      -932581.0      -933939.0      -936074.0      -939338.0      -939578.0
      -940832.0      -944870.0      -946510.0      -947690.0      -949151.0
      -950225.0      -954438.0      -956496.0      -955059.0      -957563.0
      -960322.0      -960190.0      -962116.0      -963920.0      -964399.0
      -966968.0      -968345.0      -967409.0      -969086.0      -971394.0
      -971188.0      -971982.0      -972657.0      -973400.0      -975145.0
      -973791.0      -974454.0      -977035.0      -975870.0      -976621.0
      -977544.0      -976767.0      -979147.0      -978951.0      -977557.0
      -979323.0      -979645.0      -979674.0      -979670.0      -978773.0
      -979108.0      -980614.0      -979667.0      -978018.0      -980206.0
      -980270.0      -978117.0      -979254.0      -979547.0      -979068.0
      -979355.0      -977595.0      -978207.0      -979250.0      -977421.0
      -977170.0      -976982.0      -976808.0      -975784.0      -974188.0
      -974400.0      -973957.0      -972929.0      -971678.0      -971455.0
      -970613.0      -968982.0      -969647.0      -968742.0      -966618.0
      -966766.0      -965609.0      -963340.0      -963823.0      -962165.0
      -959289.0      -959152.0      -957569.0      -956391.0      -954606.0
      -952247.0      -952224.0      -950207.0      -947114.0      -946300.0
      -945459.0      -942463.0      -940983.0      -939544.0      -936261.0
      -935502.0      -934405.0      -931709.0      -930007.0      -926864.0
      -924594.0      -924479.0      -921141.0      -917971.0      -917115.0
      -914472.0      -911206.0      -909428.0      -907310.0      -904590.0
      -902063.0      -898724.0      -897740.0      -895014.0      -889832.0
      -889404.0      -887219.0      -881431.0      -879554.0      -878240.0
      -873254.0      -870314.0      -867988.0      -863169.0      -861067.0
      -858335.0      -853933.0      -851514.0      -847705.0      -843988.0
      -841668.0      -837343.0      -833548.0      -831170.0      -826227.0
      -822860.0      -819320.0      -813083.0      -812393.0      -808935.0
      -801536.0      -799969.0      -797144.0      -791937.0      -787081.0
      -782198.0      -779243.0      -775662.0      -769918.0      -765181.0
      -761425.0      -757119.0      -753375.0      -747597.0      -742262.0
      -739618.0      -734233.0      -728111.0      -722908.0      -718395.0
      -714361.0      -707256.0      -701998.0      -697593.0      -691866.0
      -687555.0      -680788.0      -676916.0      -671863.0      -663355.0
      -660399.0      -654514.0      -647088.0      -644008.0      -638219.0
      -630722.0      -625492.0      -619979.0      -613622.0      -608627.0
      -601069.0      -593572.0      -590622.0      -582973.0      -576176.0
      -573276.0      -564149.0      -558392.0      -554362.0      -545663.0
      -540527.0      -534369.0      -526210.0      -521499.0      -515871.0
      -507680.0      -499875.0      -494669.0      -488652.0      -480993.0
      -473525.0      -466374.0      -462565.0      -453423.0      -444069.0
      -440537.0      -431926.0      -425134.0      -418766.0      -409487.0
      -404129.0      -398580.0      -389898.0      -382176.0      -376735.0
      -368100.0      -360180.0      -354614.0      -346282.0      -339199.0
      -331661.0      -322956.0      -316283.0      -309410.0      -303164.0
      -295977.0      -286768.0      -279594.0      -273361.0      -266392.0
      -259357.0      -250961.0      -241933.0      -236056.0      -229843.0
      -220073.0      -213270.0      -206281.0      -197860.0      -191607.0
      -182720.0      -174965.0      -169666.0      -161234.0      -151665.0
      -144813.0      -138278.0      -129555.0      -121738.0      -113765.0
      -105136.0      -98979.00      -91446.00      -82517.00      -75434.00
      -67007.00      -59486.00      -52592.00      -43048.00      -35530.00
      -28573.00      -20012.00      -13200.00      -5047.000       4511.000
       10930.00       17764.00       27400.00       35374.00       41929.00
       50652.00       58965.00       66739.00       75375.00       81717.00
       90285.00       99784.00       105461.0       114505.0       124840.0
       131785.0       138794.0       146812.0       155966.0       165120.0
       172582.0       179481.0       188366.0       197549.0       204470.0
       212388.0       221084.0       228465.0       237302.0       245741.0
       253324.0       262587.0       270148.0       277760.0       287223.0
       295320.0       303817.0       312772.0       320039.0       327839.0
       336875.0       345871.0       353709.0       360104.0       369862.0
       379496.0       385551.0       394422.0       403319.0       411405.0
       419850.0       427750.0       437577.0       445722.0       454076.0
       464052.0       471072.0       480074.0       489836.0       496945.0
       506435.0       514939.0       522684.0       531881.0       540360.0
       549358.0       556529.0       564733.0       574217.0       582668.0
       590961.0       597418.0       607556.0       617737.0       623307.0
       631855.0       641317.0       648386.0       656088.0       664212.0
       672955.0       681950.0       689294.0       696247.0       703991.0
       713631.0       722517.0       728084.0       735558.0       746053.0
       754266.0       759324.0       768073.0       778106.0       783560.0
       790784.0       799279.0       806946.0       815077.0       821611.0
       830068.0       838274.0       843747.0       852499.0       860245.0
       865321.0       873612.0       882745.0       888990.0       893877.0
       902801.0       911323.0       916495.0       923794.0       930337.0
       938455.0       945795.0       949325.0       957976.0       966117.0
       970236.0       976663.0       984211.0       991731.0       997864.0
       1002851.       1009309.       1016343.       1021702.       1026489.
       1033781.       1039989.       1043872.       1051363.       1057501.
       1060814.       1068867.       1074142.       1077592.       1085018.
       1088540.       1094112.       1100062.       1102240.       1110472.
       1116169.       1117925.       1123087.       1128493.       1133935.
       1137850.       1140619.       1145035.       1150821.       1154695.
       1157306.       1162385.       1166174.       1169277.       1174637.
       1177211.       1180950.       1185879.       1188615.       1192771.
       1195778.       1199602.       1203850.       1207242.       1211077.
       1214254.       1217644.       1220697.       1223972.       1227574.
       1231030.       1233238.       1235986.       1240256.       1243411.
       1245617.       1247604.       1250441.       1254148.       1257397.
       1259056.       1260650.       1263318.       1266758.       1269566.
       1269564.       1272606.       1277539.       1277037.       1278128.
       1282143.       1283568.       1285753.       1287066.       1288502.
       1292263.       1292439.       1293436.       1297470.       1298152.
       1299991.       1302614.       1302269.       1305003.       1307118.
       1306660.       1308854.       1311065.       1311752.       1312784.
       1313710.       1314298.       1315698.       1316552.       1316507.
       1317823.       1319837.       1319126.       1319687.       1320866.
       1319048.       1321632.       1322477.       1320146.       1321458.
       1321326.       1322313.       1321390.       1318106.       1321665.
       1323678.       1319406.       1317921.       1319291.       1319190.
       1318046.       1317302.       1316820.       1315707.       1314942.
       1313539.       1312801.       1312154.       1309532.       1309478.
       1308054.       1306729.       1306325.       1301951.       1301206.
       1300455.       1298520.       1298247.       1294395.       1292473.
       1291195.       1288008.       1286880.       1284681.       1281890.
       1277960.       1276665.       1276490.       1269109.       1267625.
       1267902.       1261342.       1258963.       1256250.       1253492.
       1250828.       1245460.       1243667.       1241145.       1236674.
       1232911.       1228644.       1225956.       1223453.       1219501.
       1214614.       1210308.       1208032.       1203494.       1199204.
       1195678.       1189359.       1186153.       1182082.       1175905.
       1173062.       1168401.       1161625.       1158703.       1155821.
       1148921.       1143442.       1138710.       1134196.       1130280.
       1124214.       1119374.       1114446.       1107716.       1103441.
       1098848.       1092200.       1087070.       1081034.       1075527.
       1069727.       1062955.       1058434.       1049631.       1044576.
       1041828.       1031956.       1026764.       1021626.       1014656.
       1009565.       1001074.       996479.0       991620.0       982143.0
       976892.0       970900.0       963184.0       958136.0       950735.0
       942667.0       937750.0       931632.0       922773.0       915976.0
       911082.0       903627.0       895929.0       889111.0       881620.0
       875914.0       868190.0       859566.0       854802.0       846250.0
       837422.0       832331.0       824358.0       817544.0       810889.0
       801507.0       794726.0       787815.0       778549.0       772523.0
       764753.0       754872.0       749340.0       740520.0       731232.0
       724963.0       717224.0       708808.0       700379.0       693677.0
       685316.0       676019.0       667413.0       659488.0       652799.0
       642884.0       633489.0       626819.0       618382.0       609116.0
       600423.0       591734.0       583609.0       575535.0       566126.0
       557398.0       550077.0       540136.0       530246.0       522421.0
       513319.0       505136.0       495333.0       484993.0       478088.0
       468836.0       458282.0       449648.0       441126.0       432818.0
       423091.0       412038.0       403742.0       395378.0       384056.0
       375560.0       367593.0       356189.0       346049.0       337239.0
       328054.0       318909.0       309587.0       298998.0       289130.0
       280752.0       270797.0       261554.0       251627.0       241083.0
       232962.0       222621.0       211704.0       202633.0       193078.0
       183630.0       174004.0       163741.0       153717.0       145187.0
       134785.0       125331.0       117830.0       104853.0       95109.00
       87584.00       75204.00       66746.00       58146.00       46172.00
       36502.00       26947.00       16284.00       7519.000      -2170.000
      -14220.00      -22899.00      -32284.00      -42935.00      -51478.00
      -61160.00      -71708.00      -81703.00      -89883.00      -100222.0
      -110648.0      -120125.0      -130936.0      -138076.0      -148858.0
      -160965.0      -167666.0      -178095.0      -188843.0      -197438.0
      -207526.0      -217007.0      -226857.0      -236301.0      -245824.0
      -255439.0      -264623.0      -275399.0      -284666.0      -293546.0
      -303244.0      -312551.0      -323235.0      -331599.0      -340464.0
      -351833.0      -360135.0      -368893.0      -379875.0      -389523.0
      -398930.0      -408239.0      -416732.0      -426911.0      -437197.0
      -445410.0      -455411.0      -465662.0      -473445.0      -483565.0
      -493907.0      -502814.0      -513412.0      -521787.0      -529851.0
      -540978.0      -550852.0      -559315.0      -567826.0      -577211.0
      -586429.0      -595764.0      -605458.0      -612762.0      -623199.0
      -632655.0      -639637.0      -650452.0      -658207.0      -665830.0
      -676067.0      -684913.0      -693447.0      -701598.0      -708617.0
      -717636.0      -728933.0      -734769.0      -741458.0      -752664.0
      -759375.0      -767058.0      -776581.0      -783118.0      -792596.0
      -800942.0      -806254.0      -815933.0      -824758.0      -831182.0
      -839311.0      -847464.0      -855437.0      -862936.0      -869353.0
      -875994.0      -885128.0      -892929.0      -898183.0      -905711.0
      -912719.0      -920059.0      -927588.0      -932951.0      -940039.0
      -947840.0      -953698.0      -959880.0      -968029.0      -971979.0
      -977134.0      -987359.0      -992325.0      -996746.0      -1003441.
      -1009397.      -1015928.      -1021654.      -1027085.      -1032995.
      -1039073.      -1044312.      -1049484.      -1055395.      -1060377.
      -1066469.      -1072121.      -1075467.      -1082441.      -1088336.
      -1091631.      -1098560.      -1102732.      -1106765.      -1114256.
      -1117888.      -1121920.      -1127463.      -1131617.      -1137436.
      -1142352.      -1146268.      -1151509.      -1156247.      -1160281.
      -1165482.      -1169928.      -1172900.      -1178774.      -1183100.
      -1184680.      -1190766.      -1194910.      -1196779.      -1202963.
