     0.02500000      -12345.00      -12345.00   2.447790e+09      -12345.00
   0.0005360000       1859.976      -426.0195      -12345.00      -12345.00
      -12345.00      -12345.00      -12345.00      -12345.00      -12345.00
      -12345.00      -12345.00      -12345.00      -12345.00      -12345.00
      -12345.00      -12345.00      -12345.00      -12345.00      -12345.00
      -12345.00      -12345.00      -12345.00      -12345.00      -12345.00
      -12345.00       1.354900       172.9229       18.00000       2.000000
      -42.72450       173.0647      -12345.00       22.00000      -12345.00
      -12345.00      -12345.00      -12345.00      -12345.00      -12345.00
      -12345.00      -12345.00      -12345.00      -12345.00      -12345.00
       4878.878       359.7955       179.8492       43.87875      -12345.00
      -12345.00      -12345.00       90.00000       90.00000      -12345.00
      -12345.00      -12345.00      -12345.00      -12345.00      -12345.00
      -12345.00      -12345.00      -12345.00      -12345.00      -12345.00
      2016       318        11        10         5
        19         6    -12345    -12345     74400
    -12345    -12345    -12345    -12345    -12345
         1    -12345    -12345    -12345    -12345
    -12345    -12345    -12345    -12345    -12345
    -12345    -12345    -12345    -12345    -12345
    -12345    -12345    -12345    -12345    -12345
         1    -12345    -12345    -12345    -12345
TARA    South Island, Ne
10      -12345  -12345  
-12345  -12345  -12345  
-12345  -12345  -12345  
-12345  -12345  -12345  
-12345  -12345  -12345  
-12345  -12345  BH2     
IU      -12345  Streckei
[...]
      -578772.0      -575751.0      -569978.0      -565603.0      -563138.0
      -559164.0      -555770.0      -551743.0      -547377.0      -543311.0
      -537795.0      -534003.0      -531195.0      -526598.0      -523437.0
      -519062.0      -512709.0      -509762.0      -505854.0      -500159.0
      -496615.0      -492153.0      -486858.0      -482861.0      -478616.0
      -473446.0      -469067.0      -465191.0      -460373.0      -456222.0
      -452636.0      -447722.0      -442233.0      -437205.0      -433251.0
      -429167.0      -424726.0      -421050.0      -415791.0      -410484.0
      -406975.0      -401720.0      -396029.0      -392844.0      -388449.0
      -382286.0      -379119.0      -374212.0      -368106.0      -366331.0
      -360131.0      -353867.0      -352279.0      -346035.0      -341144.0
      -338125.0      -331853.0      -327316.0      -322763.0      -317879.0
      -314171.0      -309223.0      -304051.0      -299753.0      -294714.0
      -288791.0      -285615.0      -281238.0      -274639.0      -272146.0
      -266503.0      -259387.0      -257384.0      -251769.0      -245521.0
      -242486.0      -236337.0      -231829.0      -229499.0      -223731.0
      -218767.0      -214582.0      -209273.0      -205245.0      -201767.0
      -196854.0      -192296.0      -188561.0      -182484.0      -177730.0
      -174011.0      -169699.0      -166270.0      -160548.0      -156169.0
      -152527.0      -145888.0      -141649.0      -138559.0      -133113.0
      -129912.0      -126836.0      -120927.0      -118409.0      -115640.0
      -108626.0      -105615.0      -102999.0      -97154.00      -95032.00
      -91676.00      -86218.00      -83952.00      -79899.00      -75125.00
      -72578.00      -69484.00      -66484.00      -62492.00      -58410.00
      -55958.00      -52376.00      -48440.00      -45809.00      -42169.00
      -37034.00      -34722.00      -32160.00      -26821.00      -24757.00
      -21852.00      -17040.00      -15003.00      -11259.00      -6264.000
      -3466.000      -189.0000       3413.000       5398.000       9412.000
       13413.00       15872.00       20084.00       22227.00       24709.00
       28458.00       29992.00       33533.00       37358.00       39457.00
       42767.00       45663.00       47191.00       50023.00       53624.00
       55898.00       59368.00       62317.00       63031.00       66019.00
       69162.00       70335.00       74148.00       77124.00       77215.00
       80300.00       82226.00       83821.00       87776.00       89053.00
       91383.00       93058.00       94377.00       97537.00       97122.00
       99076.00       101823.0       102097.0       103903.0       104990.0
       106066.0       106919.0       109007.0       110020.0       109481.0
       112444.0       113196.0       112675.0       114866.0       115386.0
       116044.0       117537.0       118080.0       118513.0       119038.0
       119995.0       119734.0       119685.0       120071.0       120251.0
       121113.0       120943.0       120727.0       119970.0       119752.0
       120424.0       118736.0       118589.0       119372.0       117044.0
       116708.0       117049.0       115534.0       115715.0       114834.0
       112369.0       111475.0       110879.0       108660.0       108238.0
       109261.0       106933.0       105298.0       104174.0       101665.0
       100576.0       99138.00       98162.00       98091.00       96801.00
       94379.00       93474.00       92694.00       90295.00       89493.00
       87818.00       86740.00       86568.00       82880.00       81545.00
       80584.00       76120.00       75939.00       76107.00       73131.00
       73068.00       71682.00       68071.00       67135.00       65902.00
       63618.00       62672.00       60517.00       57943.00       56361.00
       53315.00       51588.00       50411.00       47328.00       46067.00
       44281.00       40718.00       39281.00       37314.00       35200.00
       33950.00       29910.00       26540.00       25671.00       23059.00
       19602.00       17211.00       14006.00       10878.00       8878.000
       5565.000       2227.000      -405.0000      -3940.000      -6348.000
      -9268.000      -13400.00      -16632.00      -20521.00      -23121.00
      -25168.00      -30351.00      -33542.00      -34285.00      -39255.00
      -43886.00      -45151.00      -49076.00      -53030.00      -54367.00
      -57935.00      -61500.00      -62951.00      -66816.00      -69774.00
      -70898.00      -74919.00      -77329.00      -79296.00      -84183.00
      -85991.00      -87427.00      -90678.00      -92262.00      -95346.00
      -98457.00      -99748.00      -102487.0      -104529.0      -106258.0
      -109866.0      -111387.0      -113101.0      -116658.0      -117338.0
      -119124.0      -123761.0      -125150.0      -125642.0      -128364.0
      -130156.0      -131851.0      -133218.0      -134099.0      -136348.0
      -138340.0      -139515.0      -141322.0      -142318.0      -142117.0
      -144311.0      -144747.0      -144368.0      -147101.0      -146182.0
      -146415.0      -149307.0      -148012.0      -149095.0      -150818.0
      -148242.0      -149060.0      -151491.0      -150608.0      -151057.0
      -151312.0      -148914.0      -148554.0      -148790.0      -148331.0
      -148999.0      -148714.0      -148223.0      -147267.0      -145674.0
      -146060.0      -145776.0      -144709.0      -145484.0      -144551.0
      -142906.0      -144150.0      -143885.0      -142111.0      -143413.0
      -143544.0      -141053.0      -141927.0      -141619.0      -139046.0
      -140522.0      -139959.0      -138644.0      -139130.0      -136595.0
      -136055.0      -136196.0      -134631.0      -134796.0      -134163.0
      -132648.0      -132758.0      -132774.0      -131062.0      -130979.0
      -130941.0      -129187.0      -128985.0      -126971.0      -125151.0
      -125889.0      -123716.0      -122136.0      -122570.0      -119318.0
      -117872.0      -118538.0      -114779.0      -112898.0      -113468.0
      -110793.0      -107989.0      -107001.0      -105244.0      -103168.0
      -100871.0      -98193.00      -97044.00      -94717.00      -91468.00
      -90041.00      -86691.00      -84821.00      -84796.00      -79593.00
      -77116.00      -76196.00      -70660.00      -69399.00      -68934.00
      -65273.00      -63679.00      -61166.00      -57172.00      -55625.00
      -53775.00      -49806.00      -47101.00      -44273.00      -41418.00
      -38967.00      -34453.00      -31377.00      -29007.00      -25528.00
      -23077.00      -20188.00      -16481.00      -14143.00      -11496.00
      -6771.000      -4327.000      -2003.000       2493.000       4624.000
       8220.000       12915.00       14823.00       18824.00       23449.00
       25273.00       28379.00       32817.00       35834.00       40111.00
       44396.00       46690.00       50502.00       53952.00       57811.00
       62713.00       65101.00       69813.00       74029.00       75210.00
       80497.00       85654.00       88130.00       92500.00       96653.00
       99484.00       103962.0       108495.0       112163.0       116789.0
       120568.0       122949.0       127536.0       133135.0       136420.0
       140508.0       144816.0       148538.0       153033.0       157169.0
       162265.0       166223.0       169531.0       174361.0       177896.0
       182239.0       187270.0       189822.0       193591.0       199381.0
       203203.0       206501.0       211604.0       215172.0       218480.0
       224489.0       228007.0       230886.0       237333.0       241524.0
       244354.0       249465.0       253879.0       257882.0       263057.0
       267337.0       271013.0       275928.0       279195.0       283050.0
       289376.0       293534.0       297742.0       302301.0       306234.0
       311711.0       315109.0       319113.0       325230.0       328154.0
       332820.0       339010.0       342015.0       346531.0       351908.0
       355166.0       359426.0       364394.0       367319.0       370545.0
       375291.0       378563.0       382736.0       387610.0       390303.0
       394624.0       398280.0       401416.0       406363.0       408957.0
       412870.0       417796.0       419576.0       423652.0       428749.0
       430555.0       434859.0       439719.0       440872.0       444642.0
       448030.0       449165.0       454082.0       457944.0       459586.0
       462882.0       465236.0       467280.0       470431.0       473169.0
       476003.0       479456.0       481655.0       483170.0       485979.0
       487598.0       490872.0       495081.0       496005.0       499548.0
       502096.0       503270.0       508050.0       509832.0       511207.0
       515512.0       518109.0       520290.0       523423.0       525360.0
       526918.0       530224.0       532964.0       534366.0       537126.0
       539550.0       541033.0       544288.0       546767.0       548628.0
       551737.0       552852.0       555010.0       557434.0       558769.0
       562892.0       564436.0       565653.0       569313.0       570364.0
       572662.0       576698.0       578061.0       579320.0       583212.0
       585297.0       586903.0       591047.0       591991.0       593871.0
       598809.0       599993.0       602233.0       606721.0       608826.0
       611033.0       613887.0       616813.0       620488.0       623583.0
       625575.0       628532.0       631757.0       634093.0       637229.0
       639663.0       643138.0       647201.0       648497.0       652014.0
       656253.0       658173.0       662095.0       666312.0       668033.0
       671551.0       676495.0       678368.0       681438.0       686456.0
       688856.0       691365.0       695231.0       698714.0       702275.0
       704866.0       708553.0       713075.0       715246.0       718871.0
       723140.0       725976.0       730348.0       734905.0       738081.0
       742335.0       747401.0       750365.0       755114.0       760612.0
       762743.0       767379.0       772340.0       775002.0       780488.0
       785874.0       789346.0       793340.0       797336.0       801416.0
       805979.0       810709.0       814571.0       819238.0       824857.0
       829057.0       834110.0       838980.0       843606.0       848310.0
       851739.0       857669.0       862289.0       865199.0       872193.0
       876834.0       878813.0       885221.0       890939.0       893780.0
       899322.0       904169.0       907318.0       913975.0       919330.0
       922640.0       928993.0       933111.0       936593.0       943193.0
       947118.0       951937.0       957595.0       961898.0       968225.0
       972121.0       976327.0       982247.0       985871.0       990547.0
       996773.0       1001562.       1005605.       1011967.       1016399.
       1019767.       1026943.       1031522.       1035608.       1040947.
       1043904.       1050035.       1056542.       1060974.       1066344.
       1070440.       1073835.       1078123.       1084554.       1090234.
       1093881.       1098182.       1102476.       1107851.       1113167.
       1117844.       1123176.       1127094.       1131887.       1137097.
       1139569.       1144655.       1150835.       1154322.       1158911.
       1163672.       1168399.       1174028.       1178277.       1181346.
       1186662.       1192464.       1194990.       1199693.       1205488.
       1208998.       1213505.       1217248.       1222136.       1227776.
       1230184.       1233560.       1239595.       1243781.       1247810.
       1253124.       1255536.       1259833.       1265171.       1266815.
       1272011.       1277374.       1279296.       1284058.       1287393.
       1289469.       1294298.       1298029.       1302054.       1306155.
       1309630.       1313162.       1315559.       1320394.       1325288.
       1328553.       1332108.       1335538.       1339395.       1341936.
       1346340.       1350863.       1352876.       1357213.       1359957.
       1362037.       1367575.       1370453.       1372048.       1376692.
       1379031.       1379734.       1383864.       1386501.       1387380.
       1390858.       1392608.       1393717.       1397625.       1399864.
       1401650.       1404103.       1404415.       1406305.       1408519.
       1409507.       1412638.       1414391.       1415163.       1417148.
       1418350.       1419973.       1421824.       1421942.       1421545.
       1422937.       1423761.       1423947.       1425135.       1424440.
       1424406.       1425271.       1423676.       1423820.       1424435.
       1423444.       1422918.       1421146.       1420824.       1420866.
       1418899.       1418056.       1417780.       1417002.       1415742.
       1415200.       1413748.       1412044.       1411671.       1408875.
       1407781.       1408130.       1404559.       1404019.       1404442.
       1399956.       1398425.       1397546.       1394321.       1393944.
       1392199.       1388881.       1387282.       1384260.       1381715.
       1381338.       1379264.       1376298.       1373167.       1370332.
       1369131.       1366879.       1363997.       1362056.       1359354.
       1354779.       1352680.       1351919.       1347458.       1345627.
       1344095.       1339227.       1337564.       1334523.       1329380.
       1327955.       1324266.       1319826.       1319206.       1315246.
       1311208.       1308364.       1303623.       1301561.       1298072.
       1294262.       1292964.       1288921.       1285543.       1282941.
       1277505.       1274535.       1273582.       1268840.       1264818.
       1262827.       1257086.       1253606.       1252066.       1245924.
       1242330.       1239968.       1234521.       1231455.       1228662.
       1223584.       1219756.       1215865.       1211442.       1208666.
       1204557.       1200360.       1197854.       1192643.       1188843.
       1186630.       1180632.       1178622.       1176960.       1171176.
       1168911.       1165050.       1159753.       1157798.       1154249.
       1148626.       1146125.       1143078.       1137428.       1134765.
       1130784.       1126986.       1124240.       1118976.       1116158.
       1112741.       1108423.       1106046.       1102839.       1098471.
       1095199.       1092139.       1087910.       1086220.       1082177.
       1076208.       1074549.       1070170.       1065445.       1065246.
       1061322.       1056507.       1054887.       1049210.       1044945.
       1044862.       1040957.       1037399.       1035326.       1031116.
       1028087.       1025916.       1022229.       1018480.       1015519.
       1013073.       1010921.       1007635.       1004017.       1001423.
       998081.0       994418.0       992111.0       988290.0       984502.0
       983133.0       979593.0       976069.0       973618.0       968631.0
       965809.0       964649.0       960103.0       957248.0       955596.0
       950434.0       947920.0       946130.0       941528.0       939653.0
       936799.0       932681.0       930534.0       927397.0       925818.0
       924108.0       919274.0       916539.0       915007.0       911680.0
       910304.0       909336.0       905449.0       902921.0       900778.0
       897090.0       896270.0       894623.0       890118.0       888317.0
       886401.0       882950.0       881625.0       879102.0       875660.0
       875330.0       872660.0       869010.0       867730.0       863748.0
       861642.0       860216.0       856288.0       855839.0       854006.0
       848811.0       846736.0       844726.0       840974.0       839735.0
       837095.0       833146.0       831821.0       828589.0       825312.0
       824277.0       821882.0       818398.0       815278.0       812105.0
       809137.0       807725.0       804826.0       801131.0       798755.0
       795709.0       793576.0       790681.0       787322.0       785136.0
       780742.0       777260.0       776141.0       772626.0       768998.0
       767220.0       762756.0       758704.0       757649.0       753357.0
       748596.0       747512.0       744081.0       739157.0       736987.0
       733193.0       729119.0       726575.0       722681.0       718864.0
       715221.0       712336.0       708960.0       704402.0       699319.0
       694629.0       691169.0       686598.0       682690.0       677528.0
       672630.0       669935.0       663781.0       658742.0       655322.0
       649018.0       645182.0       642690.0       637066.0       632468.0
       628595.0       621607.0       616711.0       613804.0       607553.0
       602971.0       598602.0       592316.0       587930.0       582375.0
       577156.0       572410.0       566264.0       561970.0       557058.0
       550817.0       546193.0       540231.0       533671.0       529952.0
       525222.0       518230.0       513823.0       510213.0       502480.0
       497529.0       493915.0       485959.0       481903.0       476850.0
       470045.0       466921.0       459840.0       453104.0       449296.0
       443466.0       438313.0       433548.0       427405.0       421450.0
       415058.0       408206.0       404455.0       399308.0       392030.0
       388583.0       382326.0       375343.0       372620.0       365654.0
       358728.0       355842.0       350077.0       343499.0       338904.0
       333330.0       326948.0       322715.0       317031.0       309827.0
       305747.0       300408.0       293784.0       288394.0       282297.0
       276848.0       271753.0       265886.0       260880.0       254623.0
       247657.0       243167.0       236580.0       230388.0       225844.0
       218424.0       213508.0       208482.0       200523.0       195232.0
       190720.0       184132.0       178412.0       173358.0       165669.0
       159618.0       155250.0       148534.0       142803.0       138039.0
       131961.0       125330.0       119307.0       114497.0       110211.0
