     0.05000000      -12345.00      -12345.00   3.247340e+09      -12345.00
   0.0005380000       1859.951      -693.0195      -12345.00      -12345.00
      -12345.00      -12345.00      -12345.00      -12345.00      -12345.00
      -12345.00      -12345.00      -12345.00      -12345.00      -12345.00
      -12345.00      -12345.00      -12345.00      -12345.00      -12345.00
      -12345.00      -12345.00      -12345.00      -12345.00      -12345.00
      -12345.00      -38.05680      -61.97870       438.0000       102.0000
      -42.72450       173.0647      -12345.00       22.00000      -12345.00
      -12345.00      -12345.00      -12345.00      -12345.00      -12345.00
      -12345.00      -12345.00      -12345.00      -12345.00      -12345.00
       9486.066       139.5221       217.2988       85.31403      -12345.00
      -12345.00      -12345.00       0.000000       0.000000      -12345.00
      -12345.00      -12345.00      -12345.00      -12345.00      -12345.00
      -12345.00      -12345.00      -12345.00      -12345.00      -12345.00
      2016       318        11        14        32
        19         6    -12345    -12345     37200
    -12345    -12345    -12345    -12345    -12345
         1    -12345    -12345    -12345    -12345
    -12345    -12345    -12345    -12345    -12345
    -12345    -12345    -12345    -12345    -12345
    -12345    -12345    -12345    -12345    -12345
         1    -12345    -12345    -12345    -12345
TRQA    South Island, Ne
00      -12345  -12345  
-12345  -12345  -12345  
-12345  -12345  -12345  
-12345  -12345  -12345  
-12345  -12345  -12345  
-12345  -12345  BHZ     
IU      -12345  Geotech 
[...]
       3356.000       3356.000       3358.000       3357.000       3355.000
       3354.000       3353.000       3355.000       3356.000       3355.000
       3355.000       3354.000       3352.000       3354.000       3355.000
       3356.000       3355.000       3355.000       3356.000       3356.000
       3358.000       3356.000       3354.000       3356.000       3356.000
       3354.000       3355.000       3356.000       3355.000       3354.000
       3354.000       3357.000       3358.000       3359.000       3360.000
       3360.000       3358.000       3358.000       3360.000       3359.000
       3358.000       3359.000       3360.000       3360.000       3360.000
       3361.000       3361.000       3361.000       3362.000       3361.000
       3360.000       3362.000       3364.000       3363.000       3362.000
       3364.000       3362.000       3360.000       3361.000       3365.000
       3365.000       3365.000       3363.000       3360.000       3357.000
       3354.000       3354.000       3354.000       3353.000       3354.000
       3355.000       3356.000       3356.000       3354.000       3354.000
       3354.000       3354.000       3355.000       3353.000       3354.000
       3359.000       3360.000       3361.000       3361.000       3360.000
       3362.000       3363.000       3362.000       3361.000       3360.000
       3359.000       3360.000       3357.000       3354.000       3357.000
       3355.000       3354.000       3355.000       3356.000       3356.000
       3356.000       3356.000       3356.000       3354.000       3355.000
       3356.000       3358.000       3358.000       3357.000       3357.000
       3356.000       3359.000       3359.000       3358.000       3360.000
       3360.000       3360.000       3362.000       3365.000       3365.000
       3365.000       3365.000       3365.000       3365.000       3363.000
       3362.000       3360.000       3358.000       3357.000       3357.000
       3358.000       3359.000       3360.000       3358.000       3357.000
       3355.000       3356.000       3356.000       3355.000       3355.000
       3353.000       3353.000       3353.000       3354.000       3356.000
       3355.000       3355.000       3356.000       3355.000       3354.000
       3355.000       3353.000       3353.000       3356.000       3355.000
       3354.000       3353.000       3355.000       3356.000       3357.000
       3358.000       3356.000       3357.000       3355.000       3354.000
       3356.000       3354.000       3355.000       3358.000       3362.000
       3364.000       3362.000       3360.000       3358.000       3359.000
       3358.000       3359.000       3359.000       3359.000       3362.000
       3362.000       3362.000       3361.000       3361.000       3362.000
       3361.000       3362.000       3360.000       3360.000       3360.000
       3360.000       3361.000       3360.000       3359.000       3360.000
       3361.000       3364.000       3364.000       3362.000       3362.000
       3363.000       3364.000       3361.000       3361.000       3362.000
       3361.000       3359.000       3359.000       3360.000       3359.000
       3359.000       3359.000       3358.000       3359.000       3360.000
       3359.000       3359.000       3360.000       3357.000       3357.000
       3359.000       3360.000       3360.000       3360.000       3362.000
       3366.000       3367.000       3369.000       3370.000       3369.000
       3370.000       3370.000       3369.000       3369.000       3368.000
       3369.000       3371.000       3371.000       3367.000       3363.000
       3361.000       3361.000       3361.000       3362.000       3364.000
       3367.000       3367.000       3365.000       3367.000       3370.000
       3369.000       3370.000       3368.000       3365.000       3363.000
       3361.000       3362.000       3361.000       3355.000       3358.000
       3359.000       3361.000       3365.000       3368.000       3369.000
       3366.000       3365.000       3366.000       3365.000       3365.000
       3364.000       3364.000       3365.000       3363.000       3364.000
       3367.000       3366.000       3368.000       3366.000       3365.000
       3370.000       3371.000       3369.000       3367.000       3366.000
       3367.000       3369.000       3368.000       3367.000       3367.000
       3366.000       3366.000       3368.000       3368.000       3367.000
       3368.000       3367.000       3366.000       3367.000       3365.000
       3365.000       3369.000       3369.000       3368.000       3366.000
       3366.000       3367.000       3367.000       3367.000       3366.000
       3365.000       3366.000       3367.000       3368.000       3370.000
       3370.000       3370.000       3371.000       3369.000       3367.000
       3367.000       3365.000       3365.000       3363.000       3360.000
       3361.000       3361.000       3360.000       3360.000       3359.000
       3357.000       3356.000       3356.000       3357.000       3357.000
       3357.000       3357.000       3356.000       3355.000       3354.000
       3356.000       3358.000       3358.000       3358.000       3358.000
       3358.000       3357.000       3359.000       3363.000       3367.000
       3368.000       3367.000       3365.000       3364.000       3364.000
       3361.000       3358.000       3355.000       3357.000       3358.000
       3356.000       3356.000       3356.000       3355.000       3357.000
       3359.000       3357.000       3354.000       3355.000       3356.000
       3355.000       3356.000       3355.000       3354.000       3356.000
       3356.000       3356.000       3358.000       3359.000       3360.000
       3359.000       3359.000       3360.000       3358.000       3358.000
       3358.000       3358.000       3359.000       3359.000       3359.000
       3357.000       3358.000       3362.000       3361.000       3361.000
       3362.000       3362.000       3362.000       3363.000       3364.000
       3363.000       3363.000       3363.000       3361.000       3361.000
       3363.000       3361.000       3361.000       3360.000       3363.000
       3361.000       3356.000       3357.000       3358.000       3358.000
       3355.000       3354.000       3354.000       3355.000       3355.000
       3353.000       3354.000       3355.000       3357.000       3358.000
       3358.000       3359.000       3360.000       3358.000       3355.000
       3357.000       3358.000       3358.000       3358.000       3357.000
       3356.000       3358.000       3359.000       3359.000       3359.000
       3355.000       3355.000       3357.000       3356.000       3356.000
       3355.000       3356.000       3354.000       3352.000       3353.000
       3354.000       3354.000       3355.000       3357.000       3359.000
       3358.000       3357.000       3358.000       3357.000       3358.000
       3359.000       3359.000       3361.000       3360.000       3362.000
       3365.000       3364.000       3363.000       3363.000       3362.000
       3360.000       3359.000       3359.000       3359.000       3357.000
       3360.000       3360.000       3359.000       3359.000       3360.000
       3361.000       3359.000       3358.000       3360.000       3361.000
       3362.000       3364.000       3365.000       3366.000       3367.000
       3367.000       3367.000       3366.000       3365.000       3365.000
       3365.000       3361.000       3362.000       3364.000       3364.000
       3365.000       3363.000       3361.000       3362.000       3361.000
       3359.000       3358.000       3357.000       3356.000       3354.000
       3355.000       3357.000       3356.000       3357.000       3356.000
       3354.000       3356.000       3355.000       3355.000       3355.000
       3355.000       3357.000       3355.000       3353.000       3355.000
       3356.000       3356.000       3356.000       3356.000       3356.000
       3357.000       3359.000       3358.000       3357.000       3359.000
       3362.000       3365.000       3365.000       3364.000       3362.000
       3362.000       3364.000       3363.000       3362.000       3361.000
       3358.000       3357.000       3358.000       3358.000       3356.000
       3356.000       3358.000       3357.000       3356.000       3359.000
       3360.000       3359.000       3356.000       3356.000       3357.000
       3358.000       3359.000       3359.000       3359.000       3359.000
       3358.000       3359.000       3358.000       3360.000       3364.000
       3365.000       3366.000       3367.000       3366.000       3365.000
       3366.000       3364.000       3362.000       3361.000       3361.000
       3361.000       3363.000       3363.000       3361.000       3361.000
       3362.000       3364.000       3362.000       3364.000       3364.000
       3361.000       3363.000       3364.000       3365.000       3364.000
       3364.000       3366.000       3366.000       3367.000       3366.000
       3364.000       3365.000       3362.000       3362.000       3361.000
       3357.000       3358.000       3358.000       3357.000       3356.000
       3354.000       3355.000       3357.000       3355.000       3356.000
       3357.000       3357.000       3358.000       3358.000       3357.000
       3357.000       3356.000       3356.000       3358.000       3358.000
       3359.000       3358.000       3358.000       3359.000       3358.000
       3358.000       3358.000       3360.000       3364.000       3364.000
       3362.000       3363.000       3361.000       3359.000       3360.000
       3359.000       3359.000       3359.000       3354.000       3355.000
       3354.000       3355.000       3355.000       3353.000       3354.000
       3355.000       3355.000       3355.000       3354.000       3354.000
       3356.000       3356.000       3355.000       3357.000       3356.000
       3355.000       3358.000       3362.000       3362.000       3360.000
       3362.000       3360.000       3357.000       3357.000       3357.000
       3359.000       3361.000       3362.000       3360.000       3359.000
       3362.000       3361.000       3361.000       3361.000       3361.000
       3360.000       3360.000       3360.000       3361.000       3362.000
       3360.000       3362.000       3360.000       3359.000       3363.000
       3362.000       3361.000       3359.000       3357.000       3360.000
       3360.000       3361.000       3364.000       3364.000       3364.000
       3365.000       3366.000       3365.000       3366.000       3366.000
       3365.000       3365.000       3363.000       3361.000       3362.000
       3361.000       3360.000       3359.000       3359.000       3359.000
       3359.000       3360.000       3359.000       3359.000       3359.000
       3359.000       3359.000       3360.000       3363.000       3363.000
       3360.000       3359.000       3359.000       3359.000       3359.000
       3358.000       3358.000       3359.000       3356.000       3357.000
       3358.000       3356.000       3358.000       3356.000       3357.000
       3358.000       3358.000       3356.000       3357.000       3359.000
       3357.000       3358.000       3360.000       3358.000       3356.000
       3357.000       3360.000       3360.000       3361.000       3363.000
       3363.000       3365.000       3367.000       3368.000       3369.000
       3368.000       3368.000       3368.000       3364.000       3365.000
       3365.000       3364.000       3362.000       3362.000       3365.000
       3364.000       3365.000       3363.000       3366.000       3371.000
       3368.000       3367.000       3364.000       3361.000       3363.000
       3361.000       3359.000       3360.000       3360.000       3359.000
       3357.000       3357.000       3356.000       3357.000       3361.000
       3363.000       3364.000       3364.000       3364.000       3363.000
       3362.000       3363.000       3362.000       3361.000       3363.000
       3363.000       3362.000       3361.000       3357.000       3357.000
       3359.000       3357.000       3355.000       3357.000       3358.000
       3359.000       3358.000       3357.000       3358.000       3360.000
       3359.000       3360.000       3363.000       3361.000       3361.000
       3364.000       3363.000       3365.000       3365.000       3364.000
       3363.000       3361.000       3361.000       3362.000       3362.000
       3362.000       3361.000       3360.000       3360.000       3363.000
       3365.000       3366.000       3368.000       3369.000       3371.000
       3372.000       3373.000       3371.000       3364.000       3360.000
       3357.000       3356.000       3358.000       3360.000       3361.000
       3363.000       3363.000       3364.000       3363.000       3361.000
       3360.000       3357.000       3356.000       3355.000       3356.000
       3357.000       3355.000       3353.000       3354.000       3353.000
       3353.000       3352.000       3352.000       3352.000       3350.000
       3352.000       3352.000       3351.000       3352.000       3354.000
       3356.000       3356.000       3356.000       3356.000       3358.000
       3356.000       3357.000       3360.000       3359.000       3357.000
       3356.000       3356.000       3355.000       3356.000       3357.000
       3354.000       3353.000       3353.000       3351.000       3352.000
       3353.000       3351.000       3352.000       3355.000       3354.000
       3353.000       3353.000       3353.000       3353.000       3352.000
       3351.000       3353.000       3353.000       3353.000       3353.000
       3356.000       3358.000       3358.000       3358.000       3354.000
       3355.000       3357.000       3356.000       3357.000       3357.000
       3358.000       3360.000       3360.000       3359.000       3361.000
       3359.000       3358.000       3357.000       3355.000       3355.000
       3354.000       3352.000       3353.000       3352.000       3352.000
       3354.000       3356.000       3358.000       3361.000       3360.000
       3358.000       3359.000       3360.000       3360.000       3360.000
       3358.000       3356.000       3357.000       3357.000       3356.000
       3357.000       3357.000       3357.000       3355.000       3354.000
       3357.000       3357.000       3356.000       3355.000       3355.000
       3353.000       3354.000       3355.000       3354.000       3354.000
       3354.000       3352.000       3350.000       3352.000       3353.000
       3353.000       3353.000       3353.000       3354.000       3355.000
       3357.000       3358.000       3355.000       3352.000       3352.000
       3349.000       3349.000       3350.000       3347.000       3348.000
       3349.000       3352.000       3355.000       3355.000       3355.000
       3356.000       3356.000       3356.000       3356.000       3356.000
       3355.000       3355.000       3354.000       3356.000       3355.000
       3356.000       3355.000       3355.000       3358.000       3357.000
       3354.000       3352.000       3351.000       3354.000       3357.000
       3358.000       3356.000       3356.000       3355.000       3355.000
       3355.000       3351.000       3352.000       3354.000       3353.000
       3353.000       3353.000       3353.000       3351.000       3352.000
       3352.000       3352.000       3351.000       3350.000       3352.000
       3349.000       3349.000       3351.000       3352.000       3353.000
       3350.000       3352.000       3352.000       3351.000       3353.000
       3354.000       3356.000       3357.000       3360.000       3361.000
       3359.000       3359.000       3358.000       3355.000       3353.000
       3354.000       3352.000       3352.000       3351.000       3351.000
       3352.000       3353.000       3352.000       3350.000       3349.000
       3349.000       3351.000       3353.000       3351.000       3351.000
       3355.000       3356.000       3356.000       3357.000       3355.000
       3353.000       3352.000       3352.000       3354.000       3354.000
       3352.000       3352.000       3352.000       3349.000       3350.000
       3346.000       3343.000       3345.000       3347.000       3349.000
       3350.000       3349.000       3350.000       3351.000       3352.000
       3356.000       3357.000       3355.000       3355.000       3352.000
       3350.000       3350.000       3348.000       3349.000       3351.000
       3350.000       3351.000       3352.000       3350.000       3352.000
       3356.000       3358.000       3356.000       3351.000       3351.000
       3351.000       3349.000       3348.000       3347.000       3349.000
       3349.000       3351.000       3352.000       3350.000       3352.000
       3355.000       3355.000       3353.000       3351.000       3350.000
       3348.000       3349.000       3350.000       3349.000       3350.000
       3351.000       3349.000       3350.000       3352.000       3352.000
       3350.000       3351.000       3352.000       3350.000       3351.000
       3349.000       3348.000       3348.000       3349.000       3351.000
       3350.000       3349.000       3349.000       3351.000       3351.000
       3349.000       3349.000       3351.000       3352.000       3351.000
       3351.000       3350.000       3352.000       3352.000       3349.000
       3348.000       3348.000       3349.000       3352.000       3353.000
       3355.000       3358.000       3357.000       3357.000       3358.000
       3358.000       3360.000       3360.000       3357.000       3357.000
       3357.000       3355.000       3352.000       3351.000       3354.000
       3354.000       3353.000       3353.000       3355.000       3354.000
       3354.000       3355.000       3354.000       3353.000       3354.000
       3356.000       3357.000       3356.000       3359.000       3357.000
       3354.000       3354.000       3354.000       3355.000       3355.000
       3355.000       3356.000       3353.000       3354.000       3356.000
