     0.05000000      -12345.00      -12345.00   3.309370e+09      -12345.00
   0.0005380000       1859.951      -693.0195      -12345.00      -12345.00
      -12345.00      -12345.00      -12345.00      -12345.00      -12345.00
      -12345.00      -12345.00      -12345.00      -12345.00      -12345.00
      -12345.00      -12345.00      -12345.00      -12345.00      -12345.00
      -12345.00      -12345.00      -12345.00      -12345.00      -12345.00
      -12345.00      -38.05680      -61.97870       438.0000       102.0000
      -42.72450       173.0647      -12345.00       22.00000      -12345.00
      -12345.00      -12345.00      -12345.00      -12345.00      -12345.00
      -12345.00      -12345.00      -12345.00      -12345.00      -12345.00
       9486.066       139.5221       217.2988       85.31403      -12345.00
      -12345.00      -12345.00       121.0000       90.00000      -12345.00
      -12345.00      -12345.00      -12345.00      -12345.00      -12345.00
      -12345.00      -12345.00      -12345.00      -12345.00      -12345.00
      2016       318        11        14        32
        19         6    -12345    -12345     37200
    -12345    -12345    -12345    -12345    -12345
         1    -12345    -12345    -12345    -12345
    -12345    -12345    -12345    -12345    -12345
    -12345    -12345    -12345    -12345    -12345
    -12345    -12345    -12345    -12345    -12345
         1    -12345    -12345    -12345    -12345
TRQA    South Island, Ne
00      -12345  -12345  
-12345  -12345  -12345  
-12345  -12345  -12345  
-12345  -12345  -12345  
-12345  -12345  -12345  
-12345  -12345  BH1     
IU      -12345  Geotech 
[...]
       2665.000       2669.000       2670.000       2667.000       2665.000
       2667.000       2668.000       2666.000       2668.000       2665.000
       2664.000       2667.000       2665.000       2663.000       2663.000
       2663.000       2661.000       2662.000       2661.000       2661.000
       2661.000       2661.000       2663.000       2660.000       2660.000
       2663.000       2662.000       2663.000       2664.000       2664.000
       2665.000       2665.000       2664.000       2663.000       2665.000
       2665.000       2664.000       2664.000       2664.000       2662.000
       2657.000       2655.000       2656.000       2657.000       2657.000
       2655.000       2655.000       2658.000       2660.000       2663.000
       2664.000       2664.000       2663.000       2662.000       2663.000
       2665.000       2666.000       2665.000       2664.000       2664.000
       2666.000       2666.000       2665.000       2667.000       2668.000
       2668.000       2669.000       2669.000       2669.000       2669.000
       2669.000       2669.000       2670.000       2668.000       2670.000
       2669.000       2665.000       2666.000       2667.000       2665.000
       2666.000       2665.000       2665.000       2668.000       2668.000
       2669.000       2669.000       2667.000       2669.000       2668.000
       2671.000       2670.000       2667.000       2669.000       2668.000
       2668.000       2668.000       2667.000       2669.000       2668.000
       2667.000       2669.000       2670.000       2669.000       2669.000
       2668.000       2668.000       2668.000       2667.000       2666.000
       2666.000       2665.000       2664.000       2664.000       2666.000
       2665.000       2664.000       2668.000       2669.000       2667.000
       2665.000       2667.000       2667.000       2667.000       2668.000
       2668.000       2671.000       2672.000       2673.000       2672.000
       2671.000       2672.000       2673.000       2676.000       2678.000
       2676.000       2672.000       2670.000       2669.000       2668.000
       2669.000       2669.000       2670.000       2668.000       2669.000
       2673.000       2673.000       2671.000       2671.000       2671.000
       2670.000       2676.000       2681.000       2682.000       2681.000
       2676.000       2673.000       2669.000       2665.000       2667.000
       2670.000       2669.000       2663.000       2662.000       2663.000
       2665.000       2666.000       2665.000       2666.000       2667.000
       2667.000       2664.000       2663.000       2661.000       2658.000
       2658.000       2657.000       2658.000       2659.000       2656.000
       2660.000       2664.000       2667.000       2671.000       2675.000
       2673.000       2671.000       2673.000       2672.000       2670.000
       2668.000       2666.000       2666.000       2664.000       2662.000
       2663.000       2666.000       2667.000       2666.000       2667.000
       2667.000       2668.000       2668.000       2669.000       2669.000
       2668.000       2667.000       2667.000       2668.000       2668.000
       2669.000       2670.000       2672.000       2672.000       2671.000
       2669.000       2670.000       2673.000       2669.000       2668.000
       2669.000       2670.000       2669.000       2667.000       2667.000
       2666.000       2666.000       2667.000       2667.000       2667.000
       2666.000       2665.000       2665.000       2665.000       2665.000
       2666.000       2667.000       2668.000       2668.000       2667.000
       2669.000       2667.000       2661.000       2661.000       2659.000
       2661.000       2665.000       2667.000       2669.000       2669.000
       2670.000       2671.000       2670.000       2668.000       2667.000
       2670.000       2669.000       2669.000       2670.000       2670.000
       2671.000       2668.000       2668.000       2668.000       2667.000
       2671.000       2672.000       2674.000       2675.000       2672.000
       2672.000       2671.000       2669.000       2668.000       2666.000
       2665.000       2667.000       2667.000       2666.000       2666.000
       2666.000       2667.000       2668.000       2668.000       2667.000
       2667.000       2669.000       2670.000       2670.000       2669.000
       2669.000       2667.000       2666.000       2667.000       2668.000
       2669.000       2670.000       2670.000       2668.000       2668.000
       2667.000       2665.000       2666.000       2667.000       2668.000
       2669.000       2668.000       2669.000       2667.000       2665.000
       2666.000       2666.000       2666.000       2667.000       2668.000
       2669.000       2668.000       2669.000       2669.000       2669.000
       2667.000       2667.000       2670.000       2673.000       2675.000
       2676.000       2675.000       2672.000       2671.000       2671.000
       2669.000       2668.000       2667.000       2667.000       2668.000
       2667.000       2666.000       2664.000       2660.000       2656.000
       2656.000       2659.000       2662.000       2669.000       2676.000
       2675.000       2672.000       2670.000       2667.000       2668.000
       2670.000       2670.000       2669.000       2668.000       2669.000
       2667.000       2668.000       2672.000       2672.000       2671.000
       2671.000       2671.000       2668.000       2669.000       2670.000
       2670.000       2670.000       2669.000       2669.000       2668.000
       2667.000       2666.000       2665.000       2667.000       2666.000
       2665.000       2668.000       2667.000       2665.000       2666.000
       2665.000       2664.000       2667.000       2668.000       2669.000
       2670.000       2669.000       2671.000       2667.000       2665.000
       2667.000       2663.000       2662.000       2662.000       2665.000
       2669.000       2673.000       2676.000       2678.000       2676.000
       2671.000       2671.000       2671.000       2669.000       2668.000
       2661.000       2659.000       2662.000       2662.000       2663.000
       2667.000       2670.000       2668.000       2672.000       2675.000
       2676.000       2681.000       2683.000       2682.000       2680.000
       2675.000       2673.000       2672.000       2673.000       2673.000
       2670.000       2669.000       2669.000       2668.000       2668.000
       2671.000       2670.000       2670.000       2669.000       2669.000
       2668.000       2667.000       2669.000       2669.000       2667.000
       2669.000       2669.000       2670.000       2670.000       2668.000
       2667.000       2666.000       2667.000       2667.000       2666.000
       2665.000       2665.000       2667.000       2666.000       2666.000
       2666.000       2664.000       2664.000       2666.000       2666.000
       2667.000       2666.000       2664.000       2665.000       2665.000
       2667.000       2666.000       2668.000       2668.000       2667.000
       2668.000       2666.000       2667.000       2667.000       2669.000
       2671.000       2671.000       2669.000       2668.000       2669.000
       2671.000       2673.000       2673.000       2671.000       2671.000
       2670.000       2670.000       2669.000       2668.000       2670.000
       2671.000       2668.000       2666.000       2669.000       2667.000
       2661.000       2658.000       2660.000       2663.000       2664.000
       2665.000       2664.000       2662.000       2662.000       2668.000
       2667.000       2665.000       2666.000       2666.000       2666.000
       2666.000       2667.000       2666.000       2668.000       2670.000
       2668.000       2669.000       2667.000       2667.000       2667.000
       2666.000       2666.000       2662.000       2662.000       2665.000
       2666.000       2668.000       2667.000       2668.000       2667.000
       2667.000       2668.000       2665.000       2664.000       2666.000
       2665.000       2667.000       2668.000       2669.000       2667.000
       2666.000       2667.000       2667.000       2667.000       2667.000
       2667.000       2668.000       2669.000       2669.000       2669.000
       2668.000       2667.000       2664.000       2665.000       2665.000
       2664.000       2666.000       2667.000       2666.000       2668.000
       2668.000       2669.000       2671.000       2670.000       2670.000
       2667.000       2664.000       2666.000       2668.000       2669.000
       2671.000       2670.000       2674.000       2676.000       2677.000
       2677.000       2672.000       2669.000       2669.000       2666.000
       2672.000       2675.000       2672.000       2672.000       2668.000
       2662.000       2663.000       2663.000       2663.000       2667.000
       2667.000       2665.000       2666.000       2665.000       2662.000
       2661.000       2660.000       2658.000       2658.000       2656.000
       2656.000       2660.000       2662.000       2663.000       2664.000
       2665.000       2667.000       2667.000       2667.000       2667.000
       2666.000       2667.000       2665.000       2666.000       2667.000
       2666.000       2665.000       2663.000       2662.000       2661.000
       2659.000       2659.000       2659.000       2658.000       2660.000
       2662.000       2662.000       2663.000       2665.000       2668.000
       2669.000       2670.000       2669.000       2670.000       2669.000
       2668.000       2668.000       2669.000       2670.000       2667.000
       2668.000       2669.000       2669.000       2667.000       2663.000
       2661.000       2661.000       2663.000       2666.000       2667.000
       2668.000       2668.000       2667.000       2668.000       2668.000
       2669.000       2670.000       2669.000       2671.000       2674.000
       2675.000       2676.000       2677.000       2677.000       2677.000
       2678.000       2677.000       2677.000       2676.000       2673.000
       2673.000       2669.000       2666.000       2667.000       2666.000
       2664.000       2666.000       2665.000       2664.000       2665.000
       2666.000       2666.000       2666.000       2667.000       2666.000
       2665.000       2665.000       2666.000       2665.000       2662.000
       2664.000       2666.000       2666.000       2668.000       2669.000
       2671.000       2670.000       2670.000       2671.000       2669.000
       2668.000       2669.000       2670.000       2671.000       2670.000
       2671.000       2672.000       2670.000       2669.000       2670.000
       2671.000       2670.000       2669.000       2670.000       2670.000
       2670.000       2670.000       2669.000       2669.000       2668.000
       2665.000       2669.000       2671.000       2669.000       2672.000
       2671.000       2671.000       2673.000       2674.000       2673.000
       2671.000       2673.000       2672.000       2672.000       2673.000
       2672.000       2671.000       2669.000       2668.000       2669.000
       2670.000       2669.000       2668.000       2670.000       2671.000
       2669.000       2669.000       2671.000       2671.000       2671.000
       2670.000       2671.000       2671.000       2668.000       2667.000
       2666.000       2666.000       2666.000       2666.000       2667.000
       2668.000       2668.000       2669.000       2672.000       2671.000
       2671.000       2673.000       2671.000       2671.000       2670.000
       2670.000       2669.000       2668.000       2673.000       2676.000
       2675.000       2672.000       2667.000       2664.000       2662.000
       2661.000       2664.000       2664.000       2663.000       2665.000
       2667.000       2667.000       2667.000       2666.000       2664.000
       2664.000       2664.000       2662.000       2663.000       2662.000
       2662.000       2662.000       2662.000       2665.000       2666.000
       2665.000       2665.000       2664.000       2662.000       2662.000
       2658.000       2656.000       2660.000       2662.000       2662.000
       2662.000       2663.000       2667.000       2670.000       2669.000
       2672.000       2674.000       2674.000       2676.000       2675.000
       2675.000       2675.000       2673.000       2674.000       2674.000
       2673.000       2671.000       2667.000       2666.000       2665.000
       2668.000       2667.000       2667.000       2666.000       2667.000
       2674.000       2678.000       2682.000       2682.000       2683.000
       2689.000       2686.000       2682.000       2679.000       2677.000
       2677.000       2677.000       2678.000       2678.000       2678.000
       2678.000       2675.000       2672.000       2671.000       2671.000
       2671.000       2671.000       2671.000       2671.000       2669.000
       2668.000       2668.000       2664.000       2663.000       2661.000
       2660.000       2663.000       2662.000       2663.000       2664.000
       2663.000       2662.000       2663.000       2664.000       2662.000
       2663.000       2666.000       2666.000       2667.000       2668.000
       2668.000       2668.000       2670.000       2670.000       2673.000
       2672.000       2669.000       2672.000       2673.000       2673.000
       2671.000       2669.000       2670.000       2666.000       2664.000
       2667.000       2665.000       2664.000       2663.000       2662.000
       2664.000       2664.000       2661.000       2659.000       2658.000
       2659.000       2660.000       2660.000       2662.000       2660.000
       2659.000       2663.000       2666.000       2668.000       2668.000
       2669.000       2671.000       2671.000       2672.000       2675.000
       2677.000       2679.000       2679.000       2678.000       2679.000
       2680.000       2677.000       2677.000       2679.000       2674.000
       2669.000       2666.000       2662.000       2660.000       2663.000
       2664.000       2664.000       2665.000       2665.000       2665.000
       2665.000       2667.000       2666.000       2667.000       2667.000
       2667.000       2666.000       2666.000       2665.000       2662.000
       2661.000       2665.000       2669.000       2672.000       2675.000
       2677.000       2675.000       2676.000       2677.000       2673.000
       2669.000       2669.000       2671.000       2670.000       2665.000
       2663.000       2662.000       2663.000       2663.000       2663.000
       2665.000       2665.000       2665.000       2670.000       2674.000
       2674.000       2675.000       2676.000       2675.000       2673.000
       2672.000       2672.000       2668.000       2667.000       2668.000
       2668.000       2667.000       2667.000       2669.000       2668.000
       2666.000       2665.000       2662.000       2662.000       2662.000
       2660.000       2661.000       2663.000       2662.000       2661.000
       2659.000       2661.000       2664.000       2666.000       2667.000
       2667.000       2669.000       2670.000       2668.000       2666.000
       2664.000       2663.000       2666.000       2665.000       2666.000
       2668.000       2667.000       2667.000       2668.000       2667.000
       2668.000       2669.000       2669.000       2670.000       2670.000
       2671.000       2671.000       2670.000       2670.000       2669.000
       2668.000       2669.000       2671.000       2673.000       2676.000
       2676.000       2675.000       2677.000       2676.000       2675.000
       2673.000       2670.000       2668.000       2667.000       2668.000
       2669.000       2666.000       2665.000       2663.000       2664.000
       2667.000       2666.000       2666.000       2665.000       2665.000
       2668.000       2669.000       2671.000       2670.000       2670.000
       2669.000       2668.000       2668.000       2665.000       2664.000
       2664.000       2665.000       2665.000       2664.000       2665.000
       2666.000       2666.000       2667.000       2666.000       2665.000
       2667.000       2667.000       2666.000       2667.000       2667.000
       2662.000       2661.000       2664.000       2664.000       2664.000
       2666.000       2667.000       2667.000       2666.000       2665.000
       2665.000       2665.000       2666.000       2666.000       2665.000
       2665.000       2665.000       2666.000       2667.000       2667.000
       2666.000       2665.000       2665.000       2666.000       2667.000
       2668.000       2668.000       2666.000       2667.000       2667.000
       2667.000       2666.000       2668.000       2668.000       2669.000
       2669.000       2668.000       2671.000       2671.000       2669.000
       2669.000       2669.000       2669.000       2668.000       2668.000
       2666.000       2665.000       2665.000       2664.000       2664.000
       2661.000       2660.000       2662.000       2667.000       2671.000
       2673.000       2673.000       2668.000       2666.000       2665.000
       2665.000       2663.000       2661.000       2662.000       2663.000
       2664.000       2665.000       2667.000       2668.000       2665.000
       2663.000       2662.000       2664.000       2666.000       2664.000
       2664.000       2665.000       2663.000       2664.000       2665.000
       2663.000       2662.000       2662.000       2662.000       2661.000
       2662.000       2663.000       2664.000       2664.000       2663.000
       2663.000       2665.000       2666.000       2665.000       2665.000
       2668.000       2668.000       2667.000       2667.000       2665.000
       2665.000       2665.000       2665.000       2666.000       2665.000
       2665.000       2666.000       2666.000       2663.000       2664.000
       2663.000       2660.000       2660.000       2662.000       2661.000
       2661.000       2661.000       2660.000       2661.000       2664.000
       2663.000       2663.000       2664.000       2661.000       2660.000
