     0.02500000      -12345.00      -12345.00   2.447790e+09      -12345.00
   0.0005360000       1859.976      -426.0195      -12345.00      -12345.00
      -12345.00      -12345.00      -12345.00      -12345.00      -12345.00
      -12345.00      -12345.00      -12345.00      -12345.00      -12345.00
      -12345.00      -12345.00      -12345.00      -12345.00      -12345.00
      -12345.00      -12345.00      -12345.00      -12345.00      -12345.00
      -12345.00       1.354900       172.9229       18.00000       2.000000
      -42.72450       173.0647      -12345.00       22.00000      -12345.00
      -12345.00      -12345.00      -12345.00      -12345.00      -12345.00
      -12345.00      -12345.00      -12345.00      -12345.00      -12345.00
       4878.878       359.7955       179.8492       43.87875      -12345.00
      -12345.00      -12345.00       0.000000       90.00000      -12345.00
      -12345.00      -12345.00      -12345.00      -12345.00      -12345.00
      -12345.00      -12345.00      -12345.00      -12345.00      -12345.00
      2016       318        11        10         5
        19         6    -12345    -12345     74400
    -12345    -12345    -12345    -12345    -12345
         1    -12345    -12345    -12345    -12345
    -12345    -12345    -12345    -12345    -12345
    -12345    -12345    -12345    -12345    -12345
    -12345    -12345    -12345    -12345    -12345
         1    -12345    -12345    -12345    -12345
TARA    South Island, Ne
10      -12345  -12345  
-12345  -12345  -12345  
-12345  -12345  -12345  
-12345  -12345  -12345  
-12345  -12345  -12345  
-12345  -12345  BH1     
IU      -12345  Streckei
[...]
      -1018550.      -1013633.      -1006979.      -997669.0      -993229.0
      -987939.0      -978832.0      -974876.0      -969756.0      -961149.0
      -956798.0      -949345.0      -941437.0      -936862.0      -928814.0
      -922074.0      -917203.0      -909243.0      -901339.0      -895317.0
      -888301.0      -881630.0      -876275.0      -868317.0      -859938.0
      -855066.0      -847500.0      -837877.0      -832483.0      -824551.0
      -818034.0      -813539.0      -804317.0      -798400.0      -791634.0
      -782504.0      -777192.0      -771333.0      -764128.0      -758195.0
      -751623.0      -742280.0      -735647.0      -730721.0      -722412.0
      -716227.0      -710777.0      -701793.0      -694509.0      -687868.0
      -680351.0      -673675.0      -665740.0      -660555.0      -654987.0
      -644906.0      -638461.0      -632851.0      -623711.0      -617451.0
      -611119.0      -602536.0      -598229.0      -590928.0      -580693.0
      -576854.0      -570514.0      -561140.0      -556474.0      -550632.0
      -542363.0      -536228.0      -528352.0      -519839.0      -514871.0
      -507316.0      -499182.0      -494496.0      -487660.0      -480371.0
      -473543.0      -465672.0      -459036.0      -451845.0      -444477.0
      -439529.0      -432735.0      -424164.0      -419842.0      -413473.0
      -404572.0      -400183.0      -393542.0      -385525.0      -381035.0
      -372685.0      -364275.0      -360876.0      -352606.0      -345144.0
      -341335.0      -332700.0      -327109.0      -321181.0      -312287.0
      -307642.0      -301309.0      -293356.0      -287634.0      -281291.0
      -274077.0      -267738.0      -260361.0      -252604.0      -247653.0
      -241802.0      -233926.0      -228349.0      -221141.0      -213050.0
      -209340.0      -201950.0      -193866.0      -190036.0      -181942.0
      -174661.0      -169945.0      -161830.0      -154636.0      -149195.0
      -141761.0      -135303.0      -130179.0      -120723.0      -113333.0
      -108607.0      -100285.0      -94279.00      -88124.00      -79720.00
      -73507.00      -66119.00      -58234.00      -52873.00      -45579.00
      -37942.00      -32623.00      -24269.00      -15823.00      -10022.00
      -2493.000       4679.000       11032.00       20821.00       28446.00
       33603.00       42947.00       50565.00       57055.00       65874.00
       73491.00       81355.00       90046.00       97554.00       104531.0
       113738.0       120984.0       128390.0       137302.0       142313.0
       151511.0       160970.0       167614.0       177647.0       185024.0
       190961.0       200407.0       209111.0       215491.0       225027.0
       232991.0       239102.0       250130.0       258053.0       265149.0
       275871.0       282598.0       289300.0       299198.0       307079.0
       315532.0       325931.0       333421.0       341486.0       351425.0
       358510.0       367349.0       377880.0       384790.0       393832.0
       404740.0       411911.0       420768.0       430066.0       438467.0
       449151.0       456138.0       464116.0       475891.0       484208.0
       491163.0       499979.0       509836.0       517925.0       526993.0
       535755.0       542687.0       553514.0       561472.0       566867.0
       576808.0       585709.0       593023.0       601965.0       610198.0
       619045.0       627955.0       634448.0       643107.0       652701.0
       660352.0       669017.0       677297.0       684850.0       694673.0
       702342.0       708773.0       719269.0       725886.0       732290.0
       742971.0       748560.0       754803.0       764857.0       771155.0
       777646.0       788289.0       794491.0       799539.0       808537.0
       814887.0       823490.0       831268.0       837038.0       846551.0
       852603.0       858460.0       867307.0       872980.0       878896.0
       888207.0       894891.0       900816.0       909101.0       914286.0
       920818.0       930339.0       935114.0       941619.0       951311.0
       954509.0       960490.0       970232.0       973819.0       981543.0
       989482.0       992056.0       1000475.       1007874.       1012199.
       1018992.       1024855.       1030220.       1037065.       1043147.
       1048194.       1056963.       1061926.       1065102.       1072948.
       1076843.       1082998.       1091038.       1094327.       1100502.
       1106623.       1108439.       1114542.       1121212.       1123638.
       1130104.       1135571.       1137588.       1143255.       1148874.
       1152199.       1157864.       1162048.       1163920.       1171038.
       1176498.       1179471.       1184367.       1186623.       1191107.
       1196076.       1198239.       1203843.       1208834.       1209445.
       1213469.       1218174.       1219718.       1225394.       1229182.
       1230691.       1236374.       1239036.       1238915.       1243012.
       1247973.       1250341.       1254274.       1256242.       1258167.
       1262475.       1262797.       1264991.       1269840.       1271587.
       1273252.       1277334.       1279831.       1280990.       1283052.
       1283328.       1286626.       1290396.       1290167.       1293227.
       1296410.       1296194.       1297982.       1301201.       1302111.
       1304441.       1307002.       1306661.       1309492.       1310680.
       1310069.       1314575.       1316815.       1315620.       1317767.
       1319843.       1319533.       1322122.       1322740.       1322088.
       1325346.       1324555.       1324194.       1327642.       1327735.
       1329168.       1331103.       1329564.       1331539.       1333638.
       1332167.       1332942.       1333607.       1334114.       1335617.
       1335670.       1336032.       1337828.       1338053.       1336609.
       1338503.       1339634.       1338794.       1339039.       1338251.
       1339585.       1340724.       1339305.       1339503.       1340339.
       1339231.       1337842.       1338515.       1338367.       1336764.
       1338592.       1338960.       1336295.       1337487.       1335991.
       1334510.       1336642.       1335098.       1335510.       1334655.
       1331092.       1331860.       1331047.       1328745.       1330332.
       1331373.       1327520.       1325862.       1327039.       1325236.
       1324077.       1323840.       1322117.       1320996.       1320310.
       1317411.       1316740.       1316934.       1313588.       1312443.
       1311293.       1309948.       1310259.       1307197.       1304974.
       1305254.       1302369.       1299875.       1299862.       1298000.
       1295994.       1294368.       1291723.       1290068.       1288061.
       1284496.       1282137.       1280484.       1276567.       1273709.
       1272906.       1269024.       1266097.       1265347.       1261011.
       1257230.       1255002.       1251647.       1250253.       1247618.
       1243124.       1241292.       1237514.       1232541.       1230852.
       1227287.       1223463.       1221152.       1216093.       1212092.
       1209658.       1204744.       1201608.       1199684.       1193748.
       1190770.       1187840.       1180513.       1178198.       1175414.
       1169109.       1165289.       1161218.       1156308.       1152702.
       1147754.       1140373.       1137602.       1134549.       1126504.
       1122868.       1117825.       1110222.       1107104.       1100965.
       1094294.       1090899.       1084534.       1079371.       1074822.
       1066447.       1061233.       1056429.       1049146.       1045754.
       1040368.       1032181.       1026613.       1020245.       1012818.
       1006657.       1001051.       993963.0       987331.0       980912.0
       972385.0       965600.0       959703.0       951089.0       944525.0
       938357.0       930363.0       924040.0       915163.0       907189.0
       900907.0       891426.0       883731.0       876821.0       868856.0
       861167.0       852258.0       844181.0       836924.0       828411.0
       820464.0       812507.0       803747.0       794820.0       786044.0
       778169.0       769433.0       761810.0       752841.0       741565.0
       734894.0       726460.0       715073.0       708458.0       699925.0
       687503.0       679545.0       670380.0       659143.0       652258.0
       641670.0       630244.0       622076.0       610477.0       600340.0
       592814.0       581711.0       571245.0       562374.0       551449.0
       541610.0       531108.0       519869.0       511324.0       501273.0
       488820.0       480489.0       472102.0       459481.0       449860.0
       438113.0       426097.0       418484.0       406292.0       395133.0
       386822.0       374349.0       362131.0       353559.0       343134.0
       330978.0       320779.0       308237.0       296426.0       286377.0
       273886.0       262702.0       252361.0       241081.0       230915.0
       219444.0       205771.0       194704.0       183145.0       169808.0
       160960.0       150564.0       135459.0       124922.0       114253.0
       100313.0       89622.00       76987.00       63698.00       53988.00
       42007.00       28882.00       18725.00       6556.000      -7273.000
      -18026.00      -29811.00      -40842.00      -51760.00      -65534.00
      -76495.00      -87850.00      -101673.0      -112513.0      -123669.0
      -137737.0      -149007.0      -160733.0      -175448.0      -186392.0
      -198039.0      -211586.0      -221077.0      -233333.0      -246885.0
      -257741.0      -270109.0      -281507.0      -292725.0      -305324.0
      -319002.0      -330735.0      -341726.0      -355363.0      -366798.0
      -378238.0      -390765.0      -402449.0      -414725.0      -426197.0
      -438346.0      -452155.0      -463287.0      -473661.0      -487045.0
      -498538.0      -509990.0      -523166.0      -534243.0      -546400.0
      -559301.0      -569948.0      -580474.0      -593582.0      -604384.0
      -613853.0      -627503.0      -638211.0      -648946.0      -662345.0
      -671687.0      -684049.0      -697357.0      -705872.0      -719268.0
      -731802.0      -740797.0      -754696.0      -765402.0      -775192.0
      -788679.0      -798875.0      -809683.0      -822887.0      -833572.0
      -843618.0      -854925.0      -864390.0      -874823.0      -888234.0
      -898678.0      -908675.0      -920585.0      -930608.0      -942182.0
      -954114.0      -962957.0      -974397.0      -986542.0      -995263.0
      -1006722.      -1018446.      -1027113.      -1038201.      -1049740.
      -1059503.      -1070777.      -1081493.      -1091038.      -1102658.
      -1111947.      -1121435.      -1133271.      -1142175.      -1151989.
      -1162405.      -1170995.      -1181150.      -1191490.      -1198936.
      -1208745.      -1220644.      -1228397.      -1238159.      -1249098.
      -1256316.      -1266544.      -1276888.      -1285090.      -1295568.
      -1304844.      -1314071.      -1324624.      -1333863.      -1342593.
      -1351833.      -1361108.      -1369678.      -1379354.      -1388679.
      -1396615.      -1405781.      -1413890.      -1422071.      -1432354.
      -1439528.      -1448284.      -1458878.      -1464194.      -1472646.
      -1482936.      -1489902.      -1499772.      -1509219.      -1515328.
      -1523083.      -1532415.      -1540212.      -1548105.      -1556962.
      -1564290.      -1573118.      -1581789.      -1586713.      -1596155.
      -1605189.      -1609329.      -1618293.      -1625847.      -1631597.
      -1640348.      -1646145.      -1653940.      -1662804.      -1666848.
      -1672683.      -1681876.      -1688538.      -1694626.      -1702963.
      -1708139.      -1713699.      -1721400.      -1725706.      -1732360.
      -1739371.      -1742122.      -1748436.      -1755943.      -1759940.
      -1766549.      -1772962.      -1775907.      -1782041.      -1787869.
      -1791644.      -1797823.      -1802775.      -1806214.      -1811378.
      -1816273.      -1819120.      -1823976.      -1828954.      -1831476.
      -1835878.      -1838863.      -1841451.      -1847034.      -1849732.
      -1852665.      -1857167.      -1858152.      -1860842.      -1864949.
      -1867066.      -1870148.      -1872306.      -1873287.      -1876551.
      -1879348.      -1879669.      -1882277.      -1883578.      -1883035.
      -1886814.      -1888136.      -1887893.      -1891021.      -1890879.
      -1890661.      -1892422.      -1891669.      -1893110.      -1894388.
      -1893811.      -1894994.      -1894695.      -1893159.      -1892487.
      -1892347.      -1891433.      -1890687.      -1890583.      -1888423.
      -1887640.      -1888381.      -1885076.      -1883243.      -1883179.
      -1880012.      -1878186.      -1877383.      -1874837.      -1873301.
      -1871836.      -1867183.      -1865270.      -1863941.      -1859313.
      -1857702.      -1855036.      -1850325.      -1847505.      -1843407.
      -1838975.      -1837385.      -1833177.      -1826850.      -1825144.
      -1820690.      -1814807.      -1812311.      -1806189.      -1800914.
      -1797545.      -1789897.      -1784358.      -1782790.      -1776770.
      -1770482.      -1766952.      -1758930.      -1752717.      -1749335.
      -1742016.      -1736873.      -1731503.      -1722851.      -1717294.
      -1711513.      -1704044.      -1698123.      -1691411.      -1684181.
      -1677781.      -1670920.      -1663221.      -1656501.      -1650243.
      -1641457.      -1635210.      -1628504.      -1618562.      -1613135.
      -1605400.      -1596593.      -1590589.      -1580801.      -1573852.
      -1568377.      -1558499.      -1550905.      -1544303.      -1534182.
      -1525698.      -1519232.      -1509210.      -1501417.      -1495145.
      -1483770.      -1476469.      -1469768.      -1457468.      -1449891.
      -1442271.      -1431593.      -1424265.      -1414706.      -1405596.
      -1397818.      -1386558.      -1377794.      -1369299.      -1359224.
      -1350467.      -1341711.      -1332153.      -1322076.      -1313662.
      -1302713.      -1292336.      -1284918.      -1273970.      -1264982.
      -1256614.      -1245384.      -1236406.      -1227357.      -1217065.
      -1207844.      -1198511.      -1187431.      -1177479.      -1169482.
      -1158677.      -1147239.      -1137738.      -1127381.      -1117176.
      -1106416.      -1095718.      -1086752.      -1074653.      -1062723.
      -1054277.      -1043126.      -1032148.      -1023052.      -1011154.
      -1000080.      -990746.0      -978232.0      -967512.0      -959068.0
      -946247.0      -935574.0      -926058.0      -913872.0      -904722.0
      -894177.0      -882005.0      -872237.0      -860635.0      -848197.0
      -839087.0      -829028.0      -816520.0      -806515.0      -795142.0
      -782943.0      -772763.0      -760086.0      -749489.0      -740074.0
      -727342.0      -715557.0      -705517.0      -694167.0      -682215.0
      -671917.0      -659055.0      -647556.0      -637906.0      -623284.0
      -612207.0      -603645.0      -591093.0      -579856.0      -568769.0
      -556230.0      -545998.0      -535140.0      -521924.0      -511272.0
      -500999.0      -488498.0      -477344.0      -466509.0      -454715.0
      -443833.0      -431226.0      -418722.0      -409369.0      -397334.0
      -385211.0      -375219.0      -362017.0      -350109.0      -340161.0
      -327748.0      -315797.0      -305200.0      -293021.0      -281202.0
      -271291.0      -257870.0      -245743.0      -236931.0      -223737.0
      -211771.0      -200918.0      -186944.0      -175554.0      -164586.0
      -151406.0      -140478.0      -128775.0      -115113.0      -104662.0
      -93269.00      -80934.00      -71064.00      -58381.00      -46103.00
      -35611.00      -22455.00      -11551.00      -1326.000       12471.00
       24243.00       34908.00       48495.00       59640.00       69595.00
       83348.00       94813.00       105098.0       118886.0       130389.0
       140581.0       153781.0       165159.0       175568.0       188927.0
       199568.0       209548.0       222963.0       234115.0       245073.0
       257499.0       268103.0       279370.0       290508.0       300565.0
       312952.0       324493.0       333094.0       344114.0       355985.0
       365501.0       376872.0       388048.0       397735.0       410595.0
       421110.0       429389.0       441567.0       451643.0       460464.0
       472336.0       482573.0       492203.0       503693.0       513947.0
       523731.0       535026.0       544808.0       554516.0       565276.0
       574426.0       584870.0       594340.0       602791.0       614740.0
       624030.0       631303.0       642452.0       651963.0       659802.0
       670649.0       679895.0       687780.0       698130.0       706545.0
       714606.0       726271.0       734621.0       741605.0       752410.0
       760918.0       768129.0       776927.0       785121.0       794306.0
       802918.0       810099.0       819803.0       828305.0       834495.0
       843656.0       852447.0       858649.0       867163.0       875266.0
       881927.0       891843.0       898783.0       904813.0       915204.0
       921889.0       928345.0       937640.0       943690.0       950641.0
       959323.0       965175.0       971517.0       979915.0       986081.0
       992782.0       1001663.       1007542.       1014556.       1021367.
       1025625.       1033986.       1040773.       1045163.       1052702.
       1058494.       1063297.       1070614.       1076263.       1081146.
       1088867.       1093899.       1097734.       1106060.       1110641.
       1114281.       1123372.       1127403.       1131650.       1139671.
       1142552.       1148529.       1155237.       1156770.       1163147.
       1168823.       1170668.       1177988.       1184185.       1185865.
       1191993.       1198998.       1201570.       1205769.       1210068.
