     0.02500000      -12345.00      -12345.00   3.371710e+10      -12345.00
   0.0005380000       1859.976      -681.0195      -12345.00      -12345.00
      -12345.00      -12345.00      -12345.00      -12345.00      -12345.00
      -12345.00      -12345.00      -12345.00      -12345.00      -12345.00
      -12345.00      -12345.00      -12345.00      -12345.00      -12345.00
      -12345.00      -12345.00      -12345.00      -12345.00      -12345.00
      -12345.00       24.97350       121.4971       159.7000      0.3000000
      -42.72450       173.0647      -12345.00       22.00000      -12345.00
      -12345.00      -12345.00      -12345.00      -12345.00      -12345.00
      -12345.00      -12345.00      -12345.00      -12345.00      -12345.00
       9164.505       314.1752       144.3858       82.42202      -12345.00
      -12345.00      -12345.00       0.000000       0.000000      -12345.00
      -12345.00      -12345.00      -12345.00      -12345.00      -12345.00
      -12345.00      -12345.00      -12345.00      -12345.00      -12345.00
      2016       318        11        14        20
        19         6    -12345    -12345     74400
    -12345    -12345    -12345    -12345    -12345
         1    -12345    -12345    -12345    -12345
    -12345    -12345    -12345    -12345    -12345
    -12345    -12345    -12345    -12345    -12345
    -12345    -12345    -12345    -12345    -12345
         1    -12345    -12345    -12345    -12345
TATO    South Island, Ne
10      -12345  -12345  
-12345  -12345  -12345  
-12345  -12345  -12345  
-12345  -12345  -12345  
-12345  -12345  -12345  
-12345  -12345  BHZ     
IU      -12345  Streckei
[...]
      -4546058.      -4539442.      -4537362.      -4528523.      -4520523.
      -4518070.      -4504915.      -4496949.      -4489722.      -4475153.
      -4473585.      -4467319.      -4455957.      -4451563.      -4443654.
      -4432615.      -4422765.      -4415178.      -4404019.      -4395070.
      -4389494.      -4379159.      -4372668.      -4360336.      -4346345.
      -4344683.      -4333506.      -4320928.      -4315672.      -4306555.
      -4297690.      -4287144.      -4281773.      -4279792.      -4268230.
      -4255212.      -4248531.      -4238828.      -4229260.      -4221118.
      -4209634.      -4206516.      -4202563.      -4194220.      -4186013.
      -4176908.      -4171410.      -4159910.      -4152970.      -4146870.
      -4132036.      -4126198.      -4122527.      -4112491.      -4099035.
      -4091637.      -4090074.      -4079561.      -4066993.      -4058524.
      -4052707.      -4045138.      -4036616.      -4030166.      -4019815.
      -4013058.      -4002755.      -3987216.      -3977200.      -3967568.
      -3959983.      -3954140.      -3946059.      -3933639.      -3925178.
      -3917377.      -3904393.      -3895271.      -3882933.      -3873124.
      -3866985.      -3860855.      -3851277.      -3839572.      -3842792.
      -3832808.      -3813116.      -3811354.      -3807329.      -3795241.
      -3782253.      -3773979.      -3768549.      -3762002.      -3754082.
      -3744963.      -3737137.      -3729130.      -3724375.      -3714430.
      -3702773.      -3701495.      -3693111.      -3680275.      -3673965.
      -3663939.      -3655092.      -3650294.      -3640358.      -3634313.
      -3630737.      -3613000.      -3603163.      -3600802.      -3590031.
      -3583407.      -3568568.      -3555763.      -3552118.      -3541955.
      -3534065.      -3525185.      -3511954.      -3508365.      -3500312.
      -3479303.      -3476473.      -3473064.      -3458378.      -3457923.
      -3448594.      -3434419.      -3433624.      -3422293.      -3411153.
      -3406696.      -3391553.      -3385309.      -3380471.      -3371486.
      -3362811.      -3348908.      -3347323.      -3342666.      -3332218.
      -3328967.      -3317333.      -3306588.      -3304684.      -3294074.
      -3283722.      -3281827.      -3274001.      -3265784.      -3259707.
      -3247871.      -3240584.      -3237597.      -3225737.      -3219320.
      -3213369.      -3199839.      -3196794.      -3187753.      -3178183.
      -3175032.      -3162848.      -3157965.      -3151117.      -3138314.
      -3131348.      -3117975.      -3110768.      -3108455.      -3094064.
      -3084343.      -3078679.      -3071201.      -3066160.      -3054162.
      -3046177.      -3047934.      -3035057.      -3018002.      -3018931.
      -3011401.      -3001193.      -2998460.      -2984888.      -2984590.
      -2980964.      -2962154.      -2958468.      -2954632.      -2945854.
      -2936592.      -2929062.      -2929137.      -2921155.      -2911651.
      -2911855.      -2901411.      -2884445.      -2882377.      -2873924.
      -2856331.      -2851697.      -2843138.      -2835026.      -2829631.
      -2816033.      -2809257.      -2799021.      -2786885.      -2777379.
      -2762070.      -2750285.      -2739282.      -2725646.      -2712005.
      -2699583.      -2688539.      -2676929.      -2665834.      -2655531.
      -2642414.      -2627502.      -2614853.      -2601160.      -2586614.
      -2576423.      -2562050.      -2543175.      -2535862.      -2525448.
      -2507193.      -2492822.      -2478838.      -2468475.      -2451923.
      -2437508.      -2428352.      -2409294.      -2398828.      -2388525.
      -2369081.      -2364275.      -2350792.      -2328169.      -2320926.
      -2300855.      -2287089.      -2285264.      -2261275.      -2247110.
      -2239756.      -2220658.      -2205861.      -2194391.      -2182549.
      -2165741.      -2154371.      -2138362.      -2118030.      -2104289.
      -2085680.      -2073110.      -2055745.      -2038558.      -2027736.
      -2003062.      -1984162.      -1972891.      -1950506.      -1930486.
      -1914833.      -1894685.      -1881439.      -1866028.      -1843653.
      -1824471.      -1802139.      -1781992.      -1766633.      -1745234.
      -1726167.      -1707980.      -1683457.      -1664692.      -1645005.
      -1625632.      -1607412.      -1586951.      -1571461.      -1552725.
      -1529106.      -1514756.      -1504300.      -1478631.      -1457784.
      -1447256.      -1428737.      -1409234.      -1388343.      -1372919.
      -1361808.      -1340334.      -1326423.      -1314043.      -1290662.
      -1273124.      -1250929.      -1231204.      -1223391.      -1206484.
      -1189682.      -1174949.      -1155552.      -1140104.      -1123989.
      -1106289.      -1090604.      -1072009.      -1053211.      -1042827.
      -1021667.      -993675.0      -982274.0      -965045.0      -944812.0
      -929049.0      -906125.0      -890101.0      -872973.0      -852798.0
      -838199.0      -815815.0      -794363.0      -780857.0      -762733.0
      -737495.0      -718964.0      -707168.0      -684109.0      -661913.0
      -647604.0      -631494.0      -609662.0      -588058.0      -573752.0
      -552462.0      -535175.0      -522463.0      -499120.0      -480805.0
      -467562.0      -448087.0      -427896.0      -411945.0      -397905.0
      -380675.0      -358310.0      -344191.0      -329677.0      -307764.0
      -293103.0      -275259.0      -256507.0      -242642.0      -221931.0
      -202391.0      -190554.0      -172443.0      -152870.0      -139861.0
      -121002.0      -100092.0      -83795.00      -70430.00      -55989.00
      -38144.00      -21148.00      -6387.000       10470.00       28290.00
       40682.00       61065.00       78265.00       86030.00       107926.0
       123860.0       134194.0       153951.0       166807.0       178963.0
       193690.0       207413.0       224688.0       240171.0       254028.0
       268849.0       282616.0       296811.0       309449.0       320210.0
       334186.0       347477.0       356691.0       373126.0       390825.0
       399228.0       418777.0       433870.0       439746.0       461283.0
       472169.0       484259.0       504060.0       510964.0       526866.0
       545655.0       558705.0       570355.0       585268.0       606929.0
       621073.0       632721.0       651526.0       667085.0       677006.0
       693550.0       710740.0       724045.0       739302.0       755121.0
       774255.0       789038.0       800284.0       820392.0       841904.0
       852663.0       867266.0       889350.0       901299.0       913788.0
       931707.0       947442.0       958649.0       970384.0       991344.0
       1008498.       1017919.       1032132.       1050038.       1061748.
       1073455.       1090189.       1104606.       1119240.       1133452.
       1146974.       1166607.       1181080.       1189332.       1206340.
       1221464.       1234837.       1248999.       1263243.       1279445.
       1287972.       1304510.       1323219.       1333116.       1351527.
       1366466.       1378725.       1400102.       1413304.       1426102.
       1445753.       1460684.       1476739.       1496374.       1509980.
       1522887.       1544107.       1557204.       1572178.       1594554.
       1606905.       1621503.       1634644.       1647042.       1666897.
       1681354.       1695927.       1713829.       1726329.       1743376.
       1760968.       1769767.       1786236.       1802468.       1817786.
       1836228.       1845256.       1861120.       1874705.       1890624.
       1908439.       1911741.       1930912.       1946694.       1958691.
       1977376.       1987054.       2007299.       2024025.       2034362.
       2050849.       2070179.       2083873.       2096541.       2114385.
       2129900.       2147855.       2156820.       2182729.       2200727.
       2206178.       2236691.       2242481.       2259397.       2281850.
       2293314.       2316482.       2323845.       2343455.       2364765.
       2384762.       2403497.       2412920.       2436053.       2456439.
       2469293.       2487296.       2505835.       2520200.       2537681.
       2554091.       2570493.       2591145.       2606896.       2617591.
       2638323.       2664012.       2677066.       2687655.       2709185.
       2734529.       2744317.       2760953.       2782631.       2795254.
       2818206.       2830104.       2843415.       2867566.       2879139.
       2894183.       2909546.       2923404.       2945241.       2956638.
       2972447.       2995691.       3008247.       3024533.       3041189.
       3057977.       3074074.       3083312.       3100619.       3121364.
       3135191.       3148949.       3164822.       3183286.       3201105.
       3214092.       3228717.       3247165.       3261625.       3272555.
       3289199.       3306473.       3321663.       3336437.       3352263.
       3370065.       3385175.       3401631.       3413957.       3426518.
       3442894.       3460782.       3479083.       3490739.       3510345.
       3532657.       3547216.       3562154.       3581004.       3598967.
       3614492.       3630850.       3645200.       3665106.       3683416.
       3697326.       3716413.       3731286.       3749175.       3770429.
       3782725.       3801524.       3821322.       3833421.       3850847.
       3871451.       3890129.       3901985.       3920137.       3944600.
       3955044.       3968249.       3988558.       4002412.       4017292.
       4032360.       4046455.       4060225.       4072808.       4090675.
       4103970.       4113187.       4129748.       4144824.       4161478.
       4174314.       4183004.       4204943.       4218492.       4224493.
       4245625.       4264962.       4273365.       4285876.       4303442.
       4319662.       4337706.       4345757.       4358953.       4382672.
       4390474.       4403425.       4424484.       4440443.       4454007.
       4467893.       4488158.       4501734.       4515440.       4535865.
       4549547.       4563402.       4580436.       4596335.       4612714.
       4630615.       4645156.       4659770.       4679911.       4694730.
       4706729.       4722984.       4739576.       4752476.       4770283.
       4787689.       4801515.       4814391.       4826037.       4848716.
       4862101.       4871883.       4888865.       4900102.       4916837.
       4928468.       4935229.       4953992.       4966740.       4979904.
       4995222.       4996901.       5011919.       5030961.       5043517.
       5057299.       5063391.       5077336.       5095251.       5108310.
       5113044.       5121224.       5145414.       5155935.       5163170.
       5177392.       5191985.       5208539.       5214836.       5231121.
       5248367.       5255600.       5272091.       5283428.       5291514.
       5309131.       5323996.       5333311.       5349753.       5368361.
       5380550.       5393923.       5403766.       5415560.       5432170.
       5438237.       5447460.       5461302.       5474472.       5488936.
       5495280.       5508950.       5528344.       5535872.       5543001.
       5556309.       5564657.       5576115.       5588799.       5594298.
       5606373.       5616980.       5632519.       5638244.       5637457.
       5663833.       5672827.       5669009.       5683964.       5699739.
       5704127.       5708968.       5725725.       5729386.       5733190.
       5746912.       5753768.       5761873.       5772674.       5777667.
       5783606.       5795718.       5800304.       5806549.       5808834.
       5814863.       5833287.       5833723.       5838387.       5855293.
       5859770.       5859313.       5866824.       5878429.       5879763.
       5882544.       5887704.       5888903.       5899114.       5901169.
       5901207.       5911013.       5914533.       5923832.       5926107.
       5923147.       5936758.       5938556.       5934694.       5942089.
       5948667.       5951398.       5955367.       5964273.       5969037.
       5972814.       5975067.       5980371.       5988005.       5985438.
       5983799.       5992396.       5999007.       5998475.       6006472.
       6009684.       6008186.       6016309.       6020643.       6020745.
       6021175.       6025393.       6029122.       6030809.       6030143.
       6030195.       6036389.       6035001.       6033977.       6038595.
       6041603.       6044868.       6043903.       6045420.       6049359.
       6043576.       6041339.       6049599.       6047535.       6040062.
       6042137.       6049037.       6046612.       6041398.       6047087.
       6046225.       6038006.       6037091.       6044194.       6039233.
       6029954.       6033622.       6032199.       6031124.       6026434.
       6023554.       6025272.       6013853.       6010441.       6011135.
       6004248.       5997768.       5994711.       5998664.       5989502.
       5979747.       5984115.       5979184.       5971808.       5968369.
       5964928.       5955532.       5949775.       5952954.       5944041.
       5933601.       5933329.       5932139.       5919621.       5909075.
       5910012.       5900059.       5893236.       5895465.       5883907.
       5881131.       5871535.       5858646.       5862289.       5843903.
       5836339.       5842053.       5828694.       5819240.       5807867.
       5800209.       5802005.       5787843.       5780860.       5780377.
       5764393.       5760442.       5751878.       5740781.       5739361.
       5726013.       5713275.       5709096.       5700369.       5686667.
       5677114.       5667874.       5661599.       5649599.       5638913.
       5635104.       5621583.       5612180.       5604934.       5595922.
       5588478.       5577661.       5568043.       5555659.       5548043.
       5540645.       5528265.       5521407.       5509271.       5502197.
       5491550.       5473285.       5464813.       5453819.       5443336.
       5428087.       5417136.       5408823.       5393886.       5384159.
       5367537.       5359357.       5349071.       5329172.       5320795.
       5309797.       5296728.       5285691.       5271493.       5254693.
       5246662.       5232135.       5212022.       5206551.       5190417.
       5176469.       5169689.       5152552.       5140702.       5127848.
       5112989.       5102024.       5088993.       5074979.       5061855.
       5049610.       5038947.       5028576.       5016143.       5007634.
       4996511.       4981144.       4968278.       4956414.       4944639.
       4933228.       4921768.       4905202.       4894267.       4879282.
       4865410.       4859291.       4837912.       4822287.       4810700.
       4792509.       4778998.       4764452.       4747645.       4732032.
       4716742.       4699754.       4683503.       4669403.       4656968.
       4636256.       4620791.       4612961.       4587193.       4568394.
       4558102.       4538653.       4525808.       4508216.       4489092.
       4471713.       4451498.       4441351.       4424876.       4404868.
       4390307.       4373375.       4361627.       4348608.       4330811.
       4316468.       4305915.       4286609.       4262852.       4253544.
       4240336.       4219323.       4203237.       4185560.       4174740.
       4160420.       4135500.       4122249.       4110733.       4094468.
       4080401.       4058301.       4036888.       4025112.       4012280.
       3990715.       3973953.       3961162.       3939495.       3925499.
       3909180.       3886947.       3871543.       3852911.       3837638.
       3817819.       3793296.       3781330.       3764887.       3740609.
       3724520.       3709075.       3687455.       3664254.       3648634.
       3633577.       3610404.       3596437.       3580040.       3558306.
       3545298.       3525702.       3504865.       3488108.       3470414.
       3454910.       3439016.       3420752.       3398122.       3382821.
       3372581.       3353964.       3339003.       3322188.       3300147.
       3285989.       3271635.       3251524.       3235447.       3222444.
       3204814.       3185912.       3167875.       3156365.       3139127.
       3115373.       3104633.       3088008.       3066446.       3055857.
       3039275.       3012020.       2994550.       2983280.       2961821.
       2944893.       2926298.       2903486.       2892031.       2872725.
       2850344.       2832706.       2812041.       2795073.       2772491.
       2751220.       2733316.       2707178.       2689476.       2669051.
       2639257.       2621470.       2600242.       2578724.       2559726.
       2534038.       2511635.       2490517.       2477284.       2451395.
       2422284.       2407964.       2384748.       2363976.       2341921.
       2321484.       2306137.       2281997.       2261690.       2243694.
       2218808.       2197535.       2180503.       2157391.       2134887.
       2113190.       2097591.       2079787.       2051308.       2036300.
       2020997.       1997633.       1976236.       1959587.       1945377.
       1921415.       1902485.       1884454.       1866515.       1844741.
       1819466.       1808908.       1788720.       1769477.       1751421.
       1728794.       1718827.       1698337.       1674528.       1660421.
       1643031.       1623579.       1608526.       1590817.       1571868.
       1555512.       1535321.       1514764.       1492722.       1475662.
       1457528.       1438553.       1428769.       1406504.       1388139.
       1372144.       1345042.       1331425.       1316387.       1296276.
       1272946.       1257646.       1246226.       1218004.       1204806.
       1189210.       1163934.       1151270.       1130430.       1114244.
       1097603.       1073900.       1066440.       1049013.       1028892.
       1016590.       993749.0       980816.0       963575.0       942546.0
