     0.02500000      -12345.00      -12345.00   2.447790e+09      -12345.00
   0.0005380000       1859.976      -560.0195      -12345.00      -12345.00
      -12345.00      -12345.00      -12345.00      -12345.00      -12345.00
      -12345.00      -12345.00      -12345.00      -12345.00      -12345.00
      -12345.00      -12345.00      -12345.00      -12345.00      -12345.00
      -12345.00      -12345.00      -12345.00      -12345.00      -12345.00
      -12345.00       19.28340       166.6520       18.00000       2.000000
      -42.72450       173.0647      -12345.00       22.00000      -12345.00
      -12345.00      -12345.00      -12345.00      -12345.00      -12345.00
      -12345.00      -12345.00      -12345.00      -12345.00      -12345.00
       6891.503       353.1363       174.6505       61.97952      -12345.00
      -12345.00      -12345.00       90.00000       90.00000      -12345.00
      -12345.00      -12345.00      -12345.00      -12345.00      -12345.00
      -12345.00      -12345.00      -12345.00      -12345.00      -12345.00
      2016       318        11        12        19
        19         6    -12345    -12345     74400
    -12345    -12345    -12345    -12345    -12345
         1    -12345    -12345    -12345    -12345
    -12345    -12345    -12345    -12345    -12345
    -12345    -12345    -12345    -12345    -12345
    -12345    -12345    -12345    -12345    -12345
         1    -12345    -12345    -12345    -12345
WAKE    South Island, Ne
10      -12345  -12345  
-12345  -12345  -12345  
-12345  -12345  -12345  
-12345  -12345  -12345  
-12345  -12345  -12345  
-12345  -12345  BH2     
IU      -12345  Streckei
[...]
      -325945.0      -325586.0      -326827.0      -326020.0      -325609.0
      -324977.0      -325905.0      -326660.0      -325884.0      -325427.0
      -325979.0      -326724.0      -323833.0      -325623.0      -327172.0
      -324863.0      -326637.0      -323920.0      -323646.0      -325425.0
      -323024.0      -325047.0      -324255.0      -324084.0      -324718.0
      -322914.0      -324059.0      -322703.0      -323440.0      -323113.0
      -321524.0      -323970.0      -321062.0      -321517.0      -323311.0
      -320041.0      -322571.0      -322760.0      -321170.0      -321384.0
      -320965.0      -323319.0      -321863.0      -321886.0      -322959.0
      -321522.0      -323023.0      -322292.0      -323147.0      -323966.0
      -323551.0      -324349.0      -322894.0      -323905.0      -322541.0
      -322381.0      -325401.0      -322463.0      -322466.0      -322628.0
      -321668.0      -323452.0      -321047.0      -321627.0      -321437.0
      -320605.0      -321514.0      -319061.0      -321034.0      -320128.0
      -318684.0      -320232.0      -318804.0      -318809.0      -318131.0
      -318615.0      -317764.0      -318406.0      -319701.0      -317295.0
      -319029.0      -317845.0      -317852.0      -318927.0      -317505.0
      -317518.0      -316851.0      -319496.0      -317394.0      -316863.0
      -318670.0      -317266.0      -319652.0      -317785.0      -316885.0
      -318345.0      -316887.0      -318556.0      -318100.0      -316356.0
      -317669.0      -316851.0      -316806.0      -316717.0      -315604.0
      -315991.0      -314834.0      -313950.0      -313889.0      -313322.0
      -312833.0      -312880.0      -311941.0      -310520.0      -311002.0
      -310340.0      -309147.0      -308868.0      -306707.0      -306336.0
      -304885.0      -303455.0      -304043.0      -301035.0      -301385.0
      -299749.0      -297573.0      -297772.0      -294487.0      -295322.0
      -294100.0      -291650.0      -291578.0      -289229.0      -288073.0
      -286487.0      -284728.0      -283544.0      -282784.0      -280962.0
      -279116.0      -278610.0      -276519.0      -275832.0      -273936.0
      -271766.0      -270846.0      -268264.0      -268582.0      -267253.0
      -264220.0      -264884.0      -262451.0      -261322.0      -260255.0
      -256742.0      -257962.0      -254679.0      -253362.0      -253162.0
      -248809.0      -250499.0      -247304.0      -245852.0      -246415.0
      -242599.0      -243131.0      -240684.0      -239680.0      -238947.0
      -236345.0      -236402.0      -234682.0      -233476.0      -232419.0
      -231315.0      -229811.0      -228153.0      -227573.0      -225786.0
      -224531.0      -223215.0      -221406.0      -221376.0      -219659.0
      -218522.0      -218278.0      -215217.0      -215409.0      -214305.0
      -212285.0      -213200.0      -211015.0      -210175.0      -209515.0
      -209068.0      -208668.0      -207872.0      -207738.0      -205467.0
      -206983.0      -205617.0      -203963.0      -205568.0      -203726.0
      -204149.0      -203171.0      -202448.0      -202758.0      -201230.0
      -201827.0      -201219.0      -200681.0      -200369.0      -199490.0
      -200233.0      -198780.0      -198251.0      -199176.0      -197044.0
      -197348.0      -197243.0      -196157.0      -196536.0      -194893.0
      -195236.0      -193688.0      -193207.0      -193820.0      -190775.0
      -191599.0      -189837.0      -188488.0      -188703.0      -185970.0
      -186117.0      -184610.0      -182791.0      -181804.0      -180771.0
      -179153.0      -178381.0      -178122.0      -174645.0      -175074.0
      -173382.0      -170717.0      -171742.0      -169041.0      -168286.0
      -167203.0      -165406.0      -165299.0      -163824.0      -162912.0
      -161425.0      -160885.0      -159775.0      -158732.0      -158516.0
      -156042.0      -156200.0      -155921.0      -153752.0      -153861.0
      -153083.0      -151968.0      -151565.0      -151365.0      -150386.0
      -149682.0      -149463.0      -147898.0      -147586.0      -147114.0
      -145988.0      -146297.0      -145014.0      -144503.0      -144465.0
      -142952.0      -142569.0      -141317.0      -141229.0      -140573.0
      -139152.0      -139406.0      -137641.0      -137006.0      -135502.0
      -133429.0      -133523.0      -130893.0      -130558.0      -128354.0
      -125328.0      -126125.0      -122085.0      -121029.0      -120134.0
      -116699.0      -117024.0      -113938.0      -112031.0      -111458.0
      -108157.0      -106471.0      -104503.0      -102501.0      -100894.0
      -98681.00      -95604.00      -93721.00      -92831.00      -89252.00
      -87338.00      -84795.00      -81937.00      -82000.00      -77441.00
      -74761.00      -74378.00      -70384.00      -68242.00      -65335.00
      -62189.00      -60725.00      -58816.00      -54817.00      -51392.00
      -50066.00      -46422.00      -44412.00      -41157.00      -37676.00
      -36540.00      -32560.00      -30688.00      -26884.00      -23287.00
      -22016.00      -18556.00      -16543.00      -12634.00      -9004.000
      -7744.000      -4591.000      -939.0000       1323.000       5125.000
       8970.000       10649.00       12728.00       16799.00       20965.00
       21975.00       25600.00       30090.00       31897.00       34575.00
       37995.00       43240.00       44618.00       47087.00       51864.00
       54292.00       58898.00       60470.00       63605.00       68202.00
       71360.00       75339.00       77429.00       80915.00       84730.00
       88779.00       91792.00       94770.00       98744.00       101265.0
       106169.0       108504.0       111598.0       117142.0       118537.0
       123609.0       126626.0       127860.0       133907.0       137274.0
       141274.0       144725.0       146875.0       150886.0       154940.0
       159656.0       161900.0       165821.0       170308.0       172909.0
       178318.0       180968.0       184016.0       189042.0       192217.0
       197346.0       200904.0       203650.0       208019.0       211761.0
       216383.0       219811.0       223236.0       227547.0       231279.0
       235959.0       239056.0       242675.0       246985.0       249534.0
       254326.0       257904.0       260019.0       264366.0       268645.0
       272531.0       275805.0       278937.0       281736.0       285752.0
       290444.0       292805.0       296834.0       301693.0       304305.0
       307562.0       312265.0       316853.0       319543.0       324192.0
       328540.0       331461.0       336853.0       339556.0       343992.0
       348144.0       352054.0       357280.0       358611.0       364682.0
       368344.0       371618.0       377651.0       378651.0       383425.0
       387977.0       391424.0       394877.0       398120.0       403603.0
       406521.0       410244.0       413994.0       417603.0       421761.0
       424570.0       427833.0       430377.0       435361.0       439343.0
       440623.0       444446.0       447522.0       451266.0       454206.0
       456217.0       460058.0       461814.0       466393.0       469591.0
       469631.0       475027.0       477337.0       479424.0       481964.0
       484148.0       488636.0       487256.0       492083.0       494582.0
       493943.0       499725.0       498419.0       501266.0       504877.0
       505039.0       507124.0       509162.0       512456.0       512539.0
       516259.0       517224.0       518279.0       522376.0       521429.0
       525074.0       525677.0       526993.0       531006.0       530910.0
       534460.0       534580.0       535138.0       539560.0       539938.0
       541341.0       542741.0       542960.0       546355.0       547459.0
       546802.0       549705.0       550740.0       550813.0       553149.0
       554252.0       553809.0       555462.0       557804.0       557735.0
       559270.0       560071.0       560187.0       562457.0       563670.0
       563736.0       563971.0       565747.0       566123.0       566406.0
       567826.0       568421.0       569443.0       569374.0       571131.0
       571640.0       570875.0       572350.0       573325.0       575135.0
       574565.0       575071.0       577570.0       576847.0       578358.0
       580396.0       579110.0       580341.0       582580.0       582483.0
       582966.0       584272.0       584701.0       585025.0       586796.0
       586531.0       587694.0       589549.0       587666.0       589870.0
       591627.0       592176.0       593697.0       592572.0       595795.0
       597328.0       596349.0       598711.0       600642.0       602199.0
       601914.0       604211.0       606042.0       606193.0       609114.0
       609248.0       610503.0       612448.0       613921.0       616010.0
       617118.0       618538.0       619644.0       622172.0       623169.0
       625054.0       627683.0       627232.0       629854.0       631306.0
       631636.0       635003.0       634660.0       635538.0       637871.0
       637943.0       640221.0       640411.0       640868.0       642766.0
       643291.0       645397.0       645014.0       645780.0       647448.0
       647119.0       648758.0       649175.0       650136.0       650546.0
       651558.0       652530.0       652065.0       653440.0       653660.0
       654357.0       654667.0       655785.0       655837.0       655391.0
       656574.0       655905.0       657248.0       657867.0       657167.0
       657778.0       658301.0       658580.0       658260.0       657832.0
       658336.0       657520.0       657654.0       659314.0       657488.0
       658035.0       658468.0       656944.0       657394.0       656738.0
       656141.0       655730.0       656151.0       654797.0       654568.0
       654911.0       652393.0       654087.0       653459.0       651144.0
       651006.0       650205.0       650403.0       649768.0       648991.0
       648118.0       647762.0       646930.0       646824.0       647015.0
       645197.0       645340.0       645208.0       643414.0       644656.0
       643879.0       641189.0       644419.0       642948.0       641105.0
       643927.0       641134.0       641978.0       642312.0       641134.0
       642656.0       641521.0       642864.0       643468.0       643065.0
       643306.0       645015.0       644912.0       644176.0       647067.0
       645741.0       647386.0       649534.0       648243.0       650371.0
       649690.0       649803.0       653057.0       652185.0       651948.0
       653634.0       652773.0       653027.0       655440.0       655018.0
       653237.0       656685.0       656740.0       654535.0       657888.0
       657583.0       657758.0       658865.0       659138.0       660643.0
       659005.0       660787.0       661264.0       660700.0       662276.0
       661038.0       663378.0       662580.0       662151.0       663867.0
       662651.0       665410.0       663908.0       663256.0       665151.0
       663694.0       664768.0       664719.0       665157.0       665777.0
       665114.0       665956.0       665435.0       665299.0       665709.0
       665838.0       665746.0       664866.0       666874.0       666551.0
       665781.0       667413.0       664952.0       667225.0       667841.0
       665213.0       668185.0       667175.0       667574.0       668816.0
       668250.0       669507.0       669371.0       670758.0       671373.0
       672154.0       672133.0       672197.0       674148.0       673524.0
       675651.0       676005.0       675954.0       678494.0       677963.0
       679636.0       679992.0       681016.0       683013.0       683223.0
       685988.0       685116.0       685576.0       689235.0       688472.0
       689414.0       691702.0       691187.0       693002.0       695148.0
       695027.0       696146.0       697657.0       698002.0       698987.0
       700232.0       701097.0       702512.0       702845.0       704988.0
       705926.0       705463.0       708318.0       708315.0       708881.0
       709727.0       710468.0       711955.0       711366.0       713824.0
       712912.0       713699.0       716119.0       714282.0       717572.0
       717050.0       717264.0       719684.0       717702.0       720643.0
       719976.0       719700.0       722278.0       720651.0       722187.0
       721968.0       722310.0       723209.0       721784.0       724588.0
       723563.0       723182.0       725267.0       724506.0       725812.0
       725384.0       725449.0       726228.0       725704.0       726603.0
       726889.0       726795.0       726980.0       726649.0       726207.0
       726523.0       726509.0       726067.0       726699.0       726070.0
       725806.0       726123.0       725340.0       725934.0       724392.0
       723718.0       724728.0       723092.0       722557.0       722124.0
       721460.0       720488.0       719659.0       719250.0       718055.0
       718039.0       716080.0       715777.0       716178.0       713079.0
       713334.0       712023.0       709854.0       711181.0       708131.0
       706896.0       707454.0       704752.0       704110.0       702458.0
       700782.0       699846.0       698300.0       696534.0       695379.0
       693517.0       690049.0       690463.0       686881.0       684151.0
       685304.0       680975.0       679655.0       677653.0       674849.0
       673478.0       670511.0       669066.0       666514.0       664232.0
       662096.0       660032.0       657601.0       655444.0       653051.0
       650661.0       649412.0       645883.0       644278.0       641909.0
       639023.0       638137.0       634078.0       632162.0       630707.0
       627324.0       626646.0       624224.0       621007.0       619571.0
       616596.0       614525.0       612454.0       609109.0       607666.0
       604573.0       602318.0       600128.0       596492.0       596288.0
       593622.0       590533.0       588033.0       584922.0       583774.0
       580531.0       577870.0       575711.0       573581.0       570912.0
       567045.0       565927.0       563363.0       559998.0       558331.0
       554860.0       552300.0       550120.0       547408.0       545444.0
       541322.0       539979.0       537223.0       533242.0       533182.0
       528877.0       527287.0       525718.0       521049.0       520603.0
       517171.0       515040.0       512871.0       509768.0       508575.0
       503845.0       503887.0       500789.0       496760.0       496601.0
       491165.0       491172.0       488372.0       483675.0       484565.0
       480154.0       476898.0       475885.0       473502.0       470264.0
       468633.0       466826.0       462322.0       461613.0       457770.0
       454886.0       454515.0       449626.0       449095.0       447064.0
       443066.0       441232.0       438482.0       436532.0       432494.0
       432151.0       429310.0       424563.0       424865.0       419277.0
       417218.0       415700.0       411046.0       409245.0       405294.0
       403861.0       399635.0       395328.0       393264.0       389051.0
       386587.0       383163.0       379838.0       375014.0       372138.0
       368640.0       363831.0       362640.0       356426.0       353556.0
       351150.0       344773.0       342192.0       338354.0       334091.0
       329389.0       325758.0       321849.0       317253.0       313560.0
       309397.0       305793.0       300771.0       297377.0       292856.0
       288900.0       286558.0       279982.0       276936.0       273573.0
       267351.0       265730.0       261230.0       256159.0       253978.0
       248349.0       244858.0       242172.0       236413.0       234462.0
       230734.0       225523.0       223420.0       218604.0       215053.0
       211964.0       207967.0       204545.0       200353.0       197259.0
       193462.0       190140.0       186823.0       182821.0       180619.0
       176381.0       172625.0       170344.0       165833.0       163389.0
       160198.0       156369.0       153534.0       149600.0       146577.0
       142749.0       141448.0       138484.0       133908.0       132384.0
       127549.0       126477.0       123562.0       118607.0       118179.0
       112455.0       110953.0       108042.0       103034.0       102956.0
       98037.00       96251.00       93320.00       89662.00       88481.00
       83951.00       81973.00       79927.00       77167.00       74072.00
       71646.00       70118.00       67149.00       64837.00       62449.00
       60191.00       57903.00       55009.00       51973.00       50176.00
       47442.00       44068.00       41856.00       38571.00       36773.00
       33730.00       29367.00       28082.00       24963.00       21157.00
       19616.00       15265.00       12026.00       10350.00       4725.000
       2190.000      -576.0000      -5298.000      -6858.000      -11715.00
      -14856.00      -17274.00      -22394.00      -25171.00      -29692.00
      -33466.00      -36451.00      -41242.00      -44927.00      -47798.00
      -51886.00      -55997.00      -58935.00      -64198.00      -67751.00
      -69972.00      -75601.00      -80085.00      -83945.00      -87863.00
      -91653.00      -96239.00      -100386.0      -105242.0      -109029.0
      -112870.0      -118320.0      -121534.0      -125267.0      -130572.0
      -134552.0      -139443.0      -143429.0      -147500.0      -152083.0
      -156265.0      -161347.0      -164470.0      -170197.0      -174676.0
      -177874.0      -183346.0      -186963.0      -192383.0      -195440.0
      -200500.0      -205998.0      -208280.0      -214932.0      -218639.0
      -222189.0      -226944.0      -230777.0      -235915.0      -238362.0
      -243446.0      -248023.0      -251341.0      -256763.0      -259528.0
      -264100.0      -267835.0      -271781.0      -277010.0      -278830.0
      -283468.0      -288059.0      -291000.0      -295276.0      -298099.0
      -301618.0      -305978.0      -309068.0      -312789.0      -316911.0
