     0.02500000      -12345.00      -12345.00   2.447790e+09      -12345.00
   0.0005380000       1859.976      -560.0195      -12345.00      -12345.00
      -12345.00      -12345.00      -12345.00      -12345.00      -12345.00
      -12345.00      -12345.00      -12345.00      -12345.00      -12345.00
      -12345.00      -12345.00      -12345.00      -12345.00      -12345.00
      -12345.00      -12345.00      -12345.00      -12345.00      -12345.00
      -12345.00       19.28340       166.6520       18.00000       2.000000
      -42.72450       173.0647      -12345.00       22.00000      -12345.00
      -12345.00      -12345.00      -12345.00      -12345.00      -12345.00
      -12345.00      -12345.00      -12345.00      -12345.00      -12345.00
       6891.503       353.1363       174.6505       61.97952      -12345.00
      -12345.00      -12345.00       0.000000       90.00000      -12345.00
      -12345.00      -12345.00      -12345.00      -12345.00      -12345.00
      -12345.00      -12345.00      -12345.00      -12345.00      -12345.00
      2016       318        11        12        19
        19         6    -12345    -12345     74400
    -12345    -12345    -12345    -12345    -12345
         1    -12345    -12345    -12345    -12345
    -12345    -12345    -12345    -12345    -12345
    -12345    -12345    -12345    -12345    -12345
    -12345    -12345    -12345    -12345    -12345
         1    -12345    -12345    -12345    -12345
WAKE    South Island, Ne
10      -12345  -12345  
-12345  -12345  -12345  
-12345  -12345  -12345  
-12345  -12345  -12345  
-12345  -12345  -12345  
-12345  -12345  BH1     
IU      -12345  Streckei
[...]
       254306.0       260145.0       266735.0       271807.0       278153.0
       284167.0       289679.0       294167.0       301535.0       306996.0
       311191.0       318983.0       323004.0       329172.0       336740.0
       339269.0       346132.0       352772.0       357203.0       363333.0
       367743.0       374024.0       379670.0       385044.0       390418.0
       394505.0       401542.0       405808.0       410578.0       416762.0
       421797.0       427207.0       431835.0       438116.0       442716.0
       448660.0       453225.0       457855.0       464369.0       468300.0
       474790.0       478086.0       483170.0       488911.0       492694.0
       499889.0       502757.0       507961.0       513762.0       517286.0
       523749.0       528475.0       532583.0       537248.0       541442.0
       546352.0       551504.0       555726.0       560719.0       564618.0
       569082.0       574843.0       578229.0       583696.0       587496.0
       590688.0       597050.0       599614.0       603773.0       608326.0
       610796.0       616892.0       620142.0       622146.0       626877.0
       631336.0       635313.0       638399.0       641884.0       644813.0
       648599.0       652832.0       655214.0       659231.0       662139.0
       664732.0       668962.0       671517.0       674518.0       677263.0
       681059.0       683761.0       686522.0       690608.0       691390.0
       695980.0       698825.0       701026.0       704801.0       706303.0
       710308.0       711249.0       715165.0       717909.0       718970.0
       724105.0       724628.0       727808.0       730774.0       732081.0
       734775.0       736587.0       740326.0       741644.0       744546.0
       746168.0       747658.0       752829.0       752295.0       755207.0
       758898.0       758841.0       762147.0       763737.0       766853.0
       768074.0       769647.0       773097.0       773398.0       778038.0
       778471.0       779848.0       783667.0       783754.0       786877.0
       788372.0       791524.0       792554.0       792968.0       796039.0
       797719.0       799813.0       799459.0       802967.0       804608.0
       804827.0       807236.0       807233.0       810396.0       811373.0
       812437.0       812850.0       813462.0       815684.0       816288.0
       818083.0       816241.0       817745.0       819372.0       818658.0
       819551.0       818767.0       820025.0       819537.0       818706.0
       819928.0       819714.0       818926.0       818961.0       817992.0
       816395.0       817605.0       816283.0       814568.0       815172.0
       812805.0       810750.0       810859.0       810197.0       807405.0
       806863.0       805456.0       801819.0       801412.0       799517.0
       797392.0       795376.0       791842.0       790738.0       789502.0
       786779.0       782639.0       779968.0       778640.0       774131.0
       771766.0       769358.0       765399.0       762744.0       757666.0
       754967.0       752711.0       747336.0       744119.0       740548.0
       736840.0       732871.0       728439.0       725370.0       719154.0
       715388.0       712512.0       706478.0       703323.0       697237.0
       692162.0       688755.0       682534.0       678538.0       672891.0
       667326.0       662251.0       656730.0       651438.0       645421.0
       640483.0       634672.0       629666.0       623907.0       617997.0
       613027.0       606732.0       601631.0       594500.0       589057.0
       584672.0       577452.0       572195.0       564830.0       559141.0
       553732.0       546613.0       542119.0       535023.0       529716.0
       522166.0       515559.0       511779.0       503016.0       497833.0
       490069.0       483636.0       479107.0       469935.0       465338.0
       459105.0       452635.0       445376.0       436892.0       433563.0
       426239.0       419732.0       414389.0       406364.0       401050.0
       394501.0       388164.0       380913.0       374605.0       369274.0
       362667.0       357557.0       349776.0       343169.0       338036.0
       331906.0       325456.0       318506.0       313252.0       306419.0
       300515.0       294363.0       287168.0       282805.0       275294.0
       269487.0       265122.0       257174.0       251052.0       244539.0
       238625.0       233371.0       226490.0       220283.0       213639.0
       206640.0       201174.0       196377.0       189390.0       182771.0
       176174.0       169552.0       164891.0       157470.0       151429.0
       145874.0       137871.0       132744.0       125745.0       118525.0
       113304.0       105841.0       99520.00       92746.00       85708.00
       79270.00       71791.00       65843.00       58816.00       51236.00
       44638.00       37419.00       30373.00       24087.00       17363.00
       9108.000       1922.000      -4962.000      -11865.00      -19193.00
      -26733.00      -33609.00      -42038.00      -48354.00      -55806.00
      -64363.00      -70577.00      -78071.00      -85570.00      -93451.00
      -100516.0      -108640.0      -116203.0      -122989.0      -132571.0
      -138748.0      -146799.0      -155527.0      -162569.0      -170447.0
      -176686.0      -186359.0      -193124.0      -200258.0      -208990.0
      -214632.0      -224254.0      -230687.0      -238372.0      -247223.0
      -253083.0      -262647.0      -268849.0      -277323.0      -285445.0
      -291634.0      -302285.0      -307879.0      -316084.0      -324728.0
      -330671.0      -341091.0      -347850.0      -355838.0      -364512.0
      -370940.0      -380327.0      -387710.0      -395332.0      -403125.0
      -411136.0      -419617.0      -426761.0      -435239.0      -441918.0
      -449772.0      -457868.0      -465334.0      -473469.0      -479947.0
      -488404.0      -494954.0      -502091.0      -510204.0      -516394.0
      -524136.0      -531035.0      -537966.0      -544335.0      -551886.0
      -558614.0      -564349.0      -572029.0      -577243.0      -584063.0
      -590937.0      -597146.0      -604254.0      -608937.0      -615743.0
      -622217.0      -627563.0      -634478.0      -640449.0      -646012.0
      -651496.0      -657218.0      -663487.0      -669218.0      -674707.0
      -680167.0      -685753.0      -690662.0      -695016.0      -701157.0
      -705424.0      -710545.0      -716309.0      -719711.0      -725760.0
      -729212.0      -733131.0      -739444.0      -742954.0      -746413.0
      -750411.0      -756486.0      -759616.0      -762471.0      -766960.0
      -768988.0      -774110.0      -777638.0      -780490.0      -784131.0
      -786509.0      -790573.0      -793154.0      -796277.0      -798874.0
      -801895.0      -805476.0      -806861.0      -810433.0      -813067.0
      -814877.0      -818415.0      -820433.0      -822024.0      -825415.0
      -827555.0      -828602.0      -830985.0      -832563.0      -834557.0
      -837151.0      -837676.0      -838757.0      -840847.0      -842120.0
      -843558.0      -844979.0      -846310.0      -846884.0      -848347.0
      -850117.0      -850348.0      -850777.0      -851978.0      -852747.0
      -852549.0      -853482.0      -852777.0      -854020.0      -854533.0
      -851938.0      -854548.0      -853050.0      -851983.0      -852929.0
      -851806.0      -853483.0      -850638.0      -851367.0      -852077.0
      -849413.0      -849970.0      -848542.0      -848815.0      -847490.0
      -846661.0      -846702.0      -845323.0      -845343.0      -843662.0
      -844181.0      -843046.0      -842084.0      -842527.0      -841078.0
      -841537.0      -839779.0      -839584.0      -838580.0      -835998.0
      -836906.0      -834536.0      -834297.0      -833670.0      -831327.0
      -831553.0      -829774.0      -829991.0      -827767.0      -826044.0
      -825684.0      -823782.0      -823947.0      -821099.0      -820104.0
      -818924.0      -816655.0      -816409.0      -814100.0      -812412.0
      -810377.0      -809163.0      -809030.0      -806475.0      -803722.0
      -801301.0      -799206.0      -799189.0      -796399.0      -792775.0
      -792230.0      -789584.0      -787840.0      -786168.0      -782033.0
      -779368.0      -777971.0      -774257.0      -770527.0      -767414.0
      -763645.0      -762429.0      -757688.0      -753768.0      -751434.0
      -746198.0      -743594.0      -738525.0      -734938.0      -732296.0
      -725806.0      -722762.0      -718198.0      -713489.0      -710376.0
      -703653.0      -700272.0      -696037.0      -689295.0      -686183.0
      -680631.0      -675451.0      -671223.0      -664389.0      -660363.0
      -654078.0      -647195.0      -643021.0      -636330.0      -631035.0
      -624676.0      -618869.0      -613538.0      -604786.0      -599320.0
      -593770.0      -586454.0      -580219.0      -573065.0      -565705.0
      -559109.0      -552124.0      -544657.0      -538108.0      -530221.0
      -522674.0      -516061.0      -507517.0      -500656.0      -493107.0
      -483884.0      -477080.0      -469883.0      -461817.0      -453862.0
      -446359.0      -437998.0      -430600.0      -424549.0      -414883.0
      -406976.0      -399827.0      -391459.0      -385218.0      -375080.0
      -367377.0      -361542.0      -351681.0      -345696.0      -336433.0
      -328089.0      -321712.0      -312894.0      -307145.0      -297598.0
      -290183.0      -282937.0      -274943.0      -267951.0      -259041.0
      -252528.0      -243039.0      -236639.0      -229277.0      -220778.0
      -214829.0      -204850.0      -199065.0      -190710.0      -182458.0
      -176086.0      -167579.0      -161290.0      -151602.0      -144705.0
      -137238.0      -129465.0      -122891.0      -113029.0      -106006.0
      -97321.00      -90760.00      -84068.00      -74564.00      -68780.00
      -60117.00      -53011.00      -45646.00      -36803.00      -32062.00
      -22599.00      -15158.00      -9294.000       118.0000       6388.000
       15002.00       21820.00       28376.00       37618.00       43177.00
       51093.00       59540.00       65987.00       73351.00       80394.00
       88255.00       96430.00       103181.0       109913.0       117773.0
       125382.0       132469.0       140721.0       147897.0       154715.0
       161745.0       168560.0       176051.0       182681.0       190693.0
       197627.0       203919.0       211588.0       218190.0       226169.0
       233675.0       239775.0       247837.0       255527.0       262275.0
       269807.0       275977.0       283222.0       290946.0       296584.0
       305064.0       312076.0       318292.0       326116.0       332497.0
       340068.0       346534.0       353924.0       361407.0       368104.0
       376227.0       382186.0       388601.0       395503.0       401412.0
       408342.0       415635.0       422928.0       428780.0       434839.0
       441201.0       447797.0       455392.0       461642.0       468321.0
       474301.0       479870.0       486249.0       492423.0       499811.0
       505420.0       511462.0       517905.0       522784.0       530008.0
       535163.0       540932.0       548227.0       552978.0       558797.0
       564632.0       570955.0       576648.0       581897.0       587502.0
       591957.0       598843.0       604129.0       608946.0       615098.0
       619417.0       625642.0       630427.0       635871.0       642260.0
       645763.0       651001.0       656478.0       662133.0       666818.0
       670979.0       676881.0       681395.0       686801.0       691069.0
       695997.0       701790.0       704962.0       710913.0       714940.0
       719274.0       725073.0       728327.0       733911.0       737727.0
       740937.0       745476.0       749706.0       753492.0       757285.0
       762016.0       764705.0       768721.0       773129.0       775860.0
       780234.0       784449.0       787274.0       790189.0       794581.0
       798348.0       801159.0       804551.0       807341.0       810699.0
       813165.0       816681.0       820065.0       822321.0       825811.0
       826981.0       830738.0       833634.0       835115.0       838656.0
       840456.0       843655.0       845216.0       847734.0       850407.0
       851440.0       855230.0       856150.0       857787.0       859810.0
       860151.0       862997.0       864000.0       864727.0       866460.0
       867241.0       868543.0       869997.0       870317.0       870715.0
       872287.0       872524.0       872972.0       873279.0       873000.0
       873208.0       872661.0       873934.0       873553.0       871973.0
       872408.0       871867.0       871810.0       870424.0       868623.0
       869135.0       867983.0       866711.0       865976.0       864759.0
       864000.0       861817.0       860653.0       859149.0       857389.0
       856266.0       853254.0       852344.0       849887.0       847566.0
       845675.0       842774.0       841521.0       837774.0       836522.0
       833296.0       830338.0       828825.0       824139.0       822736.0
       818982.0       816601.0       813408.0       808415.0       806431.0
       801955.0       799426.0       794742.0       791135.0       788971.0
       783009.0       780355.0       775687.0       771948.0       768481.0
       762506.0       759482.0       754548.0       750352.0       746105.0
       740555.0       736779.0       731329.0       726228.0       721764.0
       716002.0       711120.0       705653.0       700624.0       696144.0
       690373.0       684722.0       678956.0       674105.0       667904.0
       663642.0       658666.0       650790.0       646264.0       640286.0
       634554.0       629053.0       623463.0       617974.0       611892.0
       606327.0       599685.0       594948.0       588516.0       583171.0
       577288.0       570180.0       566411.0       558770.0       552994.0
       547298.0       540752.0       536752.0       528943.0       523524.0
       517127.0       509692.0       505371.0       498507.0       492824.0
       486687.0       479320.0       473282.0       466738.0       460236.0
       453854.0       447411.0       441797.0       435311.0       428523.0
       423502.0       415960.0       409890.0       404788.0       397310.0
       391612.0       385561.0       379263.0       373384.0       367555.0
       361118.0       354554.0       349377.0       343057.0       336168.0
       330382.0       324456.0       318033.0       312179.0       306901.0
       299468.0       292416.0       288061.0       281084.0       274859.0
       268793.0       261346.0       257270.0       250150.0       243443.0
       237562.0       229890.0       225463.0       217973.0       211309.0
       205653.0       198291.0       192949.0       184870.0       179475.0
       172668.0       165914.0       161176.0       151746.0       146972.0
       139058.0       131988.0       127623.0       118168.0       113424.0
       105122.0       97838.00       93447.00       83733.00       77991.00
       70836.00       62609.00       56778.00       49306.00       41951.00
       35065.00       28076.00       20880.00       14131.00       5846.000
      -473.0000      -7230.000      -15753.00      -21879.00      -29751.00
      -36853.00      -44114.00      -51089.00      -57102.00      -66144.00
      -72258.00      -78912.00      -87100.00      -92528.00      -101501.0
      -108456.0      -114030.0      -123125.0      -128824.0      -135836.0
      -142964.0      -150540.0      -158416.0      -163981.0      -172866.0
      -178553.0      -185926.0      -193863.0      -198811.0      -208558.0
      -215116.0      -220930.0      -228600.0      -235445.0      -243026.0
      -249272.0      -256786.0      -263119.0      -269852.0      -277210.0
      -283789.0      -290939.0      -296887.0      -303816.0      -310706.0
      -318028.0      -323829.0      -330957.0      -338559.0      -344091.0
      -352167.0      -358194.0      -365755.0      -372055.0      -377787.0
      -386751.0      -391858.0      -399053.0      -405471.0      -411627.0
      -418913.0      -423706.0      -431459.0      -437588.0      -443445.0
      -450532.0      -456941.0      -462678.0      -466538.0      -474621.0
      -481220.0      -486361.0      -493172.0      -497029.0      -504440.0
      -510941.0      -514955.0      -520807.0      -526098.0      -533017.0
      -537647.0      -543748.0      -550562.0      -552680.0      -558055.0
      -563501.0      -569339.0      -574178.0      -578176.0      -583436.0
      -586569.0      -593984.0      -597969.0      -601699.0      -607323.0
      -610162.0      -616467.0      -620253.0      -625782.0      -630092.0
      -631040.0      -636171.0      -640542.0      -645020.0      -648534.0
      -651887.0      -655604.0      -657687.0      -662351.0      -665526.0
      -668382.0      -672742.0      -673802.0      -677791.0      -682217.0
      -684029.0      -686857.0      -688532.0      -691727.0      -695107.0
      -696521.0      -699177.0      -702362.0      -704670.0      -706552.0
      -708530.0      -709548.0      -711785.0      -715162.0      -716784.0
      -718256.0      -720435.0      -723787.0      -724105.0      -725821.0
      -728112.0      -727920.0      -730680.0      -732219.0      -734927.0
      -735294.0      -735780.0      -738352.0      -738034.0      -741212.0
      -742245.0      -742081.0      -744427.0      -746098.0      -747097.0
      -747764.0      -749666.0      -749865.0      -751083.0      -751657.0
      -751961.0      -754321.0      -754513.0      -754817.0      -754463.0
      -756038.0      -757273.0      -756268.0      -758114.0      -758982.0
      -758332.0      -758746.0      -759179.0      -759638.0      -761193.0
      -761301.0      -761883.0      -762402.0      -761698.0      -762659.0
      -761366.0      -762666.0      -763874.0      -762078.0      -763583.0
      -762595.0      -762451.0      -762906.0      -760998.0      -762443.0
      -760892.0      -760411.0      -760877.0      -758116.0      -759694.0
