     0.02500000      -12345.00      -12345.00   2.447790e+09      -12345.00
   0.0005380000       1859.976      -560.0195      -12345.00      -12345.00
      -12345.00      -12345.00      -12345.00      -12345.00      -12345.00
      -12345.00      -12345.00      -12345.00      -12345.00      -12345.00
      -12345.00      -12345.00      -12345.00      -12345.00      -12345.00
      -12345.00      -12345.00      -12345.00      -12345.00      -12345.00
      -12345.00       19.28340       166.6520       18.00000       2.000000
      -42.72450       173.0647      -12345.00       22.00000      -12345.00
      -12345.00      -12345.00      -12345.00      -12345.00      -12345.00
      -12345.00      -12345.00      -12345.00      -12345.00      -12345.00
       6891.503       353.1363       174.6505       61.97952      -12345.00
      -12345.00      -12345.00       0.000000       0.000000      -12345.00
      -12345.00      -12345.00      -12345.00      -12345.00      -12345.00
      -12345.00      -12345.00      -12345.00      -12345.00      -12345.00
      2016       318        11        12        19
        19         6    -12345    -12345     74400
    -12345    -12345    -12345    -12345    -12345
         1    -12345    -12345    -12345    -12345
    -12345    -12345    -12345    -12345    -12345
    -12345    -12345    -12345    -12345    -12345
    -12345    -12345    -12345    -12345    -12345
         1    -12345    -12345    -12345    -12345
WAKE    South Island, Ne
10      -12345  -12345  
-12345  -12345  -12345  
-12345  -12345  -12345  
-12345  -12345  -12345  
-12345  -12345  -12345  
-12345  -12345  BHZ     
IU      -12345  Streckei
[...]
       452447.0       451345.0       449884.0       447188.0       446149.0
       446610.0       445270.0       443611.0       442769.0       441841.0
       439737.0       437156.0       435817.0       434911.0       433963.0
       432446.0       430272.0       427776.0       425737.0       424625.0
       423218.0       421728.0       420138.0       419066.0       417685.0
       415021.0       413005.0       411031.0       410334.0       410219.0
       407979.0       406077.0       404458.0       402439.0       400777.0
       399169.0       398092.0       396636.0       395423.0       394906.0
       392277.0       389532.0       389289.0       387937.0       385335.0
       383542.0       381664.0       380244.0       379051.0       378109.0
       376661.0       373470.0       371394.0       369926.0       367648.0
       366485.0       365122.0       363054.0       361842.0       360737.0
       359134.0       357720.0       356129.0       353725.0       351304.0
       349040.0       346556.0       344561.0       343782.0       342615.0
       340770.0       339140.0       336534.0       334013.0       331348.0
       328457.0       327260.0       325744.0       323700.0       322020.0
       319565.0       316987.0       314301.0       310800.0       307137.0
       303981.0       301006.0       297598.0       294740.0       292597.0
       289393.0       285706.0       283238.0       279569.0       274905.0
       271957.0       267347.0       263971.0       263890.0       261443.0
       258270.0       254890.0       250165.0       245533.0       241824.0
       239875.0       237395.0       233894.0       229868.0       226044.0
       224015.0       221011.0       217132.0       214370.0       210347.0
       205077.0       201645.0       199765.0       196731.0       192901.0
       189278.0       185869.0       182039.0       177080.0       173548.0
       170836.0       167308.0       163662.0       159443.0       156539.0
       153217.0       148585.0       145600.0       142206.0       139017.0
       135973.0       131828.0       128735.0       125034.0       121461.0
       119440.0       116590.0       112074.0       108137.0       105782.0
       102474.0       98150.00       94354.00       91842.00       89103.00
       85627.00       82319.00       78270.00       74953.00       72060.00
       68777.00       64626.00       60402.00       58315.00       54997.00
       50329.00       46522.00       42899.00       39238.00       35469.00
       31735.00       27902.00       24828.00       22013.00       18829.00
       15497.00       11208.00       6939.000       3216.000      -773.0000
      -4119.000      -6180.000      -9552.000      -14257.00      -17034.00
      -20000.00      -24770.00      -28581.00      -32174.00      -36016.00
      -39041.00      -42912.00      -46899.00      -49919.00      -54171.00
      -58827.00      -62435.00      -66098.00      -69797.00      -74314.00
      -78479.00      -81526.00      -86809.00      -92304.00      -95730.00
      -99704.00      -103631.0      -107589.0      -112229.0      -116838.0
      -122069.0      -126296.0      -130544.0      -135236.0      -138500.0
      -142593.0      -147280.0      -151585.0      -155934.0      -160281.0
      -164294.0      -167447.0      -171885.0      -176849.0      -180729.0
      -184808.0      -189075.0      -194032.0      -198091.0      -201534.0
      -207099.0      -211568.0      -214955.0      -219897.0      -224334.0
      -228132.0      -232240.0      -236453.0      -240414.0      -243957.0
      -247826.0      -252256.0      -256324.0      -260137.0      -263987.0
      -267097.0      -270670.0      -274787.0      -278186.0      -281798.0
      -285636.0      -289035.0      -292275.0      -295227.0      -298179.0
      -301301.0      -304064.0      -307567.0      -310808.0      -312840.0
      -316460.0      -319799.0      -321991.0      -325433.0      -328649.0
      -331662.0      -334923.0      -337650.0      -339947.0      -341996.0
      -344718.0      -347902.0      -350695.0      -353932.0      -357045.0
      -358171.0      -359805.0      -363052.0      -365765.0      -368977.0
      -372123.0      -374761.0      -377318.0      -379905.0      -383612.0
      -386622.0      -389183.0      -392516.0      -395421.0      -398051.0
      -400899.0      -403765.0      -406319.0      -409065.0      -412085.0
      -415360.0      -418766.0      -421701.0      -424748.0      -428823.0
      -432748.0      -434424.0      -436917.0      -440980.0      -444137.0
      -447214.0      -448446.0      -450017.0      -454234.0      -457175.0
      -459926.0      -463243.0      -465766.0      -468622.0      -470442.0
      -472241.0      -475629.0      -477705.0      -479827.0      -482640.0
      -484110.0      -486163.0      -488204.0      -489953.0      -492255.0
      -494610.0      -496912.0      -498076.0      -499409.0      -501594.0
      -503821.0      -506067.0      -507201.0      -508291.0      -510533.0
      -511597.0      -511884.0      -513972.0      -516301.0      -517709.0
      -518439.0      -518563.0      -520211.0      -522642.0      -523144.0
      -523420.0      -525209.0      -526872.0      -527704.0      -528635.0
      -530228.0      -531026.0      -531148.0      -532886.0      -534823.0
      -535810.0      -536771.0      -537704.0      -538621.0      -538833.0
      -539962.0      -542866.0      -543662.0      -543463.0      -545259.0
      -546079.0      -546098.0      -547459.0      -548400.0      -549415.0
      -550862.0      -551363.0      -552299.0      -553162.0      -553110.0
      -553646.0      -554656.0      -556026.0      -556581.0      -556495.0
      -557346.0      -557328.0      -558113.0      -559742.0      -559395.0
      -560124.0      -561375.0      -561737.0      -562435.0      -562208.0
      -562599.0      -563563.0      -563094.0      -563494.0      -564893.0
      -564770.0      -564141.0      -564279.0      -564650.0      -564391.0
      -563710.0      -563245.0      -562832.0      -563261.0      -563802.0
      -563283.0      -562239.0      -561539.0      -561314.0      -560868.0
      -560692.0      -560667.0      -559277.0      -557582.0      -557805.0
      -558192.0      -557487.0      -556426.0      -554816.0      -554522.0
      -554421.0      -553291.0      -553446.0      -552777.0      -551398.0
      -551006.0      -550527.0      -550588.0      -550020.0      -549450.0
      -549548.0      -548075.0      -547374.0      -546900.0      -545374.0
      -545364.0      -544702.0      -543851.0      -543941.0      -542780.0
      -541407.0      -540038.0      -539442.0      -540012.0      -538948.0
      -537177.0      -536077.0      -534798.0      -533681.0      -532466.0
      -531081.0      -529727.0      -528702.0      -527324.0      -525570.0
      -525195.0      -524708.0      -522644.0      -519941.0      -518682.0
      -518791.0      -517186.0      -514337.0      -512328.0      -511460.0
      -510003.0      -507357.0      -505929.0      -504410.0      -502593.0
      -501301.0      -498349.0      -496035.0      -494454.0      -492822.0
      -491381.0      -488851.0      -486857.0      -484020.0      -481202.0
      -480053.0      -477691.0      -474745.0      -472265.0      -469689.0
      -468249.0      -466342.0      -462847.0      -460742.0      -459037.0
      -456963.0      -454977.0      -452181.0      -450364.0      -448466.0
      -445741.0      -443782.0      -441721.0      -440242.0      -438752.0
      -435463.0      -432679.0      -431892.0      -430481.0      -428072.0
      -426126.0      -423686.0      -421250.0      -419324.0      -417621.0
      -415684.0      -413785.0      -411878.0      -408790.0      -406360.0
      -404311.0      -402594.0      -400661.0      -396941.0      -394040.0
      -391438.0      -389302.0      -388269.0      -385948.0      -382241.0
      -377820.0      -375161.0      -373252.0      -370756.0      -369359.0
      -365752.0      -361759.0      -359492.0      -356149.0      -353445.0
      -350725.0      -347197.0      -344373.0      -341277.0      -338512.0
      -336128.0      -332696.0      -328586.0      -325234.0      -323198.0
      -320909.0      -317685.0      -313839.0      -309882.0      -306491.0
      -303956.0      -302284.0      -299128.0      -294080.0      -290022.0
      -286618.0      -283553.0      -281035.0      -277228.0      -272828.0
      -268654.0      -264910.0      -261922.0      -257996.0      -254013.0
      -250790.0      -245654.0      -241119.0      -239081.0      -235295.0
      -231458.0      -228168.0      -223982.0      -220868.0      -216191.0
      -211809.0      -209325.0      -204678.0      -199932.0      -196787.0
      -193231.0      -189059.0      -184323.0      -179654.0      -176104.0
      -171703.0      -167323.0      -164498.0      -159244.0      -154415.0
      -151090.0      -146039.0      -142431.0      -138573.0      -133968.0
      -129059.0      -123425.0      -119580.0      -115330.0      -110907.0
      -106478.0      -101642.0      -97327.00      -91111.00      -86714.00
      -84014.00      -78298.00      -73528.00      -69032.00      -63310.00
      -59552.00      -56239.00      -51099.00      -45625.00      -41104.00
      -35615.00      -30474.00      -26415.00      -21360.00      -16675.00
      -12885.00      -8176.000      -2641.000       1989.000       7236.000
       11412.00       13868.00       19707.00       25127.00       28844.00
       34563.00       39509.00       43734.00       47928.00       52275.00
       57806.00       62909.00       67585.00       71753.00       75904.00
       81184.00       85791.00       89330.00       93200.00       98463.00
       104141.0       108150.0       112004.0       116253.0       119725.0
       123947.0       129141.0       133703.0       138023.0       142078.0
       145906.0       150238.0       153358.0       157129.0       162319.0
       165732.0       169107.0       172780.0       176396.0       180653.0
       184051.0       187893.0       192323.0       195919.0       199728.0
       203803.0       207624.0       211583.0       215132.0       219123.0
       223909.0       227103.0       229404.0       232359.0       236832.0
       241439.0       244129.0       247804.0       251447.0       254017.0
       257808.0       261155.0       264038.0       267777.0       271622.0
       274766.0       277813.0       281225.0       284746.0       287794.0
       291015.0       295344.0       297860.0       300626.0       305547.0
       308076.0       309794.0       313560.0       318139.0       321319.0
       323046.0       326740.0       331066.0       333409.0       336571.0
       340728.0       343398.0       345917.0       349280.0       351991.0
       354917.0       358265.0       360382.0       363606.0       367984.0
       371166.0       373539.0       375961.0       379546.0       382315.0
       384432.0       388156.0       391823.0       393766.0       395139.0
       399498.0       404091.0       406059.0       409300.0       412769.0
       415092.0       418102.0       422513.0       426474.0       428036.0
       430875.0       434900.0       438376.0       442050.0       444789.0
       448475.0       452195.0       455096.0       458189.0       460842.0
       464504.0       468057.0       471268.0       474892.0       477962.0
       480396.0       482693.0       486260.0       489475.0       491747.0
       494398.0       496852.0       499986.0       502758.0       504822.0
       507469.0       509989.0       512239.0       513631.0       515549.0
       518685.0       520589.0       521913.0       523715.0       525847.0
       527810.0       529030.0       531118.0       533692.0       535358.0
       536914.0       538791.0       540243.0       541313.0       543626.0
       546258.0       546889.0       547838.0       550524.0       552166.0
       552622.0       553794.0       555617.0       556815.0       558468.0
       560337.0       560793.0       562320.0       564010.0       564895.0
       567064.0       567819.0       567749.0       568985.0       570500.0
       572170.0       572926.0       574100.0       575400.0       576228.0
       578374.0       579142.0       579118.0       580696.0       581503.0
       581297.0       581633.0       582806.0       584108.0       584394.0
       584691.0       585573.0       585731.0       585818.0       585937.0
       585894.0       586561.0       586755.0       587022.0       587354.0
       586857.0       587736.0       588066.0       587896.0       589203.0
       589123.0       589018.0       589163.0       589097.0       589882.0
       589896.0       590017.0       590006.0       589860.0       590349.0
       590461.0       589970.0       589189.0       589019.0       588828.0
       588509.0       587840.0       586329.0       586380.0       586519.0
       585220.0       584766.0       583363.0       582319.0       582750.0
       580845.0       579008.0       578260.0       577452.0       576641.0
       574203.0       572617.0       572539.0       571325.0       569705.0
       568387.0       566746.0       564755.0       563610.0       563207.0
       561285.0       558730.0       556916.0       555217.0       554453.0
       553703.0       551275.0       549571.0       548402.0       545823.0
       543552.0       541624.0       540551.0       539910.0       537356.0
       534366.0       532172.0       530385.0       528536.0       526903.0
       524783.0       521026.0       518541.0       517627.0       514916.0
       512102.0       510257.0       506704.0       504055.0       502262.0
       499087.0       496463.0       493335.0       490319.0       488342.0
       486045.0       483591.0       480874.0       478051.0       475675.0
       473590.0       470671.0       467617.0       465476.0       462974.0
       459515.0       456534.0       454827.0       451962.0       448720.0
       446163.0       442943.0       440968.0       438362.0       434628.0
       432880.0       429979.0       425263.0       421955.0       419650.0
       417173.0       413463.0       410105.0       407506.0       402791.0
       399670.0       398449.0       395082.0       392315.0       389715.0
       386993.0       385180.0       381221.0       377530.0       375865.0
       373049.0       370276.0       367843.0       364590.0       361620.0
       358621.0       355545.0       352780.0       350870.0       348076.0
       343882.0       341347.0       338723.0       335462.0       332392.0
       328199.0       325227.0       321953.0       317406.0       313980.0
       310569.0       308302.0       305592.0       300609.0       296299.0
       292953.0       290037.0       287488.0       283840.0       278868.0
       276190.0       273950.0       269288.0       266350.0       263086.0
       258742.0       255732.0       252181.0       248914.0       245327.0
       241192.0       236948.0       232425.0       229426.0       225669.0
       220463.0       216857.0       213756.0       208949.0       204948.0
       201464.0       196788.0       193802.0       191138.0       186463.0
       181597.0       178804.0       175689.0       171068.0       168259.0
       164742.0       160328.0       156217.0       151816.0       149473.0
       145667.0       140184.0       136800.0       133818.0       129949.0
       125731.0       122313.0       118488.0       114134.0       110670.0
       106330.0       101621.0       98082.00       93657.00       88147.00
       84550.00       81055.00       76088.00       72234.00       67570.00
       62554.00       59494.00       55994.00       51686.00       47372.00
       43499.00       39457.00       34501.00       30265.00       26102.00
       21684.00       18275.00       14612.00       9634.000       5456.000
       2330.000      -1998.000      -5899.000      -9855.000      -14308.00
      -17807.00      -22369.00      -26118.00      -29374.00      -34637.00
      -38062.00      -40590.00      -45627.00      -50336.00      -53690.00
      -57064.00      -60278.00      -63956.00      -68358.00      -72346.00
      -75551.00      -79106.00      -84284.00      -89361.00      -92118.00
      -94974.00      -99762.00      -104720.0      -108363.0      -111910.0
      -115580.0      -118359.0      -122681.0      -127342.0      -131212.0
      -135481.0      -139347.0      -143754.0      -147168.0      -150411.0
      -155401.0      -159340.0      -162540.0      -165138.0      -167184.0
      -171486.0      -176240.0      -179601.0      -182119.0      -184328.0
      -188235.0      -192772.0      -195953.0      -198959.0      -202186.0
      -205587.0      -209515.0      -212225.0      -215191.0      -219328.0
      -222173.0      -224938.0      -228039.0      -231583.0      -234802.0
      -238046.0      -242380.0      -244522.0      -247361.0      -251545.0
      -253677.0      -257278.0      -261376.0      -264463.0      -267989.0
      -270126.0      -273172.0      -277406.0      -280215.0      -283521.0
      -286701.0      -289299.0      -292229.0      -294583.0      -297399.0
      -301065.0      -304534.0      -307634.0      -310646.0      -312981.0
      -314956.0      -318392.0      -321614.0      -324146.0      -327046.0
      -329211.0      -332052.0      -335164.0      -337080.0      -339364.0
      -342549.0      -345025.0      -346825.0      -349286.0      -351458.0
      -354171.0      -357672.0      -359163.0      -360174.0      -363300.0
      -366452.0      -368505.0      -371042.0      -373258.0      -375091.0
      -377200.0      -378601.0      -380615.0      -382530.0      -384185.0
      -386774.0      -387936.0      -389164.0      -391233.0      -392558.0
      -394771.0      -397104.0      -399027.0      -400576.0      -401923.0
      -405183.0      -407626.0      -408196.0      -409799.0      -411387.0
      -413131.0      -416058.0      -418581.0      -419242.0      -420042.0
      -423005.0      -424844.0      -425498.0      -427174.0      -428475.0
      -429812.0      -431680.0      -433309.0      -434600.0      -435334.0
      -436397.0      -438240.0      -439820.0      -440875.0      -441847.0
      -442625.0      -443956.0      -445517.0      -445405.0      -445863.0
