     0.02500000      -12345.00      -12345.00   2.447790e+09      -12345.00
   0.0005380000       1859.976      -560.0195      -12345.00      -12345.00
      -12345.00      -12345.00      -12345.00      -12345.00      -12345.00
      -12345.00      -12345.00      -12345.00      -12345.00      -12345.00
      -12345.00      -12345.00      -12345.00      -12345.00      -12345.00
      -12345.00      -12345.00      -12345.00      -12345.00      -12345.00
      -12345.00       19.28340       166.6520       18.00000       2.000000
      -42.72450       173.0647      -12345.00       22.00000      -12345.00
      -12345.00      -12345.00      -12345.00      -12345.00      -12345.00
      -12345.00      -12345.00      -12345.00      -12345.00      -12345.00
       6891.503       353.1363       174.6505       61.97952      -12345.00
      -12345.00      -12345.00       0.000000       90.00000      -12345.00
      -12345.00      -12345.00      -12345.00      -12345.00      -12345.00
      -12345.00      -12345.00      -12345.00      -12345.00      -12345.00
      2016       318        11        12        19
        19         6    -12345    -12345     74400
    -12345    -12345    -12345    -12345    -12345
         1    -12345    -12345    -12345    -12345
    -12345    -12345    -12345    -12345    -12345
    -12345    -12345    -12345    -12345    -12345
    -12345    -12345    -12345    -12345    -12345
         1    -12345    -12345    -12345    -12345
WAKE    South Island, Ne
00      -12345  -12345  
-12345  -12345  -12345  
-12345  -12345  -12345  
-12345  -12345  -12345  
-12345  -12345  -12345  
-12345  -12345  BH1     
IU      -12345  Streckei
[...]
       250236.0       255594.0       262746.0       267233.0       273935.0
       279729.0       285405.0       289569.0       296991.0       302926.0
       306202.0       314753.0       318575.0       324112.0       332769.0
       334427.0       341286.0       348577.0       352248.0       358881.0
       363028.0       369188.0       375180.0       380158.0       385932.0
       389530.0       396836.0       401224.0       405522.0       412140.0
       416838.0       422571.0       426762.0       433398.0       437823.0
       443637.0       448649.0       452398.0       459880.0       462994.0
       469925.0       473300.0       477619.0       484462.0       487045.0
       495152.0       497728.0       502424.0       509123.0       511715.0
       518734.0       523382.0       527238.0       532100.0       536149.0
       541065.0       546264.0       550404.0       555408.0       559386.0
       563467.0       569696.0       572780.0       578153.0       582404.0
       584809.0       591828.0       594221.0       597925.0       603266.0
       604886.0       611416.0       614911.0       616249.0       621436.0
       625687.0       629783.0       632817.0       636266.0       639241.0
       642771.0       647415.0       649445.0       653489.0       656697.0
       658794.0       663406.0       665796.0       668772.0       671594.0
       675210.0       678234.0       680415.0       685272.0       685424.0
       689995.0       693485.0       694693.0       699433.0       700105.0
       704641.0       705443.0       708883.0       712687.0       712373.0
       718571.0       718696.0       721535.0       725280.0       725709.0
       729086.0       730378.0       734444.0       735680.0       738300.0
       740617.0       740982.0       747221.0       746306.0       748592.0
       753518.0       752265.0       756179.0       757688.0       760521.0
       762327.0       762968.0       767472.0       766854.0       771899.0
       772737.0       772962.0       778139.0       777166.0       780787.0
       782213.0       785079.0       786774.0       786318.0       790103.0
       791278.0       793804.0       793109.0       796534.0       798853.0
       798060.0       801424.0       800690.0       804128.0       805332.0
       805977.0       806906.0       806864.0       809797.0       809794.0
       812212.0       809996.0       811210.0       813759.0       812108.0
       813724.0       812493.0       813940.0       813706.0       812316.0
       814070.0       813728.0       812894.0       812992.0       812221.0
       810229.0       811704.0       810694.0       808354.0       809570.0
       807060.0       804771.0       805126.0       804608.0       801666.0
       801009.0       800228.0       795930.0       795800.0       794235.0
       791633.0       790180.0       786276.0       785221.0       784374.0
       781453.0       777469.0       774520.0       773710.0       769011.0
       766464.0       764678.0       760149.0       757994.0       752836.0
       749812.0       748330.0       742437.0       739399.0       736069.0
       732055.0       728616.0       723737.0       721127.0       714960.0
       710650.0       708845.0       702027.0       699264.0       693537.0
       687705.0       685375.0       678466.0       674787.0       669432.0
       663413.0       658928.0       653122.0       648151.0       641981.0
       637196.0       631495.0       626370.0       620991.0       614753.0
       610209.0       603720.0       598752.0       591824.0       585933.0
       582322.0       574607.0       569659.0       562435.0       556289.0
       551678.0       543863.0       539945.0       532709.0       527359.0
       520346.0       512794.0       510242.0       500725.0       495782.0
       488438.0       481113.0       477915.0       467790.0       463536.0
       457605.0       450658.0       444235.0       434782.0       432197.0
       425012.0       417839.0       413478.0       404719.0       399796.0
       393339.0       386847.0       379901.0       373256.0       368487.0
       361431.0       356762.0       348972.0       342072.0       337400.0
       331085.0       324919.0       317690.0       312705.0       305898.0
       299876.0       294168.0       286399.0       282693.0       275096.0
       268820.0       265344.0       256901.0       250949.0       244553.0
       238418.0       233691.0       226548.0       220428.0       213911.0
       206915.0       201447.0       196928.0       189941.0       183166.0
       177029.0       169941.0       165797.0       158399.0       151973.0
       147191.0       138590.0       133833.0       127107.0       119327.0
       114843.0       107100.0       100805.0       94300.00       87031.00
       81002.00       73237.00       67549.00       60643.00       52885.00
       46549.00       39220.00       32329.00       26020.00       19560.00
       11199.00       3964.000      -2677.000      -9685.000      -16704.00
      -24503.00      -31019.00      -39635.00      -45940.00      -52872.00
      -62053.00      -67746.00      -75312.00      -82746.00      -90581.00
      -97671.00      -105449.0      -113569.0      -119540.0      -129631.0
      -135665.0      -143189.0      -152685.0      -158877.0      -167343.0
      -173069.0      -182831.0      -189920.0      -196109.0      -205903.0
      -210566.0      -220583.0      -227192.0      -233994.0      -243988.0
      -248664.0      -258849.0      -264992.0      -272812.0      -281969.0
      -286842.0      -298471.0      -303770.0      -311258.0      -321084.0
      -325785.0      -336913.0      -343627.0      -350914.0      -360548.0
      -366018.0      -375807.0      -383262.0      -390468.0      -398636.0
      -406174.0      -415069.0      -421810.0      -430475.0      -437130.0
      -444643.0      -453189.0      -460139.0      -468675.0      -474743.0
      -483348.0      -490023.0      -496626.0      -505365.0      -511024.0
      -518957.0      -525788.0      -532705.0      -539021.0      -546430.0
      -553557.0      -558655.0      -566894.0      -571800.0      -578447.0
      -585729.0      -591387.0      -599069.0      -603351.0      -610126.0
      -616920.0      -621825.0      -628995.0      -634901.0      -640425.0
      -645903.0      -651603.0      -657901.0      -663613.0      -669079.0
      -674533.0      -680075.0      -685138.0      -689208.0      -695596.0
      -699913.0      -704517.0      -711010.0      -713815.0      -720114.0
      -723839.0      -727051.0      -734112.0      -737273.0      -740775.0
      -744661.0      -750873.0      -754274.0      -756465.0      -761733.0
      -763133.0      -768398.0      -772314.0      -774572.0      -778803.0
      -780641.0      -785080.0      -787600.0      -790530.0      -793411.0
      -795991.0      -800146.0      -801035.0      -804715.0      -807651.0
      -808982.0      -812781.0      -814803.0      -816208.0      -819658.0
      -821985.0      -822717.0      -825259.0      -826872.0      -828565.0
      -831534.0      -831888.0      -832803.0      -835133.0      -836190.0
      -837755.0      -839052.0      -840431.0      -841023.0      -842268.0
      -844364.0      -844324.0      -844819.0      -845992.0      -846825.0
      -846480.0      -847542.0      -846857.0      -847668.0      -849077.0
      -845444.0      -848563.0      -847361.0      -845343.0      -847388.0
      -845256.0      -847721.0      -844564.0      -844783.0      -846609.0
      -842747.0      -844108.0      -842334.0      -842574.0      -841571.0
      -840161.0      -840871.0      -838864.0      -839352.0      -837365.0
      -837916.0      -837090.0      -835482.0      -836658.0      -834599.0
      -835447.0      -833653.0      -833125.0      -832851.0      -829276.0
      -831030.0      -828434.0      -827797.0      -828020.0      -824692.0
      -825736.0      -823500.0      -823850.0      -821956.0      -819490.0
      -820041.0      -817353.0      -818101.0      -815082.0      -813794.0
      -813326.0      -810308.0      -810604.0      -808145.0      -806403.0
      -804545.0      -803093.0      -803311.0      -800751.0      -797857.0
      -795578.0      -793328.0      -793477.0      -791055.0      -786795.0
      -786854.0      -784118.0      -782102.0      -781078.0      -776536.0
      -773865.0      -772822.0      -769131.0      -765131.0      -762538.0
      -758268.0      -757486.0      -753018.0      -748327.0      -747089.0
      -741128.0      -738874.0      -734084.0      -729838.0      -728278.0
      -721051.0      -718269.0      -714159.0      -708752.0      -706555.0
      -699313.0      -695906.0      -692452.0      -684914.0      -682335.0
      -676955.0      -671304.0      -667787.0      -660526.0      -656663.0
      -650873.0      -643272.0      -639856.0      -632919.0      -627596.0
      -621644.0      -615348.0      -610861.0      -601537.0      -596140.0
      -591193.0      -583382.0      -577516.0      -570391.0      -563002.0
      -556529.0      -549674.0      -542115.0      -535740.0      -527972.0
      -520181.0      -514043.0      -505299.0      -498447.0      -491355.0
      -481728.0      -475078.0      -468142.0      -459993.0      -452012.0
      -444741.0      -436430.0      -428724.0      -423300.0      -413409.0
      -405323.0      -398771.0      -389864.0      -384189.0      -374081.0
      -365751.0      -361036.0      -350324.0      -344822.0      -335957.0
      -326706.0      -321550.0      -311766.0      -306819.0      -297144.0
      -289328.0      -283029.0      -274208.0      -268133.0      -258549.0
      -252647.0      -243065.0      -236290.0      -229947.0      -220359.0
      -215643.0      -204896.0      -199323.0      -191609.0      -182384.0
      -177176.0      -167807.0      -162348.0      -152324.0      -145239.0
      -138578.0      -129916.0      -124424.0      -113854.0      -107209.0
      -98630.00      -91584.00      -85970.00      -75432.00      -70382.00
      -61656.00      -54169.00      -47765.00      -37802.00      -34007.00
      -24449.00      -16342.00      -11693.00      -1294.000       4351.000
       12938.00       20257.00       25820.00       35969.00       40948.00
       48700.00       57637.00       63514.00       71123.00       78007.00
       85773.00       94094.00       100701.0       107343.0       115106.0
       122871.0       129631.0       138014.0       145284.0       151706.0
       159064.0       165489.0       173224.0       179644.0       187598.0
       194796.0       200503.0       208597.0       214904.0       222815.0
       230618.0       236253.0       244416.0       252203.0       258653.0
       266318.0       272490.0       279366.0       287558.0       292735.0
       301195.0       308582.0       314100.0       322438.0       328437.0
       336061.0       342597.0       349682.0       357512.0       363665.0
       372166.0       378056.0       384161.0       391353.0       396960.0
       403961.0       411164.0       418540.0       424333.0       430193.0
       436711.0       442999.0       450821.0       456960.0       463516.0
       469613.0       474966.0       481460.0       487372.0       494949.0
       500547.0       506218.0       513072.0       517432.0       524909.0
       530128.0       535318.0       543273.0       547556.0       553337.0
       559262.0       565397.0       571279.0       576156.0       582119.0
       586145.0       593073.0       598617.0       602849.0       609563.0
       613378.0       619717.0       624624.0       629570.0       636500.0
       639499.0       644835.0       650338.0       655854.0       660750.0
       664439.0       670689.0       674973.0       680382.0       684793.0
       689272.0       695625.0       698241.0       704387.0       708563.0
       712335.0       718803.0       721514.0       727305.0       731203.0
       734099.0       738918.0       742965.0       746877.0       750424.0
       755480.0       757964.0       761800.0       766640.0       768959.0
       773427.0       777817.0       780518.0       783331.0       787751.0
       791710.0       794229.0       797833.0       800504.0       803857.0
       806479.0       809680.0       813504.0       815249.0       819193.0
       820129.0       823670.0       827259.0       827898.0       832043.0
       833543.0       836775.0       838557.0       840582.0       843900.0
       844264.0       848519.0       849442.0       850588.0       853312.0
       853000.0       856224.0       857287.0       857632.0       859833.0
       860282.0       861631.0       863267.0       863509.0       863799.0
       865546.0       865768.0       866104.0       866621.0       866103.0
       866575.0       865861.0       867187.0       867082.0       865084.0
       865854.0       865155.0       865161.0       864056.0       861800.0
       862666.0       861583.0       860043.0       859667.0       858216.0
       857655.0       855532.0       854213.0       853025.0       850908.0
       850314.0       846959.0       846126.0       844057.0       841209.0
       839995.0       836503.0       835801.0       831843.0       830517.0
       827853.0       824128.0       823622.0       818131.0       817192.0
       813575.0       810718.0       808402.0       802512.0       801328.0
       796479.0       794025.0       789691.0       785401.0       784309.0
       777449.0       775299.0       770786.0       766434.0       763899.0
       757163.0       754619.0       749667.0       745250.0       741507.0
       735469.0       732000.0       726574.0       721331.0       717171.0
       711246.0       706415.0       701097.0       695848.0       691658.0
       685791.0       680282.0       674400.0       669728.0       663551.0
       659036.0       654853.0       646117.0       642106.0       636252.0
       630200.0       625121.0       619198.0       614189.0       607701.0
       602549.0       595679.0       591127.0       584867.0       579122.0
       574047.0       566057.0       563090.0       555347.0       549191.0
       544369.0       536864.0       533851.0       525677.0       520093.0
       514490.0       506104.0       502690.0       495566.0       489761.0
       484187.0       476354.0       470682.0       464100.0       457680.0
       451418.0       444966.0       439413.0       433155.0       426130.0
       421427.0       413942.0       407550.0       403134.0       395281.0
       389703.0       383893.0       377511.0       371733.0       365999.0
       359691.0       352930.0       348047.0       341789.0       334842.0
       329169.0       323364.0       317024.0       311071.0       306060.0
       298698.0       291322.0       287488.0       280479.0       274040.0
       268622.0       260520.0       256963.0       250037.0       242827.0
       237775.0       229439.0       225526.0       218207.0       211014.0
       206237.0       198208.0       193523.0       185237.0       179705.0
       173698.0       165921.0       162498.0       152211.0       147691.0
       140533.0       132218.0       129454.0       119005.0       114657.0
       106923.0       98514.00       95676.00       85087.00       79516.00
       73076.00       64089.00       58939.00       51381.00       44070.00
       37323.00       30513.00       23177.00       16832.00       8486.000
       2037.000      -4015.000      -13148.00      -18675.00      -26626.00
      -33786.00      -40608.00      -48013.00      -53266.00      -62731.00
      -68738.00      -74786.00      -83677.00      -88346.00      -97380.00
      -104792.0      -109335.0      -119162.0      -124486.0      -131226.0
      -138753.0      -145571.0      -154212.0      -158933.0      -168201.0
      -173861.0      -180499.0      -189499.0      -193245.0      -203496.0
      -210215.0      -215271.0      -223501.0      -229799.0      -237726.0
      -243668.0      -251126.0      -257544.0      -263904.0      -271619.0
      -277720.0      -285152.0      -290812.0      -297735.0      -304516.0
      -311879.0      -317752.0      -324295.0      -332611.0      -337303.0
      -345832.0      -351735.0      -358867.0      -365901.0      -370472.0
      -380410.0      -385026.0      -391944.0      -398938.0      -404200.0
      -412326.0      -416423.0      -424301.0      -430633.0      -435869.0
      -443484.0      -449481.0      -455566.0      -458852.0      -467015.0
      -474170.0      -478302.0      -485905.0      -489250.0      -496506.0
      -503615.0      -506818.0      -513185.0      -518049.0      -525096.0
      -529930.0      -535328.0      -543155.0      -544362.0      -549806.0
      -555638.0      -560908.0      -566384.0      -569595.0      -575569.0
      -577971.0      -585592.0      -590155.0      -592752.0      -599485.0
      -601277.0      -608161.0      -611974.0      -616931.0      -622271.0
      -622006.0      -627734.0      -632037.0      -636325.0      -640225.0
      -643025.0      -647271.0      -648856.0      -653689.0      -657189.0
      -659291.0      -664482.0      -665088.0      -668769.0      -673967.0
      -675152.0      -678326.0      -679899.0      -682870.0      -686728.0
      -687758.0      -690465.0      -693839.0      -695972.0      -697926.0
      -699943.0      -700928.0      -703039.0      -706651.0      -708164.0
      -709643.0      -711686.0      -715320.0      -715629.0      -716938.0
      -719971.0      -718962.0      -722221.0      -723693.0      -726289.0
      -727109.0      -726746.0      -730279.0      -729267.0      -732651.0
      -734130.0      -733306.0      -736158.0      -737527.0      -738823.0
      -739221.0      -741376.0      -741577.0      -742585.0      -743644.0
      -743312.0      -746235.0      -746255.0      -746631.0      -746314.0
      -747649.0      -749527.0      -747885.0      -749992.0      -751121.0
      -750216.0      -750719.0      -751257.0      -751560.0      -753315.0
      -753530.0      -753755.0      -754837.0      -753658.0      -754996.0
      -753682.0      -754536.0      -756677.0      -754017.0      -755997.0
      -755188.0      -754413.0      -755776.0      -753093.0      -755000.0
      -753650.0      -752424.0      -753997.0      -750325.0      -752356.0
