     0.02500000      -12345.00      -12345.00   2.447790e+09      -12345.00
   0.0005380000       1859.976      -560.0195      -12345.00      -12345.00
      -12345.00      -12345.00      -12345.00      -12345.00      -12345.00
      -12345.00      -12345.00      -12345.00      -12345.00      -12345.00
      -12345.00      -12345.00      -12345.00      -12345.00      -12345.00
      -12345.00      -12345.00      -12345.00      -12345.00      -12345.00
      -12345.00       19.28340       166.6520       18.00000       2.000000
      -42.72450       173.0647      -12345.00       22.00000      -12345.00
      -12345.00      -12345.00      -12345.00      -12345.00      -12345.00
      -12345.00      -12345.00      -12345.00      -12345.00      -12345.00
       6891.503       353.1363       174.6505       61.97952      -12345.00
      -12345.00      -12345.00       90.00000       90.00000      -12345.00
      -12345.00      -12345.00      -12345.00      -12345.00      -12345.00
      -12345.00      -12345.00      -12345.00      -12345.00      -12345.00
      2016       318        11        12        19
        19         6    -12345    -12345     74400
    -12345    -12345    -12345    -12345    -12345
         1    -12345    -12345    -12345    -12345
    -12345    -12345    -12345    -12345    -12345
    -12345    -12345    -12345    -12345    -12345
    -12345    -12345    -12345    -12345    -12345
         1    -12345    -12345    -12345    -12345
WAKE    South Island, Ne
00      -12345  -12345  
-12345  -12345  -12345  
-12345  -12345  -12345  
-12345  -12345  -12345  
-12345  -12345  -12345  
-12345  -12345  BH2     
IU      -12345  Streckei
[...]
      -329759.0      -329760.0      -331233.0      -330309.0      -329607.0
      -329100.0      -330184.0      -330736.0      -330013.0      -329684.0
      -330541.0      -330849.0      -327738.0      -329648.0      -331305.0
      -329133.0      -330646.0      -328190.0      -327886.0      -329494.0
      -327010.0      -329082.0      -328447.0      -328069.0      -328908.0
      -327128.0      -327948.0      -326444.0      -327167.0      -327258.0
      -325676.0      -327690.0      -324923.0      -325581.0      -327238.0
      -323906.0      -326174.0      -326569.0      -325019.0      -324966.0
      -324880.0      -326939.0      -325362.0      -325393.0      -326616.0
      -325340.0      -326524.0      -325896.0      -326753.0      -327650.0
      -327131.0      -327595.0      -326452.0      -327571.0      -325935.0
      -326032.0      -328988.0      -325856.0      -325763.0      -325896.0
      -325256.0      -326770.0      -324366.0      -324994.0      -324832.0
      -324032.0      -324509.0      -322389.0      -324455.0      -323301.0
      -321825.0      -323352.0      -322109.0      -321868.0      -321108.0
      -321867.0      -320943.0      -321422.0      -322656.0      -320416.0
      -322044.0      -320625.0      -320839.0      -322078.0      -320550.0
      -320285.0      -319727.0      -322484.0      -320322.0      -319698.0
      -321478.0      -320329.0      -322441.0      -320598.0      -319762.0
      -321272.0      -320021.0      -321287.0      -321135.0      -319336.0
      -320456.0      -319869.0      -319649.0      -319697.0      -318507.0
      -318842.0      -317870.0      -316895.0      -316764.0      -316220.0
      -315793.0      -315970.0      -314781.0      -313441.0      -314095.0
      -313162.0      -312148.0      -311804.0      -309728.0      -309399.0
      -307756.0      -306538.0      -307057.0      -304006.0      -304345.0
      -302779.0      -300647.0      -300757.0      -297472.0      -298325.0
      -297155.0      -294506.0      -294510.0      -292302.0      -291108.0
      -289461.0      -287521.0      -286634.0      -285813.0      -283789.0
      -282141.0      -281591.0      -279546.0      -278741.0      -276826.0
      -274819.0      -273737.0      -271138.0      -271580.0      -270169.0
      -267223.0      -267763.0      -265267.0      -264392.0      -263029.0
      -259617.0      -260958.0      -257619.0      -256314.0      -255912.0
      -251763.0      -253317.0      -250227.0      -248649.0      -249196.0
      -245564.0      -245707.0      -243545.0      -242360.0      -241763.0
      -239079.0      -238988.0      -237621.0      -236025.0      -235185.0
      -233907.0      -232391.0      -231004.0      -230099.0      -228440.0
      -227207.0      -225698.0      -223944.0      -223963.0      -222169.0
      -221122.0      -220691.0      -217663.0      -217890.0      -216604.0
      -214800.0      -215498.0      -213397.0      -212478.0      -211698.0
      -211429.0      -210877.0      -210133.0      -209910.0      -207653.0
      -209123.0      -207757.0      -206101.0      -207631.0      -205817.0
      -206179.0      -205306.0      -204455.0      -204731.0      -203235.0
      -203755.0      -203233.0      -202533.0      -202180.0      -201388.0
      -202017.0      -200573.0      -200081.0      -200868.0      -198807.0
      -199074.0      -198826.0      -197939.0      -198163.0      -196491.0
      -196881.0      -195161.0      -194903.0      -195296.0      -192310.0
      -193209.0      -191230.0      -190114.0      -190088.0      -187486.0
      -187639.0      -185987.0      -184270.0      -183240.0      -182236.0
      -180466.0      -179756.0      -179478.0      -176036.0      -176416.0
      -174625.0      -172005.0      -173024.0      -170307.0      -169539.0
      -168539.0      -166593.0      -166500.0      -165068.0      -164095.0
      -162701.0      -162095.0      -160984.0      -159936.0      -159708.0
      -157250.0      -157344.0      -157178.0      -154911.0      -155007.0
      -154312.0      -153024.0      -152797.0      -152471.0      -151396.0
      -150954.0      -150548.0      -148963.0      -148728.0      -148177.0
      -147172.0      -147351.0      -146071.0      -145702.0      -145496.0
      -144128.0      -143551.0      -142341.0      -142368.0      -141488.0
      -140264.0      -140362.0      -138651.0      -137995.0      -136413.0
      -134495.0      -134416.0      -131835.0      -131457.0      -129318.0
      -126328.0      -126934.0      -122991.0      -121954.0      -121026.0
      -117525.0      -117903.0      -114852.0      -112858.0      -112282.0
      -108916.0      -107245.0      -105338.0      -103273.0      -101660.0
      -99406.00      -96264.00      -94455.00      -93374.00      -89884.00
      -88033.00      -85313.00      -82599.00      -82484.00      -77935.00
      -75247.00      -74816.00      -70925.00      -68591.00      -65670.00
      -62522.00      -61106.00      -58957.00      -55099.00      -51742.00
      -50094.00      -46650.00      -44512.00      -41271.00      -37737.00
      -36530.00      -32599.00      -30652.00      -26873.00      -23119.00
      -21944.00      -18439.00      -16310.00      -12472.00      -8770.000
      -7498.000      -4293.000      -696.0000       1677.000       5462.000
       9343.000       11104.00       13027.00       17369.00       21376.00
       22489.00       26141.00       30542.00       32652.00       34952.00
       38690.00       43925.00       45102.00       47938.00       52392.00
       55025.00       59646.00       61183.00       64327.00       68891.00
       72204.00       76007.00       78335.00       81567.00       85513.00
       89606.00       92540.00       95642.00       99337.00       102182.0
       106900.0       109199.0       112402.0       117789.0       119361.0
       124317.0       127256.0       128627.0       134520.0       137880.0
       141964.0       145371.0       147541.0       151273.0       155551.0
       160233.0       162340.0       166317.0       170667.0       173541.0
       178633.0       181277.0       184449.0       189279.0       192521.0
       197501.0       201155.0       203862.0       208022.0       211866.0
       216421.0       219856.0       223237.0       227335.0       231254.0
       235858.0       238752.0       242432.0       246675.0       249229.0
       253943.0       257440.0       259552.0       263753.0       268009.0
       271914.0       275140.0       278191.0       280847.0       284891.0
       289575.0       291768.0       295835.0       300660.0       303097.0
       306368.0       310992.0       315474.0       318260.0       322648.0
       327024.0       330088.0       335100.0       337923.0       342250.0
       346420.0       350217.0       355218.0       356841.0       362539.0
       366263.0       369481.0       375366.0       376502.0       380966.0
       385563.0       388966.0       392478.0       395447.0       400851.0
       403952.0       407371.0       411184.0       414670.0       418901.0
       421587.0       424644.0       427267.0       432161.0       436130.0
       437242.0       441064.0       444117.0       447763.0       450575.0
       452675.0       456410.0       458031.0       462695.0       465668.0
       465936.0       471060.0       473257.0       475535.0       477824.0
       480117.0       484382.0       483141.0       487830.0       490182.0
       489710.0       495250.0       494085.0       496660.0       500354.0
       500610.0       502460.0       504553.0       507723.0       508001.0
       511407.0       512445.0       513679.0       517397.0       516686.0
       520122.0       520761.0       522061.0       526007.0       526010.0
       529377.0       529564.0       529912.0       534463.0       534862.0
       536100.0       537496.0       537802.0       541122.0       542136.0
       541506.0       544294.0       545506.0       545371.0       547756.0
       548962.0       548428.0       550047.0       552226.0       552472.0
       553780.0       554512.0       554826.0       556921.0       558201.0
       558139.0       558411.0       560260.0       560565.0       560845.0
       562260.0       562831.0       563802.0       563661.0       565559.0
       566062.0       565093.0       566751.0       567707.0       569476.0
       568769.0       569363.0       572000.0       571037.0       572768.0
       574644.0       573428.0       574730.0       576714.0       576961.0
       577277.0       578522.0       579088.0       579428.0       581111.0
       580803.0       582139.0       583830.0       582138.0       584212.0
       586029.0       586693.0       587964.0       587062.0       590167.0
       591851.0       590796.0       593105.0       595216.0       596624.0
       596457.0       598642.0       600597.0       600814.0       603582.0
       603841.0       605074.0       607029.0       608484.0       610582.0
       611814.0       613063.0       614209.0       616853.0       617779.0
       619705.0       622318.0       621919.0       624577.0       626017.0
       626313.0       629723.0       629417.0       630298.0       632581.0
       632781.0       635037.0       635094.0       635837.0       637475.0
       638171.0       640324.0       639756.0       640839.0       642239.0
       642081.0       643667.0       644138.0       645150.0       645463.0
       646698.0       647449.0       647156.0       648420.0       648753.0
       649487.0       649664.0       651028.0       650820.0       650493.0
       651793.0       650992.0       652384.0       653135.0       652363.0
       652927.0       653529.0       653818.0       653650.0       652934.0
       653584.0       652883.0       652744.0       654660.0       652728.0
       653342.0       653889.0       652147.0       652779.0       652179.0
       651502.0       651117.0       651488.0       650255.0       650009.0
       650217.0       647939.0       649510.0       648858.0       646715.0
       646429.0       645755.0       645872.0       645276.0       644641.0
       643691.0       643268.0       642431.0       642490.0       642591.0
       640770.0       640978.0       640834.0       639056.0       640213.0
       639486.0       636864.0       640110.0       638556.0       636797.0
       639633.0       636663.0       637643.0       637930.0       636856.0
       638448.0       637015.0       638627.0       639177.0       638615.0
       639156.0       640707.0       640660.0       639888.0       642707.0
       641604.0       643075.0       645282.0       644011.0       646130.0
       645553.0       645432.0       648812.0       648060.0       647749.0
       649376.0       648463.0       649004.0       651269.0       650668.0
       649137.0       652665.0       652528.0       650265.0       653794.0
       653454.0       653664.0       654734.0       655013.0       656594.0
       654922.0       656603.0       657212.0       656927.0       658074.0
       657002.0       659507.0       658452.0       658162.0       659713.0
       658863.0       661519.0       659872.0       659443.0       661173.0
       659824.0       660685.0       660843.0       661425.0       661796.0
       661241.0       662171.0       661594.0       661318.0       661818.0
       662111.0       661912.0       660930.0       663075.0       662735.0
       662021.0       663492.0       661156.0       663623.0       663938.0
       661563.0       664471.0       663508.0       663711.0       665045.0
       664847.0       665741.0       665802.0       666959.0       667787.0
       668630.0       668272.0       668689.0       670520.0       669917.0
       672064.0       672406.0       672474.0       674767.0       674430.0
       676236.0       676369.0       677508.0       679409.0       679721.0
       682492.0       681457.0       682034.0       685739.0       685001.0
       685730.0       688157.0       687576.0       689305.0       691671.0
       691281.0       692626.0       694054.0       694219.0       695397.0
       696447.0       697476.0       698792.0       699083.0       701353.0
       702064.0       701704.0       704481.0       704547.0       705039.0
       705852.0       706717.0       708013.0       707625.0       709750.0
       709026.0       709858.0       712021.0       710622.0       713427.0
       713132.0       713413.0       715451.0       713971.0       716500.0
       715966.0       715864.0       718081.0       716827.0       717922.0
       717935.0       718442.0       718922.0       717973.0       720432.0
       719507.0       719169.0       720984.0       720602.0       721691.0
       721298.0       721334.0       722049.0       721633.0       722430.0
       722674.0       722729.0       722882.0       722269.0       722096.0
       722285.0       722203.0       721928.0       722276.0       721941.0
       721551.0       721626.0       721166.0       721468.0       720051.0
       719422.0       720220.0       718819.0       718086.0       717662.0
       717104.0       716031.0       715159.0       714741.0       713679.0
       713543.0       711494.0       711264.0       711719.0       708499.0
       708693.0       707508.0       705250.0       706660.0       703475.0
       702293.0       702915.0       700050.0       699482.0       697846.0
       696259.0       695196.0       693591.0       691942.0       690797.0
       688728.0       685477.0       685934.0       682179.0       679507.0
       680627.0       676511.0       674944.0       673039.0       670289.0
       668895.0       665951.0       664297.0       662070.0       659583.0
       657487.0       655439.0       653020.0       650924.0       648341.0
       646125.0       644742.0       641374.0       639559.0       637276.0
       634683.0       633486.0       629509.0       627558.0       626180.0
       622705.0       622077.0       619851.0       616508.0       615119.0
       611968.0       610008.0       608028.0       604563.0       603243.0
       600238.0       597864.0       595558.0       592055.0       591959.0
       589303.0       586132.0       583742.0       580640.0       579411.0
       576135.0       573460.0       571473.0       569274.0       566547.0
       562817.0       561720.0       559215.0       555682.0       553980.0
       550773.0       548114.0       545902.0       543330.0       541332.0
       537190.0       535855.0       533071.0       529270.0       529163.0
       524860.0       523370.0       521653.0       517147.0       516603.0
       513254.0       511264.0       508906.0       506103.0       504699.0
       499991.0       500148.0       496878.0       493210.0       492775.0
       487507.0       487602.0       484521.0       480068.0       480888.0
       476560.0       473274.0       472381.0       469939.0       466586.0
       465142.0       463263.0       458986.0       458045.0       454367.0
       451706.0       450875.0       446233.0       445742.0       443768.0
       439785.0       437799.0       435366.0       433176.0       429162.0
       428912.0       425975.0       421480.0       421519.0       416136.0
       414048.0       412433.0       407953.0       405889.0       402293.0
       400666.0       396508.0       392312.0       390073.0       386099.0
       383269.0       380180.0       376818.0       371974.0       369190.0
       365414.0       361070.0       359497.0       353301.0       350734.0
       348080.0       341810.0       339249.0       335396.0       331074.0
       326382.0       322734.0       318996.0       314371.0       310482.0
       306632.0       302829.0       297880.0       294465.0       289847.0
       286309.0       283587.0       277247.0       274261.0       270573.0
       264612.0       262901.0       258551.0       253542.0       251115.0
       245640.0       242240.0       239400.0       233646.0       231797.0
       228213.0       222941.0       220733.0       216010.0       212433.0
       209405.0       205490.0       202039.0       197839.0       194786.0
       190966.0       187708.0       184401.0       180300.0       178320.0
       173987.0       170292.0       167997.0       163373.0       161204.0
       157879.0       154156.0       151373.0       147427.0       144443.0
       140651.0       139360.0       136391.0       132016.0       130243.0
       125703.0       124495.0       121455.0       116954.0       116135.0
       110720.0       109031.0       106066.0       101488.0       101058.0
       96392.00       94509.00       91677.00       88066.00       86738.00
       82485.00       80362.00       78446.00       75685.00       72505.00
       70272.00       68712.00       65704.00       63491.00       61105.00
       58873.00       56594.00       53683.00       50698.00       48934.00
       46335.00       42915.00       40573.00       37451.00       35658.00
       32678.00       28484.00       26987.00       23983.00       20267.00
       18674.00       14378.00       11148.00       9616.000       4004.000
       1444.000      -1428.000      -5966.000      -7510.000      -12337.00
      -15457.00      -17939.00      -22815.00      -25796.00      -30229.00
      -34052.00      -36929.00      -41585.00      -45388.00      -48106.00
      -52474.00      -56378.00      -59211.00      -64617.00      -68053.00
      -70323.00      -75871.00      -80371.00      -84310.00      -88167.00
      -91881.00      -96447.00      -100595.0      -105540.0      -109265.0
      -113018.0      -118612.0      -121642.0      -125427.0      -130856.0
      -134579.0      -139635.0      -143585.0      -147689.0      -152293.0
      -156265.0      -161449.0      -164637.0      -170346.0      -174731.0
      -177920.0      -183351.0      -187098.0      -192387.0      -195443.0
      -200551.0      -205976.0      -208471.0      -214806.0      -218657.0
      -222202.0      -226857.0      -230940.0      -235892.0      -238305.0
      -243383.0      -248048.0      -251315.0      -256735.0      -259474.0
      -264010.0      -267931.0      -271725.0      -276976.0      -278853.0
      -283422.0      -288098.0      -290982.0      -295211.0      -298107.0
      -301595.0      -305951.0      -309081.0      -312711.0      -316867.0
