     0.02500000      -12345.00      -12345.00   2.447790e+09      -12345.00
   0.0005380000       1859.976      -560.0195      -12345.00      -12345.00
      -12345.00      -12345.00      -12345.00      -12345.00      -12345.00
      -12345.00      -12345.00      -12345.00      -12345.00      -12345.00
      -12345.00      -12345.00      -12345.00      -12345.00      -12345.00
      -12345.00      -12345.00      -12345.00      -12345.00      -12345.00
      -12345.00       19.28340       166.6520       18.00000       2.000000
      -42.72450       173.0647      -12345.00       22.00000      -12345.00
      -12345.00      -12345.00      -12345.00      -12345.00      -12345.00
      -12345.00      -12345.00      -12345.00      -12345.00      -12345.00
       6891.503       353.1363       174.6505       61.97952      -12345.00
      -12345.00      -12345.00       0.000000       0.000000      -12345.00
      -12345.00      -12345.00      -12345.00      -12345.00      -12345.00
      -12345.00      -12345.00      -12345.00      -12345.00      -12345.00
      2016       318        11        12        19
        19         6    -12345    -12345     74400
    -12345    -12345    -12345    -12345    -12345
         1    -12345    -12345    -12345    -12345
    -12345    -12345    -12345    -12345    -12345
    -12345    -12345    -12345    -12345    -12345
    -12345    -12345    -12345    -12345    -12345
         1    -12345    -12345    -12345    -12345
WAKE    South Island, Ne
00      -12345  -12345  
-12345  -12345  -12345  
-12345  -12345  -12345  
-12345  -12345  -12345  
-12345  -12345  -12345  
-12345  -12345  BHZ     
IU      -12345  Streckei
[...]
       452530.0       451342.0       449953.0       447388.0       446386.0
       446730.0       445400.0       443808.0       442886.0       441980.0
       439916.0       437355.0       436033.0       435151.0       434149.0
       432617.0       430482.0       427989.0       426009.0       424827.0
       423426.0       421982.0       420373.0       419316.0       417914.0
       415338.0       413278.0       411160.0       410567.0       410512.0
       408271.0       406342.0       404678.0       402763.0       401062.0
       399433.0       398342.0       396871.0       395803.0       395220.0
       392568.0       389925.0       389649.0       388211.0       385651.0
       383978.0       382007.0       380527.0       379470.0       378500.0
       376940.0       373809.0       371783.0       370392.0       368093.0
       366791.0       365495.0       363511.0       362275.0       361133.0
       359574.0       358167.0       356562.0       354175.0       351695.0
       349595.0       347131.0       344937.0       344214.0       343001.0
       341226.0       339767.0       337094.0       334598.0       331923.0
       328920.0       327815.0       326369.0       324170.0       322561.0
       320154.0       317490.0       314905.0       311414.0       307773.0
       304537.0       301557.0       298278.0       295239.0       293118.0
       289928.0       286232.0       283977.0       280133.0       275545.0
       272743.0       267827.0       264468.0       264487.0       262029.0
       258973.0       255603.0       250781.0       246158.0       242506.0
       240500.0       238020.0       234638.0       230547.0       226701.0
       224765.0       221636.0       217787.0       215125.0       211101.0
       205822.0       202338.0       200496.0       197396.0       193614.0
       190048.0       186656.0       182887.0       177845.0       174306.0
       171613.0       168142.0       164471.0       160263.0       157471.0
       154066.0       149404.0       146485.0       143146.0       139930.0
       136791.0       132701.0       129688.0       125924.0       122310.0
       120400.0       117543.0       112960.0       109103.0       106734.0
       103409.0       99190.00       95321.00       92681.00       90045.00
       86645.00       83286.00       79245.00       75989.00       73113.00
       69772.00       65597.00       61477.00       59354.00       55939.00
       51376.00       47566.00       43947.00       40329.00       36438.00
       32736.00       28920.00       25891.00       23147.00       19792.00
       16556.00       12321.00       7967.000       4363.000       217.0000
      -3167.000      -5051.000      -8476.000      -13273.00      -15992.00
      -18840.00      -23726.00      -27552.00      -31014.00      -34930.00
      -37999.00      -41806.00      -45727.00      -48811.00      -53090.00
      -57660.00      -61303.00      -64956.00      -68651.00      -73196.00
      -77261.00      -80347.00      -85729.00      -91103.00      -94534.00
      -98638.00      -102391.0      -106372.0      -111119.0      -115568.0
      -120807.0      -125045.0      -129377.0      -134077.0      -137232.0
      -141379.0      -146021.0      -150356.0      -154725.0      -159016.0
      -163036.0      -166217.0      -170642.0      -175526.0      -179483.0
      -183566.0      -187814.0      -192768.0      -196821.0      -200340.0
      -205850.0      -210273.0      -213632.0      -218610.0      -223062.0
      -226818.0      -231004.0      -235148.0      -239094.0      -242635.0
      -246433.0      -250952.0      -255038.0      -258801.0      -262679.0
      -265785.0      -269298.0      -273448.0      -276856.0      -280490.0
      -284285.0      -287660.0      -290998.0      -293886.0      -296813.0
      -299914.0      -302697.0      -306235.0      -309371.0      -311466.0
      -315143.0      -318420.0      -320618.0      -324079.0      -327270.0
      -330288.0      -333533.0      -336281.0      -338652.0      -340635.0
      -343325.0      -346473.0      -349293.0      -352586.0      -355607.0
      -356822.0      -358490.0      -361667.0      -364396.0      -367524.0
      -370724.0      -373398.0      -375932.0      -378536.0      -382196.0
      -385276.0      -387811.0      -391076.0      -393969.0      -396650.0
      -399563.0      -402339.0      -404914.0      -407650.0      -410667.0
      -413995.0      -417374.0      -420316.0      -423387.0      -427464.0
      -431301.0      -433030.0      -435552.0      -439573.0      -442768.0
      -445757.0      -447029.0      -448672.0      -452846.0      -455835.0
      -458533.0      -461854.0      -464416.0      -467181.0      -469082.0
      -470898.0      -474238.0      -476323.0      -478434.0      -481231.0
      -482674.0      -484767.0      -486848.0      -488615.0      -490886.0
      -493230.0      -495511.0      -496640.0      -498071.0      -500230.0
      -502477.0      -504761.0      -505793.0      -506943.0      -509162.0
      -510207.0      -510577.0      -512658.0      -514918.0      -516380.0
      -517122.0      -517118.0      -518949.0      -521365.0      -521757.0
      -522144.0      -523858.0      -525578.0      -526356.0      -527301.0
      -529069.0      -529706.0      -529822.0      -531639.0      -533528.0
      -534545.0      -535512.0      -536448.0      -537381.0      -537539.0
      -538716.0      -541683.0      -542353.0      -542207.0      -544078.0
      -544854.0      -544882.0      -546229.0      -547164.0      -548129.0
      -549695.0      -550192.0      -551027.0      -552018.0      -551930.0
      -552397.0      -553463.0      -554888.0      -555394.0      -555292.0
      -556213.0      -556193.0      -557007.0      -558589.0      -558246.0
      -558993.0      -560221.0      -560643.0      -561331.0      -561096.0
      -561489.0      -562429.0      -562013.0      -562466.0      -563745.0
      -563646.0      -563091.0      -563180.0      -563594.0      -563277.0
      -562660.0      -562222.0      -561747.0      -562236.0      -562740.0
      -562233.0      -561229.0      -560514.0      -560257.0      -559877.0
      -559678.0      -559600.0      -558273.0      -556592.0      -556864.0
      -557149.0      -556505.0      -555452.0      -553780.0      -553631.0
      -553406.0      -552336.0      -552530.0      -551754.0      -550456.0
      -550063.0      -549615.0      -549653.0      -549068.0      -548551.0
      -548618.0      -547097.0      -546459.0      -546044.0      -544482.0
      -544476.0      -543761.0      -542956.0      -543078.0      -541878.0
      -540589.0      -539144.0      -538520.0      -539156.0      -538069.0
      -536310.0      -535223.0      -533918.0      -532814.0      -531645.0
      -530182.0      -528883.0      -527910.0      -526456.0      -524817.0
      -524444.0      -523819.0      -521766.0      -519188.0      -517869.0
      -517890.0      -516415.0      -513551.0      -511575.0      -510799.0
      -509193.0      -506573.0      -505180.0      -503584.0      -501944.0
      -500559.0      -497549.0      -495396.0      -493728.0      -492170.0
      -490697.0      -488130.0      -486267.0      -483351.0      -480518.0
      -479420.0      -477044.0      -474173.0      -471733.0      -469081.0
      -467709.0      -465778.0      -462260.0      -460334.0      -458541.0
      -456454.0      -454521.0      -451591.0      -449884.0      -448074.0
      -445241.0      -443338.0      -441352.0      -439718.0      -438293.0
      -435103.0      -432191.0      -431539.0      -430133.0      -427688.0
      -425826.0      -423204.0      -420795.0      -419008.0      -417281.0
      -415307.0      -413404.0      -411553.0      -408463.0      -406001.0
      -403936.0      -402281.0      -400395.0      -396579.0      -393721.0
      -391158.0      -388923.0      -387975.0      -385624.0      -381958.0
      -377642.0      -374846.0      -373044.0      -370520.0      -369002.0
      -365544.0      -361629.0      -359340.0      -355901.0      -353200.0
      -350534.0      -347066.0      -344217.0      -341108.0      -338375.0
      -335968.0      -332664.0      -328401.0      -325102.0      -323161.0
      -320660.0      -317671.0      -313833.0      -309750.0      -306463.0
      -303867.0      -302172.0      -299017.0      -294027.0      -290041.0
      -286608.0      -283511.0      -280955.0      -277185.0      -272789.0
      -268609.0      -264908.0      -261895.0      -257972.0      -253961.0
      -250735.0      -245634.0      -241147.0      -239107.0      -235249.0
      -231490.0      -228218.0      -224017.0      -220905.0      -216167.0
      -211837.0      -209400.0      -204734.0      -199971.0      -196832.0
      -193330.0      -189132.0      -184345.0      -179710.0      -176251.0
      -171856.0      -167369.0      -164598.0      -159386.0      -154545.0
      -151238.0      -146125.0      -142609.0      -138824.0      -134099.0
      -129148.0      -123654.0      -119822.0      -115435.0      -111072.0
      -106710.0      -101895.0      -97584.00      -91276.00      -86961.00
      -84288.00      -78480.00      -73765.00      -69302.00      -63632.00
      -59886.00      -56534.00      -51336.00      -45886.00      -41403.00
      -35897.00      -30872.00      -26756.00      -21630.00      -16967.00
      -13221.00      -8592.000      -3038.000       1610.000       6870.000
       11008.00       13468.00       19284.00       24693.00       28563.00
       34189.00       39027.00       43336.00       47468.00       51913.00
       57440.00       62405.00       67158.00       71274.00       75463.00
       80800.00       85289.00       88847.00       92847.00       98060.00
       103649.0       107735.0       111469.0       115789.0       119331.0
       123364.0       128659.0       133192.0       137493.0       141615.0
       145305.0       149694.0       152853.0       156569.0       161813.0
       165153.0       168526.0       172232.0       175848.0       180175.0
       183445.0       187258.0       191829.0       195305.0       199088.0
       203365.0       207064.0       210921.0       214560.0       218532.0
       223426.0       226571.0       228733.0       231782.0       236306.0
       240858.0       243508.0       247291.0       250882.0       253315.0
       257293.0       260606.0       263306.0       267160.0       271074.0
       274253.0       277217.0       280483.0       284144.0       287251.0
       290378.0       294693.0       297183.0       299977.0       304882.0
       307360.0       309176.0       312907.0       317382.0       320620.0
       322348.0       326048.0       330403.0       332687.0       335867.0
       340054.0       342685.0       345196.0       348627.0       351324.0
       354150.0       357572.0       359774.0       362998.0       367276.0
       370361.0       372882.0       375406.0       378928.0       381671.0
       383785.0       387507.0       391183.0       393113.0       394556.0
       398921.0       403439.0       405459.0       408659.0       412142.0
       414544.0       417485.0       421923.0       425838.0       427331.0
       430283.0       434348.0       437808.0       441393.0       444104.0
       447923.0       451625.0       454452.0       457598.0       460266.0
       463851.0       467475.0       470727.0       474251.0       477363.0
       479834.0       482164.0       485692.0       488874.0       491254.0
       493858.0       496296.0       499484.0       502195.0       504289.0
       506945.0       509445.0       511726.0       513035.0       514969.0
       518117.0       520032.0       521386.0       523134.0       525313.0
       527198.0       528459.0       530623.0       533099.0       534900.0
       536392.0       538153.0       539725.0       540811.0       543128.0
       545686.0       546320.0       547318.0       550004.0       551679.0
       552066.0       553205.0       555090.0       556407.0       558044.0
       559793.0       560307.0       561901.0       563506.0       564382.0
       566651.0       567390.0       567260.0       568544.0       570103.0
       571755.0       572490.0       573708.0       575043.0       575843.0
       577948.0       578666.0       578700.0       580329.0       581115.0
       580874.0       581222.0       582439.0       583700.0       584083.0
       584378.0       585190.0       585412.0       585516.0       585661.0
       585517.0       586204.0       586474.0       586682.0       587089.0
       586618.0       587358.0       587695.0       587684.0       588812.0
       588821.0       588906.0       588783.0       588894.0       589687.0
       589494.0       589830.0       589790.0       589503.0       590101.0
       590214.0       589642.0       588960.0       588755.0       588508.0
       588277.0       587599.0       586087.0       586163.0       586304.0
       584977.0       584473.0       583171.0       582184.0       582543.0
       580714.0       578771.0       578052.0       577393.0       576397.0
       574129.0       572582.0       572305.0       571241.0       569616.0
       568212.0       566638.0       564699.0       563518.0       563127.0
       561206.0       558634.0       556868.0       555165.0       554426.0
       553636.0       551201.0       549562.0       548367.0       545775.0
       543544.0       541670.0       540578.0       539939.0       537382.0
       534333.0       532203.0       530461.0       528573.0       526981.0
       524826.0       521007.0       518644.0       517730.0       514917.0
       512204.0       510351.0       506772.0       504191.0       502394.0
       499259.0       496577.0       493466.0       490532.0       488469.0
       486234.0       483867.0       481039.0       478236.0       475885.0
       473802.0       470937.0       467848.0       465802.0       463219.0
       459684.0       456887.0       455140.0       452210.0       448936.0
       446434.0       443299.0       441259.0       438672.0       434963.0
       433232.0       430331.0       425628.0       422374.0       420051.0
       417564.0       413884.0       410545.0       407856.0       403180.0
       400241.0       398898.0       395477.0       392782.0       390100.0
       387456.0       385685.0       381602.0       377987.0       376425.0
       373476.0       370743.0       368388.0       365040.0       362184.0
       359181.0       356024.0       353422.0       351488.0       348575.0
       344471.0       341946.0       339257.0       336041.0       332976.0
       328788.0       325860.0       322562.0       318055.0       314655.0
       311193.0       308992.0       306239.0       301267.0       297013.0
       293659.0       290802.0       288147.0       284514.0       279626.0
       276956.0       274729.0       270051.0       267082.0       263748.0
       259531.0       256552.0       252917.0       249660.0       246142.0
       242046.0       237700.0       233210.0       230261.0       226551.0
       221312.0       217696.0       214597.0       209647.0       205798.0
       202414.0       197642.0       194733.0       192060.0       187299.0
       182599.0       179778.0       176578.0       172129.0       169219.0
       165638.0       161210.0       157123.0       152901.0       150356.0
       146487.0       141249.0       137867.0       134792.0       130906.0
       126682.0       123322.0       119483.0       115104.0       111724.0
       107269.0       102605.0       99166.00       94619.00       89229.00
       85560.00       81938.00       77204.00       73321.00       68468.00
       63539.00       60532.00       57050.00       52810.00       48275.00
       44484.00       40588.00       35452.00       31283.00       27108.00
       22794.00       19391.00       15596.00       10816.00       6582.000
       3373.000      -906.0000      -4855.000      -8763.000      -13212.00
      -16760.00      -21311.00      -25045.00      -28273.00      -33508.00
      -36974.00      -39488.00      -44510.00      -49310.00      -52584.00
      -55921.00      -59246.00      -62760.00      -67138.00      -71237.00
      -74363.00      -78053.00      -83290.00      -88168.00      -91018.00
      -93916.00      -98535.00      -103594.0      -107236.0      -110673.0
      -114397.0      -117211.0      -121498.0      -126063.0      -129991.0
      -134322.0      -138089.0      -142633.0      -145977.0      -149093.0
      -154192.0      -158006.0      -161380.0      -163971.0      -165874.0
      -170361.0      -175051.0      -178411.0      -180896.0      -183038.0
      -187032.0      -191490.0      -194662.0      -197683.0      -200920.0
      -204441.0      -208239.0      -211003.0      -214117.0      -217991.0
      -220866.0      -223711.0      -226735.0      -230355.0      -233445.0
      -236752.0      -241193.0      -243224.0      -246152.0      -250312.0
      -252419.0      -256131.0      -260152.0      -263224.0      -266860.0
      -268851.0      -271873.0      -276239.0      -278891.0      -282307.0
      -285438.0      -287848.0      -291176.0      -293381.0      -295961.0
      -300032.0      -303238.0      -306235.0      -309541.0      -311592.0
      -313746.0      -317261.0      -320188.0      -322904.0      -325804.0
      -327972.0      -330895.0      -333978.0      -335811.0      -338095.0
      -341411.0      -343682.0      -345556.0      -348157.0      -350160.0
      -352932.0      -356417.0      -357796.0      -358904.0      -362080.0
      -365068.0      -367266.0      -369848.0      -371869.0      -373865.0
      -375889.0      -377228.0      -379378.0      -381191.0      -382934.0
      -385520.0      -386614.0      -387941.0      -389955.0      -391274.0
      -393560.0      -395860.0      -397780.0      -399328.0      -400662.0
      -403984.0      -406419.0      -407016.0      -408567.0      -410151.0
      -411981.0      -414826.0      -417431.0      -418112.0      -418897.0
      -421878.0      -423647.0      -424286.0      -425980.0      -427339.0
      -428601.0      -430554.0      -432238.0      -433387.0      -434150.0
      -435301.0      -437093.0      -438632.0      -439768.0      -440655.0
      -441479.0      -442859.0      -444323.0      -444235.0      -444693.0
