     0.02500000      -12345.00      -12345.00   3.262830e+10      -12345.00
   0.0005380000       1859.976      -487.0196      -12345.00      -12345.00
      -12345.00      -12345.00      -12345.00      -12345.00      -12345.00
      -12345.00      -12345.00      -12345.00      -12345.00      -12345.00
      -12345.00      -12345.00      -12345.00      -12345.00      -12345.00
      -12345.00      -12345.00      -12345.00      -12345.00      -12345.00
      -12345.00       2.044800      -157.4457       19.00000       1.000000
      -42.72450       173.0647      -12345.00       22.00000      -12345.00
      -12345.00      -12345.00      -12345.00      -12345.00      -12345.00
      -12345.00      -12345.00      -12345.00      -12345.00      -12345.00
       5770.559       38.69471       207.4499       51.89818      -12345.00
      -12345.00      -12345.00       90.00000       90.00000      -12345.00
      -12345.00      -12345.00      -12345.00      -12345.00      -12345.00
      -12345.00      -12345.00      -12345.00      -12345.00      -12345.00
      2016       318        11        11         6
        19         6    -12345    -12345     74400
    -12345    -12345    -12345    -12345    -12345
         1    -12345    -12345    -12345    -12345
    -12345    -12345    -12345    -12345    -12345
    -12345    -12345    -12345    -12345    -12345
    -12345    -12345    -12345    -12345    -12345
         1    -12345    -12345    -12345    -12345
XMAS    South Island, Ne
10      -12345  -12345  
-12345  -12345  -12345  
-12345  -12345  -12345  
-12345  -12345  -12345  
-12345  -12345  -12345  
-12345  -12345  BH2     
IU      -12345  Streckei
[...]
       1305123.       1309595.       1317886.       1356283.       1369640.
       1386846.       1397431.       1420829.       1439644.       1451886.
       1483871.       1488912.       1505241.       1530012.       1544217.
       1555781.       1577328.       1605326.       1607364.       1626665.
       1651479.       1660990.       1680396.       1697427.       1714765.
       1733611.       1746932.       1756240.       1773838.       1800459.
       1808315.       1817264.       1842487.       1850196.       1873503.
       1884742.       1888295.       1920790.       1933423.       1939646.
       1944999.       1976333.       1992358.       1992219.       2017643.
       2020190.       2039659.       2058334.       2059844.       2075128.
       2088384.       2095052.       2109896.       2128438.       2132377.
       2140297.       2151508.       2164640.       2176338.       2181690.
       2188446.       2198845.       2213589.       2221524.       2226447.
       2235215.       2246180.       2258544.       2264841.       2272572.
       2290949.       2302224.       2289573.       2308709.       2331146.
       2322515.       2342136.       2345123.       2354374.       2371138.
       2370095.       2385753.       2388049.       2398017.       2416925.
       2410845.       2419112.       2442286.       2432756.       2446476.
       2452782.       2453816.       2486265.       2472548.       2481179.
       2500586.       2497163.       2510153.       2518210.       2524434.
       2540200.       2543309.       2544842.       2566939.       2571188.
       2575375.       2584030.       2591325.       2608035.       2617226.
       2621655.       2629972.       2632285.       2647940.       2662890.
       2662282.       2677154.       2677584.       2697712.       2710204.
       2706955.       2729363.       2739055.       2754485.       2752337.
       2766707.       2788240.       2797497.       2806161.       2814122.
       2843647.       2840425.       2860688.       2875213.       2889676.
       2915168.       2911342.       2940112.       2956376.       2972614.
       2992547.       3010508.       3022211.       3047282.       3073510.
       3072184.       3106838.       3125191.       3143122.       3170545.
       3181735.       3209331.       3231313.       3252189.       3267698.
       3295724.       3325369.       3336618.       3367875.       3388262.
       3412524.       3444789.       3457888.       3493198.       3520234.
       3540014.       3575144.       3597555.       3630608.       3654543.
       3679355.       3716236.       3742373.       3779499.       3804659.
       3834279.       3864747.       3893722.       3932155.       3956580.
       3989498.       4025658.       4057998.       4088665.       4119557.
       4155479.       4190050.       4221992.       4257291.       4290833.
       4323587.       4361990.       4390489.       4431167.       4465137.
       4489700.       4533953.       4565141.       4603471.       4639402.
       4663346.       4701044.       4737044.       4772176.       4805633.
       4840517.       4874209.       4914549.       4944879.       4973291.
       5020385.       5042057.       5075003.       5116557.       5143740.
       5184995.       5215479.       5243621.       5278623.       5310418.
       5345850.       5377520.       5410927.       5447773.       5478280.
       5510751.       5544932.       5577663.       5603756.       5638374.
       5679905.       5706887.       5734961.       5765836.       5795807.
       5832034.       5863042.       5890718.       5927589.       5948238.
       5985110.       6015729.       6033373.       6082391.       6096573.
       6127260.       6163698.       6184405.       6217360.       6236597.
       6270345.       6293997.       6322969.       6343806.       6372660.
       6405787.       6417755.       6453421.       6471440.       6496296.
       6523944.       6541045.       6572842.       6595841.       6612906.
       6635465.       6664907.       6680002.       6706301.       6736088.
       6742359.       6764911.       6791534.       6810036.       6832401.
       6853384.       6868181.       6885194.       6911802.       6919945.
       6943997.       6970511.       6976331.       7001069.       7011653.
       7026588.       7048785.       7058218.       7080508.       7091920.
       7098157.       7121181.       7129317.       7145838.       7156458.
       7160266.       7187027.       7186953.       7203884.       7215553.
       7218863.       7244419.       7245590.       7256053.       7273292.
       7275926.       7282483.       7302879.       7304920.       7309295.
       7334108.       7335068.       7341078.       7346244.       7358836.
       7365090.       7362474.       7392073.       7379899.       7386705.
       7405110.       7396605.       7413375.       7410292.       7417855.
       7422644.       7427113.       7431718.       7429937.       7448559.
       7433427.       7438812.       7459002.       7444853.       7453914.
       7456144.       7450892.       7463479.       7458768.       7465697.
       7462417.       7457588.       7478586.       7457784.       7457308.
       7475368.       7468184.       7463190.       7459274.       7464623.
       7463785.       7458825.       7459826.       7468707.       7443684.
       7449728.       7469969.       7439089.       7444857.       7443376.
       7434570.       7438252.       7432737.       7421907.       7422461.
       7422617.       7400871.       7415334.       7413418.       7398059.
       7393425.       7389863.       7391011.       7383864.       7382192.
       7371913.       7373140.       7360308.       7361033.       7353060.
       7351578.       7354846.       7322092.       7334774.       7322319.
       7312855.       7320346.       7298229.       7294015.       7289493.
       7269748.       7267573.       7263557.       7246696.       7247377.
       7228568.       7216708.       7216873.       7197642.       7196780.
       7185737.       7163620.       7164668.       7145943.       7144051.
       7130239.       7104168.       7107478.       7085415.       7076434.
       7067369.       7047040.       7028795.       7018446.       7008096.
       6988119.       6969495.       6954983.       6946891.       6927449.
       6901565.       6884558.       6890706.       6849556.       6824940.
       6844228.       6791751.       6773355.       6784697.       6734239.
       6720566.       6721834.       6672896.       6664804.       6660517.
       6617119.       6602961.       6583418.       6556600.       6547353.
       6519528.       6484895.       6488937.       6453328.       6417718.
       6427359.       6379119.       6358528.       6351620.       6315232.
       6292758.       6281693.       6250501.       6206677.       6214419.
       6179163.       6148521.       6134105.       6093405.       6082419.
       6050179.       6029794.       6006151.       5974778.       5950279.
       5927962.       5902585.       5870632.       5850421.       5823088.
       5797079.       5770600.       5748990.       5715307.       5694257.
       5668634.       5632183.       5615281.       5586529.       5557130.
       5531503.       5501316.       5473153.       5453206.       5414309.
       5391020.       5367796.       5333713.       5310141.       5270016.
       5258411.       5222354.       5186807.       5180890.       5132454.
       5099519.       5088701.       5053607.       5014674.       4994551.
       4968803.       4926963.       4917145.       4880258.       4841140.
       4826096.       4788771.       4768062.       4721270.       4701127.
       4675441.       4638346.       4613040.       4576622.       4561439.
       4517823.       4493275.       4462954.       4430587.       4404621.
       4365220.       4342672.       4311185.       4286130.       4245145.
       4213821.       4195069.       4155393.       4125695.       4083127.
       4061668.       4050475.       3992748.       3957242.       3941992.
       3894886.       3867081.       3845604.       3793910.       3771157.
       3740728.       3698388.       3674976.       3627105.       3605092.
       3581438.       3518878.       3508344.       3459054.       3410000.
       3412946.       3344072.       3321628.       3278453.       3233079.
       3222250.       3149315.       3137706.       3083735.       3034325.
       3024506.       2958881.       2932085.       2888163.       2836516.
       2808629.       2758793.       2724020.       2681895.       2626827.
       2595195.       2553657.       2500826.       2453927.       2418025.
       2364581.       2317137.       2283950.       2219820.       2184249.
       2126172.       2083327.       2044541.       1972127.       1948239.
       1869365.       1832755.       1788402.       1710072.       1684149.
       1619643.       1566835.       1499001.       1463324.       1399769.
       1341230.       1293255.       1216537.       1196429.       1096127.
       1063348.       1010519.       922927.0       899646.0       801993.0
       770866.0       705113.0       630159.0       576998.0       504889.0
       457258.0       381729.0       325719.0       247398.0       195988.0
       125620.0       52370.00       1258.000      -83138.00      -136708.0
      -213921.0      -282745.0      -340053.0      -419359.0      -506033.0
      -556036.0      -626655.0      -727029.0      -765678.0      -858022.0
      -942903.0      -995509.0      -1082092.      -1156500.      -1232050.
      -1303461.      -1393543.      -1465319.      -1537494.      -1626549.
      -1694199.      -1788065.      -1862721.      -1931099.      -2029769.
      -2117117.      -2190974.      -2260249.      -2362891.      -2452768.
      -2507846.      -2614758.      -2704999.      -2772885.      -2879612.
      -2949612.      -3041948.      -3143108.      -3209751.      -3309737.
      -3394780.      -3491793.      -3570335.      -3648710.      -3761297.
      -3826328.      -3941119.      -4022487.      -4092143.      -4215505.
      -4282862.      -4385431.      -4470059.      -4563018.      -4663348.
      -4732670.      -4851807.      -4921335.      -5019685.      -5123868.
      -5192963.      -5301854.      -5381480.      -5486923.      -5566910.
      -5650649.      -5767662.      -5834490.      -5935491.      -6018697.
      -6111507.      -6214095.      -6279912.      -6381962.      -6477670.
      -6558668.      -6635538.      -6742767.      -6829437.      -6900720.
      -7007867.      -7071677.      -7166954.      -7266858.      -7319232.
      -7425725.      -7513641.      -7582760.      -7674521.      -7748014.
      -7840928.      -7922739.      -8001215.      -8081075.      -8157638.
      -8251819.      -8320879.      -8398792.      -8492343.      -8555544.
      -8631175.      -8722076.      -8789870.      -8865452.      -8944964.
      -9017633.      -9095891.      -9162416.      -9247740.      -9310292.
      -9380206.      -9479927.      -9519585.      -9602175.      -9673475.
      -9733039.      -9823115.      -9873008.      -9954394.  -1.001172e+07
  -1.008532e+07  -1.015827e+07  -1.021027e+07  -1.029426e+07  -1.034477e+07
  -1.041479e+07  -1.048711e+07  -1.055007e+07  -1.060679e+07  -1.067217e+07
  -1.074899e+07  -1.078652e+07  -1.086671e+07  -1.093611e+07  -1.097402e+07
  -1.104951e+07  -1.110395e+07  -1.117145e+07  -1.122256e+07  -1.127266e+07
  -1.135268e+07  -1.139354e+07  -1.145801e+07  -1.151632e+07  -1.156042e+07
  -1.162781e+07  -1.167994e+07  -1.173310e+07  -1.178819e+07  -1.183802e+07
  -1.189784e+07  -1.195161e+07  -1.199500e+07  -1.205320e+07  -1.209953e+07
  -1.215196e+07  -1.220990e+07  -1.224717e+07  -1.230463e+07  -1.235567e+07
  -1.239543e+07  -1.244450e+07  -1.249896e+07  -1.254701e+07  -1.258689e+07
  -1.263320e+07  -1.268705e+07  -1.273250e+07  -1.276387e+07  -1.281466e+07
  -1.286000e+07  -1.289601e+07  -1.293853e+07  -1.298690e+07  -1.301557e+07
  -1.304806e+07  -1.309736e+07  -1.312868e+07  -1.316711e+07  -1.320172e+07
  -1.323735e+07  -1.326296e+07  -1.329947e+07  -1.334094e+07  -1.336529e+07
  -1.339610e+07  -1.342562e+07  -1.346770e+07  -1.349195e+07  -1.351360e+07
  -1.354991e+07  -1.357339e+07  -1.360225e+07  -1.362820e+07  -1.365994e+07
  -1.367876e+07  -1.369808e+07  -1.372954e+07  -1.374030e+07  -1.377049e+07
  -1.378169e+07  -1.379921e+07  -1.382646e+07  -1.383511e+07  -1.385916e+07
  -1.386660e+07  -1.388670e+07  -1.389109e+07  -1.391564e+07  -1.392447e+07
  -1.392604e+07  -1.395290e+07  -1.393514e+07  -1.397326e+07  -1.396611e+07
  -1.396047e+07  -1.399669e+07  -1.397912e+07  -1.398771e+07  -1.399306e+07
  -1.399542e+07  -1.400326e+07  -1.399774e+07  -1.399597e+07  -1.400193e+07
  -1.400212e+07  -1.400045e+07  -1.398474e+07  -1.398883e+07  -1.399206e+07
  -1.396509e+07  -1.397854e+07  -1.397079e+07  -1.395302e+07  -1.395016e+07
  -1.393905e+07  -1.392874e+07  -1.390954e+07  -1.391481e+07  -1.389403e+07
  -1.387166e+07  -1.387803e+07  -1.385254e+07  -1.383824e+07  -1.383343e+07
  -1.380852e+07  -1.379718e+07  -1.377603e+07  -1.376392e+07  -1.376049e+07
  -1.371857e+07  -1.371066e+07  -1.369955e+07  -1.366333e+07  -1.366180e+07
  -1.363118e+07  -1.360835e+07  -1.359476e+07  -1.355890e+07  -1.354893e+07
  -1.352640e+07  -1.349387e+07  -1.347851e+07  -1.344584e+07  -1.341642e+07
  -1.340712e+07  -1.336833e+07  -1.334702e+07  -1.332238e+07  -1.328822e+07
  -1.326917e+07  -1.322356e+07  -1.321654e+07  -1.318402e+07  -1.314435e+07
  -1.312851e+07  -1.308769e+07  -1.305645e+07  -1.302011e+07  -1.300394e+07
  -1.296688e+07  -1.292126e+07  -1.290335e+07  -1.286610e+07  -1.282894e+07
  -1.279522e+07  -1.276164e+07  -1.272674e+07  -1.268750e+07  -1.267071e+07
  -1.261492e+07  -1.257101e+07  -1.256470e+07  -1.250402e+07  -1.247768e+07
  -1.243780e+07  -1.238181e+07  -1.237299e+07  -1.232715e+07  -1.227218e+07
  -1.223971e+07  -1.221061e+07  -1.216041e+07  -1.212157e+07  -1.207841e+07
  -1.203202e+07  -1.200454e+07  -1.194721e+07  -1.191452e+07  -1.186643e+07
  -1.181870e+07  -1.179173e+07  -1.172805e+07  -1.169430e+07  -1.164220e+07
  -1.160048e+07  -1.156271e+07  -1.149674e+07  -1.146540e+07  -1.141150e+07
  -1.136213e+07  -1.131174e+07  -1.126588e+07  -1.122172e+07  -1.115928e+07
  -1.111994e+07  -1.106027e+07  -1.100918e+07  -1.096330e+07  -1.090723e+07
  -1.086248e+07  -1.079349e+07  -1.075103e+07  -1.070522e+07  -1.063391e+07
  -1.058686e+07  -1.053223e+07  -1.048342e+07  -1.041202e+07  -1.035209e+07
  -1.030234e+07  -1.024483e+07  -1.019691e+07  -1.010786e+07  -1.005499e+07
  -1.000280e+07      -9927186.      -9879326.      -9806877.      -9740931.
      -9683478.      -9602002.      -9551785.      -9488727.      -9403128.
      -9352271.      -9269419.      -9202377.      -9155371.      -9065441.
      -8999064.      -8928314.      -8851627.      -8794732.      -8715952.
      -8632548.      -8569667.      -8507211.      -8410710.      -8341480.
      -8282383.      -8184824.      -8113712.      -8042388.      -7965909.
      -7883993.      -7793737.      -7735133.      -7653663.      -7556502.
      -7488819.      -7408497.      -7318953.      -7246148.      -7167083.
      -7076258.      -6990269.      -6909172.      -6823459.      -6737768.
      -6662567.      -6564084.      -6469021.      -6405131.      -6298029.
      -6216087.      -6134240.      -6031231.      -5958266.      -5858087.
      -5773115.      -5675985.      -5586881.      -5500464.      -5404726.
      -5318286.      -5223396.      -5141723.      -5023182.      -4947857.
      -4866004.      -4739230.      -4671798.      -4574765.      -4468615.
      -4378277.      -4286258.      -4189113.      -4085169.      -3994258.
      -3898514.      -3806957.      -3690907.      -3607806.      -3508746.
      -3399468.      -3316507.      -3201591.      -3120263.      -3012931.
      -2911448.      -2816951.      -2703818.      -2630776.      -2511812.
      -2413876.      -2324153.      -2205661.      -2126000.      -2016235.
      -1914496.      -1822205.      -1714504.      -1621174.      -1511060.
      -1420014.      -1325912.      -1198204.      -1118407.      -1022835.
      -911053.0      -821429.0      -700666.0      -612933.0      -514427.0
      -409853.0      -307390.0      -203422.0      -123281.0       7952.000
       86860.00       188005.0       305755.0       369676.0       512349.0
       583128.0       682162.0       810059.0       867771.0       1000248.
       1091957.       1179272.       1292821.       1388127.       1486155.
       1579711.       1688923.       1779648.       1874230.       1988446.
       2079531.       2168464.       2279576.       2371337.       2468009.
       2571209.       2661213.       2754987.       2858844.       2951589.
       3034919.       3134209.       3219920.       3324160.       3408676.
       3489797.       3600310.       3677816.       3768420.       3855999.
       3948710.       4031633.       4115224.       4214036.       4284530.
       4372352.       4458887.       4550212.       4625588.       4704306.
       4793413.       4879252.       4961881.       5019068.       5128628.
       5204686.       5261415.       5356708.       5428089.       5518584.
       5583847.       5659036.       5750269.       5801063.       5890860.
       5969500.       6027374.       6121690.       6182295.       6255371.
       6336945.       6396499.       6482430.       6537169.       6617406.
       6688679.       6738887.       6830728.       6889525.       6953171.
       7026476.       7081438.       7145775.       7225719.       7281442.
       7329446.       7410621.       7475976.       7532637.       7592691.
       7642548.       7728502.       7783643.       7823578.       7902886.
       7949845.       8020778.       8071034.       8125458.       8195903.
       8240647.       8315019.       8351254.       8415234.       8475874.
       8516273.       8590937.       8635949.       8691072.       8740123.
       8795943.       8853219.       8893593.       8946100.       9000672.
       9059065.       9090687.       9144584.       9205792.       9241810.
       9293943.       9342560.       9382088.       9437708.       9487306.
