     0.02500000      -12345.00      -12345.00   2.447790e+09      -12345.00
   0.0005380000       1859.976      -487.0196      -12345.00      -12345.00
      -12345.00      -12345.00      -12345.00      -12345.00      -12345.00
      -12345.00      -12345.00      -12345.00      -12345.00      -12345.00
      -12345.00      -12345.00      -12345.00      -12345.00      -12345.00
      -12345.00      -12345.00      -12345.00      -12345.00      -12345.00
      -12345.00       2.044800      -157.4457       19.00000       1.000000
      -42.72450       173.0647      -12345.00       22.00000      -12345.00
      -12345.00      -12345.00      -12345.00      -12345.00      -12345.00
      -12345.00      -12345.00      -12345.00      -12345.00      -12345.00
       5770.559       38.69471       207.4499       51.89818      -12345.00
      -12345.00      -12345.00       357.0000       90.00000      -12345.00
      -12345.00      -12345.00      -12345.00      -12345.00      -12345.00
      -12345.00      -12345.00      -12345.00      -12345.00      -12345.00
      2016       318        11        11         6
        19         6    -12345    -12345     74400
    -12345    -12345    -12345    -12345    -12345
         1    -12345    -12345    -12345    -12345
    -12345    -12345    -12345    -12345    -12345
    -12345    -12345    -12345    -12345    -12345
    -12345    -12345    -12345    -12345    -12345
         1    -12345    -12345    -12345    -12345
XMAS    South Island, Ne
00      -12345  -12345  
-12345  -12345  -12345  
-12345  -12345  -12345  
-12345  -12345  -12345  
-12345  -12345  -12345  
-12345  -12345  BH1     
IU      -12345  Streckei
[...]
       849.0000      -1467.000      -2092.000      -515.0000      -7220.000
      -1964.000      -6927.000      -9070.000      -5149.000      -11346.00
      -8818.000      -11186.00      -11253.00      -14308.00      -12686.00
      -13698.00      -16809.00      -14745.00      -18937.00      -15974.00
      -19708.00      -19725.00      -18958.00      -22051.00      -20612.00
      -21356.00      -22651.00      -23057.00      -21504.00      -25664.00
      -23971.00      -23647.00      -26915.00      -22510.00      -25699.00
      -28539.00      -25325.00      -26091.00      -27645.00      -26078.00
      -27758.00      -29055.00      -26197.00      -28193.00      -30466.00
      -27894.00      -26953.00      -31468.00      -29920.00      -28420.00
      -31446.00      -29195.00      -31510.00      -31149.00      -30935.00
      -31788.00      -31745.00      -34095.00      -30904.00      -33836.00
      -32564.00      -33999.00      -36015.00      -31233.00      -37685.00
      -35311.00      -33904.00      -38059.00      -37079.00      -37551.00
      -37734.00      -37925.00      -39731.00      -41422.00      -38430.00
      -42092.00      -42124.00      -42491.00      -44398.00      -41777.00
      -47026.00      -46127.00      -46222.00      -48925.00      -48041.00
      -49591.00      -51289.00      -52193.00      -53153.00      -52885.00
      -55040.00      -56392.00      -55701.00      -59134.00      -56251.00
      -60670.00      -61712.00      -59914.00      -64944.00      -59318.00
      -66516.00      -66522.00      -62315.00      -69166.00      -66518.00
      -68991.00      -68657.00      -70395.00      -70471.00      -69415.00
      -75217.00      -69725.00      -72972.00      -76430.00      -72339.00
      -76442.00      -75158.00      -75322.00      -78000.00      -76397.00
      -78588.00      -78043.00      -78404.00      -79578.00      -79863.00
      -81779.00      -79052.00      -81808.00      -82665.00      -80623.00
      -83920.00      -83194.00      -82033.00      -83889.00      -85421.00
      -83934.00      -85227.00      -85773.00      -84415.00      -87237.00
      -86308.00      -86560.00      -87624.00      -87160.00      -88999.00
      -87346.00      -88442.00      -90046.00      -90463.00      -90534.00
      -88837.00      -92193.00      -92958.00      -93004.00      -91761.00
      -94078.00      -95153.00      -93719.00      -97627.00      -95050.00
      -99364.00      -97516.00      -96743.00      -101802.0      -99264.00
      -102638.0      -100258.0      -103417.0      -104837.0      -103553.0
      -106955.0      -103955.0      -108892.0      -109609.0      -107554.0
      -112312.0      -111479.0      -113874.0      -114669.0      -113706.0
      -118881.0      -118450.0      -118860.0      -121247.0      -122317.0
      -124140.0      -124818.0      -126448.0      -128517.0      -128981.0
      -130022.0      -132289.0      -133084.0      -135516.0      -136656.0
      -137343.0      -138515.0      -139913.0      -142910.0      -143364.0
      -144312.0      -145821.0      -147361.0      -148557.0      -149601.0
      -151003.0      -151579.0      -154329.0      -154434.0      -154172.0
      -156589.0      -157758.0      -160031.0      -159526.0      -157971.0
      -161339.0      -162733.0      -161167.0      -164135.0      -164259.0
      -162293.0      -165357.0      -164745.0      -165807.0      -165730.0
      -164595.0      -167616.0      -166663.0      -166282.0      -164842.0
      -166077.0      -167651.0      -165792.0      -165236.0      -165009.0
      -165217.0      -163708.0      -163800.0      -163101.0      -162105.0
      -161772.0      -159277.0      -159463.0      -159148.0      -156329.0
      -156809.0      -155052.0      -152287.0      -153746.0      -151138.0
      -149007.0      -149533.0      -146921.0      -146041.0      -144860.0
      -142631.0      -141015.0      -140342.0      -138952.0      -136261.0
      -135600.0      -133260.0      -131526.0      -130333.0      -128668.0
      -127013.0      -124232.0      -122722.0      -121100.0      -118625.0
      -117739.0      -115235.0      -112466.0      -111855.0      -107456.0
      -106911.0      -105529.0      -101528.0      -101328.0      -96939.00
      -95282.00      -93222.00      -91292.00      -89638.00      -84675.00
      -84285.00      -81209.00      -79222.00      -76030.00      -73673.00
      -73391.00      -67429.00      -66814.00      -63839.00      -60117.00
      -58749.00      -56362.00      -54591.00      -48716.00      -47327.00
      -44958.00      -42915.00      -40648.00      -33901.00      -34347.00
      -31394.00      -28354.00      -26245.00      -20746.00      -19756.00
      -15380.00      -13626.00      -12213.00      -6050.000      -4117.000
      -1386.000       2523.000       5005.000       8221.000       12105.00
       15480.00       18276.00       21844.00       25018.00       29422.00
       32065.00       35642.00       41186.00       41871.00       46589.00
       51299.00       53367.00       59307.00       62282.00       65071.00
       70370.00       73687.00       78231.00       82674.00       85041.00
       91161.00       94595.00       97746.00       104010.0       106984.0
       111783.0       115976.0       119859.0       125145.0       129478.0
       133123.0       138432.0       144437.0       146347.0       151570.0
       158208.0       162263.0       167630.0       170357.0       176069.0
       183805.0       185779.0       192247.0       197585.0       201007.0
       208822.0       211924.0       218236.0       223871.0       227374.0
       234919.0       239682.0       243945.0       249281.0       256612.0
       261203.0       265156.0       272126.0       277120.0       282859.0
       287673.0       294511.0       300242.0       303354.0       311332.0
       316104.0       321490.0       327308.0       332398.0       339349.0
       342895.0       349882.0       355091.0       359428.0       365967.0
       371016.0       377104.0       381106.0       387411.0       393270.0
       396957.0       404187.0       407955.0       412453.0       419512.0
       423484.0       428478.0       433969.0       439807.0       443150.0
       448411.0       454449.0       458259.0       464027.0       467817.0
       473179.0       477404.0       482026.0       487362.0       490118.0
       496672.0       499838.0       502765.0       509255.0       512805.0
       517082.0       521021.0       524690.0       528520.0       533042.0
       536729.0       540331.0       544765.0       547058.0       551444.0
       555041.0       558488.0       562562.0       565083.0       568702.0
       571692.0       574859.0       578893.0       581130.0       584368.0
       586810.0       589105.0       593539.0       594157.0       597728.0
       601012.0       601579.0       605527.0       606402.0       608147.0
       611304.0       612926.0       615127.0       616513.0       617275.0
       619098.0       621374.0       621309.0       624277.0       624895.0
       623105.0       627693.0       627005.0       627686.0       629510.0
       627150.0       629605.0       629024.0       629691.0       630023.0
       628587.0       630286.0       627585.0       628061.0       629294.0
       625345.0       624977.0       625921.0       623856.0       622018.0
       621405.0       618124.0       616907.0       617713.0       612696.0
       610938.0       610348.0       606439.0       605466.0       601247.0
       599289.0       596904.0       592342.0       591846.0       585940.0
       582971.0       581381.0       576817.0       573042.0       568430.0
       565800.0       560823.0       557717.0       553174.0       547140.0
       544823.0       539115.0       534699.0       531167.0       524452.0
       520053.0       516732.0       510436.0       504865.0       500714.0
       494290.0       489311.0       485214.0       478593.0       473362.0
       468473.0       462012.0       455531.0       450968.0       445723.0
       438849.0       434559.0       427049.0       420533.0       416709.0
       410292.0       404109.0       396587.0       392746.0       385686.0
       378500.0       375379.0       366672.0       361941.0       355690.0
       347421.0       344751.0       337387.0       329194.0       325615.0
       318077.0       311900.0       306665.0       298908.0       293740.0
       286977.0       281706.0       275181.0       269243.0       263462.0
       255584.0       250229.0       243999.0       239611.0       232880.0
       225577.0       220552.0       213825.0       207836.0       202360.0
       195166.0       189325.0       184138.0       176597.0       171361.0
       165298.0       159183.0       153564.0       145963.0       141277.0
       135584.0       129267.0       123539.0       116667.0       112114.0
       105198.0       98930.00       94815.00       87960.00       81300.00
       75845.00       71437.00       64120.00       58870.00       53291.00
       45610.00       42839.00       36184.00       29905.00       24246.00
       18413.00       15605.00       6993.000       2061.000      -1207.000
      -9448.000      -13442.00      -18434.00      -25524.00      -30085.00
      -35096.00      -40012.00      -45436.00      -52124.00      -57071.00
      -61962.00      -66180.00      -71952.00      -80103.00      -83609.00
      -88270.00      -92951.00      -98661.00      -107347.0      -108508.0
      -114803.0      -121658.0      -124451.0      -132377.0      -135641.0
      -141376.0      -146485.0      -151400.0      -159482.0      -160032.0
      -167589.0      -175131.0      -176258.0      -184554.0      -188754.0
      -193166.0      -200665.0      -205756.0      -210659.0      -214477.0
      -222692.0      -226225.0      -231145.0      -239419.0      -242432.0
      -248043.0      -253931.0      -259045.0      -263266.0      -272306.0
      -274416.0      -277867.0      -289210.0      -288866.0      -297975.0
      -303135.0      -305089.0      -315140.0      -316203.0      -324398.0
      -329508.0      -332951.0      -341298.0      -343597.0      -350947.0
      -355930.0      -360207.0      -367509.0      -369986.0      -377278.0
      -382953.0      -386857.0      -393089.0      -396596.0      -402776.0
      -408376.0      -412817.0      -417636.0      -423396.0      -427916.0
      -432492.0      -438097.0      -442530.0      -449395.0      -451971.0
      -456946.0      -463785.0      -465669.0      -473168.0      -477812.0
      -479120.0      -487516.0      -492262.0      -493847.0      -501666.0
      -505872.0      -507600.0      -515901.0      -519319.0      -523286.0
      -529477.0      -530785.0      -538238.0      -542694.0      -545175.0
      -551401.0      -555170.0      -559368.0      -564862.0      -569013.0
      -572078.0      -578105.0      -581828.0      -585225.0      -590930.0
      -595658.0      -599092.0      -603088.0      -607507.0      -612534.0
      -617641.0      -619491.0      -625868.0      -628462.0      -633645.0
      -640381.0      -638956.0      -647042.0      -650955.0      -654294.0
      -659688.0      -661131.0      -668147.0      -670462.0      -675900.0
      -680663.0      -681766.0      -688747.0      -691427.0      -695329.0
      -701257.0      -702967.0      -707904.0      -713267.0      -715679.0
      -718898.0      -724924.0      -728062.0      -731380.0      -737347.0
      -738279.0      -743897.0      -747963.0      -749824.0      -756118.0
      -759110.0      -762479.0      -765498.0      -770840.0      -773789.0
      -776927.0      -781465.0      -782682.0      -789850.0      -791307.0
      -794710.0      -799918.0      -800304.0      -806747.0      -807619.0
      -814035.0      -816579.0      -816621.0      -825452.0      -824530.0
      -828832.0      -834428.0      -835194.0      -839835.0      -842999.0
      -845675.0      -849079.0      -853121.0      -856430.0      -858305.0
      -860904.0      -864806.0      -870399.0      -870722.0      -871836.0
      -878028.0      -879244.0      -882416.0      -886383.0      -886384.0
      -891703.0      -893958.0      -893289.0      -900536.0      -900213.0
      -902615.0      -906773.0      -906200.0      -911828.0      -911288.0
      -914518.0      -917261.0      -917854.0      -922084.0      -922049.0
      -923486.0      -926499.0      -929123.0      -927645.0      -931961.0
      -933829.0      -932552.0      -936467.0      -936274.0      -938294.0
      -938413.0      -940496.0      -941184.0      -940965.0      -943812.0
      -943573.0      -944612.0      -944041.0      -945538.0      -945527.0
      -946400.0      -947363.0      -946135.0      -947059.0      -946320.0
      -947843.0      -946527.0      -946711.0      -946443.0      -945060.0
      -947712.0      -944467.0      -943510.0      -943779.0      -943668.0
      -942706.0      -940246.0      -940034.0      -937853.0      -938300.0
      -936818.0      -934352.0      -932637.0      -931256.0      -931378.0
      -927173.0      -926125.0      -925452.0      -921776.0      -921074.0
      -917024.0      -916696.0      -915309.0      -910034.0      -909583.0
      -905649.0      -905181.0      -902231.0      -897022.0      -896402.0
      -892990.0      -889945.0      -886618.0      -885083.0      -880600.0
      -876199.0      -874417.0      -869785.0      -867677.0      -862651.0
      -859379.0      -857749.0      -850192.0      -847117.0      -844285.0
      -839354.0      -836123.0      -831244.0      -826098.0      -821780.0
      -817718.0      -813096.0      -808044.0      -802730.0      -798979.0
      -792696.0      -786436.0      -783010.0      -776820.0      -772524.0
      -766068.0      -758697.0      -756100.0      -748384.0      -742265.0
      -738095.0      -730088.0      -724646.0      -719211.0      -712860.0
      -706630.0      -699728.0      -692525.0      -688307.0      -680896.0
      -673227.0      -668702.0      -659927.0      -653701.0      -647830.0
      -640725.0      -634155.0      -626777.0      -619807.0      -612123.0
      -606193.0      -599172.0      -590879.0      -585305.0      -577338.0
      -568957.0      -562664.0      -554696.0      -547799.0      -540013.0
      -531969.0      -525422.0      -517863.0      -510123.0      -501646.0
      -495126.0      -486930.0      -478584.0      -472451.0      -463526.0
      -457847.0      -448514.0      -439484.0      -434472.0      -424469.0
      -419077.0      -411095.0      -400671.0      -395347.0      -387029.0
      -378833.0      -371886.0      -363636.0      -355820.0      -348053.0
      -340538.0      -332977.0      -324517.0      -317170.0      -309785.0
      -301302.0      -293636.0      -286615.0      -279029.0      -270835.0
      -262775.0      -255264.0      -248070.0      -240458.0      -232391.0
      -225433.0      -216900.0      -208715.0      -202719.0      -193779.0
      -187037.0      -179250.0      -170556.0      -163923.0      -155567.0
      -149472.0      -140261.0      -132484.0      -127249.0      -117165.0
      -110712.0      -103601.0      -95338.00      -88380.00      -79475.00
      -73678.00      -65454.00      -57353.00      -51061.00      -43041.00
      -35181.00      -28183.00      -21032.00      -13176.00      -6935.000
       1779.000       8616.000       15170.00       23562.00       29655.00
       36937.00       44761.00       52245.00       58949.00       65451.00
       73213.00       80819.00       86526.00       93867.00       102107.0
       107733.0       114688.0       122412.0       128197.0       135792.0
       143103.0       148606.0       156443.0       163074.0       169790.0
       176882.0       182433.0       189237.0       196709.0       203834.0
       208698.0       215924.0       223098.0       228503.0       235276.0
       241414.0       248426.0       254130.0       261308.0       266151.0
       272247.0       281088.0       284520.0       291725.0       297594.0
       303072.0       310437.0       315057.0       321947.0       327002.0
       332535.0       339467.0       344960.0       350259.0       355997.0
       361213.0       366772.0       373444.0       377595.0       382887.0
       389431.0       394111.0       399822.0       404688.0       409893.0
       415786.0       419918.0       425854.0       430563.0       435869.0
       441608.0       444614.0       450896.0       456139.0       460331.0
       465620.0       469630.0       475803.0       479301.0       484020.0
       489820.0       493317.0       499760.0       502179.0       507174.0
       512886.0       515873.0       522187.0       524879.0       530238.0
       534575.0       537880.0       544336.0       546184.0       551883.0
       555620.0       558738.0       565396.0       567182.0       571477.0
       576096.0       579434.0       583235.0       586846.0       591431.0
       594819.0       597524.0       601906.0       604781.0       607602.0
       613780.0       614346.0       616791.0       622906.0       623973.0
       627880.0       630655.0       632688.0       636373.0       639491.0
       642270.0       643898.0       648672.0       648785.0       652019.0
       657404.0       655696.0       660766.0       663223.0       663892.0
       668842.0       668984.0       671722.0       674405.0       676082.0
       679416.0       680224.0       682579.0       685290.0       686687.0
       688778.0       691260.0       692685.0       694812.0       697614.0
       699013.0       700772.0       702850.0       704378.0       706460.0
       708315.0       709974.0       712656.0       712721.0       715040.0
       717810.0       718013.0       721574.0       721948.0       722969.0
       726232.0       727058.0       728364.0       730046.0       731798.0
       732379.0       734746.0       736132.0       736736.0       738664.0
       739271.0       741682.0       742648.0       743817.0       744922.0
       745946.0       748280.0       747759.0       749755.0       751354.0
       752302.0       752448.0       753130.0       755659.0       754518.0
       756765.0       757516.0       756367.0       758635.0       759201.0
       759537.0       759890.0       760441.0       761486.0       761048.0
