     0.02500000      -12345.00      -12345.00   3.262830e+10      -12345.00
   0.0005380000       1859.976      -487.0196      -12345.00      -12345.00
      -12345.00      -12345.00      -12345.00      -12345.00      -12345.00
      -12345.00      -12345.00      -12345.00      -12345.00      -12345.00
      -12345.00      -12345.00      -12345.00      -12345.00      -12345.00
      -12345.00      -12345.00      -12345.00      -12345.00      -12345.00
      -12345.00       2.044800      -157.4457       19.00000       1.000000
      -42.72450       173.0647      -12345.00       22.00000      -12345.00
      -12345.00      -12345.00      -12345.00      -12345.00      -12345.00
      -12345.00      -12345.00      -12345.00      -12345.00      -12345.00
       5770.559       38.69471       207.4499       51.89818      -12345.00
      -12345.00      -12345.00       0.000000       0.000000      -12345.00
      -12345.00      -12345.00      -12345.00      -12345.00      -12345.00
      -12345.00      -12345.00      -12345.00      -12345.00      -12345.00
      2016       318        11        11         6
        19         6    -12345    -12345     74400
    -12345    -12345    -12345    -12345    -12345
         1    -12345    -12345    -12345    -12345
    -12345    -12345    -12345    -12345    -12345
    -12345    -12345    -12345    -12345    -12345
    -12345    -12345    -12345    -12345    -12345
         1    -12345    -12345    -12345    -12345
XMAS    South Island, Ne
10      -12345  -12345  
-12345  -12345  -12345  
-12345  -12345  -12345  
-12345  -12345  -12345  
-12345  -12345  -12345  
-12345  -12345  BHZ     
IU      -12345  Streckei
[...]
       5246139.       5248554.       5255286.       5219552.       5199286.
       5205895.       5185088.       5173963.       5166714.       5147214.
       5130469.       5122196.       5111088.       5092944.       5086282.
       5063945.       5046113.       5051628.       5023702.       5002134.
       5002213.       4978935.       4967591.       4959475.       4933411.
       4916700.       4916636.       4901764.       4872901.       4864790.
       4851054.       4832360.       4824550.       4810353.       4790828.
       4770666.       4759889.       4746547.       4723162.       4710687.
       4696787.       4671773.       4660783.       4648491.       4620490.
       4608268.       4594924.       4569922.       4558951.       4544992.
       4524852.       4505824.       4488994.       4474181.       4457131.
       4445034.       4423270.       4404142.       4393297.       4375334.
       4357804.       4342818.       4326735.       4300462.       4290768.
       4280387.       4252045.       4237752.       4217059.       4200289.
       4192085.       4169807.       4145218.       4131259.       4119742.
       4101982.       4084937.       4059150.       4042222.       4038795.
       4023675.       3994892.       3973791.       3966185.       3947677.
       3935455.       3914211.       3887783.       3879347.       3856467.
       3848724.       3833560.       3798081.       3791976.       3780448.
       3763440.       3746696.       3724173.       3704703.       3687367.
       3685105.       3659567.       3628825.       3624287.       3607855.
       3580590.       3561424.       3558419.       3539617.       3505524.
       3493483.       3480981.       3455962.       3436520.       3418376.
       3396792.       3383816.       3360092.       3332286.       3327428.
       3307072.       3278974.       3268004.       3244672.       3223427.
       3208693.       3186202.       3167101.       3142678.       3125543.
       3113160.       3082809.       3058476.       3045842.       3026025.
       2998861.       2976206.       2959390.       2933166.       2908535.
       2890333.       2867678.       2840044.       2813016.       2795790.
       2767251.       2741403.       2721890.       2691309.       2667208.
       2640661.       2623074.       2594321.       2557506.       2540188.
       2507717.       2482794.       2459571.       2427840.       2403577.
       2372825.       2351716.       2319404.       2285868.       2268366.
       2236451.       2204017.       2175634.       2147364.       2114977.
       2084542.       2057220.       2020753.       1992492.       1957928.
       1920893.       1891584.       1855697.       1821928.       1789989.
       1758770.       1718423.       1682816.       1653027.       1614800.
       1582026.       1542134.       1506207.       1476442.       1435093.
       1398477.       1366443.       1327447.       1288116.       1252385.
       1215354.       1181645.       1147949.       1104546.       1064540.
       1028578.       986444.0       955113.0       916094.0       869723.0
       837392.0       794090.0       760172.0       728514.0       677421.0
       639265.0       600789.0       558787.0       524615.0       481522.0
       439849.0       402326.0       360625.0       317984.0       274474.0
       232029.0       191153.0       154150.0       109525.0       64141.00
       26139.00      -20846.00      -61700.00      -95912.00      -137432.0
      -185264.0      -229026.0      -267765.0      -312777.0      -351072.0
      -394085.0      -441905.0      -484876.0      -524105.0      -558815.0
      -612713.0      -658926.0      -695171.0      -737969.0      -772711.0
      -818886.0      -868048.0      -914096.0      -950305.0      -986310.0
      -1036774.      -1073916.      -1119096.      -1162863.      -1195726.
      -1246522.      -1286002.      -1324435.      -1373373.      -1409280.
      -1453081.      -1499541.      -1539509.      -1583284.      -1626027.
      -1669779.      -1710360.      -1753740.      -1795332.      -1834607.
      -1882368.      -1917252.      -1957857.      -2011677.      -2043597.
      -2079390.      -2130437.      -2173182.      -2215833.      -2257981.
      -2295161.      -2334321.      -2382733.      -2433416.      -2463383.
      -2499986.      -2556306.      -2593727.      -2627879.      -2675905.
      -2716716.      -2755634.      -2803599.      -2841447.      -2881651.
      -2930466.      -2964957.      -2999078.      -3043707.      -3095691.
      -3128915.      -3155222.      -3205397.      -3251672.      -3286839.
      -3320906.      -3358697.      -3398723.      -3440240.      -3484652.
      -3523211.      -3550291.      -3585966.      -3643098.      -3678272.
      -3707188.      -3746799.      -3785004.      -3829918.      -3861176.
      -3904713.      -3945141.      -3973407.      -4025086.      -4061133.
      -4089122.      -4137838.      -4178250.      -4212384.      -4252990.
      -4288291.      -4320621.      -4362173.      -4407619.      -4441144.
      -4469969.      -4510253.      -4553913.      -4583711.      -4616606.
      -4658131.      -4691820.      -4724352.      -4758656.      -4801254.
      -4837702.      -4862496.      -4896984.      -4934795.      -4974688.
      -5008631.      -5032520.      -5065355.      -5105717.      -5139180.
      -5166207.      -5198141.      -5235500.      -5268747.      -5294484.
      -5325559.      -5360679.      -5394433.      -5421441.      -5449359.
      -5492531.      -5516395.      -5537081.      -5580076.      -5613406.
      -5638889.      -5664877.      -5699708.      -5734525.      -5750054.
      -5785943.      -5825848.      -5837829.      -5872748.      -5907117.
      -5927611.      -5959925.      -5983508.      -6011001.      -6039097.
      -6064273.      -6089982.      -6113745.      -6144361.      -6169625.
      -6186147.      -6208446.      -6243881.      -6269966.      -6285729.
      -6308475.      -6329977.      -6354056.      -6381747.      -6403862.
      -6419301.      -6436437.      -6466018.      -6496282.      -6512951.
      -6525259.      -6550126.      -6573834.      -6592388.      -6615830.
      -6629987.      -6645652.      -6667212.      -6688615.      -6700095.
      -6718525.      -6746899.      -6745926.      -6761478.      -6789747.
      -6795926.      -6813594.      -6827228.      -6835591.      -6854861.
      -6867815.      -6877093.      -6891729.      -6907150.      -6916024.
      -6923967.      -6935866.      -6941859.      -6956803.      -6969819.
      -6968874.      -6978685.      -6985159.      -6997246.      -7004239.
      -6995061.      -7007593.      -7018133.      -7023244.      -7020234.
      -7016981.      -7033153.      -7035708.      -7035335.      -7033402.
      -7034639.      -7040618.      -7040327.      -7043742.      -7040263.
      -7042071.      -7041954.      -7042837.      -7044033.      -7030869.
      -7038336.      -7043719.      -7032223.      -7022910.      -7017495.
      -7026646.      -7019775.      -7000046.      -6999641.      -6996484.
      -6982179.      -6977135.      -6969314.      -6955754.      -6949703.
      -6931534.      -6919755.      -6923023.      -6897703.      -6886153.
      -6887302.      -6852812.      -6847330.      -6846200.      -6818378.
      -6803250.      -6787287.      -6780711.      -6766792.      -6736803.
      -6723173.      -6718773.      -6695818.      -6670870.      -6659636.
      -6642090.      -6620633.      -6599442.      -6586725.      -6568793.
      -6542987.      -6525290.      -6499590.      -6484569.      -6469989.
      -6434868.      -6417945.      -6404199.      -6376174.      -6349367.
      -6322160.      -6306469.      -6284619.      -6248500.      -6224078.
      -6197172.      -6169821.      -6150118.      -6115942.      -6081740.
      -6058130.      -6032500.      -5998265.      -5969562.      -5946179.
      -5910357.      -5886275.      -5855667.      -5817214.      -5797852.
      -5764359.      -5727759.      -5701439.      -5669577.      -5633480.
      -5600268.      -5568364.      -5534498.      -5498469.      -5454813.
      -5422241.      -5391110.      -5353842.      -5312184.      -5267910.
      -5237980.      -5194575.      -5150183.      -5110183.      -5068502.
      -5040674.      -4988869.      -4936073.      -4906538.      -4866735.
      -4815877.      -4766130.      -4729512.      -4690366.      -4642198.
      -4598691.      -4549692.      -4503829.      -4466013.      -4422970.
      -4368460.      -4324198.      -4292817.      -4230914.      -4179758.
      -4147189.      -4087175.      -4049302.      -4008061.      -3940171.
      -3901377.      -3858911.      -3799690.      -3752064.      -3703455.
      -3646681.      -3596997.      -3550597.      -3488800.      -3441498.
      -3396527.      -3327260.      -3274983.      -3225550.      -3173286.
      -3121911.      -3050420.      -2998548.      -2957366.      -2900994.
      -2837474.      -2774685.      -2726302.      -2667320.      -2616357.
      -2568582.      -2491807.      -2440445.      -2394207.      -2323030.
      -2268371.      -2214464.      -2151972.      -2089796.      -2033028.
      -1982286.      -1914483.      -1854645.      -1801512.      -1730633.
      -1672668.      -1619263.      -1562383.      -1500457.      -1425644.
      -1365693.      -1311637.      -1251872.      -1189400.      -1124480.
      -1064580.      -1004048.      -948699.0      -889167.0      -817686.0
      -758480.0      -700862.0      -642125.0      -584371.0      -509695.0
      -449882.0      -388860.0      -323657.0      -276034.0      -202101.0
      -132983.0      -84855.00      -21066.00       43560.00       105384.0
       170971.0       230628.0       294755.0       359531.0       412249.0
       476232.0       553118.0       615633.0       662959.0       724002.0
       798465.0       865430.0       918459.0       977494.0       1043628.
       1099250.       1168034.       1231751.       1288499.       1350757.
       1409500.       1477997.       1527147.       1584860.       1658648.
       1715882.       1775071.       1822365.       1893498.       1967801.
       2004246.       2073271.       2147166.       2193257.       2257327.
       2326150.       2382326.       2437578.       2501676.       2565499.
       2625223.       2692917.       2746696.       2798128.       2866051.
       2924645.       2985614.       3045494.       3102308.       3168635.
       3228822.       3289340.       3345551.       3398504.       3462429.
       3529502.       3588043.       3643869.       3697537.       3754017.
       3828096.       3882646.       3928253.       3993344.       4048964.
       4113214.       4174490.       4216963.       4280580.       4335481.
       4391355.       4460966.       4497134.       4549009.       4618675.
       4671363.       4724457.       4772311.       4829670.       4887309.
       4932375.       4988049.       5048162.       5100031.       5152555.
       5202232.       5247685.       5310340.       5364921.       5403567.
       5461226.       5514511.       5561678.       5612965.       5661373.
       5718663.       5762260.       5808282.       5869081.       5917180.
       5961930.       6005915.       6059384.       6112983.       6157774.
       6200244.       6242241.       6302481.       6351663.       6383773.
       6425469.       6476164.       6528260.       6566429.       6608073.
       6653527.       6694278.       6741028.       6777905.       6819925.
       6867583.       6902298.       6944473.       6983400.       7021466.
       7070963.       7108943.       7139500.       7178573.       7224304.
       7262472.       7291153.       7329614.       7377156.       7408682.
       7438903.       7480651.       7510694.       7544719.       7584074.
       7613215.       7643923.       7673677.       7703820.       7741259.
       7775059.       7795432.       7820500.       7853497.       7878788.
       7911365.       7938169.       7956009.       7982010.       8007454.
       8033931.       8053698.       8075045.       8100255.       8119700.
       8141767.       8166176.       8184042.       8194490.       8217597.
       8243258.       8256842.       8273018.       8294305.       8309196.
       8323678.       8346472.       8357115.       8367180.       8385824.
       8395968.       8411262.       8426507.       8430970.       8438557.
       8448391.       8463193.       8475486.       8474559.       8481067.
       8489386.       8493780.       8501047.       8504957.       8509616.
       8511691.       8514193.       8515352.       8514997.       8519009.
       8520487.       8517697.       8515121.       8515634.       8515900.
       8510506.       8500898.       8501382.       8499022.       8491200.
       8486988.       8477971.       8471936.       8461860.       8451609.
       8445569.       8439223.       8426535.       8414261.       8410287.
       8389523.       8380265.       8374370.       8349409.       8341838.
       8326149.       8305886.       8298466.       8281114.       8256332.
       8225687.       8214233.       8209739.       8181879.       8156688.
       8134047.       8107056.       8090056.       8073864.       8045392.
       8018035.       7997159.       7977900.       7945809.       7912999.
       7905635.       7876270.       7829068.       7812145.       7794322.
       7759654.       7723680.       7697238.       7675046.       7636333.
       7605406.       7582630.       7539367.       7511818.       7493489.
       7447959.       7413935.       7384788.       7349647.       7324694.
       7279756.       7242323.       7214285.       7171746.       7142510.
       7106549.       7064861.       7029958.       6991101.       6957546.
       6918706.       6872623.       6837247.       6802652.       6756587.
       6717198.       6679072.       6634966.       6598369.       6557504.
       6512985.       6469150.       6428840.       6397085.       6345397.
       6294555.       6262186.       6216108.       6177131.       6133114.
       6082722.       6048757.       5995257.       5948748.       5913434.
       5862681.       5821427.       5774499.       5725385.       5689334.
       5642170.       5595803.       5554095.       5504181.       5458800.
       5416006.       5372704.       5321923.       5273975.       5236855.
       5185656.       5131427.       5085582.       5040443.       4997055.
       4953643.       4903855.       4849153.       4802428.       4755663.
       4706405.       4659859.       4610773.       4557185.       4505529.
       4458558.       4403871.       4356759.       4312129.       4254298.
       4202325.       4153580.       4104498.       4059061.       4005966.
       3949349.       3903321.       3854732.       3806444.       3756279.
       3695888.       3649886.       3604076.       3550034.       3499052.
       3441454.       3390449.       3344744.       3289845.       3235555.
       3178914.       3127096.       3085381.       3030894.       2973052.
       2919282.       2867915.       2821030.       2763611.       2704234.
       2652465.       2603639.       2548696.       2489477.       2437680.
       2384812.       2332315.       2280383.       2215900.       2157523.
       2111191.       2051465.       1994375.       1945451.       1886281.
       1830008.       1778980.       1720261.       1659669.       1608210.
       1554212.       1496291.       1435888.       1378398.       1327635.
       1267743.       1206281.       1143953.       1088680.       1036884.
       972918.0       912996.0       853736.0       793653.0       740611.0
       683303.0       616066.0       556321.0       512298.0       454529.0
       383892.0       329734.0       274263.0       214731.0       159282.0
       98146.00       42985.00      -18938.00      -82764.00      -132578.0
      -187660.0      -253444.0      -317649.0      -372761.0      -427220.0
      -482107.0      -542809.0      -606119.0      -662501.0      -720076.0
      -777034.0      -834501.0      -896763.0      -953571.0      -1008974.
      -1071521.      -1124077.      -1180615.      -1242419.      -1294852.
      -1353805.      -1408776.      -1467697.      -1528235.      -1576621.
      -1640359.      -1701518.      -1748756.      -1806948.      -1862930.
      -1924228.      -1985723.      -2032515.      -2090195.      -2145137.
      -2199204.      -2263079.      -2314529.      -2362517.      -2414166.
      -2474449.      -2536228.      -2587853.      -2636204.      -2680263.
      -2737042.      -2797702.      -2849814.      -2899256.      -2943869.
      -2999761.      -3057569.      -3109790.      -3158383.      -3199209.
      -3254519.      -3312936.      -3362094.      -3412585.      -3454065.
      -3503166.      -3562891.      -3607350.      -3652891.      -3704860.
      -3742864.      -3788617.      -3839126.      -3887556.      -3934475.
      -3964387.      -4012275.      -4060323.      -4096916.      -4142208.
      -4182279.      -4227420.      -4260963.      -4300524.      -4350399.
      -4375388.      -4415628.      -4463783.      -4493750.      -4529535.
      -4563214.      -4603623.      -4642891.      -4670473.      -4707540.
      -4744406.      -4782529.      -4811733.      -4839281.      -4884497.
      -4921205.      -4940291.      -4962024.      -5007815.      -5040925.
      -5053209.      -5084252.      -5112729.      -5141025.      -5169611.
      -5181351.      -5207868.      -5240911.      -5258472.      -5288298.
      -5310635.      -5318840.      -5354638.      -5382853.      -5397839.
      -5419652.      -5437206.      -5460867.      -5480988.      -5507836.
      -5524169.      -5527770.      -5559972.      -5580439.      -5591528.
      -5619034.      -5627827.      -5639615.      -5663133.      -5672857.
      -5685647.      -5706332.      -5717214.      -5719725.      -5734996.
      -5755229.      -5767428.      -5776058.      -5779951.      -5792763.
      -5811615.      -5825129.      -5825505.      -5828363.      -5858403.
      -5872110.      -5864785.      -5875041.      -5894577.      -5908639.
