     0.02500000      -12345.00      -12345.00   2.447790e+09      -12345.00
   0.0005380000       1859.976      -487.0196      -12345.00      -12345.00
      -12345.00      -12345.00      -12345.00      -12345.00      -12345.00
      -12345.00      -12345.00      -12345.00      -12345.00      -12345.00
      -12345.00      -12345.00      -12345.00      -12345.00      -12345.00
      -12345.00      -12345.00      -12345.00      -12345.00      -12345.00
      -12345.00       2.044800      -157.4457       19.00000       1.000000
      -42.72450       173.0647      -12345.00       22.00000      -12345.00
      -12345.00      -12345.00      -12345.00      -12345.00      -12345.00
      -12345.00      -12345.00      -12345.00      -12345.00      -12345.00
       5770.559       38.69471       207.4499       51.89818      -12345.00
      -12345.00      -12345.00       87.00000       90.00000      -12345.00
      -12345.00      -12345.00      -12345.00      -12345.00      -12345.00
      -12345.00      -12345.00      -12345.00      -12345.00      -12345.00
      2016       318        11        11         6
        19         6    -12345    -12345     74400
    -12345    -12345    -12345    -12345    -12345
         1    -12345    -12345    -12345    -12345
    -12345    -12345    -12345    -12345    -12345
    -12345    -12345    -12345    -12345    -12345
    -12345    -12345    -12345    -12345    -12345
         1    -12345    -12345    -12345    -12345
XMAS    South Island, Ne
00      -12345  -12345  
-12345  -12345  -12345  
-12345  -12345  -12345  
-12345  -12345  -12345  
-12345  -12345  -12345  
-12345  -12345  BH2     
IU      -12345  Streckei
[...]
       97974.00       98871.00       100396.0       102095.0       102489.0
       105219.0       105610.0       106387.0       108523.0       109478.0
       110287.0       111659.0       113967.0       114088.0       115160.0
       117284.0       117839.0       119170.0       120460.0       121693.0
       123023.0       124058.0       124650.0       125712.0       127873.0
       128477.0       128781.0       130816.0       131345.0       132780.0
       134055.0       133691.0       136236.0       137365.0       137562.0
       137907.0       139898.0       141706.0       140973.0       143057.0
       143385.0       144202.0       146118.0       145852.0       146873.0
       148014.0       148295.0       149161.0       150759.0       150912.0
       151275.0       152171.0       152924.0       153947.0       154164.0
       154540.0       155270.0       156190.0       156935.0       157062.0
       157631.0       158423.0       159239.0       159683.0       160070.0
       161339.0       162357.0       161317.0       162095.0       164386.0
       163386.0       164561.0       165197.0       165238.0       166861.0
       166512.0       167553.0       167866.0       168128.0       169842.0
       169371.0       169367.0       171573.0       170734.0       171206.0
       172354.0       171542.0       174360.0       173550.0       173308.0
       175425.0       174800.0       175608.0       176405.0       176565.0
       177712.0       178190.0       177762.0       179555.0       180029.0
       179996.0       180795.0       181051.0       182357.0       183127.0
       183262.0       183891.0       184092.0       184857.0       186409.0
       186044.0       187120.0       187344.0       188267.0       189938.0
       189053.0       190848.0       191652.0       192655.0       192769.0
       193268.0       195322.0       195706.0       196686.0       196825.0
       199271.0       199199.0       200099.0       201943.0       202241.0
       204810.0       204315.0       206122.0       207818.0       208731.0
       210363.0       211701.0       212663.0       214172.0       216796.0
       216279.0       218798.0       220647.0       221503.0       224048.0
       224670.0       226796.0       228538.0       230139.0       231430.0
       233208.0       235989.0       236581.0       238943.0       240813.0
       242231.0       245184.0       245994.0       248557.0       251068.0
       252211.0       255169.0       256836.0       259310.0       261502.0
       263013.0       266177.0       268056.0       270986.0       273100.0
       275159.0       277829.0       279781.0       283005.0       284926.0
       287343.0       290312.0       292778.0       295262.0       297622.0
       300432.0       303218.0       305684.0       308422.0       311231.0
       313618.0       316734.0       319056.0       322026.0       325095.0
       326771.0       330243.0       332895.0       335665.0       338852.0
       340596.0       343502.0       346478.0       349217.0       351917.0
       354622.0       357304.0       360512.0       363123.0       365053.0
       368972.0       370870.0       373125.0       376782.0       378741.0
       382044.0       384662.0       386697.0       389631.0       392110.0
       394912.0       397539.0       400061.0       403062.0       405571.0
       408081.0       410839.0       413504.0       415566.0       418198.0
       421630.0       423826.0       426032.0       428556.0       430868.0
       433711.0       436397.0       438417.0       441402.0       443295.0
       445835.0       448758.0       449779.0       453802.0       455270.0
       457174.0       460607.0       461884.0       464852.0       466318.0
       468845.0       471010.0       473145.0       475069.0       476967.0
       480106.0       480814.0       483671.0       485395.0       486939.0
       489603.0       490758.0       493312.0       495243.0       496663.0
       498342.0       500768.0       502151.0       503814.0       506676.0
       507186.0       508595.0       511089.0       512513.0       514194.0
       515990.0       517277.0       518429.0       520705.0       521512.0
       522994.0       525575.0       525898.0       527788.0       528919.0
       529792.0       531805.0       532522.0       534130.0       535424.0
       535653.0       537487.0       538431.0       539298.0       540737.0
       540591.0       542787.0       543151.0       543957.0       545495.0
       545265.0       547446.0       547728.0       548277.0       549895.0
       550078.0       550495.0       552084.0       552512.0       552547.0
       554650.0       554827.0       555157.0       555751.0       556445.0
       557431.0       556732.0       559201.0       558729.0       558393.0
       560682.0       559620.0       560890.0       560986.0       561181.0
       561958.0       561964.0       562672.0       562232.0       563799.0
       562985.0       562692.0       564900.0       563622.0       564035.0
       564766.0       563894.0       565050.0       564778.0       565041.0
       565302.0       564268.0       566243.0       565010.0       564159.0
       566091.0       565442.0       565026.0       564760.0       565075.0
       565083.0       564732.0       564569.0       565539.0       563790.0
       563380.0       565935.0       563147.0       563319.0       563765.0
       562559.0       563115.0       562649.0       561905.0       561562.0
       562096.0       560109.0       560903.0       561457.0       559731.0
       559621.0       559122.0       559346.0       558744.0       558607.0
       557799.0       557847.0       556934.0       556762.0       556530.0
       555733.0       556804.0       553796.0       554559.0       554234.0
       552746.0       553796.0       552012.0       551458.0       551341.0
       549828.0       549257.0       549395.0       547740.0       547883.0
       546719.0       545216.0       545694.0       543886.0       543855.0
       543310.0       541074.0       541511.0       539931.0       539561.0
       539037.0       536370.0       536971.0       535230.0       534338.0
       533858.0       532157.0       530864.0       529755.0       529264.0
       527563.0       526182.0       524918.0       524375.0       522933.0
       520953.0       519340.0       519923.0       517451.0       514159.0
       516593.0       512930.0       510104.0       512176.0       508175.0
       506240.0       507260.0       503407.0       501971.0       502495.0
       499006.0       497412.0       496540.0       494089.0       493254.0
       491760.0       488355.0       488754.0       486888.0       482880.0
       484356.0       480848.0       478469.0       478706.0       475575.0
       473826.0       472904.0       471054.0       467034.0       467675.0
       465696.0       462338.0       462139.0       458464.0       457758.0
       455530.0       453481.0       452260.0       449481.0       447772.0
       445913.0       444301.0       441557.0       440145.0       438144.0
       436012.0       434186.0       432328.0       430080.0       428121.0
       426540.0       423589.0       422259.0       420349.0       417847.0
       416138.0       413844.0       411534.0       410334.0       407311.0
       405324.0       404005.0       401086.0       399748.0       396348.0
       395528.0       393360.0       389851.0       390134.0       386502.0
       383505.0       383145.0       380622.0       377500.0       375927.0
       374408.0       370967.0       370199.0       368088.0       364381.0
       363827.0       360854.0       359434.0       356124.0       354096.0
       352983.0       349529.0       348303.0       345115.0       344263.0
       341273.0       338876.0       337401.0       334361.0       332981.0
       329847.0       328119.0       326046.0       324058.0       321351.0
       318573.0       317571.0       314644.0       312473.0       309387.0
       307322.0       307329.0       302970.0       299727.0       299253.0
       295728.0       293318.0       292349.0       288271.0       286425.0
       284743.0       281127.0       279804.0       276346.0       274143.0
       273435.0       268238.0       267282.0       264779.0       259642.0
       261076.0       255952.0       253509.0       251714.0       246865.0
       247381.0       241563.0       240366.0       237543.0       232440.0
       232978.0       227782.0       225508.0       223090.0       218528.0
       216955.0       213292.0       210526.0       207931.0       203520.0
       201171.0       198603.0       194518.0       190859.0       188542.0
       184719.0       180812.0       178979.0       173948.0       171337.0
       167426.0       163606.0       161854.0       155528.0       154312.0
       148810.0       145061.0       143366.0       136291.0       135054.0
       130358.0       126272.0       121523.0       118432.0       114710.0
       109273.0       106950.0       100262.0       99412.00       92362.00
       88556.00       86822.00       78382.00       77952.00       70496.00
       67476.00       64095.00       57221.00       54317.00       48194.00
       45283.00       39624.00       35320.00       29904.00       25551.00
       21216.00       14949.00       11895.00       5377.000       1315.000
      -3938.000      -9555.000      -13330.00      -19097.00      -25814.00
      -29715.00      -33946.00      -42325.00      -44902.00      -51086.00
      -58386.00      -61487.00      -68098.00      -73622.00      -79201.00
      -84373.00      -90966.00      -96585.00      -101430.0      -108478.0
      -113147.0      -120052.0      -126014.0      -130519.0      -137979.0
      -144595.0      -150128.0      -155021.0      -162330.0      -169800.0
      -173344.0      -180915.0      -188490.0      -192694.0      -201024.0
      -206330.0      -212479.0      -220867.0      -225250.0      -232728.0
      -239220.0      -246097.0      -252529.0      -257496.0      -266497.0
      -271180.0      -279171.0      -286332.0      -290276.0      -300128.0
      -305119.0      -312349.0      -319158.0      -325302.0      -333780.0
      -337958.0      -347206.0      -352749.0      -358977.0      -368047.0
      -372190.0      -380584.0      -386684.0      -394009.0      -400834.0
      -405872.0      -415476.0      -420266.0      -427333.0      -434170.0
      -440207.0      -448795.0      -453076.0      -460537.0      -468094.0
      -473932.0      -479586.0      -487290.0      -494419.0      -498935.0
      -507416.0      -512218.0      -518449.0      -527003.0      -530231.0
      -537934.0      -545230.0      -549523.0      -556885.0      -562119.0
      -568851.0      -575352.0      -580658.0      -587030.0      -592346.0
      -599463.0      -604834.0      -610016.0      -617432.0      -622186.0
      -627315.0      -634414.0      -639448.0      -644782.0      -650944.0
      -656147.0      -662118.0      -666914.0      -673062.0      -678395.0
      -682565.0      -690705.0      -693669.0      -699035.0      -705407.0
      -708771.0      -716153.0      -719641.0      -725494.0      -730222.0
      -734969.0      -741183.0      -744357.0      -750981.0      -754782.0
      -759585.0      -765339.0      -769811.0      -774305.0      -778651.0
      -784916.0      -787519.0      -793012.0      -799102.0      -801230.0
      -806992.0      -811251.0      -815976.0      -820251.0      -823379.0
      -829805.0      -832790.0      -837294.0      -842212.0      -845021.0
      -850187.0      -854242.0      -858031.0      -862273.0      -865981.0
      -870335.0      -874621.0      -877732.0      -882050.0      -885737.0
      -889267.0      -894126.0      -896720.0      -900798.0      -905144.0
      -907820.0      -911541.0      -915673.0      -919363.0      -922371.0
      -925846.0      -929802.0      -933539.0      -935753.0      -939464.0
      -943217.0      -945741.0      -948976.0      -952707.0      -955123.0
      -957183.0      -961229.0      -963556.0      -966428.0      -969169.0
      -971874.0      -973991.0      -976381.0      -979968.0      -981674.0
      -984158.0      -986258.0      -989444.0      -991736.0      -992916.0
      -996012.0      -997818.0      -999914.0      -1002059.      -1004360.
      -1006120.      -1007330.      -1010027.      -1010772.      -1013035.
      -1014314.      -1015120.      -1017761.      -1018168.      -1020163.
      -1020825.      -1022357.      -1022875.      -1024355.      -1025876.
      -1025186.      -1028052.      -1026308.      -1029093.      -1029584.
      -1027847.      -1031735.      -1030115.      -1030635.      -1031485.
      -1031339.      -1032335.      -1031868.      -1031709.      -1032322.
      -1032368.      -1032415.      -1031337.      -1031249.      -1032348.
      -1029820.      -1030827.      -1030951.      -1028989.      -1029316.
      -1028301.      -1027825.      -1026228.      -1026653.      -1025737.
      -1023287.      -1024342.      -1022606.      -1021183.      -1021264.
      -1019334.      -1018538.      -1017135.      -1015994.      -1016247.
      -1013074.      -1012096.      -1012062.      -1008877.      -1008985.
      -1007046.      -1004889.      -1004495.      -1001506.      -1000892.
      -999532.0      -996894.0      -995932.0      -993774.0      -991221.0
      -990843.0      -988264.0      -986231.0      -985043.0      -982036.0
      -981145.0      -977621.0      -976905.0      -975308.0      -971544.0
      -971111.0      -967923.0      -965667.0      -963077.0      -961691.0
      -959649.0      -955716.0      -954714.0      -952179.0      -949246.0
      -947023.0      -944451.0      -942165.0      -939078.0      -937990.0
      -934495.0      -930282.0      -930677.0      -926286.0      -923781.0
      -921888.0      -916892.0      -916634.0      -913797.0      -909354.0
      -906967.0      -905190.0      -901609.0      -898561.0      -895779.0
      -891959.0      -890587.0      -886238.0      -883724.0      -880744.0
      -876561.0      -875477.0      -870488.0      -868018.0      -864663.0
      -860988.0      -859121.0      -853822.0      -851736.0      -848021.0
      -844253.0      -840853.0      -837194.0      -834688.0      -829612.0
      -827051.0      -822931.0      -818765.0      -816044.0      -811633.0
      -808678.0      -803712.0      -800197.0      -797636.0      -792143.0
      -788704.0      -784886.0      -781348.0      -776494.0      -771671.0
      -768491.0      -763980.0      -761049.0      -754487.0      -750060.0
      -747203.0      -741073.0      -737896.0      -732824.0      -727573.0
      -723954.0      -717808.0      -713938.0      -709978.0      -703268.0
      -699702.0      -694010.0      -688451.0      -685716.0      -679035.0
      -673967.0      -669196.0      -663205.0      -659314.0      -653690.0
      -647484.0      -642653.0      -638616.0      -631500.0      -625785.0
      -622378.0      -614823.0      -609517.0      -604589.0      -598702.0
      -593218.0      -586049.0      -581846.0      -576449.0      -568720.0
      -563905.0      -558311.0      -551425.0      -546104.0      -540524.0
      -533842.0      -527291.0      -521558.0      -515220.0      -508736.0
      -503446.0      -496353.0      -488815.0      -484486.0      -476828.0
      -470098.0      -464876.0      -456699.0      -451511.0      -444263.0
      -437806.0      -430887.0      -423890.0      -417980.0      -410514.0
      -404475.0      -397100.0      -391482.0      -382656.0      -376325.0
      -371621.0      -361213.0      -356347.0      -349766.0      -341191.0
      -334968.0      -327958.0      -320898.0      -313042.0      -306407.0
      -299226.0      -292649.0      -283920.0      -277525.0      -270775.0
      -261936.0      -256440.0      -247502.0      -241441.0      -233954.0
      -225785.0      -219465.0      -210339.0      -205263.0      -196806.0
      -188744.0      -182810.0      -173562.0      -167771.0      -159850.0
      -151830.0      -145437.0      -137181.0      -130366.0      -122261.0
      -115025.0      -108839.0      -98884.00      -92578.00      -86524.00
      -77140.00      -71238.00      -62128.00      -55096.00      -48583.00
      -40071.00      -33171.00      -24676.00      -19373.00      -9526.000
      -2883.000       3116.000       13576.00       17161.00       27838.00
       34226.00       39761.00       50940.00       54399.00       64054.00
       71728.00       77286.00       86278.00       93176.00       100640.0
       107281.0       115566.0       122512.0       129064.0       137881.0
       144790.0       150986.0       159499.0       166453.0       173198.0
       181339.0       187840.0       194660.0       202548.0       209578.0
       215519.0       223020.0       229375.0       236900.0       243811.0
       249096.0       257706.0       263546.0       269965.0       276719.0
       283494.0       289972.0       295521.0       303531.0       308516.0
       314929.0       321615.0       328094.0       334081.0       339568.0
       346457.0       352568.0       359165.0       363029.0       371015.0
       377476.0       380875.0       388363.0       393495.0       400273.0
       405480.0       410417.0       417853.0       421363.0       427773.0
       434281.0       437959.0       445222.0       450082.0       454859.0
       461585.0       465586.0       472171.0       476402.0       481852.0
       488102.0       490856.0       498130.0       502824.0       507034.0
       512953.0       516887.0       521585.0       527546.0       532206.0
       535299.0       541312.0       546573.0       550576.0       555379.0
       558727.0       565040.0       570005.0       572163.0       578481.0
       582065.0       586996.0       591491.0       594690.0       600742.0
       603664.0       609381.0       612411.0       616447.0       622004.0
       624255.0       630164.0       633724.0       637607.0       641531.0
       645456.0       650201.0       652900.0       656975.0       661036.0
       665607.0       668010.0       671733.0       676771.0       679283.0
       683227.0       687004.0       689977.0       693895.0       698151.0
       699706.0       703761.0       708077.0       710009.0       714234.0
