     0.02500000      -12345.00      -12345.00   3.262830e+10      -12345.00
   0.0005380000       1859.976      -487.0196      -12345.00      -12345.00
      -12345.00      -12345.00      -12345.00      -12345.00      -12345.00
      -12345.00      -12345.00      -12345.00      -12345.00      -12345.00
      -12345.00      -12345.00      -12345.00      -12345.00      -12345.00
      -12345.00      -12345.00      -12345.00      -12345.00      -12345.00
      -12345.00       2.044800      -157.4457       19.00000       1.000000
      -42.72450       173.0647      -12345.00       22.00000      -12345.00
      -12345.00      -12345.00      -12345.00      -12345.00      -12345.00
      -12345.00      -12345.00      -12345.00      -12345.00      -12345.00
       5770.559       38.69471       207.4499       51.89818      -12345.00
      -12345.00      -12345.00       0.000000       90.00000      -12345.00
      -12345.00      -12345.00      -12345.00      -12345.00      -12345.00
      -12345.00      -12345.00      -12345.00      -12345.00      -12345.00
      2016       318        11        11         6
        19         6    -12345    -12345     74400
    -12345    -12345    -12345    -12345    -12345
         1    -12345    -12345    -12345    -12345
    -12345    -12345    -12345    -12345    -12345
    -12345    -12345    -12345    -12345    -12345
    -12345    -12345    -12345    -12345    -12345
         1    -12345    -12345    -12345    -12345
XMAS    South Island, Ne
10      -12345  -12345  
-12345  -12345  -12345  
-12345  -12345  -12345  
-12345  -12345  -12345  
-12345  -12345  -12345  
-12345  -12345  BH1     
IU      -12345  Streckei
[...]
      -143270.0      -175499.0      -182750.0      -152712.0      -259879.0
      -164543.0      -248888.0      -272451.0      -206399.0      -310465.0
      -255231.0      -298990.0      -292720.0      -337980.0      -309883.0
      -324276.0      -372414.0      -330802.0      -400376.0      -346907.0
      -406543.0      -402540.0      -387948.0      -437168.0      -408904.0
      -423564.0      -440377.0      -443773.0      -420862.0      -484441.0
      -451717.0      -450687.0      -500217.0      -427824.0      -484632.0
      -518011.0      -467414.0      -485281.0      -506260.0      -481146.0
      -506973.0      -526312.0      -479602.0      -516504.0      -545094.0
      -503215.0      -497514.0      -561968.0      -533934.0      -514330.0
      -563024.0      -524427.0      -561784.0      -554506.0      -552260.0
      -565622.0      -564238.0      -599738.0      -547613.0      -601453.0
      -573897.0      -598710.0      -629091.0      -552836.0      -660468.0
      -610558.0      -598044.0      -662358.0      -638972.0      -651344.0
      -652310.0      -656428.0      -683047.0      -705495.0      -659269.0
      -721355.0      -712705.0      -720004.0      -751333.0      -706331.0
      -792123.0      -767966.0      -772847.0      -815177.0      -795127.0
      -823381.0      -845744.0      -855494.0      -870734.0      -866450.0
      -897956.0      -916137.0      -905144.0      -956074.0      -910794.0
      -980126.0      -988744.0      -962335.0      -1039907.      -950038.0
      -1065517.      -1054621.      -992849.0      -1104903.      -1051316.
      -1094113.      -1087743.      -1111233.      -1114372.      -1096817.
      -1186040.      -1095384.      -1154284.      -1200187.      -1132635.
      -1204799.      -1176511.      -1183340.      -1223741.      -1193989.
      -1232311.      -1220321.      -1226821.      -1245181.      -1246215.
      -1276388.      -1233241.      -1278913.      -1288034.      -1255711.
      -1310597.      -1292369.      -1278617.      -1309829.      -1326929.
      -1304684.      -1326417.      -1333186.      -1313014.      -1356980.
      -1338475.      -1345677.      -1360211.      -1352041.      -1382782.
      -1351922.      -1375242.      -1395224.      -1397648.      -1402829.
      -1373901.      -1429505.      -1433396.      -1433186.      -1417305.
      -1452205.      -1464681.      -1441813.      -1503912.      -1456771.
      -1526965.      -1492257.      -1484398.      -1562226.      -1512833.
      -1569879.      -1528849.      -1579183.      -1595404.      -1573481.
      -1628306.      -1576406.      -1655471.      -1657226.      -1625334.
      -1702130.      -1678570.      -1716006.      -1726050.      -1708323.
      -1788076.      -1771858.      -1778493.      -1816450.      -1823361.
      -1851828.      -1858987.      -1880199.      -1911109.      -1910439.
      -1929140.      -1959688.      -1966303.      -2003560.      -2014026.
      -2024454.      -2040615.      -2057974.      -2101753.      -2102600.
      -2116841.      -2138429.      -2156724.      -2174354.      -2186683.
      -2207214.      -2214062.      -2251065.      -2252468.      -2246870.
      -2283578.      -2297692.      -2327673.      -2320649.      -2296669.
      -2350654.      -2365224.      -2339644.      -2389489.      -2383334.
      -2356861.      -2406016.      -2391463.      -2409529.      -2406151.
      -2391603.      -2438066.      -2418291.      -2416399.      -2397315.
      -2417609.      -2438248.      -2409898.      -2406326.      -2403986.
      -2408044.      -2386026.      -2391249.      -2380993.      -2368377.
      -2366488.      -2330021.      -2338734.      -2333002.      -2293760.
      -2307562.      -2277986.      -2244356.      -2270655.      -2228596.
      -2204557.      -2215536.      -2176594.      -2169337.      -2154054.
      -2123725.      -2105474.      -2097443.      -2079293.      -2043517.
      -2038075.      -2006316.      -1984725.      -1971082.      -1949107.
      -1928236.      -1890664.      -1874522.      -1853743.      -1819405.
      -1812876.      -1776191.      -1742437.      -1738105.      -1673092.
      -1676696.      -1654250.      -1600269.      -1605093.      -1538684.
      -1525627.      -1496974.      -1473129.      -1452173.      -1381829.
      -1387232.      -1340876.      -1319044.      -1274682.      -1246300.
      -1247177.      -1159061.      -1164099.      -1118338.      -1070654.
      -1057288.      -1023594.      -1004336.      -919961.0      -911803.0
      -876869.0      -852230.0      -824166.0      -727595.0      -748469.0
      -700973.0      -662826.0      -639277.0      -559870.0      -557064.0
      -493076.0      -475499.0      -457757.0      -370072.0      -354003.0
      -313742.0      -263999.0      -233391.0      -190093.0      -139953.0
      -95427.00      -62104.00      -11976.00       26511.00       85921.00
       118380.0       166222.0       241264.0       240702.0       313024.0
       370280.0       393693.0       479616.0       510598.0       549093.0
       620816.0       660767.0       723894.0       779570.0       808177.0
       894858.0       933378.0       975879.0       1062223.       1095567.
       1161762.       1215088.       1265756.       1336772.       1392165.
       1439240.       1511734.       1589601.       1609222.       1684420.
       1771627.       1821008.       1893644.       1925444.       2006389.
       2108400.       2125527.       2220503.       2285296.       2328616.
       2438822.       2470135.       2560955.       2631358.       2674572.
       2781315.       2838253.       2893768.       2966109.       3065845.
       3119942.       3173506.       3269540.       3330432.       3408713.
       3470347.       3563700.       3635908.       3674899.       3788616.
       3842838.       3917950.       3994153.       4060808.       4155719.
       4195348.       4297197.       4358783.       4417376.       4508444.
       4569534.       4654760.       4703122.       4791592.       4867287.
       4912441.       5016649.       5058869.       5121234.       5219121.
       5265699.       5335159.       5408993.       5487753.       5526857.
       5601820.       5682887.       5729329.       5811924.       5857085.
       5932984.       5987385.       6049443.       6123722.       6154377.
       6250879.       6286639.       6326924.       6420645.       6460398.
       6523123.       6573685.       6624270.       6676915.       6737908.
       6787726.       6835268.       6898128.       6925631.       6989101.
       7036171.       7082896.       7139532.       7171595.       7223164.
       7263224.       7306602.       7363005.       7391197.       7436896.
       7470655.       7501244.       7565546.       7568789.       7622886.
       7667497.       7671070.       7732351.       7739315.       7765797.
       7811635.       7831829.       7863630.       7881795.       7894058.
       7920421.       7953003.       7949313.       7995861.       8001673.
       7975264.       8049668.       8029601.       8045824.       8072564.
       8034771.       8079322.       8064238.       8079837.       8083638.
       8062502.       8094149.       8049132.       8064986.       8082958.
       8022028.       8028377.       8041003.       8010281.       7990281.
       7983474.       7937385.       7927150.       7940811.       7865989.
       7852169.       7845201.       7788884.       7784236.       7721921.
       7703049.       7671449.       7607645.       7611248.       7522993.
       7491801.       7473230.       7408409.       7362500.       7300238.
       7271106.       7201166.       7165414.       7103734.       7022541.
       7000152.       6919056.       6864302.       6820029.       6727424.
       6674348.       6633224.       6544930.       6474926.       6423860.
       6334053.       6273968.       6220556.       6129960.       6065656.
       6000471.       5914678.       5830218.       5773759.       5702936.
       5610983.       5559826.       5455444.       5372795.       5326334.
       5238015.       5157587.       5057271.       5013111.       4913389.
       4821208.       4786507.       4660852.       4608143.       4522258.
       4409814.       4385947.       4278559.       4171173.       4133496.
       4023672.       3947780.       3880095.       3772890.       3710606.
       3616758.       3551275.       3462059.       3385616.       3309059.
       3202167.       3136629.       3050432.       2996623.       2902653.
       2807402.       2744212.       2650014.       2575429.       2502464.
       2403651.       2330599.       2260881.       2157891.       2093404.
       2010709.       1930004.       1856220.       1752555.       1695163.
       1618217.       1532448.       1459192.       1365353.       1307976.
       1214380.       1130309.       1081028.       984109.0       896677.0
       828498.0       768016.0       668470.0       602544.0       526796.0
       423064.0       393114.0       298776.0       216264.0       142838.0
       65040.00       31319.00      -91022.00      -150142.0      -191332.0
      -308977.0      -353833.0      -422364.0      -519858.0      -574666.0
      -642895.0      -708235.0      -780823.0      -869725.0      -933134.0
      -998486.0      -1052551.      -1132121.      -1241946.      -1280662.
      -1346096.      -1408267.      -1483585.      -1602634.      -1606027.
      -1698996.      -1789615.      -1817634.      -1933371.      -1967879.
      -2046477.      -2115114.      -2177140.      -2289172.      -2285286.
      -2395875.      -2493918.      -2498178.      -2621516.      -2666581.
      -2727589.      -2830092.      -2891251.      -2958789.      -3004031.
      -3121008.      -3158426.      -3225874.      -3340154.      -3368973.
      -3448938.      -3525528.      -3591718.      -3644415.      -3771574.
      -3786514.      -3835260.      -3996757.      -3969067.      -4108716.
      -4165649.      -4186701.      -4333506.      -4327237.      -4450877.
      -4509004.      -4551150.      -4670165.      -4685772.      -4793961.
      -4851432.      -4906392.      -5008055.      -5028335.      -5134203.
      -5202305.      -5250869.      -5335962.      -5374519.      -5461738.
      -5529573.      -5586740.      -5649732.      -5723446.      -5781379.
      -5838393.      -5913701.      -5967545.      -6059300.      -6085541.
      -6152924.      -6244216.      -6257703.      -6364687.      -6418314.
      -6428664.      -6549142.      -6600811.      -6616108.      -6727235.
      -6772864.      -6790753.      -6907889.      -6940752.      -6993497.
      -7075407.      -7081722.      -7189022.      -7236957.      -7265965.
      -7352009.      -7392890.      -7448011.      -7517872.      -7568895.
      -7604860.      -7685102.      -7728231.      -7769741.      -7845571.
      -7902762.      -7943749.      -7994046.      -8051049.      -8113792.
      -8178082.      -8195627.      -8283538.      -8308470.      -8378247.
      -8465472.      -8430766.      -8552485.      -8590504.      -8631377.
      -8704252.      -8712636.      -8812204.      -8830264.      -8905022.
      -8962810.      -8969145.      -9068191.      -9091494.      -9143534.
      -9220905.      -9234014.      -9300975.      -9369144.      -9392801.
      -9433979.      -9516007.      -9546689.      -9589961.      -9669005.
      -9669982.      -9750231.      -9795450.      -9815117.      -9902667.
      -9932351.      -9974884.  -1.001198e+07  -1.008271e+07  -1.011391e+07
  -1.015481e+07  -1.021273e+07  -1.022011e+07  -1.032340e+07  -1.032694e+07
  -1.037572e+07  -1.044406e+07  -1.043600e+07  -1.053306e+07  -1.052706e+07
  -1.062202e+07  -1.064554e+07  -1.063785e+07  -1.077091e+07  -1.073348e+07
  -1.080230e+07  -1.087336e+07  -1.087110e+07  -1.094096e+07  -1.097328e+07
  -1.100841e+07  -1.105197e+07  -1.110196e+07  -1.114468e+07  -1.116364e+07
  -1.119828e+07  -1.124988e+07  -1.132142e+07  -1.131773e+07  -1.133275e+07
  -1.141981e+07  -1.142494e+07  -1.146870e+07  -1.152181e+07  -1.151121e+07
  -1.159173e+07  -1.161161e+07  -1.159797e+07  -1.170760e+07  -1.168319e+07
  -1.172363e+07  -1.177747e+07  -1.176042e+07  -1.184544e+07  -1.182438e+07
  -1.187433e+07  -1.190680e+07  -1.191056e+07  -1.197104e+07  -1.196259e+07
  -1.198368e+07  -1.202400e+07  -1.205729e+07  -1.202974e+07  -1.209674e+07
  -1.211442e+07  -1.209242e+07  -1.215348e+07  -1.214015e+07  -1.217234e+07
  -1.216964e+07  -1.219830e+07  -1.220591e+07  -1.219979e+07  -1.224255e+07
  -1.223312e+07  -1.224728e+07  -1.223948e+07  -1.226024e+07  -1.225658e+07
  -1.227051e+07  -1.228072e+07  -1.226233e+07  -1.227651e+07  -1.226416e+07
  -1.228710e+07  -1.226392e+07  -1.227048e+07  -1.226360e+07  -1.224468e+07
  -1.228464e+07  -1.223130e+07  -1.222493e+07  -1.222809e+07  -1.222514e+07
  -1.221145e+07  -1.217674e+07  -1.217712e+07  -1.214502e+07  -1.215475e+07
  -1.213078e+07  -1.209818e+07  -1.207680e+07  -1.205825e+07  -1.206140e+07
  -1.199985e+07  -1.199229e+07  -1.198184e+07  -1.192904e+07  -1.192550e+07
  -1.186620e+07  -1.186852e+07  -1.184687e+07  -1.177236e+07  -1.177546e+07
  -1.171664e+07  -1.171638e+07  -1.167339e+07  -1.160241e+07  -1.160131e+07
  -1.155171e+07  -1.151255e+07  -1.146869e+07  -1.145176e+07  -1.138730e+07
  -1.133139e+07  -1.131257e+07  -1.124572e+07  -1.122422e+07  -1.115203e+07
  -1.111267e+07  -1.109516e+07  -1.098461e+07  -1.095529e+07  -1.091655e+07
  -1.084761e+07  -1.081031e+07  -1.074290e+07  -1.067542e+07  -1.062120e+07
  -1.056811e+07  -1.050579e+07  -1.044048e+07  -1.037064e+07  -1.032355e+07
  -1.023804e+07  -1.015630e+07  -1.011601e+07  -1.003057e+07      -9977710.
      -9889759.      -9793222.      -9766309.      -9655561.      -9581525.
      -9528241.      -9417559.      -9351821.      -9279811.      -9195989.
      -9114249.      -9024128.      -8929098.      -8879982.      -8775350.
      -8677296.      -8623478.      -8499627.      -8426233.      -8347302.
      -8253395.      -8168856.      -8070557.      -7981966.      -7879206.
      -7805353.      -7711952.      -7601026.      -7534153.      -7424630.
      -7316048.      -7237896.      -7129572.      -7043402.      -6939050.
      -6834477.      -6751704.      -6650380.      -6550416.      -6438804.
      -6356977.      -6246737.      -6139083.      -6062025.      -5940832.
      -5873662.      -5743584.      -5629616.      -5569863.      -5429197.
      -5370655.      -5258605.      -5121347.      -5061250.      -4945030.
      -4841213.      -4751772.      -4642830.      -4541959.      -4441030.
      -4343708.      -4245191.      -4133967.      -4040363.      -3944429.
      -3832128.      -3734745.      -3643335.      -3544764.      -3437056.
      -3332437.      -3237446.      -3142107.      -3044086.      -2938683.
      -2849131.      -2737128.      -2631075.      -2556825.      -2435745.
      -2352525.      -2249138.      -2135749.      -2052472.      -1941227.
      -1866322.      -1740438.      -1644006.      -1578885.      -1439527.
      -1363481.      -1268500.      -1159825.      -1072839.      -952977.0
      -883116.0      -772167.0      -667653.0      -588935.0      -481370.0
      -380087.0      -291292.0      -196884.0      -94019.00      -16284.00
       102617.0       186250.0       272467.0       384141.0       459245.0
       557418.0       657794.0       756307.0       841801.0       925731.0
       1030115.       1127524.       1199228.       1298454.       1406359.
       1475184.       1569449.       1670025.       1742529.       1845843.
       1938454.       2009066.       2114729.       2198579.       2287135.
       2379453.       2450660.       2540506.       2639880.       2731514.
       2791187.       2891404.       2982597.       3051361.       3143072.
       3220059.       3314976.       3386505.       3482491.       3542921.
       3624017.       3744193.       3779000.       3881779.       3954910.
       4025487.       4125705.       4180541.       4275781.       4337735.
       4411176.       4504282.       4572554.       4642112.       4718313.
       4785048.       4858166.       4947065.       4997113.       5068760.
       5155836.       5212632.       5290040.       5352047.       5420220.
       5498695.       5549096.       5630225.       5688694.       5759492.
       5835086.       5869749.       5957556.       6022662.       6076658.
       6147894.       6196595.       6282236.       6322482.       6385385.
       6464485.       6503159.       6594255.       6618908.       6686905.
       6764401.       6796206.       6885557.       6913955.       6987596.
       7043938.       7083188.       7173550.       7189362.       7270301.
       7315244.       7353972.       7448318.       7460771.       7522667.
       7583218.       7622281.       7674574.       7720089.       7780526.
       7823703.       7856123.       7916786.       7951403.       7986297.
       8074832.       8068960.       8105579.       8191599.       8193509.
       8252879.       8284021.       8309558.       8359851.       8397989.
       8434395.       8452492.       8520521.       8512039.       8560630.
       8632270.       8597030.       8676675.       8700843.       8706812.
       8778854.       8769795.       8810955.       8845251.       8863293.
       8910280.       8914174.       8947817.       8983430.       8996885.
       9026853.       9057453.       9073785.       9102619.       9137606.
       9154225.       9176323.       9203341.       9221904.       9248261.
       9271772.       9291924.       9328072.       9323195.       9357178.
       9392472.       9389300.       9441987.       9439043.       9453597.
       9499440.       9503480.       9521430.       9543132.       9564391.
       9569750.       9602084.       9617249.       9623621.       9648996.
       9654501.       9687489.       9695354.       9712114.       9723624.
       9736251.       9768381.       9754311.       9785173.       9803024.
       9813297.       9812978.       9822506.       9856617.       9834582.
       9869571.       9873685.       9856815.       9890098.       9893038.
       9896821.       9899849.       9907366.       9919514.       9910945.
