     0.02500000      -12345.00      -12345.00   2.447790e+09      -12345.00
   0.0005380000       1859.976      -487.0196      -12345.00      -12345.00
      -12345.00      -12345.00      -12345.00      -12345.00      -12345.00
      -12345.00      -12345.00      -12345.00      -12345.00      -12345.00
      -12345.00      -12345.00      -12345.00      -12345.00      -12345.00
      -12345.00      -12345.00      -12345.00      -12345.00      -12345.00
      -12345.00       2.044800      -157.4457       19.00000       1.000000
      -42.72450       173.0647      -12345.00       22.00000      -12345.00
      -12345.00      -12345.00      -12345.00      -12345.00      -12345.00
      -12345.00      -12345.00      -12345.00      -12345.00      -12345.00
       5770.559       38.69471       207.4499       51.89818      -12345.00
      -12345.00      -12345.00       0.000000       0.000000      -12345.00
      -12345.00      -12345.00      -12345.00      -12345.00      -12345.00
      -12345.00      -12345.00      -12345.00      -12345.00      -12345.00
      2016       318        11        11         6
        19         6    -12345    -12345     74400
    -12345    -12345    -12345    -12345    -12345
         1    -12345    -12345    -12345    -12345
    -12345    -12345    -12345    -12345    -12345
    -12345    -12345    -12345    -12345    -12345
    -12345    -12345    -12345    -12345    -12345
         1    -12345    -12345    -12345    -12345
XMAS    South Island, Ne
00      -12345  -12345  
-12345  -12345  -12345  
-12345  -12345  -12345  
-12345  -12345  -12345  
-12345  -12345  -12345  
-12345  -12345  BHZ     
IU      -12345  Streckei
[...]
       401051.0       400914.0       401502.0       398913.0       397090.0
       397486.0       395969.0       395009.0       394336.0       392886.0
       391529.0       390755.0       389927.0       388444.0       387871.0
       386196.0       384680.0       384997.0       382997.0       381196.0
       381054.0       379410.0       378359.0       377668.0       375797.0
       374344.0       374187.0       373204.0       370920.0       370131.0
       369160.0       367644.0       366969.0       365873.0       364357.0
       362812.0       361885.0       360822.0       359069.0       358003.0
       356954.0       355064.0       354019.0       353186.0       351044.0
       349940.0       349008.0       347024.0       346129.0       345074.0
       343501.0       342045.0       340656.0       339567.0       338229.0
       337226.0       335652.0       334073.0       333245.0       331878.0
       330494.0       329337.0       328107.0       326135.0       325225.0
       324541.0       322360.0       321217.0       319698.0       318276.0
       317700.0       316015.0       314163.0       313013.0       312101.0
       310800.0       309486.0       307573.0       306151.0       305873.0
       304792.0       302661.0       300976.0       300315.0       299005.0
       298005.0       296485.0       294442.0       293712.0       292077.0
       291372.0       290333.0       287668.0       287054.0       286245.0
       284967.0       283729.0       282020.0       280545.0       279183.0
       278983.0       277230.0       274809.0       274371.0       273268.0
       271225.0       269691.0       269427.0       268114.0       265615.0
       264578.0       263642.0       261885.0       260306.0       258989.0
       257384.0       256336.0       254700.0       252521.0       252094.0
       250691.0       248545.0       247696.0       246016.0       244375.0
       243261.0       241656.0       240171.0       238378.0       237063.0
       236116.0       233995.0       232072.0       231083.0       229703.0
       227679.0       225934.0       224710.0       222795.0       220899.0
       219576.0       217873.0       215878.0       213814.0       212507.0
       210491.0       208411.0       207078.0       204798.0       202929.0
       201026.0       199624.0       197643.0       194820.0       193476.0
       191167.0       189215.0       187547.0       185152.0       183390.0
       181081.0       179476.0       177186.0       174546.0       173318.0
       170971.0       168519.0       166460.0       164281.0       161942.0
       159629.0       157636.0       154927.0       152770.0       150304.0
       147461.0       145300.0       142670.0       140106.0       137734.0
       135418.0       132459.0       129759.0       127541.0       124701.0
       122259.0       119329.0       116588.0       114389.0       111354.0
       108575.0       106186.0       103323.0       100380.0       97699.00
       94938.00       92396.00       89916.00       86754.00       83685.00
       81014.00       77902.00       75498.00       72685.00       69185.00
       66755.00       63550.00       60941.00       58670.00       54892.00
       51967.00       49114.00       45969.00       43413.00       40247.00
       37101.00       34284.00       31192.00       28018.00       24782.00
       21572.00       18506.00       15747.00       12449.00       9064.000
       6169.000       2692.000      -383.0000      -2995.000      -6026.000
      -9570.000      -12920.00      -15794.00      -19156.00      -22057.00
      -25228.00      -28799.00      -32036.00      -35046.00      -37577.00
      -41537.00      -45098.00      -47804.00      -51042.00      -53627.00
      -57006.00      -60711.00      -64201.00      -66981.00      -69606.00
      -73370.00      -76206.00      -79542.00      -82882.00      -85344.00
      -89101.00      -92130.00      -94959.00      -98636.00      -101401.0
      -104624.0      -108116.0      -111127.0      -114421.0      -117650.0
      -120893.0      -123977.0      -127242.0      -130342.0      -133326.0
      -136892.0      -139563.0      -142561.0      -146572.0      -149113.0
      -151728.0      -155504.0      -158775.0      -161996.0      -165177.0
      -167966.0      -170912.0      -174498.0      -178347.0      -180730.0
      -183331.0      -187557.0      -190507.0      -192992.0      -196629.0
      -199718.0      -202616.0      -206235.0      -209125.0      -212140.0
      -215787.0      -218461.0      -221025.0      -224300.0      -228242.0
      -230866.0      -232817.0      -236486.0      -240022.0      -242765.0
      -245293.0      -248122.0      -251156.0      -254250.0      -257606.0
      -260581.0      -262656.0      -265235.0      -269516.0      -272303.0
      -274476.0      -277409.0      -280288.0      -283693.0      -286092.0
      -289318.0      -292398.0      -294556.0      -298370.0      -301211.0
      -303304.0      -306871.0      -310024.0      -312591.0      -315644.0
      -318340.0      -320778.0      -323863.0      -327304.0      -329928.0
      -332052.0      -335062.0      -338393.0      -340676.0      -343134.0
      -346248.0      -348852.0      -351282.0      -353853.0      -357078.0
      -359851.0      -361775.0      -364326.0      -367160.0      -370195.0
      -372787.0      -374637.0      -377059.0      -380069.0      -382665.0
      -384723.0      -387095.0      -389920.0      -392455.0      -394400.0
      -396737.0      -399408.0      -401934.0      -404016.0      -406104.0
      -409309.0      -411251.0      -412749.0      -415924.0      -418512.0
      -420443.0      -422423.0      -424992.0      -427677.0      -428905.0
      -431457.0      -434561.0      -435568.0      -438046.0      -440697.0
      -442291.0      -444696.0      -446509.0      -448546.0      -450696.0
      -452615.0      -454530.0      -456333.0      -458640.0      -460581.0
      -461856.0      -463465.0      -466149.0      -468165.0      -469351.0
      -471097.0      -472685.0      -474479.0      -476596.0      -478292.0
      -479473.0      -480747.0      -482922.0      -485218.0      -486581.0
      -487486.0      -489285.0      -491116.0      -492518.0      -494301.0
      -495398.0      -496556.0      -498171.0      -499776.0      -500719.0
      -502023.0      -504176.0      -504251.0      -505258.0      -507407.0
      -507957.0      -509218.0      -510315.0      -510922.0      -512331.0
      -513362.0      -514045.0      -515141.0      -516316.0      -516995.0
      -517563.0      -518497.0      -518966.0      -520004.0      -521043.0
      -521011.0      -521716.0      -522210.0      -523070.0      -523668.0
      -523016.0      -523839.0      -524670.0      -525081.0      -524893.0
      -524610.0      -525755.0      -526021.0      -525992.0      -525864.0
      -525911.0      -526336.0      -526334.0      -526611.0      -526356.0
      -526433.0      -526444.0      -526483.0      -526642.0      -525634.0
      -526070.0      -526552.0      -525760.0      -525039.0      -524504.0
      -525203.0      -524811.0      -523300.0      -523160.0      -522981.0
      -521928.0      -521480.0      -520938.0      -519877.0      -519443.0
      -518106.0      -517102.0      -517363.0      -515575.0      -514535.0
      -514685.0      -512185.0      -511537.0      -511587.0      -509509.0
      -508318.0      -507100.0      -506507.0      -505591.0      -503350.0
      -502167.0      -501835.0      -500218.0      -498278.0      -497372.0
      -496055.0      -494495.0      -492837.0      -491799.0      -490549.0
      -488562.0      -487216.0      -485290.0      -484020.0      -483045.0
      -480438.0      -478975.0      -478003.0      -475927.0      -473895.0
      -471795.0      -470555.0      -468990.0      -466269.0      -464332.0
      -462351.0      -460269.0      -458708.0      -456240.0      -453594.0
      -451763.0      -449858.0      -447267.0      -445068.0      -443284.0
      -440614.0      -438716.0      -436476.0      -433541.0      -431984.0
      -429558.0      -426743.0      -424702.0      -422358.0      -419595.0
      -417057.0      -414679.0      -412073.0      -409385.0      -406107.0
      -403541.0      -401220.0      -398430.0      -395278.0      -391904.0
      -389615.0      -386401.0      -382976.0      -379972.0      -376777.0
      -374638.0      -370867.0      -366778.0      -364452.0      -361521.0
      -357731.0      -353877.0      -351078.0      -348153.0      -344483.0
      -341224.0      -337509.0      -333983.0      -331086.0      -327893.0
      -323806.0      -320304.0      -317992.0      -313419.0      -309377.0
      -306960.0      -302457.0      -299473.0      -296441.0      -291322.0
      -288290.0      -285116.0      -280662.0      -276983.0      -273344.0
      -269064.0      -265232.0      -261749.0      -257112.0      -253424.0
      -250070.0      -244921.0      -240807.0      -237121.0      -233115.0
      -229264.0      -223978.0      -219797.0      -216738.0      -212542.0
      -207743.0      -202957.0      -199204.0      -194854.0      -190832.0
      -187308.0      -181618.0      -177488.0      -174082.0      -168745.0
      -164484.0      -160466.0      -155736.0      -151019.0      -146653.0
      -142802.0      -137798.0      -133110.0      -129112.0      -123853.0
      -119314.0      -115267.0      -110972.0      -106336.0      -100720.0
      -96039.00      -91921.00      -87443.00      -82707.00      -77796.00
      -73231.00      -68606.00      -64388.00      -59960.00      -54538.00
      -49951.00      -45622.00      -41135.00      -36793.00      -31194.00
      -26560.00      -21978.00      -16942.00      -13352.00      -7885.000
      -2492.000       1169.000       5953.000       10868.00       15562.00
       20541.00       25071.00       29933.00       34895.00       38916.00
       43666.00       49465.00       54380.00       58000.00       62475.00
       68140.00       73285.00       77372.00       81783.00       86835.00
       91072.00       96201.00       101148.0       105455.0       110171.0
       114598.0       119847.0       123656.0       127895.0       133528.0
       137963.0       142460.0       146045.0       151300.0       157072.0
       159980.0       164948.0       170671.0       174316.0       178995.0
       184274.0       188622.0       192801.0       197585.0       202493.0
       207050.0       212114.0       216375.0       220185.0       225289.0
       229838.0       234409.0       239022.0       243294.0       248330.0
       252921.0       257535.0       261853.0       265833.0       270654.0
       275747.0       280281.0       284487.0       288638.0       292832.0
       298370.0       302772.0       306163.0       311026.0       315305.0
       320114.0       324886.0       328149.0       332863.0       337153.0
       341287.0       346602.0       349557.0       353307.0       358594.0
       362650.0       366708.0       370404.0       374639.0       379100.0
       382592.0       386704.0       391271.0       395280.0       399291.0
       403064.0       406519.0       411189.0       415461.0       418422.0
       422677.0       426834.0       430370.0       434305.0       437976.0
       442293.0       445719.0       449083.0       453730.0       457459.0
       460843.0       464179.0       468181.0       472295.0       475725.0
       479019.0       482099.0       486596.0       490508.0       492965.0
       496061.0       499849.0       503841.0       506810.0       509921.0
       513392.0       516470.0       520020.0       522867.0       525975.0
       529638.0       532285.0       535476.0       538464.0       541262.0
       545032.0       547984.0       550300.0       553215.0       556661.0
       559607.0       561825.0       564631.0       568208.0       570763.0
       572971.0       576068.0       578464.0       580963.0       583918.0
       586210.0       588511.0       590758.0       593016.0       595823.0
       598411.0       600046.0       601871.0       604310.0       606283.0
       608670.0       610794.0       612139.0       614050.0       615984.0
       617952.0       619531.0       621068.0       622961.0       624462.0
       626072.0       627955.0       629313.0       630086.0       631776.0
       633705.0       634770.0       635939.0       637542.0       638695.0
       639718.0       641443.0       642270.0       642980.0       644386.0
       645109.0       646258.0       647407.0       647742.0       648334.0
       648952.0       650045.0       651077.0       650917.0       651365.0
       652037.0       652264.0       652817.0       653112.0       653419.0
       653562.0       653717.0       653789.0       653707.0       653999.0
       654079.0       653850.0       653624.0       653607.0       653620.0
       653206.0       652431.0       652406.0       652194.0       651596.0
       651261.0       650490.0       650041.0       649260.0       648410.0
       647898.0       647392.0       646468.0       645405.0       645093.0
       643546.0       642692.0       642298.0       640380.0       639680.0
       638542.0       636940.0       636267.0       634995.0       633162.0
       630740.0       629702.0       629371.0       627307.0       625357.0
       623571.0       621482.0       620105.0       618841.0       616721.0
       614579.0       612898.0       611392.0       609056.0       606402.0
       605713.0       603649.0       599998.0       598541.0       597159.0
       594594.0       591815.0       589651.0       587986.0       585076.0
       582572.0       580861.0       577587.0       575278.0       573936.0
       570554.0       567788.0       565584.0       562812.0       560894.0
       557576.0       554531.0       552419.0       549158.0       546808.0
       544143.0       540916.0       538191.0       535212.0       532561.0
       529664.0       526132.0       523270.0       520700.0       517179.0
       514072.0       511165.0       507795.0       504911.0       501789.0
       498419.0       495006.0       491861.0       489375.0       485567.0
       481578.0       478997.0       475554.0       472451.0       469180.0
       465241.0       462562.0       458645.0       454903.0       452181.0
       448350.0       445102.0       441607.0       437731.0       434927.0
       431411.0       427741.0       424578.0       420778.0       417238.0
       413944.0       410614.0       406790.0       403025.0       400140.0
       396313.0       392145.0       388578.0       385078.0       381768.0
       378415.0       374655.0       370495.0       366804.0       363261.0
       359486.0       355885.0       352162.0       348075.0       344087.0
       340469.0       336329.0       332633.0       329240.0       324891.0
       320839.0       317118.0       313325.0       309836.0       305849.0
       301489.0       297916.0       294196.0       290510.0       286721.0
       282102.0       278505.0       275023.0       270931.0       267032.0
       262665.0       258675.0       255187.0       251087.0       246888.0
       242609.0       238580.0       235333.0       231311.0       226881.0
       222753.0       218811.0       215213.0       210936.0       206398.0
       202375.0       198674.0       194521.0       190021.0       186049.0
       182011.0       178009.0       174092.0       169241.0       164722.0
       161178.0       156724.0       152299.0       148580.0       144179.0
       139794.0       135947.0       131556.0       126897.0       122977.0
       118887.0       114526.0       109941.0       105541.0       101686.0
       97179.00       92566.00       87810.00       83532.00       79687.00
       74857.00       70292.00       65856.00       61220.00       57191.00
       52937.00       47876.00       43255.00       39884.00       35622.00
       30293.00       26133.00       21953.00       17451.00       13255.00
       8661.000       4461.000      -158.0000      -5016.000      -8846.000
      -12930.00      -17859.00      -22730.00      -26932.00      -31057.00
      -35172.00      -39707.00      -44504.00      -48771.00      -53108.00
      -57418.00      -61730.00      -66399.00      -70734.00      -74865.00
      -79577.00      -83604.00      -87775.00      -92473.00      -96432.00
      -100831.0      -105002.0      -109382.0      -113986.0      -117655.0
      -122350.0      -127006.0      -130593.0      -134929.0      -139133.0
      -143715.0      -148381.0      -151902.0      -156219.0      -160352.0
      -164398.0      -169182.0      -173095.0      -176707.0      -180539.0
      -185034.0      -189683.0      -193634.0      -197249.0      -200527.0
      -204731.0      -209313.0      -213249.0      -216942.0      -220325.0
      -224424.0      -228784.0      -232710.0      -236380.0      -239451.0
      -243493.0      -247922.0      -251565.0      -255416.0      -258552.0
      -262109.0      -266607.0      -269965.0      -273372.0      -277269.0
      -280142.0      -283482.0      -287259.0      -290893.0      -294453.0
      -296706.0      -300173.0      -303820.0      -306547.0      -309936.0
      -312904.0      -316266.0      -318825.0      -321690.0      -325453.0
      -327373.0      -330249.0      -333847.0      -336168.0      -338807.0
      -341271.0      -344241.0      -347216.0      -349276.0      -352009.0
      -354696.0      -357535.0      -359816.0      -361751.0      -365047.0
      -367896.0      -369340.0      -370847.0      -374195.0      -376762.0
      -377685.0      -379887.0      -382014.0      -384098.0      -386248.0
      -387128.0      -388969.0      -391467.0      -392776.0      -394913.0
      -396642.0      -397190.0      -399739.0      -401902.0      -403013.0
      -404582.0      -405871.0      -407572.0      -409054.0      -411028.0
      -412288.0      -412503.0      -414732.0      -416374.0      -417149.0
      -419102.0      -419845.0      -420607.0      -422315.0      -423072.0
      -423951.0      -425416.0      -426284.0      -426453.0      -427444.0
      -428924.0      -429843.0      -430490.0      -430725.0      -431589.0
      -432942.0      -433971.0      -434035.0      -434099.0      -436220.0
      -437360.0      -436809.0      -437433.0      -438822.0      -439878.0
